<?xml version="1.0"?>
<gpx xmlns="http://www.topografix.com/GPX/1/1" xmlns:gpxx="http://www.garmin.com/xmlschemas/GpxExtensions/v3" creator="CALTOPO" version="1.1"><metadata><name><![CDATA[ 2026 Canyons Endurance Runs by UTMB_25k Course]]></name></metadata><wpt lat="38.89908" lon="-121.07026000000002"><name>Start/Finish: Downtown Auburn </name></wpt><wpt lat="38.88878" lon="-121.01787000000002"><name>Cool: Aid Station # 1 &amp; # 2</name></wpt><wpt lat="38.91319" lon="-121.04106999999999"><name>No Hands: Hydration Station # 1 &amp; # 2</name></wpt><trk><name>2026 The Canyons Endurance Runs by UTMB 25k Course</name><extensions><gpxx:TrackExtension><gpxx:DisplayColor>DarkBlue</gpxx:DisplayColor></gpxx:TrackExtension></extensions><trkseg><trkpt lat="38.89886285209172" lon="-121.07038409700783"><ele>386.0</ele></trkpt><trkpt lat="38.898863100167" lon="-121.07038489461053"><ele>386.0</ele></trkpt><trkpt lat="38.89897" lon="-121.07033000000001"><ele>386.1733297770843</ele></trkpt><trkpt lat="38.89897" lon="-121.07033000000001"><ele>386.1733297770843</ele></trkpt><trkpt lat="38.89897" lon="-121.07033000000001"><ele>386.1733297770843</ele></trkpt><trkpt lat="38.89931822175739" lon="-121.07011526324959"><ele>388.0</ele></trkpt><trkpt lat="38.89931822175739" lon="-121.07011526324959"><ele>388.0</ele></trkpt><trkpt lat="38.89957" lon="-121.06995999999998"><ele>389.0</ele></trkpt><trkpt lat="38.89957" lon="-121.06995999999998"><ele>389.0</ele></trkpt><trkpt lat="38.89956" lon="-121.06970999999999"><ele>391.0</ele></trkpt><trkpt lat="38.89956" lon="-121.06970999999999"><ele>391.0</ele></trkpt><trkpt lat="38.89956" lon="-121.06970999999999"><ele>391.0</ele></trkpt><trkpt lat="38.89976" lon="-121.06934000000001"><ele>393.0</ele></trkpt><trkpt lat="38.89976" lon="-121.06934000000001"><ele>393.0</ele></trkpt><trkpt lat="38.89994326086555" lon="-121.06902315741922"><ele>395.0</ele></trkpt><trkpt lat="38.89994326086555" lon="-121.06902315741922"><ele>395.0</ele></trkpt><trkpt lat="38.90003476451729" lon="-121.06886495532251"><ele>396.0</ele></trkpt><trkpt lat="38.90003476451729" lon="-121.06886495532251"><ele>396.0</ele></trkpt><trkpt lat="38.9002963960886" lon="-121.06841261640102"><ele>396.0</ele></trkpt><trkpt lat="38.90030415506314" lon="-121.0683942541504"><ele>396.0</ele></trkpt><trkpt lat="38.90030141366127" lon="-121.06839166397299"><ele>396.0</ele></trkpt><trkpt lat="38.90064416458252" lon="-121.06779130407779"><ele>397.0</ele></trkpt><trkpt lat="38.900643291201156" lon="-121.0677928338859"><ele>397.0</ele></trkpt><trkpt lat="38.900671986536146" lon="-121.06774257135635"><ele>397.0</ele></trkpt><trkpt lat="38.90068" lon="-121.06774999999999"><ele>397.0</ele></trkpt><trkpt lat="38.90061" lon="-121.06768"><ele>397.0</ele></trkpt><trkpt lat="38.90033166382018" lon="-121.06716822057263"><ele>399.36262695002773</ele></trkpt><trkpt lat="38.90032559574818" lon="-121.06715758740063"><ele>400.0</ele></trkpt><trkpt lat="38.90032578734752" lon="-121.0671574153505"><ele>400.0</ele></trkpt><trkpt lat="38.9003" lon="-121.06711000000001"><ele>400.0</ele></trkpt><trkpt lat="38.9003" lon="-121.06711000000001"><ele>400.0</ele></trkpt><trkpt lat="38.9003" lon="-121.06711000000001"><ele>400.0</ele></trkpt><trkpt lat="38.900267951349065" lon="-121.06703336192169"><ele>401.0</ele></trkpt><trkpt lat="38.90027669349784" lon="-121.06705426706003"><ele>400.9975434996166</ele></trkpt><trkpt lat="38.90022364792356" lon="-121.06692741894767"><ele>402.0</ele></trkpt><trkpt lat="38.90022364792356" lon="-121.06692741894767"><ele>402.0</ele></trkpt><trkpt lat="38.90005240600027" lon="-121.06651792739194"><ele>406.90005356669593</ele></trkpt><trkpt lat="38.90004479144373" lon="-121.06649971866977"><ele>407.0</ele></trkpt><trkpt lat="38.89984" lon="-121.06601"><ele>411.0</ele></trkpt><trkpt lat="38.89977" lon="-121.06588999999997"><ele>412.0</ele></trkpt><trkpt lat="38.89958" lon="-121.06570999999997"><ele>414.0</ele></trkpt><trkpt lat="38.89923" lon="-121.06547"><ele>416.44202865855436</ele></trkpt><trkpt lat="38.89923" lon="-121.06547"><ele>416.44202865855436</ele></trkpt><trkpt lat="38.89923" lon="-121.06547"><ele>416.44202865855436</ele></trkpt><trkpt lat="38.89909652009035" lon="-121.0654009586674"><ele>417.883305083029</ele></trkpt><trkpt lat="38.89909652009035" lon="-121.0654009586674"><ele>417.883305083029</ele></trkpt><trkpt lat="38.89898425001188" lon="-121.06534288791909"><ele>418.0</ele></trkpt><trkpt lat="38.898983848324086" lon="-121.06534268016765"><ele>418.0</ele></trkpt><trkpt lat="38.89894" lon="-121.06531999999999"><ele>418.01952218198295</ele></trkpt><trkpt lat="38.89894" lon="-121.06531999999999"><ele>418.01952218198295</ele></trkpt><trkpt lat="38.898950765792755" lon="-121.06526617104737"><ele>419.0</ele></trkpt><trkpt lat="38.89895086733746" lon="-121.06526566331269"><ele>419.0</ele></trkpt><trkpt lat="38.89898" lon="-121.06511999999998"><ele>419.0</ele></trkpt><trkpt lat="38.89898" lon="-121.06511999999998"><ele>419.0</ele></trkpt><trkpt lat="38.89898256553391" lon="-121.06513197248938"><ele>419.0</ele></trkpt><trkpt lat="38.89898270494147" lon="-121.06513192316788"><ele>419.0</ele></trkpt><trkpt lat="38.89898265097094" lon="-121.0651323711977"><ele>419.0</ele></trkpt><trkpt lat="38.89898" lon="-121.06511999999998"><ele>419.0</ele></trkpt><trkpt lat="38.89898" lon="-121.06511999999998"><ele>419.0</ele></trkpt><trkpt lat="38.89902" lon="-121.06483000000003"><ele>414.86615431351805</ele></trkpt><trkpt lat="38.89902" lon="-121.06483000000003"><ele>414.86615431351805</ele></trkpt><trkpt lat="38.89898" lon="-121.06465000000003"><ele>420.0</ele></trkpt><trkpt lat="38.89898" lon="-121.06465000000003"><ele>420.0</ele></trkpt><trkpt lat="38.89889" lon="-121.06448"><ele>421.0</ele></trkpt><trkpt lat="38.89855" lon="-121.06366000000003"><ele>424.0</ele></trkpt><trkpt lat="38.89855" lon="-121.06366000000003"><ele>424.0</ele></trkpt><trkpt lat="38.89828882578543" lon="-121.06355420767125"><ele>420.92621702128264</ele></trkpt><trkpt lat="38.89828882578543" lon="-121.06355420767125"><ele>420.92621702128264</ele></trkpt><trkpt lat="38.89776" lon="-121.06333999999998"><ele>416.0</ele></trkpt><trkpt lat="38.89776" lon="-121.06333999999998"><ele>416.0</ele></trkpt><trkpt lat="38.89776" lon="-121.06333999999998"><ele>416.0</ele></trkpt><trkpt lat="38.89758" lon="-121.06324999999998"><ele>417.0</ele></trkpt><trkpt lat="38.89739" lon="-121.06311"><ele>416.0</ele></trkpt><trkpt lat="38.89637" lon="-121.06214999999997"><ele>416.0</ele></trkpt><trkpt lat="38.89637" lon="-121.06214999999997"><ele>416.0</ele></trkpt><trkpt lat="38.89637" lon="-121.06214999999997"><ele>416.0</ele></trkpt><trkpt lat="38.89625" lon="-121.06202000000002"><ele>416.0</ele></trkpt><trkpt lat="38.89625" lon="-121.06202000000002"><ele>416.0</ele></trkpt><trkpt lat="38.89625" lon="-121.06202000000002"><ele>416.0</ele></trkpt><trkpt lat="38.89613" lon="-121.06182000000001"><ele>417.0</ele></trkpt><trkpt lat="38.89613" lon="-121.06182000000001"><ele>417.0</ele></trkpt><trkpt lat="38.896099484935355" lon="-121.0617691415589"><ele>417.1382498103194</ele></trkpt><trkpt lat="38.896099484935355" lon="-121.0617691415589"><ele>417.1382498103194</ele></trkpt><trkpt lat="38.89604" lon="-121.06166999999999"><ele>418.0</ele></trkpt><trkpt lat="38.89595" lon="-121.06160999999997"><ele>418.0</ele></trkpt><trkpt lat="38.8959003543544" lon="-121.0615975885886"><ele>418.0</ele></trkpt><trkpt lat="38.8959003543544" lon="-121.0615975885886"><ele>418.0</ele></trkpt><trkpt lat="38.89583" lon="-121.06157999999999"><ele>418.0</ele></trkpt><trkpt lat="38.89538002289646" lon="-121.06158481258933"><ele>418.0</ele></trkpt><trkpt lat="38.89538002289646" lon="-121.06158481258933"><ele>418.0</ele></trkpt><trkpt lat="38.89442004435729" lon="-121.0615950797395"><ele>419.0</ele></trkpt><trkpt lat="38.89442004435729" lon="-121.0615950797395"><ele>419.0</ele></trkpt><trkpt lat="38.89396" lon="-121.0616"><ele>423.2263650162964</ele></trkpt><trkpt lat="38.89396" lon="-121.0616"><ele>423.2263650162964</ele></trkpt><trkpt lat="38.8938" lon="-121.06137000000001"><ele>424.0</ele></trkpt><trkpt lat="38.89367999941991" lon="-121.06125000046688"><ele>424.0</ele></trkpt><trkpt lat="38.89367999941991" lon="-121.06125000046688"><ele>424.0</ele></trkpt><trkpt lat="38.89318" lon="-121.06074999999998"><ele>420.3663111105561</ele></trkpt><trkpt lat="38.89309" lon="-121.06052"><ele>420.0</ele></trkpt><trkpt lat="38.89311" lon="-121.06036"><ele>419.0</ele></trkpt><trkpt lat="38.89320045908589" lon="-121.06014031364856"><ele>418.0</ele></trkpt><trkpt lat="38.89320045908589" lon="-121.06014031364856"><ele>418.0</ele></trkpt><trkpt lat="38.89323495007597" lon="-121.0600565498155"><ele>418.0</ele></trkpt><trkpt lat="38.89323495007597" lon="-121.0600565498155"><ele>418.0</ele></trkpt><trkpt lat="38.89339" lon="-121.05968000000001"><ele>414.36133292131126</ele></trkpt><trkpt lat="38.89339" lon="-121.05921999999998"><ele>412.36133292131126</ele></trkpt><trkpt lat="38.89329" lon="-121.05883"><ele>411.0</ele></trkpt><trkpt lat="38.89288" lon="-121.05811"><ele>406.0</ele></trkpt><trkpt lat="38.89269" lon="-121.05786"><ele>404.0</ele></trkpt><trkpt lat="38.89269" lon="-121.05786"><ele>404.0</ele></trkpt><trkpt lat="38.89269" lon="-121.05786"><ele>404.0</ele></trkpt><trkpt lat="38.89265" lon="-121.05777999999998"><ele>403.0</ele></trkpt><trkpt lat="38.89265" lon="-121.05777999999998"><ele>403.0</ele></trkpt><trkpt lat="38.89265" lon="-121.05777999999998"><ele>403.0</ele></trkpt><trkpt lat="38.89258" lon="-121.05749000000003"><ele>398.5168955945958</ele></trkpt><trkpt lat="38.89247" lon="-121.05692999999997"><ele>394.0</ele></trkpt><trkpt lat="38.89224" lon="-121.05595"><ele>381.0</ele></trkpt><trkpt lat="38.89226" lon="-121.05437999999998"><ele>367.0</ele></trkpt><trkpt lat="38.89235" lon="-121.05380000000002"><ele>361.0</ele></trkpt><trkpt lat="38.89235" lon="-121.05380000000002"><ele>361.0</ele></trkpt><trkpt lat="38.89245" lon="-121.05385000000001"><ele>360.0</ele></trkpt><trkpt lat="38.89253" lon="-121.05401999999998"><ele>357.85543480701745</ele></trkpt><trkpt lat="38.8926" lon="-121.05452000000002"><ele>353.67323750869383</ele></trkpt><trkpt lat="38.89286" lon="-121.05513000000002"><ele>347.0</ele></trkpt><trkpt lat="38.89295" lon="-121.05524000000003"><ele>345.82969604700696</ele></trkpt><trkpt lat="38.89304" lon="-121.05531000000002"><ele>344.26863334863424</ele></trkpt><trkpt lat="38.89331" lon="-121.05543999999998"><ele>339.09762488957494</ele></trkpt><trkpt lat="38.89354" lon="-121.05567000000002"><ele>336.37973966263235</ele></trkpt><trkpt lat="38.89376088088414" lon="-121.05592119735695"><ele>334.0504666045357</ele></trkpt><trkpt lat="38.893752059622436" lon="-121.05591116584515"><ele>334.0</ele></trkpt><trkpt lat="38.89405" lon="-121.05624999999998"><ele>330.0</ele></trkpt><trkpt lat="38.89414" lon="-121.05638999999996"><ele>328.0</ele></trkpt><trkpt lat="38.89438" lon="-121.05653000000001"><ele>326.0577314956322</ele></trkpt><trkpt lat="38.89462" lon="-121.05680000000001"><ele>323.0</ele></trkpt><trkpt lat="38.89462" lon="-121.05680000000001"><ele>323.0</ele></trkpt><trkpt lat="38.89466" lon="-121.05691000000002"><ele>322.0</ele></trkpt><trkpt lat="38.89478" lon="-121.05705"><ele>320.0</ele></trkpt><trkpt lat="38.89505" lon="-121.05707999999998"><ele>318.3199582894786</ele></trkpt><trkpt lat="38.89505" lon="-121.05707999999998"><ele>318.3199582894786</ele></trkpt><trkpt lat="38.89522" lon="-121.05709000000002"><ele>315.79794844519347</ele></trkpt><trkpt lat="38.89544" lon="-121.05705"><ele>310.97426992076714</ele></trkpt><trkpt lat="38.89579332831013" lon="-121.05685000284336"><ele>302.6132702883333</ele></trkpt><trkpt lat="38.89579332831013" lon="-121.05685000284336"><ele>302.6132702883333</ele></trkpt><trkpt lat="38.89597" lon="-121.05674999999997"><ele>297.0</ele></trkpt><trkpt lat="38.89629" lon="-121.05662999999998"><ele>295.1773618334466</ele></trkpt><trkpt lat="38.89646" lon="-121.05664999999999"><ele>292.1562563108967</ele></trkpt><trkpt lat="38.89672" lon="-121.05680999999998"><ele>287.0</ele></trkpt><trkpt lat="38.8968" lon="-121.05682999999999"><ele>285.43818059460204</ele></trkpt><trkpt lat="38.89686" lon="-121.05680000000001"><ele>284.11820013954934</ele></trkpt><trkpt lat="38.89689" lon="-121.05674999999997"><ele>283.0</ele></trkpt><trkpt lat="38.89688" lon="-121.05667"><ele>281.2245297776535</ele></trkpt><trkpt lat="38.89689" lon="-121.05660999999998"><ele>280.0</ele></trkpt><trkpt lat="38.89695" lon="-121.05655000000002"><ele>278.0</ele></trkpt><trkpt lat="38.89704" lon="-121.05653999999998"><ele>278.1660906658508</ele></trkpt><trkpt lat="38.89739" lon="-121.05658"><ele>269.8759131617844</ele></trkpt><trkpt lat="38.89766" lon="-121.05683999999997"><ele>266.09972110421177</ele></trkpt><trkpt lat="38.89771" lon="-121.05687"><ele>264.8562180035725</ele></trkpt><trkpt lat="38.89774" lon="-121.05682999999999"><ele>262.88742653653026</ele></trkpt><trkpt lat="38.89768" lon="-121.05671000000001"><ele>261.52635962878253</ele></trkpt><trkpt lat="38.89769" lon="-121.05662000000001"><ele>258.8814701233059</ele></trkpt><trkpt lat="38.89783" lon="-121.05673999999999"><ele>255.24247907120207</ele></trkpt><trkpt lat="38.89795" lon="-121.05680000000001"><ele>253.50698406809803</ele></trkpt><trkpt lat="38.89805" lon="-121.05678999999998"><ele>251.0</ele></trkpt><trkpt lat="38.89813" lon="-121.05673000000002"><ele>250.46618580259383</ele></trkpt><trkpt lat="38.89819" lon="-121.0566"><ele>253.0</ele></trkpt><trkpt lat="38.8982" lon="-121.05644999999998"><ele>254.0</ele></trkpt><trkpt lat="38.89824" lon="-121.05631"><ele>254.47667539505977</ele></trkpt><trkpt lat="38.8984" lon="-121.05592000000001"><ele>252.17248556717027</ele></trkpt><trkpt lat="38.89847" lon="-121.05563000000001"><ele>252.45103226817128</ele></trkpt><trkpt lat="38.89846" lon="-121.05558000000002"><ele>250.227034881711</ele></trkpt><trkpt lat="38.89843" lon="-121.05556999999999"><ele>249.39140448439866</ele></trkpt><trkpt lat="38.89834" lon="-121.0557"><ele>246.0605142894201</ele></trkpt><trkpt lat="38.89826" lon="-121.05576000000002"><ele>245.0</ele></trkpt><trkpt lat="38.89805" lon="-121.05588999999998"><ele>241.6756907645613</ele></trkpt><trkpt lat="38.89801" lon="-121.05588"><ele>240.28044526837766</ele></trkpt><trkpt lat="38.89799" lon="-121.05583000000001"><ele>239.08282302692533</ele></trkpt><trkpt lat="38.89799" lon="-121.05583000000001"><ele>239.08282302692533</ele></trkpt><trkpt lat="38.89799" lon="-121.05583000000001"><ele>239.08282302692533</ele></trkpt><trkpt lat="38.89801" lon="-121.05572000000001"><ele>237.2667934420121</ele></trkpt><trkpt lat="38.89809" lon="-121.05554000000001"><ele>236.0</ele></trkpt><trkpt lat="38.89833" lon="-121.05533000000003"><ele>237.0</ele></trkpt><trkpt lat="38.89858" lon="-121.05518999999998"><ele>236.10383712915134</ele></trkpt><trkpt lat="38.89954" lon="-121.05498"><ele>233.0</ele></trkpt><trkpt lat="38.90013885370992" lon="-121.0546767833398"><ele>231.0</ele></trkpt><trkpt lat="38.90013414130714" lon="-121.05467916895839"><ele>231.0</ele></trkpt><trkpt lat="38.90033" lon="-121.05457999999999"><ele>230.8234702218324</ele></trkpt><trkpt lat="38.90062" lon="-121.05441000000002"><ele>229.516251334697</ele></trkpt><trkpt lat="38.90091" lon="-121.05410999999998"><ele>227.86399133803587</ele></trkpt><trkpt lat="38.9012" lon="-121.05394999999999"><ele>226.14155588892586</ele></trkpt><trkpt lat="38.90132" lon="-121.05385000000001"><ele>226.0</ele></trkpt><trkpt lat="38.90145" lon="-121.05367999999999"><ele>226.0</ele></trkpt><trkpt lat="38.90155" lon="-121.05351000000002"><ele>224.74626792328198</ele></trkpt><trkpt lat="38.90174" lon="-121.05286000000001"><ele>223.21494395337635</ele></trkpt><trkpt lat="38.90188" lon="-121.05246999999997"><ele>223.02618109734485</ele></trkpt><trkpt lat="38.90216" lon="-121.05212"><ele>222.0</ele></trkpt><trkpt lat="38.902160001368024" lon="-121.05211999842493"><ele>222.0</ele></trkpt><trkpt lat="38.902160001368024" lon="-121.05211999842493"><ele>222.0</ele></trkpt><trkpt lat="38.9026" lon="-121.05165999999997"><ele>220.0</ele></trkpt><trkpt lat="38.90286" lon="-121.05142999999998"><ele>219.73662846675143</ele></trkpt><trkpt lat="38.90311" lon="-121.05135000000001"><ele>222.07243619968096</ele></trkpt><trkpt lat="38.90349" lon="-121.05115999999998"><ele>217.43991822144017</ele></trkpt><trkpt lat="38.90399" lon="-121.05097999999998"><ele>215.071045411799</ele></trkpt><trkpt lat="38.90426" lon="-121.05097999999998"><ele>215.0</ele></trkpt><trkpt lat="38.90447" lon="-121.05102"><ele>214.0</ele></trkpt><trkpt lat="38.90483" lon="-121.05104"><ele>209.31069981493056</ele></trkpt><trkpt lat="38.90494" lon="-121.05108000000001"><ele>205.72313874214888</ele></trkpt><trkpt lat="38.90512" lon="-121.05106"><ele>205.05652866698802</ele></trkpt><trkpt lat="38.90519" lon="-121.05088"><ele>210.63960137264803</ele></trkpt><trkpt lat="38.90545" lon="-121.05066999999997"><ele>212.0</ele></trkpt><trkpt lat="38.90555" lon="-121.05052"><ele>211.0</ele></trkpt><trkpt lat="38.90592" lon="-121.04946000000001"><ele>208.0</ele></trkpt><trkpt lat="38.90603" lon="-121.04930999999999"><ele>210.00149314384907</ele></trkpt><trkpt lat="38.906111752442385" lon="-121.04926639871837"><ele>207.833542810753</ele></trkpt><trkpt lat="38.90613079614123" lon="-121.049256242058"><ele>207.7183676538989</ele></trkpt><trkpt lat="38.90618" lon="-121.04922999999997"><ele>206.49539910955355</ele></trkpt><trkpt lat="38.90637" lon="-121.04919000000001"><ele>205.6312640006654</ele></trkpt><trkpt lat="38.90639" lon="-121.04912000000002"><ele>203.36902755638584</ele></trkpt><trkpt lat="38.90637" lon="-121.04904999999997"><ele>202.80929293576628</ele></trkpt><trkpt lat="38.90628" lon="-121.04892999999998"><ele>202.75625933950164</ele></trkpt><trkpt lat="38.90624" lon="-121.04872"><ele>203.13062887080014</ele></trkpt><trkpt lat="38.90608" lon="-121.04838999999998"><ele>205.35734628688834</ele></trkpt><trkpt lat="38.90596" lon="-121.04800999999998"><ele>205.13058294888145</ele></trkpt><trkpt lat="38.90593" lon="-121.04784999999998"><ele>204.43462977558374</ele></trkpt><trkpt lat="38.90594" lon="-121.04764999999998"><ele>204.14159222767833</ele></trkpt><trkpt lat="38.90602" lon="-121.04736000000003"><ele>203.33155963048196</ele></trkpt><trkpt lat="38.90602" lon="-121.04736000000003"><ele>203.33155963048196</ele></trkpt><trkpt lat="38.90609" lon="-121.04726"><ele>203.83417397132143</ele></trkpt><trkpt lat="38.90629" lon="-121.04717"><ele>203.06157137195967</ele></trkpt><trkpt lat="38.90636" lon="-121.04687999999999"><ele>200.3172023706138</ele></trkpt><trkpt lat="38.90653" lon="-121.04658999999998"><ele>198.23040947893182</ele></trkpt><trkpt lat="38.90652" lon="-121.04653000000002"><ele>198.33372088801116</ele></trkpt><trkpt lat="38.90636" lon="-121.04633999999999"><ele>199.5055650374852</ele></trkpt><trkpt lat="38.90635" lon="-121.04615999999999"><ele>200.71832078136504</ele></trkpt><trkpt lat="38.9064" lon="-121.04599000000002"><ele>200.35668915575</ele></trkpt><trkpt lat="38.90652" lon="-121.04574000000002"><ele>199.0</ele></trkpt><trkpt lat="38.90678" lon="-121.04545999999999"><ele>198.0</ele></trkpt><trkpt lat="38.907" lon="-121.0453"><ele>197.34412444429472</ele></trkpt><trkpt lat="38.90765" lon="-121.04507000000001"><ele>196.0</ele></trkpt><trkpt lat="38.90765" lon="-121.04507000000001"><ele>196.0</ele></trkpt><trkpt lat="38.90765" lon="-121.04507000000001"><ele>196.0</ele></trkpt><trkpt lat="38.90781" lon="-121.04496"><ele>196.57709853076324</ele></trkpt><trkpt lat="38.90794" lon="-121.04478"><ele>194.94800375177522</ele></trkpt><trkpt lat="38.90813" lon="-121.04440999999997"><ele>193.86711822124198</ele></trkpt><trkpt lat="38.90813" lon="-121.04440999999997"><ele>193.86711822124198</ele></trkpt><trkpt lat="38.90836" lon="-121.04406"><ele>192.0529339092611</ele></trkpt><trkpt lat="38.90855" lon="-121.04388"><ele>191.07936411118357</ele></trkpt><trkpt lat="38.90876" lon="-121.04376000000002"><ele>190.0</ele></trkpt><trkpt lat="38.90923" lon="-121.04365000000001"><ele>189.0</ele></trkpt><trkpt lat="38.90971733103795" lon="-121.04359958644432"><ele>189.09910913091153</ele></trkpt><trkpt lat="38.909744667519256" lon="-121.04359675853249"><ele>189.02278539939343</ele></trkpt><trkpt lat="38.9101" lon="-121.04356000000001"><ele>191.50849422439933</ele></trkpt><trkpt lat="38.91062" lon="-121.04335000000003"><ele>187.1256292389893</ele></trkpt><trkpt lat="38.91117" lon="-121.04289"><ele>184.41901047015563</ele></trkpt><trkpt lat="38.91149" lon="-121.04272000000003"><ele>184.0595673681702</ele></trkpt><trkpt lat="38.91173" lon="-121.04266000000001"><ele>185.60025712086025</ele></trkpt><trkpt lat="38.91192" lon="-121.04254000000003"><ele>185.22169986755972</ele></trkpt><trkpt lat="38.91192" lon="-121.04254000000003"><ele>185.22169986755972</ele></trkpt><trkpt lat="38.91192" lon="-121.04254000000003"><ele>185.22169986755972</ele></trkpt><trkpt lat="38.91203" lon="-121.04242999999997"><ele>182.61153576265298</ele></trkpt><trkpt lat="38.91203" lon="-121.04242999999997"><ele>182.61153576265298</ele></trkpt><trkpt lat="38.91292804187222" lon="-121.04133826282202"><ele>165.6529366131872</ele></trkpt><trkpt lat="38.912780853087455" lon="-121.04152549127167"><ele>160.0</ele></trkpt><trkpt lat="38.91277763230815" lon="-121.04152111540856"><ele>160.0</ele></trkpt><trkpt lat="38.91305" lon="-121.04119000000003"><ele>178.20786449545994</ele></trkpt><trkpt lat="38.91305" lon="-121.04119000000003"><ele>178.20786449545994</ele></trkpt><trkpt lat="38.913080414846746" lon="-121.04116393013135"><ele>176.79159195860848</ele></trkpt><trkpt lat="38.913084169764275" lon="-121.04116071165242"><ele>176.4766563810519</ele></trkpt><trkpt lat="38.91319" lon="-121.04106999999999"><ele>177.6184205133468</ele></trkpt><trkpt lat="38.91319" lon="-121.04106999999999"><ele>177.6184205133468</ele></trkpt><trkpt lat="38.91317" lon="-121.04102"><ele>184.84556999624633</ele></trkpt><trkpt lat="38.91314" lon="-121.04101000000003"><ele>185.0</ele></trkpt><trkpt lat="38.91299" lon="-121.04104000000001"><ele>187.11282683024461</ele></trkpt><trkpt lat="38.91293" lon="-121.041"><ele>189.05040000006557</ele></trkpt><trkpt lat="38.91285" lon="-121.04092000000003"><ele>191.78781928075477</ele></trkpt><trkpt lat="38.91277" lon="-121.04077000000001"><ele>194.16741953630836</ele></trkpt><trkpt lat="38.91278" lon="-121.04070999999999"><ele>196.8165963999927</ele></trkpt><trkpt lat="38.91282" lon="-121.04070999999999"><ele>198.77771982736886</ele></trkpt><trkpt lat="38.91295" lon="-121.04080999999996"><ele>198.90504177985713</ele></trkpt><trkpt lat="38.91303" lon="-121.04079999999999"><ele>200.37107555568218</ele></trkpt><trkpt lat="38.91328" lon="-121.04075"><ele>203.40248888824135</ele></trkpt><trkpt lat="38.91361" lon="-121.04059000000001"><ele>202.31556977704167</ele></trkpt><trkpt lat="38.91386" lon="-121.04062999999996"><ele>202.2936497796327</ele></trkpt><trkpt lat="38.91398" lon="-121.04057999999998"><ele>202.36444169546624</ele></trkpt><trkpt lat="38.91422" lon="-121.04043000000001"><ele>202.55009897146374</ele></trkpt><trkpt lat="38.9144" lon="-121.04027000000002"><ele>203.22556262882426</ele></trkpt><trkpt lat="38.91451" lon="-121.04009000000002"><ele>207.45947377663106</ele></trkpt><trkpt lat="38.91454" lon="-121.03991000000002"><ele>211.96496705019027</ele></trkpt><trkpt lat="38.91453" lon="-121.03969000000001"><ele>214.36834661103785</ele></trkpt><trkpt lat="38.91450094324566" lon="-121.03956962201778"><ele>215.10870220325887</ele></trkpt><trkpt lat="38.9145" lon="-121.03957000000003"><ele>215.16519793123007</ele></trkpt><trkpt lat="38.91416" lon="-121.03955000000002"><ele>230.1983897733951</ele></trkpt><trkpt lat="38.91348" lon="-121.03942"><ele>250.25769093818963</ele></trkpt><trkpt lat="38.9133" lon="-121.03933"><ele>256.8827519211499</ele></trkpt><trkpt lat="38.9130760587874" lon="-121.03914338232283"><ele>265.0</ele></trkpt><trkpt lat="38.91307697949199" lon="-121.03914414939732"><ele>265.0</ele></trkpt><trkpt lat="38.91294" lon="-121.03903000000003"><ele>269.94368088819317</ele></trkpt><trkpt lat="38.91243" lon="-121.03875"><ele>277.0</ele></trkpt><trkpt lat="38.91209" lon="-121.03863999999999"><ele>285.01752168531704</ele></trkpt><trkpt lat="38.91194" lon="-121.03849000000002"><ele>290.02487822109833</ele></trkpt><trkpt lat="38.9118" lon="-121.03841"><ele>292.0</ele></trkpt><trkpt lat="38.91169" lon="-121.03841999999997"><ele>294.0</ele></trkpt><trkpt lat="38.91107" lon="-121.03863999999999"><ele>292.0</ele></trkpt><trkpt lat="38.91095" lon="-121.03863999999999"><ele>292.02705872517885</ele></trkpt><trkpt lat="38.91035" lon="-121.03852999999998"><ele>290.7669478559553</ele></trkpt><trkpt lat="38.91027" lon="-121.03849000000002"><ele>293.01277822468194</ele></trkpt><trkpt lat="38.91014" lon="-121.03834999999998"><ele>297.0</ele></trkpt><trkpt lat="38.90993" lon="-121.03805"><ele>303.0</ele></trkpt><trkpt lat="38.9097" lon="-121.03762999999998"><ele>315.10378311248496</ele></trkpt><trkpt lat="38.90927" lon="-121.03697999999997"><ele>331.0</ele></trkpt><trkpt lat="38.90905" lon="-121.03656999999998"><ele>337.5805865600705</ele></trkpt><trkpt lat="38.90894" lon="-121.03645"><ele>339.16852903552353</ele></trkpt><trkpt lat="38.90878" lon="-121.03631000000001"><ele>343.75097259134054</ele></trkpt><trkpt lat="38.90869" lon="-121.03627"><ele>347.1410876009613</ele></trkpt><trkpt lat="38.90853" lon="-121.03628000000003"><ele>353.99492808269923</ele></trkpt><trkpt lat="38.90813" lon="-121.03656999999998"><ele>371.0</ele></trkpt><trkpt lat="38.90813" lon="-121.03656999999998"><ele>371.0</ele></trkpt><trkpt lat="38.90805" lon="-121.03656999999998"><ele>373.2368815038502</ele></trkpt><trkpt lat="38.90797" lon="-121.03652999999997"><ele>376.0</ele></trkpt><trkpt lat="38.90772" lon="-121.03633000000002"><ele>383.0</ele></trkpt><trkpt lat="38.90746" lon="-121.03618"><ele>387.0</ele></trkpt><trkpt lat="38.907295463399734" lon="-121.03606116801092"><ele>389.0</ele></trkpt><trkpt lat="38.907271018474006" lon="-121.03604550923347"><ele>389.0</ele></trkpt><trkpt lat="38.90716" lon="-121.03598999999997"><ele>390.0</ele></trkpt><trkpt lat="38.90698983935366" lon="-121.03594091519813"><ele>393.0</ele></trkpt><trkpt lat="38.90698983935366" lon="-121.03594091519813"><ele>393.0</ele></trkpt><trkpt lat="38.90664" lon="-121.03584000000001"><ele>401.0</ele></trkpt><trkpt lat="38.90656" lon="-121.0358"><ele>404.2735724051093</ele></trkpt><trkpt lat="38.90641" lon="-121.03565000000003"><ele>411.0</ele></trkpt><trkpt lat="38.90641" lon="-121.03565000000003"><ele>411.0</ele></trkpt><trkpt lat="38.90641" lon="-121.03565000000003"><ele>411.0</ele></trkpt><trkpt lat="38.90614" lon="-121.03552000000002"><ele>421.483228499378</ele></trkpt><trkpt lat="38.90598" lon="-121.03550999999999"><ele>425.0427278069839</ele></trkpt><trkpt lat="38.90575" lon="-121.03553999999997"><ele>429.0</ele></trkpt><trkpt lat="38.9056" lon="-121.03557999999998"><ele>431.0</ele></trkpt><trkpt lat="38.90547" lon="-121.03566000000001"><ele>431.99850519037085</ele></trkpt><trkpt lat="38.90496" lon="-121.03616"><ele>434.0</ele></trkpt><trkpt lat="38.90457" lon="-121.03634"><ele>442.0</ele></trkpt><trkpt lat="38.90401" lon="-121.03676999999999"><ele>454.0</ele></trkpt><trkpt lat="38.90392" lon="-121.03679"><ele>455.9517316253359</ele></trkpt><trkpt lat="38.90363" lon="-121.03665999999998"><ele>461.1204581570794</ele></trkpt><trkpt lat="38.90349" lon="-121.03664000000003"><ele>463.75887289084494</ele></trkpt><trkpt lat="38.90309" lon="-121.03673000000003"><ele>472.48858033386534</ele></trkpt><trkpt lat="38.90272" lon="-121.03701000000001"><ele>481.0014224480756</ele></trkpt><trkpt lat="38.90245" lon="-121.03742"><ele>487.0</ele></trkpt><trkpt lat="38.90238" lon="-121.03750000000002"><ele>487.0</ele></trkpt><trkpt lat="38.90231" lon="-121.03751999999997"><ele>487.0</ele></trkpt><trkpt lat="38.90222" lon="-121.03751"><ele>488.0</ele></trkpt><trkpt lat="38.90181" lon="-121.03719999999998"><ele>492.0</ele></trkpt><trkpt lat="38.90132" lon="-121.03705000000002"><ele>494.0</ele></trkpt><trkpt lat="38.90107" lon="-121.03694000000002"><ele>495.0</ele></trkpt><trkpt lat="38.90098" lon="-121.03683000000001"><ele>495.0</ele></trkpt><trkpt lat="38.90079" lon="-121.03649999999999"><ele>496.0</ele></trkpt><trkpt lat="38.90072" lon="-121.03643"><ele>495.972163555678</ele></trkpt><trkpt lat="38.90048" lon="-121.03638000000001"><ele>492.0</ele></trkpt><trkpt lat="38.9004395469521" lon="-121.03636161225097"><ele>491.16484084372996</ele></trkpt><trkpt lat="38.9004395469521" lon="-121.03636161225097"><ele>491.16484084372996</ele></trkpt><trkpt lat="38.90037" lon="-121.03633000000002"><ele>490.6022380683571</ele></trkpt><trkpt lat="38.9" lon="-121.03602000000001"><ele>491.0</ele></trkpt><trkpt lat="38.89958" lon="-121.0358"><ele>491.0</ele></trkpt><trkpt lat="38.89952" lon="-121.03574000000003"><ele>491.0</ele></trkpt><trkpt lat="38.89938292585538" lon="-121.03554809619754"><ele>493.0</ele></trkpt><trkpt lat="38.89939124486501" lon="-121.03555974278402"><ele>492.99657009803445</ele></trkpt><trkpt lat="38.89937" lon="-121.03553"><ele>492.99183227050867</ele></trkpt><trkpt lat="38.89928" lon="-121.03535"><ele>494.0</ele></trkpt><trkpt lat="38.89916" lon="-121.03521"><ele>493.90070130057387</ele></trkpt><trkpt lat="38.89916" lon="-121.03521"><ele>493.90070130057387</ele></trkpt><trkpt lat="38.89916" lon="-121.03521"><ele>493.90070130057387</ele></trkpt><trkpt lat="38.89901" lon="-121.03493000000003"><ele>493.0</ele></trkpt><trkpt lat="38.89885" lon="-121.03472999999997"><ele>491.58088400773704</ele></trkpt><trkpt lat="38.89871" lon="-121.03449"><ele>490.08655393728554</ele></trkpt><trkpt lat="38.89866" lon="-121.03424000000001"><ele>490.0</ele></trkpt><trkpt lat="38.89866" lon="-121.03395999999998"><ele>490.0</ele></trkpt><trkpt lat="38.89878" lon="-121.03358000000003"><ele>491.0</ele></trkpt><trkpt lat="38.89878" lon="-121.03358000000003"><ele>491.0</ele></trkpt><trkpt lat="38.89887" lon="-121.03348"><ele>491.0</ele></trkpt><trkpt lat="38.8989" lon="-121.03341"><ele>491.0</ele></trkpt><trkpt lat="38.89891" lon="-121.03327000000002"><ele>491.0</ele></trkpt><trkpt lat="38.89887" lon="-121.03298000000001"><ele>491.0</ele></trkpt><trkpt lat="38.89877" lon="-121.03273000000002"><ele>492.0</ele></trkpt><trkpt lat="38.89866" lon="-121.03230000000002"><ele>494.0</ele></trkpt><trkpt lat="38.8986" lon="-121.03213"><ele>494.0</ele></trkpt><trkpt lat="38.8982" lon="-121.03165999999999"><ele>491.0</ele></trkpt><trkpt lat="38.89816" lon="-121.03156999999999"><ele>491.0</ele></trkpt><trkpt lat="38.89809" lon="-121.03125"><ele>489.0</ele></trkpt><trkpt lat="38.89808" lon="-121.03088000000002"><ele>486.0</ele></trkpt><trkpt lat="38.89804" lon="-121.03073999999998"><ele>486.0</ele></trkpt><trkpt lat="38.89794" lon="-121.03052000000002"><ele>484.0</ele></trkpt><trkpt lat="38.89763" lon="-121.03001"><ele>478.0</ele></trkpt><trkpt lat="38.89716476463208" lon="-121.02949307181342"><ele>473.0</ele></trkpt><trkpt lat="38.89716476463208" lon="-121.02949307181342"><ele>473.0</ele></trkpt><trkpt lat="38.89711370950107" lon="-121.02943634579759"><ele>472.0</ele></trkpt><trkpt lat="38.89711370950107" lon="-121.02943634579759"><ele>472.0</ele></trkpt><trkpt lat="38.897" lon="-121.02931000000001"><ele>471.0</ele></trkpt><trkpt lat="38.89674626595411" lon="-121.02909923704249"><ele>468.0</ele></trkpt><trkpt lat="38.896746758448714" lon="-121.02909964466937"><ele>468.0</ele></trkpt><trkpt lat="38.89576" lon="-121.02828"><ele>462.0</ele></trkpt><trkpt lat="38.89553" lon="-121.02796000000001"><ele>461.0</ele></trkpt><trkpt lat="38.89524" lon="-121.02747"><ele>460.0</ele></trkpt><trkpt lat="38.89512" lon="-121.0272"><ele>460.2275282368064</ele></trkpt><trkpt lat="38.89512" lon="-121.0272"><ele>460.2275282368064</ele></trkpt><trkpt lat="38.89512" lon="-121.0272"><ele>460.2275282368064</ele></trkpt><trkpt lat="38.89517" lon="-121.02614"><ele>466.221463477239</ele></trkpt><trkpt lat="38.89515" lon="-121.02580999999998"><ele>467.0</ele></trkpt><trkpt lat="38.89515" lon="-121.02580999999998"><ele>467.0</ele></trkpt><trkpt lat="38.89515" lon="-121.02580999999998"><ele>467.0</ele></trkpt><trkpt lat="38.89522" lon="-121.02539000000002"><ele>469.63055351798556</ele></trkpt><trkpt lat="38.89522" lon="-121.02539000000002"><ele>469.63055351798556</ele></trkpt><trkpt lat="38.8953" lon="-121.02489000000003"><ele>472.8308159983717</ele></trkpt><trkpt lat="38.8953" lon="-121.02489000000003"><ele>472.8308159983717</ele></trkpt><trkpt lat="38.89529" lon="-121.02429000000001"><ele>476.0</ele></trkpt><trkpt lat="38.89519" lon="-121.02386999999999"><ele>478.0</ele></trkpt><trkpt lat="38.89519" lon="-121.02386999999999"><ele>478.0</ele></trkpt><trkpt lat="38.89496" lon="-121.02339"><ele>476.6469496358186</ele></trkpt><trkpt lat="38.89471" lon="-121.02258"><ele>475.0</ele></trkpt><trkpt lat="38.89464" lon="-121.02244000000002"><ele>474.0</ele></trkpt><trkpt lat="38.894278155222786" lon="-121.02188461034194"><ele>471.0</ele></trkpt><trkpt lat="38.894286315433696" lon="-121.02189713502526"><ele>471.0</ele></trkpt><trkpt lat="38.89421" lon="-121.02178000000004"><ele>470.0</ele></trkpt><trkpt lat="38.89398" lon="-121.02139999999997"><ele>469.0</ele></trkpt><trkpt lat="38.89388" lon="-121.0213"><ele>469.0184619989825</ele></trkpt><trkpt lat="38.89322" lon="-121.02088000000003"><ele>471.54044901765883</ele></trkpt><trkpt lat="38.8926" lon="-121.02042"><ele>470.0496878305917</ele></trkpt><trkpt lat="38.89243" lon="-121.02026000000001"><ele>470.0</ele></trkpt><trkpt lat="38.89243" lon="-121.02026000000001"><ele>470.0</ele></trkpt><trkpt lat="38.89243" lon="-121.02026000000001"><ele>470.0</ele></trkpt><trkpt lat="38.89242625698786" lon="-121.02009031678301"><ele>470.0</ele></trkpt><trkpt lat="38.89242599390048" lon="-121.02007839012231"><ele>470.0</ele></trkpt><trkpt lat="38.8924" lon="-121.01890000000003"><ele>479.0</ele></trkpt><trkpt lat="38.8924" lon="-121.01890000000003"><ele>479.0</ele></trkpt><trkpt lat="38.8924" lon="-121.01890000000003"><ele>479.0</ele></trkpt><trkpt lat="38.89242" lon="-121.01821999999999"><ele>479.0</ele></trkpt><trkpt lat="38.89241" lon="-121.01677000000001"><ele>470.0</ele></trkpt><trkpt lat="38.89243" lon="-121.01632000000001"><ele>468.77823644457385</ele></trkpt><trkpt lat="38.892415584603086" lon="-121.01626233841239"><ele>468.0</ele></trkpt><trkpt lat="38.892415584603086" lon="-121.01626233841239"><ele>468.0</ele></trkpt><trkpt lat="38.89241" lon="-121.01623999999998"><ele>468.0</ele></trkpt><trkpt lat="38.89232" lon="-121.01618000000002"><ele>468.574258119564</ele></trkpt><trkpt lat="38.89151" lon="-121.01601"><ele>469.33118933299556</ele></trkpt><trkpt lat="38.891333544738366" lon="-121.01601735230258"><ele>469.0</ele></trkpt><trkpt lat="38.89133485232571" lon="-121.01601729783545"><ele>469.0</ele></trkpt><trkpt lat="38.89103" lon="-121.01603"><ele>468.2632568893023</ele></trkpt><trkpt lat="38.89103" lon="-121.01603"><ele>468.2632568893023</ele></trkpt><trkpt lat="38.89007" lon="-121.01614999999998"><ele>466.0</ele></trkpt><trkpt lat="38.8899" lon="-121.01621"><ele>467.0</ele></trkpt><trkpt lat="38.88967" lon="-121.01648999999998"><ele>468.0</ele></trkpt><trkpt lat="38.88964" lon="-121.01657999999998"><ele>468.0</ele></trkpt><trkpt lat="38.88962" lon="-121.01674000000003"><ele>467.0</ele></trkpt><trkpt lat="38.88963" lon="-121.01715999999999"><ele>467.0</ele></trkpt><trkpt lat="38.88960489446984" lon="-121.01728552765081"><ele>467.0</ele></trkpt><trkpt lat="38.889604523505625" lon="-121.01728738247596"><ele>467.0</ele></trkpt><trkpt lat="38.8896" lon="-121.01731000000001"><ele>467.0</ele></trkpt><trkpt lat="38.88954" lon="-121.01733000000002"><ele>467.0</ele></trkpt><trkpt lat="38.88953783080753" lon="-121.01732955502052"><ele>467.0</ele></trkpt><trkpt lat="38.88949266441993" lon="-121.01735342362946"><ele>467.0</ele></trkpt><trkpt lat="38.88942585736008" lon="-121.0174338898999"><ele>467.0</ele></trkpt><trkpt lat="38.8893715765777" lon="-121.01754654267853"><ele>466.94129847025806</ele></trkpt><trkpt lat="38.88926719034114" lon="-121.01760018685883"><ele>465.344135602812</ele></trkpt><trkpt lat="38.889162803951166" lon="-121.01764310220307"><ele>465.2343185396089</ele></trkpt><trkpt lat="38.88909599658107" lon="-121.0177021108014"><ele>465.1009612242847</ele></trkpt><trkpt lat="38.889029189148175" lon="-121.01777721265381"><ele>465.6892682528123</ele></trkpt><trkpt lat="38.88893315335327" lon="-121.01783622125214"><ele>466.0</ele></trkpt><trkpt lat="38.8889206269357" lon="-121.01784158567017"><ele>466.0</ele></trkpt><trkpt lat="38.88878283619629" lon="-121.01786304334229"><ele>465.0</ele></trkpt><trkpt lat="38.88893376645849" lon="-121.01784387463545"><ele>466.0</ele></trkpt><trkpt lat="38.88865818476342" lon="-121.01779023045515"><ele>465.0</ele></trkpt><trkpt lat="38.88865831372542" lon="-121.01779682812958"><ele>465.0</ele></trkpt><trkpt lat="38.88856" lon="-121.01779999999997"><ele>465.0</ele></trkpt><trkpt lat="38.88827" lon="-121.01776999999998"><ele>464.0</ele></trkpt><trkpt lat="38.888189334474966" lon="-121.01780226470873"><ele>464.0</ele></trkpt><trkpt lat="38.88819" lon="-121.01779999999997"><ele>464.0</ele></trkpt><trkpt lat="38.887896289840555" lon="-121.0187986145421"><ele>461.0</ele></trkpt><trkpt lat="38.887895457971574" lon="-121.01880144363997"><ele>461.0</ele></trkpt><trkpt lat="38.88779" lon="-121.01916"><ele>459.2946779676915</ele></trkpt><trkpt lat="38.88769" lon="-121.01932999999997"><ele>459.3874215849417</ele></trkpt><trkpt lat="38.88743" lon="-121.01959"><ele>457.8221379467581</ele></trkpt><trkpt lat="38.88736" lon="-121.01995999999997"><ele>457.0</ele></trkpt><trkpt lat="38.88728" lon="-121.02010000000001"><ele>458.0</ele></trkpt><trkpt lat="38.88657" lon="-121.02053999999998"><ele>454.6086967060473</ele></trkpt><trkpt lat="38.88629" lon="-121.02080999999998"><ele>452.01456767029697</ele></trkpt><trkpt lat="38.88613" lon="-121.02091000000001"><ele>451.6548852801614</ele></trkpt><trkpt lat="38.88584" lon="-121.02097000000003"><ele>451.21176798863894</ele></trkpt><trkpt lat="38.88568" lon="-121.02109000000002"><ele>452.0</ele></trkpt><trkpt lat="38.88554" lon="-121.02115000000003"><ele>453.1274488870986</ele></trkpt><trkpt lat="38.88508" lon="-121.02118999999999"><ele>455.0</ele></trkpt><trkpt lat="38.88495" lon="-121.02123"><ele>454.0</ele></trkpt><trkpt lat="38.88481" lon="-121.02134000000001"><ele>451.92310203798115</ele></trkpt><trkpt lat="38.88458" lon="-121.02168"><ele>451.0</ele></trkpt><trkpt lat="38.88432" lon="-121.02190000000002"><ele>451.0</ele></trkpt><trkpt lat="38.884029199882534" lon="-121.02206617149568"><ele>449.0</ele></trkpt><trkpt lat="38.884144603034386" lon="-121.0220271655678"><ele>450.0</ele></trkpt><trkpt lat="38.88413681629149" lon="-121.0220046766309"><ele>450.0</ele></trkpt><trkpt lat="38.88383" lon="-121.02217999999999"><ele>448.0</ele></trkpt><trkpt lat="38.88383" lon="-121.02217999999999"><ele>448.0</ele></trkpt><trkpt lat="38.88383" lon="-121.02217999999999"><ele>448.0</ele></trkpt><trkpt lat="38.88373" lon="-121.02247999999997"><ele>446.14495644532144</ele></trkpt><trkpt lat="38.88367" lon="-121.02289000000002"><ele>445.0</ele></trkpt><trkpt lat="38.88347" lon="-121.02305999999999"><ele>445.0</ele></trkpt><trkpt lat="38.88312" lon="-121.02348999999998"><ele>444.0</ele></trkpt><trkpt lat="38.88257" lon="-121.02404000000001"><ele>443.0</ele></trkpt><trkpt lat="38.88247" lon="-121.02417000000003"><ele>443.0</ele></trkpt><trkpt lat="38.88234" lon="-121.02454"><ele>444.0</ele></trkpt><trkpt lat="38.88215" lon="-121.02478000000002"><ele>444.0</ele></trkpt><trkpt lat="38.88207" lon="-121.02492999999998"><ele>443.8824835345149</ele></trkpt><trkpt lat="38.88197" lon="-121.02539000000002"><ele>443.0</ele></trkpt><trkpt lat="38.88197" lon="-121.02539000000002"><ele>443.0</ele></trkpt><trkpt lat="38.88193" lon="-121.02576999999997"><ele>443.0</ele></trkpt><trkpt lat="38.88195" lon="-121.02587"><ele>443.0</ele></trkpt><trkpt lat="38.88193" lon="-121.02643"><ele>442.0</ele></trkpt><trkpt lat="38.8819" lon="-121.02652"><ele>441.0</ele></trkpt><trkpt lat="38.881648707218446" lon="-121.0268673753157"><ele>438.0</ele></trkpt><trkpt lat="38.881648418262714" lon="-121.02686777497092"><ele>438.0</ele></trkpt><trkpt lat="38.88156" lon="-121.02699000000001"><ele>437.0</ele></trkpt><trkpt lat="38.88153752796415" lon="-121.02710236017924"><ele>436.0</ele></trkpt><trkpt lat="38.88153" lon="-121.02710000000002"><ele>436.0</ele></trkpt><trkpt lat="38.88124" lon="-121.02674000000002"><ele>436.0</ele></trkpt><trkpt lat="38.8811" lon="-121.02642000000003"><ele>437.0</ele></trkpt><trkpt lat="38.88113" lon="-121.02612999999997"><ele>439.0</ele></trkpt><trkpt lat="38.88112" lon="-121.02575999999999"><ele>440.00856348127127</ele></trkpt><trkpt lat="38.88118428849265" lon="-121.0255437568884"><ele>440.0</ele></trkpt><trkpt lat="38.88119739541823" lon="-121.02549967001659"><ele>440.0</ele></trkpt><trkpt lat="38.88123" lon="-121.02539000000002"><ele>440.0</ele></trkpt><trkpt lat="38.88123" lon="-121.02539000000002"><ele>440.0</ele></trkpt><trkpt lat="38.88124" lon="-121.02526999999998"><ele>440.0</ele></trkpt><trkpt lat="38.88122" lon="-121.02517999999998"><ele>439.0</ele></trkpt><trkpt lat="38.88103" lon="-121.0249"><ele>440.0</ele></trkpt><trkpt lat="38.881027619610144" lon="-121.02489646190196"><ele>440.0</ele></trkpt><trkpt lat="38.881" lon="-121.02492999999998"><ele>440.0</ele></trkpt><trkpt lat="38.88076" lon="-121.02503000000002"><ele>439.0</ele></trkpt><trkpt lat="38.88076" lon="-121.02503000000002"><ele>439.0</ele></trkpt><trkpt lat="38.88056" lon="-121.02492999999998"><ele>440.0</ele></trkpt><trkpt lat="38.88052574308746" lon="-121.02489916877869"><ele>440.0</ele></trkpt><trkpt lat="38.88053092779129" lon="-121.0249038349807"><ele>440.0</ele></trkpt><trkpt lat="38.88041479050164" lon="-121.02479931145149"><ele>440.0</ele></trkpt><trkpt lat="38.88038227737998" lon="-121.02477004964197"><ele>440.0</ele></trkpt><trkpt lat="38.88036" lon="-121.02474999999998"><ele>440.0</ele></trkpt><trkpt lat="38.87937" lon="-121.02346"><ele>441.0</ele></trkpt><trkpt lat="38.87894999995794" lon="-121.02283368414783"><ele>443.0</ele></trkpt><trkpt lat="38.878969539353186" lon="-121.02286502541159"><ele>443.0</ele></trkpt><trkpt lat="38.878970387881516" lon="-121.02286408647728"><ele>443.0</ele></trkpt><trkpt lat="38.8788" lon="-121.02260999999999"><ele>444.01035264941095</ele></trkpt><trkpt lat="38.8788" lon="-121.02260999999999"><ele>444.01035264941095</ele></trkpt><trkpt lat="38.8786" lon="-121.02242999999999"><ele>443.0</ele></trkpt><trkpt lat="38.8784" lon="-121.0224"><ele>442.0</ele></trkpt><trkpt lat="38.87826" lon="-121.02233000000001"><ele>441.0</ele></trkpt><trkpt lat="38.87806" lon="-121.02213999999998"><ele>440.8198426757008</ele></trkpt><trkpt lat="38.878" lon="-121.02204999999998"><ele>441.0</ele></trkpt><trkpt lat="38.878" lon="-121.02204999999998"><ele>441.0</ele></trkpt><trkpt lat="38.878" lon="-121.02204999999998"><ele>441.0</ele></trkpt><trkpt lat="38.87792" lon="-121.02160000000003"><ele>441.0</ele></trkpt><trkpt lat="38.87792" lon="-121.02148999999997"><ele>441.0</ele></trkpt><trkpt lat="38.87798" lon="-121.02127999999999"><ele>441.0</ele></trkpt><trkpt lat="38.87798" lon="-121.02127999999999"><ele>441.0</ele></trkpt><trkpt lat="38.87798" lon="-121.02127999999999"><ele>441.0</ele></trkpt><trkpt lat="38.878066073674695" lon="-121.0210110197666"><ele>441.1834390107542</ele></trkpt><trkpt lat="38.87806564365593" lon="-121.02101236401654"><ele>441.1576962340623</ele></trkpt><trkpt lat="38.8783" lon="-121.02028000000001"><ele>442.1873003952205</ele></trkpt><trkpt lat="38.8783" lon="-121.02028000000001"><ele>442.1873003952205</ele></trkpt><trkpt lat="38.8783" lon="-121.02028000000001"><ele>442.1873003952205</ele></trkpt><trkpt lat="38.87837" lon="-121.02015"><ele>442.5452928298471</ele></trkpt><trkpt lat="38.87837" lon="-121.02015"><ele>442.5452928298471</ele></trkpt><trkpt lat="38.87847" lon="-121.01999999999998"><ele>443.0</ele></trkpt><trkpt lat="38.87854134021574" lon="-121.01984394327809"><ele>444.0</ele></trkpt><trkpt lat="38.878547035846424" lon="-121.01983148408596"><ele>444.0</ele></trkpt><trkpt lat="38.87863" lon="-121.01965000000001"><ele>445.0</ele></trkpt><trkpt lat="38.87874" lon="-121.01954"><ele>446.0</ele></trkpt><trkpt lat="38.87969" lon="-121.01877999999999"><ele>449.0</ele></trkpt><trkpt lat="38.88021" lon="-121.01844"><ele>458.0</ele></trkpt><trkpt lat="38.88036" lon="-121.01837999999998"><ele>461.0</ele></trkpt><trkpt lat="38.88076" lon="-121.01830999999999"><ele>464.518958222121</ele></trkpt><trkpt lat="38.88108" lon="-121.01830999999999"><ele>464.518958222121</ele></trkpt><trkpt lat="38.8817" lon="-121.01845000000003"><ele>464.0434311130084</ele></trkpt><trkpt lat="38.88198" lon="-121.01841000000002"><ele>465.08864310761527</ele></trkpt><trkpt lat="38.88218" lon="-121.01846999999998"><ele>466.9754986660555</ele></trkpt><trkpt lat="38.88278" lon="-121.01877999999999"><ele>462.0</ele></trkpt><trkpt lat="38.88307" lon="-121.01886999999999"><ele>462.15384892570546</ele></trkpt><trkpt lat="38.8830834193753" lon="-121.01887653764436"><ele>462.0</ele></trkpt><trkpt lat="38.88308866572416" lon="-121.01887909353417"><ele>462.0406391858123</ele></trkpt><trkpt lat="38.88346" lon="-121.01905999999997"><ele>463.0</ele></trkpt><trkpt lat="38.88414" lon="-121.01920000000001"><ele>461.0</ele></trkpt><trkpt lat="38.8851" lon="-121.01889"><ele>465.0</ele></trkpt><trkpt lat="38.8853" lon="-121.01890000000003"><ele>465.0</ele></trkpt><trkpt lat="38.88542" lon="-121.01884000000001"><ele>465.0</ele></trkpt><trkpt lat="38.88573" lon="-121.01855"><ele>464.0</ele></trkpt><trkpt lat="38.886" lon="-121.01837999999998"><ele>463.0</ele></trkpt><trkpt lat="38.88675" lon="-121.01799"><ele>466.0</ele></trkpt><trkpt lat="38.88706" lon="-121.01792999999998"><ele>464.3672798704356</ele></trkpt><trkpt lat="38.88723" lon="-121.01785999999998"><ele>463.0</ele></trkpt><trkpt lat="38.88744" lon="-121.01797999999997"><ele>459.0</ele></trkpt><trkpt lat="38.88761" lon="-121.01792999999998"><ele>459.0</ele></trkpt><trkpt lat="38.88777" lon="-121.01809000000003"><ele>461.0</ele></trkpt><trkpt lat="38.88785082956038" lon="-121.01802995518369"><ele>461.0</ele></trkpt><trkpt lat="38.887855489475044" lon="-121.01802649365106"><ele>461.079853586206</ele></trkpt><trkpt lat="38.88812" lon="-121.01783"><ele>464.0</ele></trkpt><trkpt lat="38.888189334474966" lon="-121.01780226470873"><ele>464.0</ele></trkpt><trkpt lat="38.888189334474966" lon="-121.01780226470873"><ele>464.0</ele></trkpt><trkpt lat="38.88827" lon="-121.01776999999998"><ele>464.0</ele></trkpt><trkpt lat="38.88856" lon="-121.01779999999997"><ele>465.0</ele></trkpt><trkpt lat="38.88876137868071" lon="-121.01779350296181"><ele>465.0</ele></trkpt><trkpt lat="38.888785708846584" lon="-121.01783851021742"><ele>465.0</ele></trkpt><trkpt lat="38.88886086746183" lon="-121.01785996788954"><ele>465.0</ele></trkpt><trkpt lat="38.88897360523555" lon="-121.01781168812727"><ele>466.0</ele></trkpt><trkpt lat="38.889040412720725" lon="-121.017763408365"><ele>465.24192864037246</ele></trkpt><trkpt lat="38.88908216736708" lon="-121.0177097641847"><ele>465.0</ele></trkpt><trkpt lat="38.88916985204449" lon="-121.01764539116834"><ele>465.52160610446964</ele></trkpt><trkpt lat="38.88937027375785" lon="-121.01754346722578"><ele>466.76046221231195</ele></trkpt><trkpt lat="38.88942037909784" lon="-121.01743617886518"><ele>467.0</ele></trkpt><trkpt lat="38.889499712480536" lon="-121.01735571259474"><ele>467.0</ele></trkpt><trkpt lat="38.8895414668569" lon="-121.01732889050459"><ele>467.0</ele></trkpt><trkpt lat="38.88954158426992" lon="-121.01732947191022"><ele>467.0</ele></trkpt><trkpt lat="38.8896" lon="-121.01731000000001"><ele>467.0</ele></trkpt><trkpt lat="38.88963" lon="-121.01715999999999"><ele>467.0</ele></trkpt><trkpt lat="38.88962" lon="-121.01674000000003"><ele>467.0</ele></trkpt><trkpt lat="38.88963238605379" lon="-121.01664091156971"><ele>467.6491221860051</ele></trkpt><trkpt lat="38.88963214188627" lon="-121.0166428649153"><ele>467.6345028858632</ele></trkpt><trkpt lat="38.88964" lon="-121.01657999999998"><ele>468.0</ele></trkpt><trkpt lat="38.88967" lon="-121.01648999999998"><ele>468.0</ele></trkpt><trkpt lat="38.8899" lon="-121.01621"><ele>467.0</ele></trkpt><trkpt lat="38.89007" lon="-121.01614999999998"><ele>466.0</ele></trkpt><trkpt lat="38.89103" lon="-121.01603"><ele>468.2632568893023</ele></trkpt><trkpt lat="38.89103" lon="-121.01603"><ele>468.2632568893023</ele></trkpt><trkpt lat="38.89151" lon="-121.01601"><ele>469.33118933299556</ele></trkpt><trkpt lat="38.89232" lon="-121.01618000000002"><ele>468.574258119564</ele></trkpt><trkpt lat="38.89241" lon="-121.01623999999998"><ele>468.0</ele></trkpt><trkpt lat="38.892415584603086" lon="-121.01626233841239"><ele>468.0</ele></trkpt><trkpt lat="38.892415584603086" lon="-121.01626233841239"><ele>468.0</ele></trkpt><trkpt lat="38.89243" lon="-121.01632000000001"><ele>468.77823644457385</ele></trkpt><trkpt lat="38.89241" lon="-121.01677000000001"><ele>470.0</ele></trkpt><trkpt lat="38.892410543287085" lon="-121.01684877662694"><ele>469.0</ele></trkpt><trkpt lat="38.89241067171876" lon="-121.01686739921661"><ele>469.0</ele></trkpt><trkpt lat="38.89242" lon="-121.01821999999999"><ele>479.0</ele></trkpt><trkpt lat="38.8924" lon="-121.01890000000003"><ele>479.0</ele></trkpt><trkpt lat="38.8924" lon="-121.01890000000003"><ele>479.0</ele></trkpt><trkpt lat="38.89258" lon="-121.019"><ele>480.0</ele></trkpt><trkpt lat="38.89291" lon="-121.01927"><ele>476.0</ele></trkpt><trkpt lat="38.89293214207101" lon="-121.01927738069037"><ele>476.0</ele></trkpt><trkpt lat="38.892936519579514" lon="-121.01927883985405"><ele>476.0</ele></trkpt><trkpt lat="38.89303" lon="-121.01931000000002"><ele>476.0</ele></trkpt><trkpt lat="38.89358" lon="-121.01943"><ele>481.0</ele></trkpt><trkpt lat="38.89371" lon="-121.01943"><ele>482.0</ele></trkpt><trkpt lat="38.89393" lon="-121.01936999999998"><ele>482.0</ele></trkpt><trkpt lat="38.89407" lon="-121.01936999999998"><ele>481.0</ele></trkpt><trkpt lat="38.89415" lon="-121.01938000000001"><ele>481.0</ele></trkpt><trkpt lat="38.89439" lon="-121.01949000000002"><ele>479.48905599908903</ele></trkpt><trkpt lat="38.89531" lon="-121.01956999999999"><ele>478.76078577851877</ele></trkpt><trkpt lat="38.89553" lon="-121.01961"><ele>479.0</ele></trkpt><trkpt lat="38.89608" lon="-121.01986"><ele>478.0</ele></trkpt><trkpt lat="38.89635" lon="-121.02003000000002"><ele>476.0391282040514</ele></trkpt><trkpt lat="38.896346538732004" lon="-121.02002781956446"><ele>476.13948290653695</ele></trkpt><trkpt lat="38.89631" lon="-121.02004"><ele>477.0</ele></trkpt><trkpt lat="38.8962" lon="-121.02010999999999"><ele>477.0</ele></trkpt><trkpt lat="38.89613" lon="-121.02019999999999"><ele>478.0</ele></trkpt><trkpt lat="38.89591" lon="-121.02035999999998"><ele>479.0</ele></trkpt><trkpt lat="38.8958" lon="-121.02049999999997"><ele>479.0</ele></trkpt><trkpt lat="38.89569" lon="-121.02070000000003"><ele>479.0</ele></trkpt><trkpt lat="38.89561600446927" lon="-121.02089171569327"><ele>479.0</ele></trkpt><trkpt lat="38.895615046507714" lon="-121.02089419788285"><ele>479.0</ele></trkpt><trkpt lat="38.89547" lon="-121.02127000000002"><ele>478.1851191762835</ele></trkpt><trkpt lat="38.8953" lon="-121.02161000000001"><ele>479.0</ele></trkpt><trkpt lat="38.89518" lon="-121.02199000000002"><ele>479.0</ele></trkpt><trkpt lat="38.89516" lon="-121.02215000000001"><ele>480.0</ele></trkpt><trkpt lat="38.89517" lon="-121.02278999999999"><ele>480.221463477239</ele></trkpt><trkpt lat="38.89525" lon="-121.02326"><ele>480.0</ele></trkpt><trkpt lat="38.89519" lon="-121.02386999999999"><ele>478.0</ele></trkpt><trkpt lat="38.89519" lon="-121.02386999999999"><ele>478.0</ele></trkpt><trkpt lat="38.89529" lon="-121.02429000000001"><ele>476.0</ele></trkpt><trkpt lat="38.8953" lon="-121.02489000000003"><ele>472.8308159983717</ele></trkpt><trkpt lat="38.8953" lon="-121.02489000000003"><ele>472.8308159983717</ele></trkpt><trkpt lat="38.89534" lon="-121.02513999999996"><ele>471.0</ele></trkpt><trkpt lat="38.89544" lon="-121.02539000000002"><ele>470.0</ele></trkpt><trkpt lat="38.89544" lon="-121.02539000000002"><ele>470.0</ele></trkpt><trkpt lat="38.89557" lon="-121.02562999999998"><ele>470.0</ele></trkpt><trkpt lat="38.89572" lon="-121.02579000000003"><ele>470.0</ele></trkpt><trkpt lat="38.89585" lon="-121.02584999999999"><ele>470.0</ele></trkpt><trkpt lat="38.89621" lon="-121.02589999999998"><ele>470.0</ele></trkpt><trkpt lat="38.89647" lon="-121.02603999999997"><ele>469.0</ele></trkpt><trkpt lat="38.89657" lon="-121.02605"><ele>469.0</ele></trkpt><trkpt lat="38.89667981557387" lon="-121.02604450922126"><ele>468.00995772695353</ele></trkpt><trkpt lat="38.89667981557387" lon="-121.02604450922126"><ele>468.00995772695353</ele></trkpt><trkpt lat="38.89677" lon="-121.02603999999997"><ele>468.0</ele></trkpt><trkpt lat="38.89695" lon="-121.02600000000001"><ele>467.0</ele></trkpt><trkpt lat="38.89729258215928" lon="-121.02600000000001"><ele>460.9675699215329</ele></trkpt><trkpt lat="38.89729675819502" lon="-121.02600000000001"><ele>460.94229686968845</ele></trkpt><trkpt lat="38.89773" lon="-121.02600000000001"><ele>460.0</ele></trkpt><trkpt lat="38.89841" lon="-121.02589"><ele>451.17445400026173</ele></trkpt><trkpt lat="38.89855" lon="-121.02582999999998"><ele>450.0</ele></trkpt><trkpt lat="38.89875" lon="-121.02569"><ele>447.40729466080666</ele></trkpt><trkpt lat="38.89886" lon="-121.02566000000002"><ele>447.0</ele></trkpt><trkpt lat="38.89919" lon="-121.02566000000002"><ele>446.9462151103653</ele></trkpt><trkpt lat="38.9" lon="-121.02584999999999"><ele>442.4963181430837</ele></trkpt><trkpt lat="38.90055" lon="-121.02611000000002"><ele>440.9746951102279</ele></trkpt><trkpt lat="38.90079" lon="-121.02618000000001"><ele>437.71245866594836</ele></trkpt><trkpt lat="38.90091" lon="-121.02616"><ele>436.6445262222551</ele></trkpt><trkpt lat="38.90099" lon="-121.02611999999999"><ele>435.6413577572516</ele></trkpt><trkpt lat="38.90113" lon="-121.02593999999999"><ele>432.0</ele></trkpt><trkpt lat="38.90124" lon="-121.02584999999999"><ele>429.29913644865155</ele></trkpt><trkpt lat="38.90133" lon="-121.02582999999998"><ele>428.0</ele></trkpt><trkpt lat="38.90154" lon="-121.02594999999997"><ele>423.3339451700449</ele></trkpt><trkpt lat="38.90176" lon="-121.02621999999997"><ele>419.1516764429398</ele></trkpt><trkpt lat="38.90185" lon="-121.02627000000001"><ele>420.48184533417225</ele></trkpt><trkpt lat="38.90212" lon="-121.02630999999997"><ele>419.3459804430604</ele></trkpt><trkpt lat="38.90263" lon="-121.02647999999999"><ele>416.31227894887695</ele></trkpt><trkpt lat="38.90285" lon="-121.02669000000003"><ele>415.04891161577115</ele></trkpt><trkpt lat="38.903" lon="-121.02688"><ele>414.0</ele></trkpt><trkpt lat="38.90313" lon="-121.02699000000001"><ele>412.0</ele></trkpt><trkpt lat="38.90326" lon="-121.02706"><ele>411.0</ele></trkpt><trkpt lat="38.90393" lon="-121.02708000000001"><ele>407.0</ele></trkpt><trkpt lat="38.9042" lon="-121.02715"><ele>404.49281777860597</ele></trkpt><trkpt lat="38.90463" lon="-121.02735999999999"><ele>399.08051986255236</ele></trkpt><trkpt lat="38.90473" lon="-121.02738"><ele>397.0</ele></trkpt><trkpt lat="38.904968942122416" lon="-121.02734146094804"><ele>395.99408677913016</ele></trkpt><trkpt lat="38.904968942122416" lon="-121.02734146094804"><ele>395.99408677913016</ele></trkpt><trkpt lat="38.90500899192197" lon="-121.02733500267516"><ele>395.114567338489</ele></trkpt><trkpt lat="38.90500899192197" lon="-121.02733500267516"><ele>395.114567338489</ele></trkpt><trkpt lat="38.90504" lon="-121.02733"><ele>395.0</ele></trkpt><trkpt lat="38.90551" lon="-121.02732000000003"><ele>393.8286223549257</ele></trkpt><trkpt lat="38.90559" lon="-121.02724999999998"><ele>392.7964331395924</ele></trkpt><trkpt lat="38.90568" lon="-121.02711"><ele>391.4065535031259</ele></trkpt><trkpt lat="38.90574" lon="-121.02696000000003"><ele>390.5190263821912</ele></trkpt><trkpt lat="38.90574" lon="-121.02661999999998"><ele>386.64496662702254</ele></trkpt><trkpt lat="38.90578" lon="-121.02656000000002"><ele>384.41461522784084</ele></trkpt><trkpt lat="38.90584" lon="-121.02654000000001"><ele>383.0</ele></trkpt><trkpt lat="38.90615" lon="-121.02665000000002"><ele>380.8088711099699</ele></trkpt><trkpt lat="38.90649" lon="-121.02669000000003"><ele>378.9447359982878</ele></trkpt><trkpt lat="38.90666" lon="-121.02669000000003"><ele>377.8894719965756</ele></trkpt><trkpt lat="38.90666860539023" lon="-121.02668770522928"><ele>378.0516800666228</ele></trkpt><trkpt lat="38.90666830246849" lon="-121.0266877860106"><ele>378.04791538463905</ele></trkpt><trkpt lat="38.90681" lon="-121.02665000000002"><ele>376.8088711099699</ele></trkpt><trkpt lat="38.90726" lon="-121.02632"><ele>366.9710949510336</ele></trkpt><trkpt lat="38.90738" lon="-121.02616999999998"><ele>365.7749248612672</ele></trkpt><trkpt lat="38.90748" lon="-121.02598999999998"><ele>365.1746262819506</ele></trkpt><trkpt lat="38.90751" lon="-121.02598"><ele>363.8439864423126</ele></trkpt><trkpt lat="38.90753" lon="-121.02602999999999"><ele>362.31603471841663</ele></trkpt><trkpt lat="38.90725" lon="-121.02674999999999"><ele>354.38199835270643</ele></trkpt><trkpt lat="38.90723" lon="-121.02683999999999"><ele>353.55323970881454</ele></trkpt><trkpt lat="38.90725" lon="-121.02688"><ele>353.56232326954904</ele></trkpt><trkpt lat="38.90737" lon="-121.02688999999998"><ele>355.37593955453485</ele></trkpt><trkpt lat="38.90774" lon="-121.02683999999999"><ele>353.045770666562</ele></trkpt><trkpt lat="38.90798" lon="-121.02669000000003"><ele>351.07389535352917</ele></trkpt><trkpt lat="38.90813" lon="-121.02665000000002"><ele>351.1911288900301</ele></trkpt><trkpt lat="38.90813" lon="-121.02665000000002"><ele>351.1911288900301</ele></trkpt><trkpt lat="38.90822" lon="-121.02665999999999"><ele>350.4135270128901</ele></trkpt><trkpt lat="38.90834" lon="-121.02674000000002"><ele>347.4880138975568</ele></trkpt><trkpt lat="38.9084" lon="-121.02683999999999"><ele>346.0233059416921</ele></trkpt><trkpt lat="38.90864" lon="-121.0274"><ele>340.259775620423</ele></trkpt><trkpt lat="38.90871" lon="-121.02751999999998"><ele>337.6793524129316</ele></trkpt><trkpt lat="38.9091" lon="-121.02792999999997"><ele>334.42951632197946</ele></trkpt><trkpt lat="38.9095" lon="-121.02843999999999"><ele>328.2409816030413</ele></trkpt><trkpt lat="38.90999" lon="-121.02879999999999"><ele>324.67159833200276</ele></trkpt><trkpt lat="38.91018" lon="-121.02904000000001"><ele>320.95896724173895</ele></trkpt><trkpt lat="38.91036342437528" lon="-121.0293589989135"><ele>318.9183048699051</ele></trkpt><trkpt lat="38.91036906464661" lon="-121.02936880798626"><ele>318.5805003158748</ele></trkpt><trkpt lat="38.91041" lon="-121.02944000000002"><ele>318.02763828012746</ele></trkpt><trkpt lat="38.9105" lon="-121.02963999999997"><ele>315.73857240751386</ele></trkpt><trkpt lat="38.91064" lon="-121.03012000000001"><ele>312.0</ele></trkpt><trkpt lat="38.91074" lon="-121.03057999999999"><ele>309.0</ele></trkpt><trkpt lat="38.91075" lon="-121.03073999999998"><ele>307.8127531327175</ele></trkpt><trkpt lat="38.91073" lon="-121.03087"><ele>307.0</ele></trkpt><trkpt lat="38.91068" lon="-121.031"><ele>306.9615910267536</ele></trkpt><trkpt lat="38.91062" lon="-121.03105"><ele>305.75400888873264</ele></trkpt><trkpt lat="38.91004" lon="-121.03111000000001"><ele>298.9878209818377</ele></trkpt><trkpt lat="38.90963" lon="-121.03097000000002"><ele>294.638285334222</ele></trkpt><trkpt lat="38.9095" lon="-121.03095000000002"><ele>292.1533884456446</ele></trkpt><trkpt lat="38.90945" lon="-121.03098999999997"><ele>292.0</ele></trkpt><trkpt lat="38.90945" lon="-121.03098999999997"><ele>292.0</ele></trkpt><trkpt lat="38.90945" lon="-121.03098999999997"><ele>292.0</ele></trkpt><trkpt lat="38.90948" lon="-121.03111999999999"><ele>292.0</ele></trkpt><trkpt lat="38.90963" lon="-121.03132"><ele>289.0</ele></trkpt><trkpt lat="38.90966" lon="-121.03142000000003"><ele>287.51075911009684</ele></trkpt><trkpt lat="38.90966" lon="-121.03224999999998"><ele>280.0</ele></trkpt><trkpt lat="38.90962" lon="-121.03237999999999"><ele>278.8727124858841</ele></trkpt><trkpt lat="38.90943" lon="-121.03273999999999"><ele>274.81646172655746</ele></trkpt><trkpt lat="38.90927" lon="-121.03296"><ele>273.30008673674905</ele></trkpt><trkpt lat="38.90925" lon="-121.03305"><ele>272.14973651245236</ele></trkpt><trkpt lat="38.90927" lon="-121.03323999999998"><ele>267.529062169752</ele></trkpt><trkpt lat="38.90943" lon="-121.03361000000001"><ele>266.8221612814814</ele></trkpt><trkpt lat="38.90945" lon="-121.03377"><ele>265.61716738250107</ele></trkpt><trkpt lat="38.90944" lon="-121.03388000000001"><ele>265.08970348583534</ele></trkpt><trkpt lat="38.9093" lon="-121.03417999999999"><ele>263.0</ele></trkpt><trkpt lat="38.9093" lon="-121.03430000000003"><ele>261.8851177572179</ele></trkpt><trkpt lat="38.90934" lon="-121.03436999999997"><ele>261.97574382981287</ele></trkpt><trkpt lat="38.90941" lon="-121.03439000000003"><ele>261.8832689061255</ele></trkpt><trkpt lat="38.90983" lon="-121.03439000000003"><ele>257.78031532749105</ele></trkpt><trkpt lat="38.91039" lon="-121.03454999999997"><ele>251.6844627908431</ele></trkpt><trkpt lat="38.91054" lon="-121.03472999999997"><ele>248.25595197672527</ele></trkpt><trkpt lat="38.9107" lon="-121.03508999999997"><ele>242.7602243423462</ele></trkpt><trkpt lat="38.91082" lon="-121.03529000000003"><ele>241.0</ele></trkpt><trkpt lat="38.911002335401704" lon="-121.03541041017093"><ele>240.8110474006204</ele></trkpt><trkpt lat="38.91100735612522" lon="-121.03541372544441"><ele>240.7475235098266</ele></trkpt><trkpt lat="38.91135" lon="-121.03564"><ele>237.1291169242967</ele></trkpt><trkpt lat="38.91173902563567" lon="-121.03584296989686"><ele>232.32611200622893</ele></trkpt><trkpt lat="38.91173902563567" lon="-121.03584296989686"><ele>232.32611200622893</ele></trkpt><trkpt lat="38.91181" lon="-121.03588000000002"><ele>232.09521043840965</ele></trkpt><trkpt lat="38.91213" lon="-121.03631000000001"><ele>233.0</ele></trkpt><trkpt lat="38.91243" lon="-121.03676000000002"><ele>230.0</ele></trkpt><trkpt lat="38.91274" lon="-121.03710999999998"><ele>227.0</ele></trkpt><trkpt lat="38.91285" lon="-121.03721000000002"><ele>225.0</ele></trkpt><trkpt lat="38.91318" lon="-121.03739000000002"><ele>223.16070961022197</ele></trkpt><trkpt lat="38.91338" lon="-121.03753"><ele>220.4829828897491</ele></trkpt><trkpt lat="38.91346" lon="-121.03766000000002"><ele>220.07138280143454</ele></trkpt><trkpt lat="38.91394" lon="-121.03865000000002"><ele>217.53935281547317</ele></trkpt><trkpt lat="38.91403" lon="-121.03879"><ele>217.96998630407546</ele></trkpt><trkpt lat="38.91431" lon="-121.03908999999999"><ele>218.48238710593432</ele></trkpt><trkpt lat="38.91446" lon="-121.0394"><ele>216.56099851243198</ele></trkpt><trkpt lat="38.91450094324566" lon="-121.03956962201778"><ele>215.10870220325887</ele></trkpt><trkpt lat="38.91450094324566" lon="-121.03956962201778"><ele>215.10870220325887</ele></trkpt><trkpt lat="38.91453" lon="-121.03969000000001"><ele>214.36834661103785</ele></trkpt><trkpt lat="38.914537409157305" lon="-121.03985300146064"><ele>212.92457469180226</ele></trkpt><trkpt lat="38.91453772798482" lon="-121.03986001566363"><ele>212.90547849610448</ele></trkpt><trkpt lat="38.91454" lon="-121.03991000000002"><ele>211.96496705019027</ele></trkpt><trkpt lat="38.91451" lon="-121.04009000000002"><ele>207.45947377663106</ele></trkpt><trkpt lat="38.9144" lon="-121.04027000000002"><ele>203.22556262882426</ele></trkpt><trkpt lat="38.91422" lon="-121.04043000000001"><ele>202.55009897146374</ele></trkpt><trkpt lat="38.91398" lon="-121.04057999999998"><ele>202.36444169546624</ele></trkpt><trkpt lat="38.91386" lon="-121.04062999999996"><ele>202.2936497796327</ele></trkpt><trkpt lat="38.91361" lon="-121.04059000000001"><ele>202.31556977704167</ele></trkpt><trkpt lat="38.91328" lon="-121.04075"><ele>203.40248888824135</ele></trkpt><trkpt lat="38.91303" lon="-121.04079999999999"><ele>200.37107555568218</ele></trkpt><trkpt lat="38.91295" lon="-121.04080999999996"><ele>198.90504177985713</ele></trkpt><trkpt lat="38.91282" lon="-121.04070999999999"><ele>198.77771982736886</ele></trkpt><trkpt lat="38.91278" lon="-121.04070999999999"><ele>196.8165963999927</ele></trkpt><trkpt lat="38.91277" lon="-121.04077000000001"><ele>194.16741953630836</ele></trkpt><trkpt lat="38.91285" lon="-121.04092000000003"><ele>191.78781928075477</ele></trkpt><trkpt lat="38.91293" lon="-121.041"><ele>189.05040000006557</ele></trkpt><trkpt lat="38.91299" lon="-121.04104000000001"><ele>187.11282683024461</ele></trkpt><trkpt lat="38.91314" lon="-121.04101000000003"><ele>185.0</ele></trkpt><trkpt lat="38.91317" lon="-121.04102"><ele>184.84556999624633</ele></trkpt><trkpt lat="38.91319" lon="-121.04106999999999"><ele>177.6184205133468</ele></trkpt><trkpt lat="38.91319" lon="-121.04106999999999"><ele>177.6184205133468</ele></trkpt><trkpt lat="38.91305" lon="-121.04119000000003"><ele>178.20786449545994</ele></trkpt><trkpt lat="38.91305" lon="-121.04119000000003"><ele>178.20786449545994</ele></trkpt><trkpt lat="38.91287442084679" lon="-121.04140344916664"><ele>161.2483060732484</ele></trkpt><trkpt lat="38.9128744926717" lon="-121.04140336311946"><ele>161.25231616199017</ele></trkpt><trkpt lat="38.91203" lon="-121.04242999999997"><ele>182.61153576265298</ele></trkpt><trkpt lat="38.91203" lon="-121.04242999999997"><ele>182.61153576265298</ele></trkpt><trkpt lat="38.91192" lon="-121.04254000000003"><ele>185.22169986755972</ele></trkpt><trkpt lat="38.91192" lon="-121.04254000000003"><ele>185.22169986755972</ele></trkpt><trkpt lat="38.91192" lon="-121.04254000000003"><ele>185.22169986755972</ele></trkpt><trkpt lat="38.91173" lon="-121.04266000000001"><ele>185.60025712086025</ele></trkpt><trkpt lat="38.91149" lon="-121.04272000000003"><ele>184.0595673681702</ele></trkpt><trkpt lat="38.91117" lon="-121.04289"><ele>184.41901047015563</ele></trkpt><trkpt lat="38.91062" lon="-121.04335000000003"><ele>187.1256292389893</ele></trkpt><trkpt lat="38.91023768806792" lon="-121.04350439520334"><ele>191.02822679080185</ele></trkpt><trkpt lat="38.91023477806452" lon="-121.04350557054471"><ele>190.98811620233397</ele></trkpt><trkpt lat="38.9101" lon="-121.04356000000001"><ele>191.50849422439933</ele></trkpt><trkpt lat="38.909744667519256" lon="-121.04359675853249"><ele>189.02278539939343</ele></trkpt><trkpt lat="38.90971733103795" lon="-121.04359958644432"><ele>189.09910913091153</ele></trkpt><trkpt lat="38.90923" lon="-121.04365000000001"><ele>189.0</ele></trkpt><trkpt lat="38.90876" lon="-121.04376000000002"><ele>190.0</ele></trkpt><trkpt lat="38.90855" lon="-121.04388"><ele>191.07936411118357</ele></trkpt><trkpt lat="38.90836" lon="-121.04406"><ele>192.0529339092611</ele></trkpt><trkpt lat="38.90813" lon="-121.04440999999997"><ele>193.86711822124198</ele></trkpt><trkpt lat="38.90813" lon="-121.04440999999997"><ele>193.86711822124198</ele></trkpt><trkpt lat="38.90794" lon="-121.04478"><ele>194.94800375177522</ele></trkpt><trkpt lat="38.90781" lon="-121.04496"><ele>196.57709853076324</ele></trkpt><trkpt lat="38.9076" lon="-121.04512"><ele>196.0</ele></trkpt><trkpt lat="38.9076" lon="-121.04512"><ele>196.0</ele></trkpt><trkpt lat="38.9076" lon="-121.04512"><ele>196.0</ele></trkpt><trkpt lat="38.90706381431414" lon="-121.04528979213387"><ele>199.2043645614758</ele></trkpt><trkpt lat="38.9070656639662" lon="-121.04528920648897"><ele>199.260551860556</ele></trkpt><trkpt lat="38.907" lon="-121.04530999999997"><ele>197.8101582210511</ele></trkpt><trkpt lat="38.90667" lon="-121.04557999999997"><ele>199.27564368769526</ele></trkpt><trkpt lat="38.90654" lon="-121.04575"><ele>199.4791707706798</ele></trkpt><trkpt lat="38.9064" lon="-121.04599000000002"><ele>200.35668915575</ele></trkpt><trkpt lat="38.90635" lon="-121.04615999999999"><ele>200.71832078136504</ele></trkpt><trkpt lat="38.90636" lon="-121.04633999999999"><ele>199.5055650374852</ele></trkpt><trkpt lat="38.90652" lon="-121.04653000000002"><ele>198.33372088801116</ele></trkpt><trkpt lat="38.90653" lon="-121.04658999999998"><ele>198.23040947893182</ele></trkpt><trkpt lat="38.90636" lon="-121.04687999999999"><ele>200.3172023706138</ele></trkpt><trkpt lat="38.90629" lon="-121.04717"><ele>203.06157137195967</ele></trkpt><trkpt lat="38.90609" lon="-121.04726"><ele>203.83417397132143</ele></trkpt><trkpt lat="38.90603" lon="-121.04736000000003"><ele>204.26305420951445</ele></trkpt><trkpt lat="38.90603" lon="-121.04736000000003"><ele>204.26305420951445</ele></trkpt><trkpt lat="38.90594" lon="-121.04771"><ele>204.1642482690513</ele></trkpt><trkpt lat="38.90594" lon="-121.04788000000002"><ele>204.1642482690513</ele></trkpt><trkpt lat="38.90597" lon="-121.04804999999999"><ele>205.0</ele></trkpt><trkpt lat="38.90616" lon="-121.04858000000002"><ele>205.0</ele></trkpt><trkpt lat="38.90626" lon="-121.04874999999998"><ele>204.32839027792215</ele></trkpt><trkpt lat="38.90627" lon="-121.04892000000001"><ele>202.87891910644248</ele></trkpt><trkpt lat="38.9064" lon="-121.04906"><ele>202.8354443465224</ele></trkpt><trkpt lat="38.90643" lon="-121.04912999999999"><ele>204.34443718846887</ele></trkpt><trkpt lat="38.90632" lon="-121.04924"><ele>207.92286577820778</ele></trkpt><trkpt lat="38.90603" lon="-121.04930999999999"><ele>210.00149314384907</ele></trkpt><trkpt lat="38.90599" lon="-121.04935999999998"><ele>209.33436129433125</ele></trkpt><trkpt lat="38.90566" lon="-121.05034"><ele>210.0</ele></trkpt><trkpt lat="38.905596065722655" lon="-121.05043299531246"><ele>211.0</ele></trkpt><trkpt lat="38.9055936483304" lon="-121.05043651162384"><ele>211.0</ele></trkpt><trkpt lat="38.90544" lon="-121.05066"><ele>212.0</ele></trkpt><trkpt lat="38.9052" lon="-121.05090999999999"><ele>211.84750073216856</ele></trkpt><trkpt lat="38.90514" lon="-121.05111999999997"><ele>206.93792041521482</ele></trkpt><trkpt lat="38.90511" lon="-121.05114000000003"><ele>205.74027235419555</ele></trkpt><trkpt lat="38.90477" lon="-121.05106"><ele>212.9788200269907</ele></trkpt><trkpt lat="38.9041" lon="-121.05097999999998"><ele>215.05274136355</ele></trkpt><trkpt lat="38.90396" lon="-121.05099999999999"><ele>215.98337777750567</ele></trkpt><trkpt lat="38.90350383705793" lon="-121.05116393355729"><ele>217.79169015078054</ele></trkpt><trkpt lat="38.903506703703314" lon="-121.0511629035708"><ele>217.82946630338748</ele></trkpt><trkpt lat="38.90332" lon="-121.05123000000003"><ele>218.70215466804802</ele></trkpt><trkpt lat="38.90287" lon="-121.05141000000003"><ele>219.09076266782358</ele></trkpt><trkpt lat="38.90287" lon="-121.05141000000003"><ele>219.09076266782358</ele></trkpt><trkpt lat="38.90274" lon="-121.05150000000003"><ele>219.0</ele></trkpt><trkpt lat="38.90220424767261" lon="-121.05207978612242"><ele>221.61369115222175</ele></trkpt><trkpt lat="38.90220424767261" lon="-121.05207978612242"><ele>221.61369115222175</ele></trkpt><trkpt lat="38.90201" lon="-121.05228999999997"><ele>222.0</ele></trkpt><trkpt lat="38.90191" lon="-121.05241999999998"><ele>223.13186000291793</ele></trkpt><trkpt lat="38.9018" lon="-121.05263000000002"><ele>223.22341591993333</ele></trkpt><trkpt lat="38.90157" lon="-121.05349999999999"><ele>224.27310585046556</ele></trkpt><trkpt lat="38.90142" lon="-121.05376999999999"><ele>226.55470343260095</ele></trkpt><trkpt lat="38.90122" lon="-121.05394999999999"><ele>226.69648992478875</ele></trkpt><trkpt lat="38.90086" lon="-121.05416000000002"><ele>228.23631461365235</ele></trkpt><trkpt lat="38.90071" lon="-121.05434000000002"><ele>228.9864657964875</ele></trkpt><trkpt lat="38.90049" lon="-121.05451"><ele>231.23419968921948</ele></trkpt><trkpt lat="38.90041757923923" lon="-121.05454912385926"><ele>230.55813037676518</ele></trkpt><trkpt lat="38.90041603795772" lon="-121.05454995672955"><ele>230.57539301544838</ele></trkpt><trkpt lat="38.89962" lon="-121.05498"><ele>233.78561416483402</ele></trkpt><trkpt lat="38.89849" lon="-121.05524000000003"><ele>237.17705757263363</ele></trkpt><trkpt lat="38.89839" lon="-121.05529999999999"><ele>236.41323417332023</ele></trkpt><trkpt lat="38.89806" lon="-121.05558000000002"><ele>236.0</ele></trkpt><trkpt lat="38.89806" lon="-121.05558000000002"><ele>236.0</ele></trkpt><trkpt lat="38.89799" lon="-121.05583000000001"><ele>239.08282302692533</ele></trkpt><trkpt lat="38.89799" lon="-121.05583000000001"><ele>239.08282302692533</ele></trkpt><trkpt lat="38.89799" lon="-121.05583000000001"><ele>239.08282302692533</ele></trkpt><trkpt lat="38.898" lon="-121.05597"><ele>240.4104564285825</ele></trkpt><trkpt lat="38.89809" lon="-121.05586"><ele>242.51297971370374</ele></trkpt><trkpt lat="38.89829" lon="-121.05578000000003"><ele>246.03527718449857</ele></trkpt><trkpt lat="38.89845" lon="-121.05554000000001"><ele>249.0</ele></trkpt><trkpt lat="38.89847" lon="-121.05554000000001"><ele>249.82584992609918</ele></trkpt><trkpt lat="38.89844" lon="-121.05583000000001"><ele>252.0022845503838</ele></trkpt><trkpt lat="38.89831" lon="-121.05617000000001"><ele>255.2259293261385</ele></trkpt><trkpt lat="38.89821" lon="-121.05637000000002"><ele>254.256686238572</ele></trkpt><trkpt lat="38.89822" lon="-121.0566"><ele>253.03225802202923</ele></trkpt><trkpt lat="38.89811" lon="-121.05680999999998"><ele>251.20115330684035</ele></trkpt><trkpt lat="38.89798" lon="-121.05683999999997"><ele>254.14710399881005</ele></trkpt><trkpt lat="38.89792" lon="-121.05682000000002"><ele>255.2150364452973</ele></trkpt><trkpt lat="38.89784480797223" lon="-121.05676189706946"><ele>255.0</ele></trkpt><trkpt lat="38.897848343851486" lon="-121.05676462928193"><ele>255.0</ele></trkpt><trkpt lat="38.8977" lon="-121.05664999999999"><ele>259.08266783261814</ele></trkpt><trkpt lat="38.89765" lon="-121.05664000000002"><ele>260.82642844552174</ele></trkpt><trkpt lat="38.89775" lon="-121.05689000000001"><ele>263.7658904539421</ele></trkpt><trkpt lat="38.89773" lon="-121.05691000000002"><ele>265.19903582463434</ele></trkpt><trkpt lat="38.89736" lon="-121.05656999999997"><ele>271.2062969356775</ele></trkpt><trkpt lat="38.89728" lon="-121.05653000000001"><ele>272.3028082291134</ele></trkpt><trkpt lat="38.89711" lon="-121.05653000000001"><ele>277.31227858085185</ele></trkpt><trkpt lat="38.89691" lon="-121.05660999999998"><ele>279.76462920848394</ele></trkpt><trkpt lat="38.89689" lon="-121.05676"><ele>283.0</ele></trkpt><trkpt lat="38.89683" lon="-121.05683999999997"><ele>285.202810795771</ele></trkpt><trkpt lat="38.8967" lon="-121.05682000000002"><ele>288.03507224686473</ele></trkpt><trkpt lat="38.89646" lon="-121.05664000000002"><ele>292.0</ele></trkpt><trkpt lat="38.89629" lon="-121.05660999999998"><ele>294.3057547674006</ele></trkpt><trkpt lat="38.89585" lon="-121.05680000000001"><ele>301.0</ele></trkpt><trkpt lat="38.89579417933383" lon="-121.05684837791068"><ele>302.5375429368578</ele></trkpt><trkpt lat="38.89579417933383" lon="-121.05684837791068"><ele>302.5375429368578</ele></trkpt><trkpt lat="38.8957" lon="-121.05692999999997"><ele>305.341407998465</ele></trkpt><trkpt lat="38.89548" lon="-121.05705"><ele>310.73202468420817</ele></trkpt><trkpt lat="38.89505" lon="-121.05707999999998"><ele>318.3199582894786</ele></trkpt><trkpt lat="38.89505" lon="-121.05707999999998"><ele>318.3199582894786</ele></trkpt><trkpt lat="38.89478" lon="-121.05705"><ele>320.0</ele></trkpt><trkpt lat="38.89462" lon="-121.05686000000003"><ele>322.0</ele></trkpt><trkpt lat="38.89462" lon="-121.05686000000003"><ele>322.0</ele></trkpt><trkpt lat="38.89448" lon="-121.05662000000001"><ele>325.0</ele></trkpt><trkpt lat="38.89439" lon="-121.05653000000001"><ele>326.0</ele></trkpt><trkpt lat="38.89415" lon="-121.05641000000003"><ele>328.0</ele></trkpt><trkpt lat="38.89398" lon="-121.05612000000002"><ele>332.0</ele></trkpt><trkpt lat="38.89349" lon="-121.05563000000001"><ele>337.0</ele></trkpt><trkpt lat="38.89321" lon="-121.05538999999999"><ele>341.0</ele></trkpt><trkpt lat="38.89294" lon="-121.05525999999998"><ele>346.0</ele></trkpt><trkpt lat="38.89287" lon="-121.05520000000001"><ele>347.0</ele></trkpt><trkpt lat="38.8926" lon="-121.0546"><ele>353.66407772898674</ele></trkpt><trkpt lat="38.89255" lon="-121.05443000000002"><ele>354.1670364430174</ele></trkpt><trkpt lat="38.89253" lon="-121.05403999999999"><ele>357.29286133798087</ele></trkpt><trkpt lat="38.89249" lon="-121.05392999999998"><ele>358.4687253343873</ele></trkpt><trkpt lat="38.89245" lon="-121.05385000000001"><ele>360.0</ele></trkpt><trkpt lat="38.89235" lon="-121.05380000000002"><ele>361.0</ele></trkpt><trkpt lat="38.89235" lon="-121.05380000000002"><ele>361.0</ele></trkpt><trkpt lat="38.89226" lon="-121.05437999999998"><ele>367.0</ele></trkpt><trkpt lat="38.89224" lon="-121.05595"><ele>381.0</ele></trkpt><trkpt lat="38.89247" lon="-121.05692999999997"><ele>394.0</ele></trkpt><trkpt lat="38.89258" lon="-121.05749000000003"><ele>398.5168955945958</ele></trkpt><trkpt lat="38.89265" lon="-121.05777999999998"><ele>403.0</ele></trkpt><trkpt lat="38.89265" lon="-121.05777999999998"><ele>403.0</ele></trkpt><trkpt lat="38.89265" lon="-121.05777999999998"><ele>403.0</ele></trkpt><trkpt lat="38.89269" lon="-121.05786"><ele>404.0</ele></trkpt><trkpt lat="38.89269" lon="-121.05786"><ele>404.0</ele></trkpt><trkpt lat="38.89269" lon="-121.05786"><ele>404.0</ele></trkpt><trkpt lat="38.89288" lon="-121.05811"><ele>406.0</ele></trkpt><trkpt lat="38.89329" lon="-121.05883"><ele>411.0</ele></trkpt><trkpt lat="38.893343184103806" lon="-121.05903741800483"><ele>412.0</ele></trkpt><trkpt lat="38.89334651458489" lon="-121.05905040681358"><ele>412.0</ele></trkpt><trkpt lat="38.89339" lon="-121.05921999999998"><ele>412.36133292131126</ele></trkpt><trkpt lat="38.89339" lon="-121.05968000000001"><ele>414.36133292131126</ele></trkpt><trkpt lat="38.89323495007597" lon="-121.0600565498155"><ele>418.0</ele></trkpt><trkpt lat="38.89323495007597" lon="-121.0600565498155"><ele>418.0</ele></trkpt><trkpt lat="38.89320045908589" lon="-121.06014031364856"><ele>418.0</ele></trkpt><trkpt lat="38.89320045908589" lon="-121.06014031364856"><ele>418.0</ele></trkpt><trkpt lat="38.89311" lon="-121.06036"><ele>419.0</ele></trkpt><trkpt lat="38.89309" lon="-121.06052"><ele>420.0</ele></trkpt><trkpt lat="38.89318" lon="-121.06074999999998"><ele>420.3663111105561</ele></trkpt><trkpt lat="38.89367999941991" lon="-121.06125000046688"><ele>424.0</ele></trkpt><trkpt lat="38.89367999941991" lon="-121.06125000046688"><ele>424.0</ele></trkpt><trkpt lat="38.8938" lon="-121.06137000000001"><ele>424.0</ele></trkpt><trkpt lat="38.89396" lon="-121.0616"><ele>423.2263650162964</ele></trkpt><trkpt lat="38.89396" lon="-121.0616"><ele>423.2263650162964</ele></trkpt><trkpt lat="38.89442004435729" lon="-121.0615950797395"><ele>419.0</ele></trkpt><trkpt lat="38.89442004435729" lon="-121.0615950797395"><ele>419.0</ele></trkpt><trkpt lat="38.89538002289646" lon="-121.06158481258933"><ele>418.0</ele></trkpt><trkpt lat="38.89538002289646" lon="-121.06158481258933"><ele>418.0</ele></trkpt><trkpt lat="38.89583" lon="-121.06157999999999"><ele>418.0</ele></trkpt><trkpt lat="38.8959003543544" lon="-121.0615975885886"><ele>418.0</ele></trkpt><trkpt lat="38.8959003543544" lon="-121.0615975885886"><ele>418.0</ele></trkpt><trkpt lat="38.89595" lon="-121.06160999999997"><ele>418.0</ele></trkpt><trkpt lat="38.89604" lon="-121.06166999999999"><ele>418.0</ele></trkpt><trkpt lat="38.896099484935355" lon="-121.06176914155895"><ele>417.1382498079911</ele></trkpt><trkpt lat="38.896099484935355" lon="-121.06176914155895"><ele>417.1382498079911</ele></trkpt><trkpt lat="38.89613" lon="-121.06182000000001"><ele>417.0</ele></trkpt><trkpt lat="38.89613" lon="-121.06182000000001"><ele>417.0</ele></trkpt><trkpt lat="38.89625" lon="-121.06202000000002"><ele>416.0</ele></trkpt><trkpt lat="38.89625" lon="-121.06202000000002"><ele>416.0</ele></trkpt><trkpt lat="38.89625" lon="-121.06202000000002"><ele>416.0</ele></trkpt><trkpt lat="38.89637" lon="-121.06214999999997"><ele>416.0</ele></trkpt><trkpt lat="38.89637" lon="-121.06214999999997"><ele>416.0</ele></trkpt><trkpt lat="38.89637" lon="-121.06214999999997"><ele>416.0</ele></trkpt><trkpt lat="38.896560941705864" lon="-121.06232970984081"><ele>415.0</ele></trkpt><trkpt lat="38.896566034672276" lon="-121.06233450215063"><ele>415.0</ele></trkpt><trkpt lat="38.89739" lon="-121.06311"><ele>416.0</ele></trkpt><trkpt lat="38.89758" lon="-121.06324999999998"><ele>417.0</ele></trkpt><trkpt lat="38.89776" lon="-121.06333999999998"><ele>416.0</ele></trkpt><trkpt lat="38.89776" lon="-121.06333999999998"><ele>416.0</ele></trkpt><trkpt lat="38.89776" lon="-121.06333999999998"><ele>416.0</ele></trkpt><trkpt lat="38.89828882578543" lon="-121.06355420767125"><ele>420.92621702128264</ele></trkpt><trkpt lat="38.89828882578543" lon="-121.06355420767125"><ele>420.92621702128264</ele></trkpt><trkpt lat="38.89855" lon="-121.06366000000003"><ele>424.0</ele></trkpt><trkpt lat="38.89855" lon="-121.06366000000003"><ele>424.0</ele></trkpt><trkpt lat="38.89889" lon="-121.06448"><ele>421.0</ele></trkpt><trkpt lat="38.89898" lon="-121.06465000000003"><ele>420.0</ele></trkpt><trkpt lat="38.89898" lon="-121.06465000000003"><ele>420.0</ele></trkpt><trkpt lat="38.89902" lon="-121.06483000000003"><ele>414.86615431351805</ele></trkpt><trkpt lat="38.89902" lon="-121.06483000000003"><ele>414.86615431351805</ele></trkpt><trkpt lat="38.89898" lon="-121.06511999999998"><ele>419.0</ele></trkpt><trkpt lat="38.89898" lon="-121.06511999999998"><ele>419.0</ele></trkpt><trkpt lat="38.89901" lon="-121.06525999999997"><ele>418.0</ele></trkpt><trkpt lat="38.8991" lon="-121.06538999999998"><ele>418.0</ele></trkpt><trkpt lat="38.89909652009035" lon="-121.0654009586674"><ele>417.883305083029</ele></trkpt><trkpt lat="38.89923" lon="-121.06547"><ele>416.44202865855436</ele></trkpt><trkpt lat="38.89923" lon="-121.06547"><ele>416.44202865855436</ele></trkpt><trkpt lat="38.89923" lon="-121.06547"><ele>416.44202865855436</ele></trkpt><trkpt lat="38.89958" lon="-121.06570999999997"><ele>414.0</ele></trkpt><trkpt lat="38.89975007512853" lon="-121.065871123806"><ele>412.0</ele></trkpt><trkpt lat="38.89975907958721" lon="-121.06587965433272"><ele>412.0</ele></trkpt><trkpt lat="38.89977" lon="-121.06588999999997"><ele>412.0</ele></trkpt><trkpt lat="38.89984" lon="-121.06601"><ele>411.0</ele></trkpt><trkpt lat="38.90004484445677" lon="-121.06649984544009"><ele>407.0</ele></trkpt><trkpt lat="38.90005255916532" lon="-121.0665182936562"><ele>406.888362320276</ele></trkpt><trkpt lat="38.90022365412442" lon="-121.06692743377579"><ele>402.0</ele></trkpt><trkpt lat="38.90022365412442" lon="-121.06692743377579"><ele>402.0</ele></trkpt><trkpt lat="38.9003" lon="-121.06711000000001"><ele>400.0</ele></trkpt><trkpt lat="38.9003" lon="-121.06711000000001"><ele>400.0</ele></trkpt><trkpt lat="38.9003" lon="-121.06711000000001"><ele>400.0</ele></trkpt><trkpt lat="38.90011616243447" lon="-121.06738674460678"><ele>400.0</ele></trkpt><trkpt lat="38.90011616243447" lon="-121.06738674460678"><ele>400.0</ele></trkpt><trkpt lat="38.89994460538892" lon="-121.06764500241695"><ele>399.3032864728011</ele></trkpt><trkpt lat="38.89994460538892" lon="-121.06764500241695"><ele>399.3032864728011</ele></trkpt><trkpt lat="38.89980103835722" lon="-121.06786112474009"><ele>399.0</ele></trkpt><trkpt lat="38.89980103835722" lon="-121.06786112474009"><ele>399.0</ele></trkpt><trkpt lat="38.89975307547026" lon="-121.06793332690535"><ele>399.0</ele></trkpt><trkpt lat="38.89975307547026" lon="-121.06793332690535"><ele>399.0</ele></trkpt><trkpt lat="38.89964950278882" lon="-121.06808924270479"><ele>398.0</ele></trkpt><trkpt lat="38.89964950278882" lon="-121.06808924270479"><ele>398.0</ele></trkpt><trkpt lat="38.89960918043539" lon="-121.06814994299646"><ele>398.0</ele></trkpt><trkpt lat="38.89960918043539" lon="-121.06814994299646"><ele>398.0</ele></trkpt><trkpt lat="38.89937" lon="-121.06851"><ele>397.0</ele></trkpt><trkpt lat="38.89937" lon="-121.06851"><ele>397.0</ele></trkpt><trkpt lat="38.8993" lon="-121.06857000000002"><ele>397.0</ele></trkpt><trkpt lat="38.89910726896297" lon="-121.06865922733198"><ele>397.0</ele></trkpt><trkpt lat="38.89910943688355" lon="-121.0686582238821"><ele>397.0</ele></trkpt><trkpt lat="38.89876" lon="-121.06882000000002"><ele>397.0</ele></trkpt><trkpt lat="38.89875239932138" lon="-121.06885038677882"><ele>397.0</ele></trkpt><trkpt lat="38.89875239932138" lon="-121.06885038677882"><ele>397.0</ele></trkpt><trkpt lat="38.89872" lon="-121.06898000000001"><ele>395.0</ele></trkpt><trkpt lat="38.89867" lon="-121.06909000000002"><ele>393.9615182215348</ele></trkpt><trkpt lat="38.89859" lon="-121.06920000000002"><ele>392.0097186067206</ele></trkpt><trkpt lat="38.89844" lon="-121.06934000000001"><ele>391.0</ele></trkpt><trkpt lat="38.89844" lon="-121.06934000000001"><ele>391.0</ele></trkpt><trkpt lat="38.89835" lon="-121.06939999999997"><ele>390.0</ele></trkpt><trkpt lat="38.89835" lon="-121.06939999999997"><ele>390.0</ele></trkpt><trkpt lat="38.89837816284604" lon="-121.06952616955027"><ele>389.0</ele></trkpt><trkpt lat="38.89837948890143" lon="-121.06953211024609"><ele>389.0</ele></trkpt><trkpt lat="38.89841436870752" lon="-121.06968837180972"><ele>388.0</ele></trkpt><trkpt lat="38.89841436870752" lon="-121.06968837180972"><ele>388.0</ele></trkpt><trkpt lat="38.89846354833308" lon="-121.06990869653225"><ele>387.0</ele></trkpt><trkpt lat="38.89846354833308" lon="-121.06990869653225"><ele>387.0</ele></trkpt><trkpt lat="38.89848574089732" lon="-121.07000811922"><ele>386.0</ele></trkpt><trkpt lat="38.89848574089732" lon="-121.07000811922"><ele>386.0</ele></trkpt><trkpt lat="38.8986" lon="-121.07051999999999"><ele>386.0</ele></trkpt><trkpt lat="38.8986" lon="-121.07051999999999"><ele>386.0</ele></trkpt><trkpt lat="38.898674925872356" lon="-121.07048152455201"><ele>386.0</ele></trkpt><trkpt lat="38.89867550935131" lon="-121.07048122500811"><ele>386.0</ele></trkpt><trkpt lat="38.89897" lon="-121.07033000000001"><ele>386.1733297770843</ele></trkpt><trkpt lat="38.89897" lon="-121.07033000000001"><ele>386.1733297770843</ele></trkpt><trkpt lat="38.89897" lon="-121.07033000000001"><ele>386.1733297770843</ele></trkpt><trkpt lat="38.89907213667643" lon="-121.07026701571618"><ele>387.0</ele></trkpt></trkseg></trk></gpx>