<?xml version="1.0" encoding="UTF-8"?>
 <gpx creator="Garmin Connect" version="1.1"
	 xsi:schemaLocation="http://www.topografix.com/GPX/1/1 http://www.topografix.com/GPX/11.xsd"
	 xmlns:ns3="http://www.garmin.com/xmlschemas/TrackPointExtension/v1"
	 xmlns="http://www.topografix.com/GPX/1/1"
	 xmlns:xsi="http://www.w3.org/2001/XMLSchema-instance" xmlns:ns2="http://www.garmin.com/xmlschemas/GpxExtensions/v3">
	 <metadata>
		<name>Philadelphia Marathon 2025 - 42.195 km</name>
		 <link href="https://www.goandrace.com">
		 <text>Garmin Connect</text>
		 </link>
	 <time>2026-08-23T23:04:58</time>
	 </metadata>
	 <trk>
		 <name>Philadelphia Marathon 2025 - 42.195 km</name>
		 <trkseg>
			 <trkpt lat="39.961986" lon="-75.176262">
				 <ele>7</ele>
			 </trkpt>
			 <trkpt lat="39.95991" lon="-75.17337">
				 <ele>7</ele>
			 </trkpt>
			 <trkpt lat="39.95922" lon="-75.17246">
				 <ele>7</ele>
			 </trkpt>
			 <trkpt lat="39.95894" lon="-75.17203">
				 <ele>7</ele>
			 </trkpt>
			 <trkpt lat="39.95864" lon="-75.17164">
				 <ele>7</ele>
			 </trkpt>
			 <trkpt lat="39.95845" lon="-75.17147">
				 <ele>7</ele>
			 </trkpt>
			 <trkpt lat="39.95798" lon="-75.17133">
				 <ele>6.7</ele>
			 </trkpt>
			 <trkpt lat="39.95786" lon="-75.17133">
				 <ele>6.6</ele>
			 </trkpt>
			 <trkpt lat="39.95774" lon="-75.17129">
				 <ele>6.7</ele>
			 </trkpt>
			 <trkpt lat="39.95765" lon="-75.17122">
				 <ele>6.8</ele>
			 </trkpt>
			 <trkpt lat="39.95755" lon="-75.17112">
				 <ele>7</ele>
			 </trkpt>
			 <trkpt lat="39.95744" lon="-75.17094">
				 <ele>7.2</ele>
			 </trkpt>
			 <trkpt lat="39.95738" lon="-75.17072">
				 <ele>7.3</ele>
			 </trkpt>
			 <trkpt lat="39.95738" lon="-75.1705">
				 <ele>7.4</ele>
			 </trkpt>
			 <trkpt lat="39.95728" lon="-75.17006">
				 <ele>7.6</ele>
			 </trkpt>
			 <trkpt lat="39.95719" lon="-75.16984">
				 <ele>8</ele>
			 </trkpt>
			 <trkpt lat="39.95703" lon="-75.16948">
				 <ele>8.4</ele>
			 </trkpt>
			 <trkpt lat="39.95696" lon="-75.16936">
				 <ele>8.9</ele>
			 </trkpt>
			 <trkpt lat="39.95671" lon="-75.16902">
				 <ele>9.2</ele>
			 </trkpt>
			 <trkpt lat="39.95582" lon="-75.16782">
				 <ele>9.3</ele>
			 </trkpt>
			 <trkpt lat="39.95553" lon="-75.16745">
				 <ele>9.5</ele>
			 </trkpt>
			 <trkpt lat="39.9548" lon="-75.16642">
				 <ele>9.4</ele>
			 </trkpt>
			 <trkpt lat="39.954189" lon="-75.161199">
				 <ele>9.3</ele>
			 </trkpt>
			 <trkpt lat="39.952791" lon="-75.150223">
				 <ele>9.2</ele>
			 </trkpt>
			 <trkpt lat="39.952371" lon="-75.14684">
				 <ele>9</ele>
			 </trkpt>
			 <trkpt lat="39.954213" lon="-75.146389">
				 <ele>8.6</ele>
			 </trkpt>
			 <trkpt lat="39.95394" lon="-75.14421">
				 <ele>8.2</ele>
			 </trkpt>
			 <trkpt lat="39.95379" lon="-75.14298">
				 <ele>7.6</ele>
			 </trkpt>
			 <trkpt lat="39.95378" lon="-75.14242">
				 <ele>6.9</ele>
			 </trkpt>
			 <trkpt lat="39.95377" lon="-75.1417">
				 <ele>6.5</ele>
			 </trkpt>
			 <trkpt lat="39.95375" lon="-75.14137">
				 <ele>6.2</ele>
			 </trkpt>
			 <trkpt lat="39.95364" lon="-75.14069">
				 <ele>5.8</ele>
			 </trkpt>
			 <trkpt lat="39.95352" lon="-75.14001">
				 <ele>5.6</ele>
			 </trkpt>
			 <trkpt lat="39.95297" lon="-75.14019">
				 <ele>5.5</ele>
			 </trkpt>
			 <trkpt lat="39.9521" lon="-75.14047">
				 <ele>5.3</ele>
			 </trkpt>
			 <trkpt lat="39.95191" lon="-75.14052">
				 <ele>5.2</ele>
			 </trkpt>
			 <trkpt lat="39.95034" lon="-75.14091">
				 <ele>5.1</ele>
			 </trkpt>
			 <trkpt lat="39.94737" lon="-75.14158">
				 <ele>5.1</ele>
			 </trkpt>
			 <trkpt lat="39.9463" lon="-75.14182">
				 <ele>5.2</ele>
			 </trkpt>
			 <trkpt lat="39.94493" lon="-75.14209">
				 <ele>5.3</ele>
			 </trkpt>
			 <trkpt lat="39.94402" lon="-75.14222">
				 <ele>5.4</ele>
			 </trkpt>
			 <trkpt lat="39.94364" lon="-75.14227">
				 <ele>5.4</ele>
			 </trkpt>
			 <trkpt lat="39.94264" lon="-75.14233">
				 <ele>5.4</ele>
			 </trkpt>
			 <trkpt lat="39.94144" lon="-75.14239">
				 <ele>5.4</ele>
			 </trkpt>
			 <trkpt lat="39.94027" lon="-75.14238">
				 <ele>5.4</ele>
			 </trkpt>
			 <trkpt lat="39.93983" lon="-75.14237">
				 <ele>5.4</ele>
			 </trkpt>
			 <trkpt lat="39.93868" lon="-75.14235">
				 <ele>5.4</ele>
			 </trkpt>
			 <trkpt lat="39.9371" lon="-75.14231">
				 <ele>5.4</ele>
			 </trkpt>
			 <trkpt lat="39.93686" lon="-75.14231">
				 <ele>5.3</ele>
			 </trkpt>
			 <trkpt lat="39.93602" lon="-75.14233">
				 <ele>5.2</ele>
			 </trkpt>
			 <trkpt lat="39.93582" lon="-75.14236">
				 <ele>5.1</ele>
			 </trkpt>
			 <trkpt lat="39.93559" lon="-75.14243">
				 <ele>5</ele>
			 </trkpt>
			 <trkpt lat="39.93503" lon="-75.14269">
				 <ele>5</ele>
			 </trkpt>
			 <trkpt lat="39.93418" lon="-75.14316">
				 <ele>5.1</ele>
			 </trkpt>
			 <trkpt lat="39.93367" lon="-75.14344">
				 <ele>5.2</ele>
			 </trkpt>
			 <trkpt lat="39.93354" lon="-75.14372">
				 <ele>5.3</ele>
			 </trkpt>
			 <trkpt lat="39.93351" lon="-75.14385">
				 <ele>5.4</ele>
			 </trkpt>
			 <trkpt lat="39.93346" lon="-75.14424">
				 <ele>5.5</ele>
			 </trkpt>
			 <trkpt lat="39.93363" lon="-75.14546">
				 <ele>5.5</ele>
			 </trkpt>
			 <trkpt lat="39.93368" lon="-75.14567">
				 <ele>5.6</ele>
			 </trkpt>
			 <trkpt lat="39.93452" lon="-75.1455">
				 <ele>5.7</ele>
			 </trkpt>
			 <trkpt lat="39.93591" lon="-75.14519">
				 <ele>5.8</ele>
			 </trkpt>
			 <trkpt lat="39.93837" lon="-75.14464">
				 <ele>5.9</ele>
			 </trkpt>
			 <trkpt lat="39.94002" lon="-75.14424">
				 <ele>6.2</ele>
			 </trkpt>
			 <trkpt lat="39.94044" lon="-75.14415">
				 <ele>6.4</ele>
			 </trkpt>
			 <trkpt lat="39.94089" lon="-75.14406">
				 <ele>6.5</ele>
			 </trkpt>
			 <trkpt lat="39.94099" lon="-75.14405">
				 <ele>6.8</ele>
			 </trkpt>
			 <trkpt lat="39.941179" lon="-75.145519">
				 <ele>7.1</ele>
			 </trkpt>
			 <trkpt lat="39.941845" lon="-75.150776">
				 <ele>7.5</ele>
			 </trkpt>
			 <trkpt lat="39.942018" lon="-75.152337">
				 <ele>8.1</ele>
			 </trkpt>
			 <trkpt lat="39.943552" lon="-75.151999">
				 <ele>8.7</ele>
			 </trkpt>
			 <trkpt lat="39.947226" lon="-75.151216">
				 <ele>9.4</ele>
			 </trkpt>
			 <trkpt lat="39.949272" lon="-75.150774">
				 <ele>10</ele>
			 </trkpt>
			 <trkpt lat="39.949815" lon="-75.155248">
				 <ele>10.6</ele>
			 </trkpt>
			 <trkpt lat="39.950267" lon="-75.158831">
				 <ele>11.1</ele>
			 </trkpt>
			 <trkpt lat="39.950746" lon="-75.162862">
				 <ele>11.5</ele>
			 </trkpt>
			 <trkpt lat="39.951091" lon="-75.165598">
				 <ele>11.8</ele>
			 </trkpt>
			 <trkpt lat="39.949586" lon="-75.165941">
				 <ele>12.2</ele>
			 </trkpt>
			 <trkpt lat="39.94956" lon="-75.16595">
				 <ele>12.5</ele>
			 </trkpt>
			 <trkpt lat="39.94957" lon="-75.16604">
				 <ele>11.9</ele>
			 </trkpt>
			 <trkpt lat="39.94962" lon="-75.16643">
				 <ele>11.3</ele>
			 </trkpt>
			 <trkpt lat="39.94976" lon="-75.16753">
				 <ele>10.5</ele>
			 </trkpt>
			 <trkpt lat="39.95008" lon="-75.17014">
				 <ele>10</ele>
			 </trkpt>
			 <trkpt lat="39.95075" lon="-75.17549">
				 <ele>9.6</ele>
			 </trkpt>
			 <trkpt lat="39.95126" lon="-75.17955">
				 <ele>9.4</ele>
			 </trkpt>
			 <trkpt lat="39.95158" lon="-75.18213">
				 <ele>9.1</ele>
			 </trkpt>
			 <trkpt lat="39.95179" lon="-75.18373">
				 <ele>9</ele>
			 </trkpt>
			 <trkpt lat="39.95205" lon="-75.18578">
				 <ele>9.1</ele>
			 </trkpt>
			 <trkpt lat="39.95229" lon="-75.18764">
				 <ele>9.3</ele>
			 </trkpt>
			 <trkpt lat="39.95242" lon="-75.18871">
				 <ele>10.1</ele>
			 </trkpt>
			 <trkpt lat="39.95245" lon="-75.18914">
				 <ele>12</ele>
			 </trkpt>
			 <trkpt lat="39.95256" lon="-75.19005">
				 <ele>14.1</ele>
			 </trkpt>
			 <trkpt lat="39.95273" lon="-75.19139">
				 <ele>16.5</ele>
			 </trkpt>
			 <trkpt lat="39.95282" lon="-75.19208">
				 <ele>18.5</ele>
			 </trkpt>
			 <trkpt lat="39.956846" lon="-75.191294">
				 <ele>19.5</ele>
			 </trkpt>
			 <trkpt lat="39.958832" lon="-75.190847">
				 <ele>19.6</ele>
			 </trkpt>
			 <trkpt lat="39.960241" lon="-75.190906">
				 <ele>19.9</ele>
			 </trkpt>
			 <trkpt lat="39.962757" lon="-75.191356">
				 <ele>20.7</ele>
			 </trkpt>
			 <trkpt lat="39.965554" lon="-75.191904">
				 <ele>21.4</ele>
			 </trkpt>
			 <trkpt lat="39.967962" lon="-75.192333">
				 <ele>21.8</ele>
			 </trkpt>
			 <trkpt lat="39.971335" lon="-75.193685">
				 <ele>21.7</ele>
			 </trkpt>
			 <trkpt lat="39.974057" lon="-75.194768">
				 <ele>21.2</ele>
			 </trkpt>
			 <trkpt lat="39.97529" lon="-75.19499">
				 <ele>20.4</ele>
			 </trkpt>
			 <trkpt lat="39.97537" lon="-75.19503">
				 <ele>19.3</ele>
			 </trkpt>
			 <trkpt lat="39.975407" lon="-75.195059">
				 <ele>18.4</ele>
			 </trkpt>
			 <trkpt lat="39.975518" lon="-75.195182">
				 <ele>18.4</ele>
			 </trkpt>
			 <trkpt lat="39.975559" lon="-75.195237">
				 <ele>19.1</ele>
			 </trkpt>
			 <trkpt lat="39.975608" lon="-75.195328">
				 <ele>19.7</ele>
			 </trkpt>
			 <trkpt lat="39.975689" lon="-75.195515">
				 <ele>19.2</ele>
			 </trkpt>
			 <trkpt lat="39.975718" lon="-75.195632">
				 <ele>18.5</ele>
			 </trkpt>
			 <trkpt lat="39.975731" lon="-75.195756">
				 <ele>17.6</ele>
			 </trkpt>
			 <trkpt lat="39.975731" lon="-75.19588">
				 <ele>16.8</ele>
			 </trkpt>
			 <trkpt lat="39.975812" lon="-75.196265">
				 <ele>16</ele>
			 </trkpt>
			 <trkpt lat="39.976021" lon="-75.197137">
				 <ele>15.3</ele>
			 </trkpt>
			 <trkpt lat="39.976067" lon="-75.197375">
				 <ele>14.5</ele>
			 </trkpt>
			 <trkpt lat="39.976124" lon="-75.197791">
				 <ele>13.8</ele>
			 </trkpt>
			 <trkpt lat="39.976184" lon="-75.198332">
				 <ele>13</ele>
			 </trkpt>
			 <trkpt lat="39.976193" lon="-75.198405">
				 <ele>12.2</ele>
			 </trkpt>
			 <trkpt lat="39.976208" lon="-75.198702">
				 <ele>11.5</ele>
			 </trkpt>
			 <trkpt lat="39.976216" lon="-75.199079">
				 <ele>11.3</ele>
			 </trkpt>
			 <trkpt lat="39.976216" lon="-75.199183">
				 <ele>11.4</ele>
			 </trkpt>
			 <trkpt lat="39.9762" lon="-75.199406">
				 <ele>11.6</ele>
			 </trkpt>
			 <trkpt lat="39.97616" lon="-75.199599">
				 <ele>12</ele>
			 </trkpt>
			 <trkpt lat="39.9761" lon="-75.199804">
				 <ele>12.5</ele>
			 </trkpt>
			 <trkpt lat="39.976005" lon="-75.200017">
				 <ele>12.9</ele>
			 </trkpt>
			 <trkpt lat="39.975958" lon="-75.200158">
				 <ele>13.5</ele>
			 </trkpt>
			 <trkpt lat="39.975917" lon="-75.200352">
				 <ele>14.3</ele>
			 </trkpt>
			 <trkpt lat="39.975904" lon="-75.200554">
				 <ele>15.3</ele>
			 </trkpt>
			 <trkpt lat="39.975916" lon="-75.200759">
				 <ele>16.4</ele>
			 </trkpt>
			 <trkpt lat="39.975938" lon="-75.200879">
				 <ele>17.4</ele>
			 </trkpt>
			 <trkpt lat="39.975993" lon="-75.201061">
				 <ele>18.4</ele>
			 </trkpt>
			 <trkpt lat="39.976199" lon="-75.201656">
				 <ele>19.4</ele>
			 </trkpt>
			 <trkpt lat="39.976262" lon="-75.201916">
				 <ele>20.5</ele>
			 </trkpt>
			 <trkpt lat="39.976282" lon="-75.202053">
				 <ele>21.6</ele>
			 </trkpt>
			 <trkpt lat="39.976294" lon="-75.202192">
				 <ele>23</ele>
			 </trkpt>
			 <trkpt lat="39.976292" lon="-75.20235">
				 <ele>24.4</ele>
			 </trkpt>
			 <trkpt lat="39.976291" lon="-75.20248">
				 <ele>25.6</ele>
			 </trkpt>
			 <trkpt lat="39.976265" lon="-75.202695">
				 <ele>26.6</ele>
			 </trkpt>
			 <trkpt lat="39.97622" lon="-75.202904">
				 <ele>27.5</ele>
			 </trkpt>
			 <trkpt lat="39.975835" lon="-75.204263">
				 <ele>28.2</ele>
			 </trkpt>
			 <trkpt lat="39.975806" lon="-75.204368">
				 <ele>28.9</ele>
			 </trkpt>
			 <trkpt lat="39.975705" lon="-75.204729">
				 <ele>29.7</ele>
			 </trkpt>
			 <trkpt lat="39.975679" lon="-75.204841">
				 <ele>30.5</ele>
			 </trkpt>
			 <trkpt lat="39.975649" lon="-75.20508">
				 <ele>31</ele>
			 </trkpt>
			 <trkpt lat="39.975641" lon="-75.205267">
				 <ele>31.4</ele>
			 </trkpt>
			 <trkpt lat="39.975646" lon="-75.205419">
				 <ele>31.5</ele>
			 </trkpt>
			 <trkpt lat="39.975666" lon="-75.20562">
				 <ele>31.5</ele>
			 </trkpt>
			 <trkpt lat="39.975673" lon="-75.205658">
				 <ele>31.6</ele>
			 </trkpt>
			 <trkpt lat="39.975692" lon="-75.205748">
				 <ele>31.7</ele>
			 </trkpt>
			 <trkpt lat="39.975739" lon="-75.205931">
				 <ele>31.8</ele>
			 </trkpt>
			 <trkpt lat="39.975802" lon="-75.206109">
				 <ele>32</ele>
			 </trkpt>
			 <trkpt lat="39.97582" lon="-75.206159">
				 <ele>32.3</ele>
			 </trkpt>
			 <trkpt lat="39.97586" lon="-75.206265">
				 <ele>32.5</ele>
			 </trkpt>
			 <trkpt lat="39.975957" lon="-75.206529">
				 <ele>32.6</ele>
			 </trkpt>
			 <trkpt lat="39.976001" lon="-75.206647">
				 <ele>32.8</ele>
			 </trkpt>
			 <trkpt lat="39.976136" lon="-75.207012">
				 <ele>33</ele>
			 </trkpt>
			 <trkpt lat="39.977158" lon="-75.209764">
				 <ele>33.2</ele>
			 </trkpt>
			 <trkpt lat="39.977175" lon="-75.209808">
				 <ele>33.4</ele>
			 </trkpt>
			 <trkpt lat="39.977188" lon="-75.209845">
				 <ele>33.5</ele>
			 </trkpt>
			 <trkpt lat="39.977209" lon="-75.209906">
				 <ele>33.7</ele>
			 </trkpt>
			 <trkpt lat="39.977255" lon="-75.209895">
				 <ele>34</ele>
			 </trkpt>
			 <trkpt lat="39.977295" lon="-75.209925">
				 <ele>34.3</ele>
			 </trkpt>
			 <trkpt lat="39.977327" lon="-75.209938">
				 <ele>34.5</ele>
			 </trkpt>
			 <trkpt lat="39.977361" lon="-75.209917">
				 <ele>34.6</ele>
			 </trkpt>
			 <trkpt lat="39.977413" lon="-75.209882">
				 <ele>34.8</ele>
			 </trkpt>
			 <trkpt lat="39.977859" lon="-75.209599">
				 <ele>35</ele>
			 </trkpt>
			 <trkpt lat="39.978356" lon="-75.209285">
				 <ele>35.2</ele>
			 </trkpt>
			 <trkpt lat="39.978401" lon="-75.209256">
				 <ele>35.4</ele>
			 </trkpt>
			 <trkpt lat="39.978479" lon="-75.209206">
				 <ele>35.5</ele>
			 </trkpt>
			 <trkpt lat="39.978525" lon="-75.209331">
				 <ele>35.7</ele>
			 </trkpt>
			 <trkpt lat="39.978588" lon="-75.209499">
				 <ele>35.6</ele>
			 </trkpt>
			 <trkpt lat="39.978632" lon="-75.209617">
				 <ele>35.5</ele>
			 </trkpt>
			 <trkpt lat="39.978673" lon="-75.209727">
				 <ele>35.3</ele>
			 </trkpt>
			 <trkpt lat="39.978819" lon="-75.210121">
				 <ele>35.1</ele>
			 </trkpt>
			 <trkpt lat="39.979017" lon="-75.210662">
				 <ele>35</ele>
			 </trkpt>
			 <trkpt lat="39.979621" lon="-75.212286">
				 <ele>34.9</ele>
			 </trkpt>
			 <trkpt lat="39.979754" lon="-75.212644">
				 <ele>34.9</ele>
			 </trkpt>
			 <trkpt lat="39.979991" lon="-75.213284">
				 <ele>35</ele>
			 </trkpt>
			 <trkpt lat="39.980251" lon="-75.21399">
				 <ele>35.4</ele>
			 </trkpt>
			 <trkpt lat="39.980314" lon="-75.21416">
				 <ele>35.7</ele>
			 </trkpt>
			 <trkpt lat="39.980379" lon="-75.21433">
				 <ele>36.1</ele>
			 </trkpt>
			 <trkpt lat="39.981156" lon="-75.216414">
				 <ele>36.7</ele>
			 </trkpt>
			 <trkpt lat="39.981659" lon="-75.217794">
				 <ele>37.4</ele>
			 </trkpt>
			 <trkpt lat="39.982215" lon="-75.219244">
				 <ele>37.9</ele>
			 </trkpt>
			 <trkpt lat="39.982253" lon="-75.219331">
				 <ele>38.5</ele>
			 </trkpt>
			 <trkpt lat="39.982321" lon="-75.219297">
				 <ele>39.1</ele>
			 </trkpt>
			 <trkpt lat="39.982357" lon="-75.21929">
				 <ele>39.6</ele>
			 </trkpt>
			 <trkpt lat="39.982393" lon="-75.219289">
				 <ele>40.1</ele>
			 </trkpt>
			 <trkpt lat="39.982465" lon="-75.219306">
				 <ele>40.5</ele>
			 </trkpt>
			 <trkpt lat="39.98253" lon="-75.219349">
				 <ele>40.5</ele>
			 </trkpt>
			 <trkpt lat="39.982558" lon="-75.219378">
				 <ele>40.6</ele>
			 </trkpt>
			 <trkpt lat="39.982584" lon="-75.219412">
				 <ele>40.8</ele>
			 </trkpt>
			 <trkpt lat="39.982623" lon="-75.219492">
				 <ele>41</ele>
			 </trkpt>
			 <trkpt lat="39.982717" lon="-75.219424">
				 <ele>41.2</ele>
			 </trkpt>
			 <trkpt lat="39.982824" lon="-75.219371">
				 <ele>41.4</ele>
			 </trkpt>
			 <trkpt lat="39.982926" lon="-75.21933">
				 <ele>41.5</ele>
			 </trkpt>
			 <trkpt lat="39.983366" lon="-75.219152">
				 <ele>41.5</ele>
			 </trkpt>
			 <trkpt lat="39.98343" lon="-75.219114">
				 <ele>41.6</ele>
			 </trkpt>
			 <trkpt lat="39.983699" lon="-75.218957">
				 <ele>41.6</ele>
			 </trkpt>
			 <trkpt lat="39.983742" lon="-75.218927">
				 <ele>41.6</ele>
			 </trkpt>
			 <trkpt lat="39.983889" lon="-75.218788">
				 <ele>41.6</ele>
			 </trkpt>
			 <trkpt lat="39.983984" lon="-75.21867">
				 <ele>41.6</ele>
			 </trkpt>
			 <trkpt lat="39.984046" lon="-75.218557">
				 <ele>41.5</ele>
			 </trkpt>
			 <trkpt lat="39.984099" lon="-75.218441">
				 <ele>41.5</ele>
			 </trkpt>
			 <trkpt lat="39.984135" lon="-75.218343">
				 <ele>41.4</ele>
			 </trkpt>
			 <trkpt lat="39.984163" lon="-75.218243">
				 <ele>41.3</ele>
			 </trkpt>
			 <trkpt lat="39.984185" lon="-75.218112">
				 <ele>41.2</ele>
			 </trkpt>
			 <trkpt lat="39.984232" lon="-75.217727">
				 <ele>41.2</ele>
			 </trkpt>
			 <trkpt lat="39.98425" lon="-75.217666">
				 <ele>41.1</ele>
			 </trkpt>
			 <trkpt lat="39.984273" lon="-75.217589">
				 <ele>41.1</ele>
			 </trkpt>
			 <trkpt lat="39.984339" lon="-75.21745">
				 <ele>41.1</ele>
			 </trkpt>
			 <trkpt lat="39.984413" lon="-75.21734">
				 <ele>41.1</ele>
			 </trkpt>
			 <trkpt lat="39.984457" lon="-75.217294">
				 <ele>41.1</ele>
			 </trkpt>
			 <trkpt lat="39.984406" lon="-75.21721">
				 <ele>41.1</ele>
			 </trkpt>
			 <trkpt lat="39.984376" lon="-75.217157">
				 <ele>41.1</ele>
			 </trkpt>
			 <trkpt lat="39.984362" lon="-75.217115">
				 <ele>41</ele>
			 </trkpt>
			 <trkpt lat="39.984355" lon="-75.217068">
				 <ele>40.9</ele>
			 </trkpt>
			 <trkpt lat="39.984363" lon="-75.21698">
				 <ele>40.8</ele>
			 </trkpt>
			 <trkpt lat="39.984379" lon="-75.216916">
				 <ele>40.5</ele>
			 </trkpt>
			 <trkpt lat="39.984462" lon="-75.216692">
				 <ele>40.4</ele>
			 </trkpt>
			 <trkpt lat="39.984643" lon="-75.216278">
				 <ele>40.1</ele>
			 </trkpt>
			 <trkpt lat="39.984694" lon="-75.216153">
				 <ele>39.8</ele>
			 </trkpt>
			 <trkpt lat="39.984763" lon="-75.215956">
				 <ele>39.5</ele>
			 </trkpt>
			 <trkpt lat="39.984856" lon="-75.215575">
				 <ele>39</ele>
			 </trkpt>
			 <trkpt lat="39.98489" lon="-75.215421">
				 <ele>38.5</ele>
			 </trkpt>
			 <trkpt lat="39.984447" lon="-75.215293">
				 <ele>37.8</ele>
			 </trkpt>
			 <trkpt lat="39.984007" lon="-75.215173">
				 <ele>37.3</ele>
			 </trkpt>
			 <trkpt lat="39.983567" lon="-75.215052">
				 <ele>36.6</ele>
			 </trkpt>
			 <trkpt lat="39.983126" lon="-75.214932">
				 <ele>36</ele>
			 </trkpt>
			 <trkpt lat="39.982686" lon="-75.214811">
				 <ele>35.4</ele>
			 </trkpt>
			 <trkpt lat="39.982246" lon="-75.214691">
				 <ele>34.6</ele>
			 </trkpt>
			 <trkpt lat="39.982175" lon="-75.214671">
				 <ele>33.9</ele>
			 </trkpt>
			 <trkpt lat="39.982166" lon="-75.21451">
				 <ele>33.2</ele>
			 </trkpt>
			 <trkpt lat="39.982088" lon="-75.214269">
				 <ele>32.5</ele>
			 </trkpt>
			 <trkpt lat="39.982018" lon="-75.214108">
				 <ele>32</ele>
			 </trkpt>
			 <trkpt lat="39.981825" lon="-75.213931">
				 <ele>31.5</ele>
			 </trkpt>
			 <trkpt lat="39.981463" lon="-75.213636">
				 <ele>31.1</ele>
			 </trkpt>
			 <trkpt lat="39.98122" lon="-75.21335">
				 <ele>30.6</ele>
			 </trkpt>
			 <trkpt lat="39.98109" lon="-75.2131">
				 <ele>30.4</ele>
			 </trkpt>
			 <trkpt lat="39.98106" lon="-75.213">
				 <ele>30.1</ele>
			 </trkpt>
			 <trkpt lat="39.98101" lon="-75.21282">
				 <ele>30</ele>
			 </trkpt>
			 <trkpt lat="39.98098" lon="-75.21258">
				 <ele>30</ele>
			 </trkpt>
			 <trkpt lat="39.98101" lon="-75.21224">
				 <ele>30.1</ele>
			 </trkpt>
			 <trkpt lat="39.981" lon="-75.212">
				 <ele>30.3</ele>
			 </trkpt>
			 <trkpt lat="39.981" lon="-75.21196">
				 <ele>30.5</ele>
			 </trkpt>
			 <trkpt lat="39.9809" lon="-75.21168">
				 <ele>30.5</ele>
			 </trkpt>
			 <trkpt lat="39.98082" lon="-75.21138">
				 <ele>30.6</ele>
			 </trkpt>
			 <trkpt lat="39.98079" lon="-75.21109">
				 <ele>30.8</ele>
			 </trkpt>
			 <trkpt lat="39.98078" lon="-75.21086">
				 <ele>31</ele>
			 </trkpt>
			 <trkpt lat="39.9808" lon="-75.21038">
				 <ele>31.1</ele>
			 </trkpt>
			 <trkpt lat="39.98085" lon="-75.21015">
				 <ele>31.2</ele>
			 </trkpt>
			 <trkpt lat="39.98107" lon="-75.20957">
				 <ele>31.2</ele>
			 </trkpt>
			 <trkpt lat="39.98124" lon="-75.20915">
				 <ele>31.2</ele>
			 </trkpt>
			 <trkpt lat="39.98129" lon="-75.20897">
				 <ele>31.2</ele>
			 </trkpt>
			 <trkpt lat="39.98132" lon="-75.2088">
				 <ele>31.1</ele>
			 </trkpt>
			 <trkpt lat="39.98133" lon="-75.2085">
				 <ele>31</ele>
			 </trkpt>
			 <trkpt lat="39.98131" lon="-75.20829">
				 <ele>31</ele>
			 </trkpt>
			 <trkpt lat="39.98123" lon="-75.20799">
				 <ele>31.1</ele>
			 </trkpt>
			 <trkpt lat="39.98115" lon="-75.20781">
				 <ele>31.2</ele>
			 </trkpt>
			 <trkpt lat="39.98113" lon="-75.207786">
				 <ele>31.3</ele>
			 </trkpt>
			 <trkpt lat="39.981042" lon="-75.207674">
				 <ele>31.4</ele>
			 </trkpt>
			 <trkpt lat="39.980995" lon="-75.207626">
				 <ele>31.5</ele>
			 </trkpt>
			 <trkpt lat="39.980893" lon="-75.20755">
				 <ele>31.5</ele>
			 </trkpt>
			 <trkpt lat="39.980807" lon="-75.207507">
				 <ele>31.7</ele>
			 </trkpt>
			 <trkpt lat="39.980723" lon="-75.207484">
				 <ele>31.9</ele>
			 </trkpt>
			 <trkpt lat="39.980344" lon="-75.20743">
				 <ele>32.1</ele>
			 </trkpt>
			 <trkpt lat="39.980093" lon="-75.207373">
				 <ele>32.3</ele>
			 </trkpt>
			 <trkpt lat="39.979959" lon="-75.207329">
				 <ele>32.5</ele>
			 </trkpt>
			 <trkpt lat="39.979764" lon="-75.207248">
				 <ele>32.5</ele>
			 </trkpt>
			 <trkpt lat="39.979382" lon="-75.207069">
				 <ele>32.6</ele>
			 </trkpt>
			 <trkpt lat="39.979244" lon="-75.207004">
				 <ele>32.6</ele>
			 </trkpt>
			 <trkpt lat="39.978799" lon="-75.20676">
				 <ele>32.6</ele>
			 </trkpt>
			 <trkpt lat="39.978748" lon="-75.206716">
				 <ele>32.6</ele>
			 </trkpt>
			 <trkpt lat="39.978726" lon="-75.206677">
				 <ele>32.6</ele>
			 </trkpt>
			 <trkpt lat="39.978713" lon="-75.206621">
				 <ele>32.5</ele>
			 </trkpt>
			 <trkpt lat="39.97871" lon="-75.206556">
				 <ele>32.5</ele>
			 </trkpt>
			 <trkpt lat="39.978712" lon="-75.206438">
				 <ele>32.3</ele>
			 </trkpt>
			 <trkpt lat="39.978585" lon="-75.206422">
				 <ele>32.1</ele>
			 </trkpt>
			 <trkpt lat="39.978557" lon="-75.206415">
				 <ele>31.9</ele>
			 </trkpt>
			 <trkpt lat="39.978461" lon="-75.20638">
				 <ele>31.7</ele>
			 </trkpt>
			 <trkpt lat="39.978381" lon="-75.206338">
				 <ele>31.5</ele>
			 </trkpt>
			 <trkpt lat="39.977924" lon="-75.206048">
				 <ele>31.5</ele>
			 </trkpt>
			 <trkpt lat="39.977617" lon="-75.205834">
				 <ele>31.5</ele>
			 </trkpt>
			 <trkpt lat="39.977376" lon="-75.205607">
				 <ele>31.5</ele>
			 </trkpt>
			 <trkpt lat="39.977266" lon="-75.205487">
				 <ele>31.5</ele>
			 </trkpt>
			 <trkpt lat="39.977176" lon="-75.205417">
				 <ele>31.5</ele>
			 </trkpt>
			 <trkpt lat="39.977043" lon="-75.205393">
				 <ele>31.5</ele>
			 </trkpt>
			 <trkpt lat="39.976836" lon="-75.205206">
				 <ele>31.5</ele>
			 </trkpt>
			 <trkpt lat="39.976767" lon="-75.205086">
				 <ele>31.5</ele>
			 </trkpt>
			 <trkpt lat="39.976674" lon="-75.20498">
				 <ele>31.5</ele>
			 </trkpt>
			 <trkpt lat="39.976619" lon="-75.204916">
				 <ele>31.5</ele>
			 </trkpt>
			 <trkpt lat="39.976444" lon="-75.20474">
				 <ele>31.5</ele>
			 </trkpt>
			 <trkpt lat="39.976276" lon="-75.204618">
				 <ele>31.4</ele>
			 </trkpt>
			 <trkpt lat="39.976084" lon="-75.204516">
				 <ele>31</ele>
			 </trkpt>
			 <trkpt lat="39.975934" lon="-75.204436">
				 <ele>30.5</ele>
			 </trkpt>
			 <trkpt lat="39.975806" lon="-75.204368">
				 <ele>29.7</ele>
			 </trkpt>
			 <trkpt lat="39.975818" lon="-75.204323">
				 <ele>29</ele>
			 </trkpt>
			 <trkpt lat="39.975835" lon="-75.204263">
				 <ele>28.3</ele>
			 </trkpt>
			 <trkpt lat="39.97622" lon="-75.202904">
				 <ele>27.5</ele>
			 </trkpt>
			 <trkpt lat="39.976265" lon="-75.202695">
				 <ele>26.7</ele>
			 </trkpt>
			 <trkpt lat="39.976291" lon="-75.20248">
				 <ele>25.7</ele>
			 </trkpt>
			 <trkpt lat="39.976291" lon="-75.202405">
				 <ele>24.5</ele>
			 </trkpt>
			 <trkpt lat="39.976294" lon="-75.202192">
				 <ele>23.1</ele>
			 </trkpt>
			 <trkpt lat="39.976282" lon="-75.202053">
				 <ele>21.7</ele>
			 </trkpt>
			 <trkpt lat="39.976262" lon="-75.201916">
				 <ele>20.5</ele>
			 </trkpt>
			 <trkpt lat="39.976199" lon="-75.201656">
				 <ele>19.5</ele>
			 </trkpt>
			 <trkpt lat="39.975993" lon="-75.201061">
				 <ele>18.5</ele>
			 </trkpt>
			 <trkpt lat="39.975938" lon="-75.200879">
				 <ele>17.4</ele>
			 </trkpt>
			 <trkpt lat="39.975916" lon="-75.200759">
				 <ele>16.4</ele>
			 </trkpt>
			 <trkpt lat="39.975904" lon="-75.200554">
				 <ele>15.3</ele>
			 </trkpt>
			 <trkpt lat="39.975917" lon="-75.200352">
				 <ele>14.3</ele>
			 </trkpt>
			 <trkpt lat="39.975958" lon="-75.200158">
				 <ele>13.5</ele>
			 </trkpt>
			 <trkpt lat="39.976005" lon="-75.200017">
				 <ele>12.9</ele>
			 </trkpt>
			 <trkpt lat="39.9761" lon="-75.199804">
				 <ele>12.5</ele>
			 </trkpt>
			 <trkpt lat="39.97616" lon="-75.199599">
				 <ele>12</ele>
			 </trkpt>
			 <trkpt lat="39.9762" lon="-75.199406">
				 <ele>11.6</ele>
			 </trkpt>
			 <trkpt lat="39.976216" lon="-75.199183">
				 <ele>11.5</ele>
			 </trkpt>
			 <trkpt lat="39.976216" lon="-75.199079">
				 <ele>11.5</ele>
			 </trkpt>
			 <trkpt lat="39.976208" lon="-75.198702">
				 <ele>12.3</ele>
			 </trkpt>
			 <trkpt lat="39.976193" lon="-75.198409">
				 <ele>13</ele>
			 </trkpt>
			 <trkpt lat="39.976124" lon="-75.197791">
				 <ele>13.8</ele>
			 </trkpt>
			 <trkpt lat="39.976067" lon="-75.197375">
				 <ele>14.6</ele>
			 </trkpt>
			 <trkpt lat="39.976021" lon="-75.197137">
				 <ele>15.5</ele>
			 </trkpt>
			 <trkpt lat="39.975812" lon="-75.196265">
				 <ele>16.3</ele>
			 </trkpt>
			 <trkpt lat="39.975731" lon="-75.19588">
				 <ele>17.1</ele>
			 </trkpt>
			 <trkpt lat="39.975661" lon="-75.195699">
				 <ele>17.9</ele>
			 </trkpt>
			 <trkpt lat="39.975596" lon="-75.195528">
				 <ele>18.7</ele>
			 </trkpt>
			 <trkpt lat="39.975544" lon="-75.19543">
				 <ele>19.5</ele>
			 </trkpt>
			 <trkpt lat="39.975487" lon="-75.195348">
				 <ele>20</ele>
			 </trkpt>
			 <trkpt lat="39.975351" lon="-75.195192">
				 <ele>20</ele>
			 </trkpt>
			 <trkpt lat="39.975317" lon="-75.195163">
				 <ele>20</ele>
			 </trkpt>
			 <trkpt lat="39.975269" lon="-75.195146">
				 <ele>20</ele>
			 </trkpt>
			 <trkpt lat="39.975208" lon="-75.195128">
				 <ele>20</ele>
			 </trkpt>
			 <trkpt lat="39.975159" lon="-75.195115">
				 <ele>19.9</ele>
			 </trkpt>
			 <trkpt lat="39.97513" lon="-75.195106">
				 <ele>18.7</ele>
			 </trkpt>
			 <trkpt lat="39.975092" lon="-75.195096">
				 <ele>17.3</ele>
			 </trkpt>
			 <trkpt lat="39.975102" lon="-75.194945">
				 <ele>16.1</ele>
			 </trkpt>
			 <trkpt lat="39.975118" lon="-75.194799">
				 <ele>15.6</ele>
			 </trkpt>
			 <trkpt lat="39.97513" lon="-75.194691">
				 <ele>15.5</ele>
			 </trkpt>
			 <trkpt lat="39.975195" lon="-75.194103">
				 <ele>15.5</ele>
			 </trkpt>
			 <trkpt lat="39.975477" lon="-75.191531">
				 <ele>15.5</ele>
			 </trkpt>
			 <trkpt lat="39.975492" lon="-75.191393">
				 <ele>15.9</ele>
			 </trkpt>
			 <trkpt lat="39.975497" lon="-75.191173">
				 <ele>16.3</ele>
			 </trkpt>
			 <trkpt lat="39.975484" lon="-75.190993">
				 <ele>16.5</ele>
			 </trkpt>
			 <trkpt lat="39.975454" lon="-75.190747">
				 <ele>16.9</ele>
			 </trkpt>
			 <trkpt lat="39.975438" lon="-75.19061">
				 <ele>18.4</ele>
			 </trkpt>
			 <trkpt lat="39.975372" lon="-75.190135">
				 <ele>20.1</ele>
			 </trkpt>
			 <trkpt lat="39.975399" lon="-75.189967">
				 <ele>21.5</ele>
			 </trkpt>
			 <trkpt lat="39.975418" lon="-75.189899">
				 <ele>22.1</ele>
			 </trkpt>
			 <trkpt lat="39.975456" lon="-75.189798">
				 <ele>22.4</ele>
			 </trkpt>
			 <trkpt lat="39.975498" lon="-75.189685">
				 <ele>22.6</ele>
			 </trkpt>
			 <trkpt lat="39.975533" lon="-75.189603">
				 <ele>22.9</ele>
			 </trkpt>
			 <trkpt lat="39.975618" lon="-75.189458">
				 <ele>22.9</ele>
			 </trkpt>
			 <trkpt lat="39.9757" lon="-75.18936">
				 <ele>22.9</ele>
			 </trkpt>
			 <trkpt lat="39.975793" lon="-75.189296">
				 <ele>23.1</ele>
			 </trkpt>
			 <trkpt lat="39.975927" lon="-75.189243">
				 <ele>23.4</ele>
			 </trkpt>
			 <trkpt lat="39.975982" lon="-75.189221">
				 <ele>23.6</ele>
			 </trkpt>
			 <trkpt lat="39.976003" lon="-75.189199">
				 <ele>24</ele>
			 </trkpt>
			 <trkpt lat="39.976036" lon="-75.189101">
				 <ele>23.5</ele>
			 </trkpt>
			 <trkpt lat="39.976322" lon="-75.189275">
				 <ele>23.2</ele>
			 </trkpt>
			 <trkpt lat="39.976424" lon="-75.189336">
				 <ele>23.4</ele>
			 </trkpt>
			 <trkpt lat="39.976595" lon="-75.189428">
				 <ele>24</ele>
			 </trkpt>
			 <trkpt lat="39.976855" lon="-75.189529">
				 <ele>24.8</ele>
			 </trkpt>
			 <trkpt lat="39.977371" lon="-75.189744">
				 <ele>25.5</ele>
			 </trkpt>
			 <trkpt lat="39.977537" lon="-75.189809">
				 <ele>26.2</ele>
			 </trkpt>
			 <trkpt lat="39.977675" lon="-75.189848">
				 <ele>26.7</ele>
			 </trkpt>
			 <trkpt lat="39.977823" lon="-75.18987">
				 <ele>27.2</ele>
			 </trkpt>
			 <trkpt lat="39.977961" lon="-75.18987">
				 <ele>27.5</ele>
			 </trkpt>
			 <trkpt lat="39.97809" lon="-75.189841">
				 <ele>27.8</ele>
			 </trkpt>
			 <trkpt lat="39.978208" lon="-75.189783">
				 <ele>29.1</ele>
			 </trkpt>
			 <trkpt lat="39.978328" lon="-75.189698">
				 <ele>30</ele>
			 </trkpt>
			 <trkpt lat="39.978462" lon="-75.189578">
				 <ele>30.2</ele>
			 </trkpt>
			 <trkpt lat="39.978674" lon="-75.189348">
				 <ele>30.2</ele>
			 </trkpt>
			 <trkpt lat="39.978723" lon="-75.189302">
				 <ele>30</ele>
			 </trkpt>
			 <trkpt lat="39.978774" lon="-75.189269">
				 <ele>29.8</ele>
			 </trkpt>
			 <trkpt lat="39.978941" lon="-75.189191">
				 <ele>29.8</ele>
			 </trkpt>
			 <trkpt lat="39.97915" lon="-75.189141">
				 <ele>29.8</ele>
			 </trkpt>
			 <trkpt lat="39.979705" lon="-75.189027">
				 <ele>29.9</ele>
			 </trkpt>
			 <trkpt lat="39.979756" lon="-75.189017">
				 <ele>30.1</ele>
			 </trkpt>
			 <trkpt lat="39.979853" lon="-75.188998">
				 <ele>30.3</ele>
			 </trkpt>
			 <trkpt lat="39.980621" lon="-75.188834">
				 <ele>30.5</ele>
			 </trkpt>
			 <trkpt lat="39.980766" lon="-75.188803">
				 <ele>30.7</ele>
			 </trkpt>
			 <trkpt lat="39.981102" lon="-75.188727">
				 <ele>31.3</ele>
			 </trkpt>
			 <trkpt lat="39.981222" lon="-75.188699">
				 <ele>31.5</ele>
			 </trkpt>
			 <trkpt lat="39.981276" lon="-75.188743">
				 <ele>31.6</ele>
			 </trkpt>
			 <trkpt lat="39.98131" lon="-75.188805">
				 <ele>31.9</ele>
			 </trkpt>
			 <trkpt lat="39.981324" lon="-75.188861">
				 <ele>32.1</ele>
			 </trkpt>
			 <trkpt lat="39.981392" lon="-75.189012">
				 <ele>32.3</ele>
			 </trkpt>
			 <trkpt lat="39.981439" lon="-75.189339">
				 <ele>32.4</ele>
			 </trkpt>
			 <trkpt lat="39.981438" lon="-75.189454">
				 <ele>32.5</ele>
			 </trkpt>
			 <trkpt lat="39.981413" lon="-75.189694">
				 <ele>32.7</ele>
			 </trkpt>
			 <trkpt lat="39.981411" lon="-75.189774">
				 <ele>32.9</ele>
			 </trkpt>
			 <trkpt lat="39.981395" lon="-75.189989">
				 <ele>33.1</ele>
			 </trkpt>
			 <trkpt lat="39.981539" lon="-75.190737">
				 <ele>33.4</ele>
			 </trkpt>
			 <trkpt lat="39.981579" lon="-75.190952">
				 <ele>33.6</ele>
			 </trkpt>
			 <trkpt lat="39.981622" lon="-75.19113">
				 <ele>33.8</ele>
			 </trkpt>
			 <trkpt lat="39.981679" lon="-75.19131">
				 <ele>33.7</ele>
			 </trkpt>
			 <trkpt lat="39.981738" lon="-75.191481">
				 <ele>33.8</ele>
			 </trkpt>
			 <trkpt lat="39.981921" lon="-75.191961">
				 <ele>33.9</ele>
			 </trkpt>
			 <trkpt lat="39.982196" lon="-75.192634">
				 <ele>34</ele>
			 </trkpt>
			 <trkpt lat="39.982265" lon="-75.192852">
				 <ele>34.1</ele>
			 </trkpt>
			 <trkpt lat="39.982368" lon="-75.193377">
				 <ele>34.2</ele>
			 </trkpt>
			 <trkpt lat="39.982513" lon="-75.193973">
				 <ele>34.3</ele>
			 </trkpt>
			 <trkpt lat="39.982555" lon="-75.194126">
				 <ele>34.4</ele>
			 </trkpt>
			 <trkpt lat="39.982593" lon="-75.194235">
				 <ele>34.4</ele>
			 </trkpt>
			 <trkpt lat="39.982642" lon="-75.194325">
				 <ele>34.3</ele>
			 </trkpt>
			 <trkpt lat="39.9827" lon="-75.194405">
				 <ele>34.3</ele>
			 </trkpt>
			 <trkpt lat="39.98277" lon="-75.194486">
				 <ele>34.5</ele>
			 </trkpt>
			 <trkpt lat="39.983018" lon="-75.194696">
				 <ele>34.5</ele>
			 </trkpt>
			 <trkpt lat="39.983292" lon="-75.194987">
				 <ele>34.4</ele>
			 </trkpt>
			 <trkpt lat="39.983469" lon="-75.195186">
				 <ele>34.3</ele>
			 </trkpt>
			 <trkpt lat="39.983585" lon="-75.195331">
				 <ele>34.1</ele>
			 </trkpt>
			 <trkpt lat="39.983729" lon="-75.195492">
				 <ele>33.9</ele>
			 </trkpt>
			 <trkpt lat="39.983865" lon="-75.195621">
				 <ele>33.7</ele>
			 </trkpt>
			 <trkpt lat="39.984051" lon="-75.195749">
				 <ele>33.5</ele>
			 </trkpt>
			 <trkpt lat="39.984248" lon="-75.195859">
				 <ele>33.5</ele>
			 </trkpt>
			 <trkpt lat="39.984505" lon="-75.195984">
				 <ele>33.6</ele>
			 </trkpt>
			 <trkpt lat="39.98482" lon="-75.196146">
				 <ele>33.7</ele>
			 </trkpt>
			 <trkpt lat="39.984955" lon="-75.196231">
				 <ele>33.8</ele>
			 </trkpt>
			 <trkpt lat="39.985469" lon="-75.196595">
				 <ele>33.8</ele>
			 </trkpt>
			 <trkpt lat="39.985797" lon="-75.196773">
				 <ele>33.9</ele>
			 </trkpt>
			 <trkpt lat="39.985906" lon="-75.19677">
				 <ele>34</ele>
			 </trkpt>
			 <trkpt lat="39.98647" lon="-75.196856">
				 <ele>34.1</ele>
			 </trkpt>
			 <trkpt lat="39.986622" lon="-75.196868">
				 <ele>34.2</ele>
			 </trkpt>
			 <trkpt lat="39.987075" lon="-75.196861">
				 <ele>34.3</ele>
			 </trkpt>
			 <trkpt lat="39.98728" lon="-75.196837">
				 <ele>34.4</ele>
			 </trkpt>
			 <trkpt lat="39.987449" lon="-75.196792">
				 <ele>34.3</ele>
			 </trkpt>
			 <trkpt lat="39.987744" lon="-75.196646">
				 <ele>34.2</ele>
			 </trkpt>
			 <trkpt lat="39.987924" lon="-75.196513">
				 <ele>34.1</ele>
			 </trkpt>
			 <trkpt lat="39.988054" lon="-75.196376">
				 <ele>34</ele>
			 </trkpt>
			 <trkpt lat="39.988091" lon="-75.196338">
				 <ele>34</ele>
			 </trkpt>
			 <trkpt lat="39.988232" lon="-75.196081">
				 <ele>33.9</ele>
			 </trkpt>
			 <trkpt lat="39.988281" lon="-75.195905">
				 <ele>33.9</ele>
			 </trkpt>
			 <trkpt lat="39.988318" lon="-75.195734">
				 <ele>33.8</ele>
			 </trkpt>
			 <trkpt lat="39.988356" lon="-75.195445">
				 <ele>33.6</ele>
			 </trkpt>
			 <trkpt lat="39.988383" lon="-75.195106">
				 <ele>33.5</ele>
			 </trkpt>
			 <trkpt lat="39.988408" lon="-75.19463">
				 <ele>33.3</ele>
			 </trkpt>
			 <trkpt lat="39.988432" lon="-75.194352">
				 <ele>33.1</ele>
			 </trkpt>
			 <trkpt lat="39.988544" lon="-75.193762">
				 <ele>32.8</ele>
			 </trkpt>
			 <trkpt lat="39.988627" lon="-75.19341">
				 <ele>32.7</ele>
			 </trkpt>
			 <trkpt lat="39.988778" lon="-75.192827">
				 <ele>32.7</ele>
			 </trkpt>
			 <trkpt lat="39.988895" lon="-75.192341">
				 <ele>32.7</ele>
			 </trkpt>
			 <trkpt lat="39.989044" lon="-75.19164">
				 <ele>32.8</ele>
			 </trkpt>
			 <trkpt lat="39.989221" lon="-75.191328">
				 <ele>32.8</ele>
			 </trkpt>
			 <trkpt lat="39.9894" lon="-75.191016">
				 <ele>32.9</ele>
			 </trkpt>
			 <trkpt lat="39.989537" lon="-75.190834">
				 <ele>33</ele>
			 </trkpt>
			 <trkpt lat="39.989991" lon="-75.190351">
				 <ele>33.1</ele>
			 </trkpt>
			 <trkpt lat="39.990172" lon="-75.190158">
				 <ele>33.1</ele>
			 </trkpt>
			 <trkpt lat="39.990537" lon="-75.189859">
				 <ele>33.1</ele>
			 </trkpt>
			 <trkpt lat="39.990914" lon="-75.189623">
				 <ele>33.2</ele>
			 </trkpt>
			 <trkpt lat="39.991209" lon="-75.189486">
				 <ele>33.1</ele>
			 </trkpt>
			 <trkpt lat="39.991643" lon="-75.189364">
				 <ele>32.8</ele>
			 </trkpt>
			 <trkpt lat="39.991954" lon="-75.189352">
				 <ele>32.5</ele>
			 </trkpt>
			 <trkpt lat="39.991977" lon="-75.189469">
				 <ele>32.3</ele>
			 </trkpt>
			 <trkpt lat="39.992006" lon="-75.189646">
				 <ele>32</ele>
			 </trkpt>
			 <trkpt lat="39.992053" lon="-75.189791">
				 <ele>31.7</ele>
			 </trkpt>
			 <trkpt lat="39.992274" lon="-75.190192">
				 <ele>31.5</ele>
			 </trkpt>
			 <trkpt lat="39.992353" lon="-75.190363">
				 <ele>31.4</ele>
			 </trkpt>
			 <trkpt lat="39.992437" lon="-75.190588">
				 <ele>31.3</ele>
			 </trkpt>
			 <trkpt lat="39.992491" lon="-75.190782">
				 <ele>31.2</ele>
			 </trkpt>
			 <trkpt lat="39.992516" lon="-75.190913">
				 <ele>31.1</ele>
			 </trkpt>
			 <trkpt lat="39.992539" lon="-75.191086">
				 <ele>31</ele>
			 </trkpt>
			 <trkpt lat="39.992569" lon="-75.191419">
				 <ele>31</ele>
			 </trkpt>
			 <trkpt lat="39.992684" lon="-75.192088">
				 <ele>31</ele>
			 </trkpt>
			 <trkpt lat="39.992689" lon="-75.19228">
				 <ele>31</ele>
			 </trkpt>
			 <trkpt lat="39.992677" lon="-75.192348">
				 <ele>31</ele>
			 </trkpt>
			 <trkpt lat="39.992662" lon="-75.192433">
				 <ele>31</ele>
			 </trkpt>
			 <trkpt lat="39.992616" lon="-75.192577">
				 <ele>31</ele>
			 </trkpt>
			 <trkpt lat="39.992522" lon="-75.19273">
				 <ele>31.2</ele>
			 </trkpt>
			 <trkpt lat="39.992478" lon="-75.192792">
				 <ele>31.4</ele>
			 </trkpt>
			 <trkpt lat="39.992121" lon="-75.193286">
				 <ele>31.5</ele>
			 </trkpt>
			 <trkpt lat="39.991842" lon="-75.193722">
				 <ele>31.5</ele>
			 </trkpt>
			 <trkpt lat="39.991764" lon="-75.193844">
				 <ele>31.7</ele>
			 </trkpt>
			 <trkpt lat="39.991217" lon="-75.194743">
				 <ele>31.9</ele>
			 </trkpt>
			 <trkpt lat="39.991081" lon="-75.194966">
				 <ele>32.1</ele>
			 </trkpt>
			 <trkpt lat="39.990967" lon="-75.195154">
				 <ele>32.2</ele>
			 </trkpt>
			 <trkpt lat="39.990852" lon="-75.195303">
				 <ele>32.2</ele>
			 </trkpt>
			 <trkpt lat="39.990763" lon="-75.195358">
				 <ele>32.2</ele>
			 </trkpt>
			 <trkpt lat="39.990678" lon="-75.195373">
				 <ele>32.2</ele>
			 </trkpt>
			 <trkpt lat="39.990562" lon="-75.19537">
				 <ele>32</ele>
			 </trkpt>
			 <trkpt lat="39.990433" lon="-75.195327">
				 <ele>31.8</ele>
			 </trkpt>
			 <trkpt lat="39.990303" lon="-75.195228">
				 <ele>31.7</ele>
			 </trkpt>
			 <trkpt lat="39.990222" lon="-75.19513">
				 <ele>31.6</ele>
			 </trkpt>
			 <trkpt lat="39.990156" lon="-75.19487">
				 <ele>31.5</ele>
			 </trkpt>
			 <trkpt lat="39.990136" lon="-75.19454">
				 <ele>31.3</ele>
			 </trkpt>
			 <trkpt lat="39.990108" lon="-75.194375">
				 <ele>31.1</ele>
			 </trkpt>
			 <trkpt lat="39.989956" lon="-75.193851">
				 <ele>31</ele>
			 </trkpt>
			 <trkpt lat="39.989926" lon="-75.193641">
				 <ele>31</ele>
			 </trkpt>
			 <trkpt lat="39.989899" lon="-75.193442">
				 <ele>30.9</ele>
			 </trkpt>
			 <trkpt lat="39.989802" lon="-75.192393">
				 <ele>30.8</ele>
			 </trkpt>
			 <trkpt lat="39.989767" lon="-75.19219">
				 <ele>30.8</ele>
			 </trkpt>
			 <trkpt lat="39.989696" lon="-75.191994">
				 <ele>30.9</ele>
			 </trkpt>
			 <trkpt lat="39.989556" lon="-75.191723">
				 <ele>31</ele>
			 </trkpt>
			 <trkpt lat="39.989464" lon="-75.191591">
				 <ele>31.1</ele>
			 </trkpt>
			 <trkpt lat="39.989382" lon="-75.191494">
				 <ele>31.2</ele>
			 </trkpt>
			 <trkpt lat="39.989249" lon="-75.191355">
				 <ele>31.3</ele>
			 </trkpt>
			 <trkpt lat="39.989167" lon="-75.191387">
				 <ele>31.5</ele>
			 </trkpt>
			 <trkpt lat="39.989044" lon="-75.19164">
				 <ele>31.7</ele>
			 </trkpt>
			 <trkpt lat="39.988895" lon="-75.192341">
				 <ele>31.9</ele>
			 </trkpt>
			 <trkpt lat="39.988778" lon="-75.192827">
				 <ele>32.3</ele>
			 </trkpt>
			 <trkpt lat="39.988629" lon="-75.193402">
				 <ele>32.6</ele>
			 </trkpt>
			 <trkpt lat="39.988544" lon="-75.193762">
				 <ele>32.9</ele>
			 </trkpt>
			 <trkpt lat="39.988432" lon="-75.194352">
				 <ele>33.1</ele>
			 </trkpt>
			 <trkpt lat="39.988408" lon="-75.19463">
				 <ele>33.3</ele>
			 </trkpt>
			 <trkpt lat="39.988383" lon="-75.195106">
				 <ele>33.5</ele>
			 </trkpt>
			 <trkpt lat="39.988356" lon="-75.195445">
				 <ele>33.6</ele>
			 </trkpt>
			 <trkpt lat="39.988318" lon="-75.195734">
				 <ele>33.8</ele>
			 </trkpt>
			 <trkpt lat="39.988281" lon="-75.195905">
				 <ele>33.9</ele>
			 </trkpt>
			 <trkpt lat="39.988232" lon="-75.196081">
				 <ele>33.9</ele>
			 </trkpt>
			 <trkpt lat="39.988091" lon="-75.196338">
				 <ele>34</ele>
			 </trkpt>
			 <trkpt lat="39.988013" lon="-75.19642">
				 <ele>34</ele>
			 </trkpt>
			 <trkpt lat="39.987924" lon="-75.196513">
				 <ele>34.1</ele>
			 </trkpt>
			 <trkpt lat="39.987744" lon="-75.196646">
				 <ele>34.2</ele>
			 </trkpt>
			 <trkpt lat="39.987449" lon="-75.196792">
				 <ele>34.3</ele>
			 </trkpt>
			 <trkpt lat="39.98728" lon="-75.196837">
				 <ele>34.4</ele>
			 </trkpt>
			 <trkpt lat="39.987075" lon="-75.196861">
				 <ele>34.4</ele>
			 </trkpt>
			 <trkpt lat="39.986622" lon="-75.196868">
				 <ele>34.1</ele>
			 </trkpt>
			 <trkpt lat="39.986479" lon="-75.196857">
				 <ele>33.6</ele>
			 </trkpt>
			 <trkpt lat="39.985906" lon="-75.19677">
				 <ele>33.1</ele>
			 </trkpt>
			 <trkpt lat="39.985797" lon="-75.196773">
				 <ele>32.4</ele>
			 </trkpt>
			 <trkpt lat="39.985643" lon="-75.196798">
				 <ele>31.5</ele>
			 </trkpt>
			 <trkpt lat="39.985415" lon="-75.196859">
				 <ele>30.5</ele>
			 </trkpt>
			 <trkpt lat="39.985013" lon="-75.196993">
				 <ele>29.5</ele>
			 </trkpt>
			 <trkpt lat="39.984744" lon="-75.197099">
				 <ele>28.4</ele>
			 </trkpt>
			 <trkpt lat="39.984469" lon="-75.197222">
				 <ele>27.2</ele>
			 </trkpt>
			 <trkpt lat="39.984144" lon="-75.197399">
				 <ele>25.8</ele>
			 </trkpt>
			 <trkpt lat="39.983995" lon="-75.197487">
				 <ele>24.4</ele>
			 </trkpt>
			 <trkpt lat="39.983818" lon="-75.197576">
				 <ele>23.1</ele>
			 </trkpt>
			 <trkpt lat="39.983636" lon="-75.197657">
				 <ele>21.7</ele>
			 </trkpt>
			 <trkpt lat="39.983432" lon="-75.197724">
				 <ele>20.2</ele>
			 </trkpt>
			 <trkpt lat="39.983223" lon="-75.197766">
				 <ele>18.8</ele>
			 </trkpt>
			 <trkpt lat="39.983056" lon="-75.197779">
				 <ele>17.6</ele>
			 </trkpt>
			 <trkpt lat="39.982782" lon="-75.197781">
				 <ele>16.5</ele>
			 </trkpt>
			 <trkpt lat="39.982141" lon="-75.197662">
				 <ele>15.4</ele>
			 </trkpt>
			 <trkpt lat="39.981805" lon="-75.197627">
				 <ele>14.2</ele>
			 </trkpt>
			 <trkpt lat="39.981631" lon="-75.197618">
				 <ele>13.1</ele>
			 </trkpt>
			 <trkpt lat="39.98145" lon="-75.197642">
				 <ele>12.2</ele>
			 </trkpt>
			 <trkpt lat="39.980983" lon="-75.197881">
				 <ele>11.4</ele>
			 </trkpt>
			 <trkpt lat="39.980863" lon="-75.197993">
				 <ele>10.6</ele>
			 </trkpt>
			 <trkpt lat="39.980829" lon="-75.198033">
				 <ele>10.2</ele>
			 </trkpt>
			 <trkpt lat="39.980796" lon="-75.19809">
				 <ele>9.9</ele>
			 </trkpt>
			 <trkpt lat="39.98077" lon="-75.198147">
				 <ele>9.6</ele>
			 </trkpt>
			 <trkpt lat="39.980708" lon="-75.198281">
				 <ele>9.4</ele>
			 </trkpt>
			 <trkpt lat="39.980742" lon="-75.198367">
				 <ele>9</ele>
			 </trkpt>
			 <trkpt lat="39.980669" lon="-75.198408">
				 <ele>8.6</ele>
			 </trkpt>
			 <trkpt lat="39.980571" lon="-75.198464">
				 <ele>8.4</ele>
			 </trkpt>
			 <trkpt lat="39.98068" lon="-75.1988">
				 <ele>8.1</ele>
			 </trkpt>
			 <trkpt lat="39.98086" lon="-75.19944">
				 <ele>7.8</ele>
			 </trkpt>
			 <trkpt lat="39.98104" lon="-75.20004">
				 <ele>7.6</ele>
			 </trkpt>
			 <trkpt lat="39.98123" lon="-75.20041">
				 <ele>7.3</ele>
			 </trkpt>
			 <trkpt lat="39.9816" lon="-75.20096">
				 <ele>6.9</ele>
			 </trkpt>
			 <trkpt lat="39.9819" lon="-75.20137">
				 <ele>6.5</ele>
			 </trkpt>
			 <trkpt lat="39.98223" lon="-75.2018">
				 <ele>6.2</ele>
			 </trkpt>
			 <trkpt lat="39.98291" lon="-75.2026">
				 <ele>5.8</ele>
			 </trkpt>
			 <trkpt lat="39.98326" lon="-75.20298">
				 <ele>5.5</ele>
			 </trkpt>
			 <trkpt lat="39.9835" lon="-75.20318">
				 <ele>5.1</ele>
			 </trkpt>
			 <trkpt lat="39.98355" lon="-75.20321">
				 <ele>4.7</ele>
			 </trkpt>
			 <trkpt lat="39.98383" lon="-75.20335">
				 <ele>4.4</ele>
			 </trkpt>
			 <trkpt lat="39.98402" lon="-75.20339">
				 <ele>4</ele>
			 </trkpt>
			 <trkpt lat="39.9842" lon="-75.20342">
				 <ele>3.6</ele>
			 </trkpt>
			 <trkpt lat="39.98442" lon="-75.20341">
				 <ele>3.5</ele>
			 </trkpt>
			 <trkpt lat="39.98455" lon="-75.20338">
				 <ele>3.5</ele>
			 </trkpt>
			 <trkpt lat="39.98472" lon="-75.2033">
				 <ele>3.7</ele>
			 </trkpt>
			 <trkpt lat="39.98486" lon="-75.20321">
				 <ele>4</ele>
			 </trkpt>
			 <trkpt lat="39.985" lon="-75.2031">
				 <ele>4.3</ele>
			 </trkpt>
			 <trkpt lat="39.98518" lon="-75.20288">
				 <ele>4.5</ele>
			 </trkpt>
			 <trkpt lat="39.98546" lon="-75.20251">
				 <ele>4.8</ele>
			 </trkpt>
			 <trkpt lat="39.98587" lon="-75.20198">
				 <ele>5.2</ele>
			 </trkpt>
			 <trkpt lat="39.98639" lon="-75.20108">
				 <ele>5.5</ele>
			 </trkpt>
			 <trkpt lat="39.98668" lon="-75.20069">
				 <ele>5.9</ele>
			 </trkpt>
			 <trkpt lat="39.98691" lon="-75.20044">
				 <ele>6.2</ele>
			 </trkpt>
			 <trkpt lat="39.98727" lon="-75.20005">
				 <ele>6.4</ele>
			 </trkpt>
			 <trkpt lat="39.98763" lon="-75.19973">
				 <ele>6.5</ele>
			 </trkpt>
			 <trkpt lat="39.98775" lon="-75.19963">
				 <ele>6.5</ele>
			 </trkpt>
			 <trkpt lat="39.98806" lon="-75.19938">
				 <ele>6.5</ele>
			 </trkpt>
			 <trkpt lat="39.98839" lon="-75.19909">
				 <ele>6.5</ele>
			 </trkpt>
			 <trkpt lat="39.98855" lon="-75.19888">
				 <ele>6.5</ele>
			 </trkpt>
			 <trkpt lat="39.98872" lon="-75.19869">
				 <ele>6.5</ele>
			 </trkpt>
			 <trkpt lat="39.98893" lon="-75.19846">
				 <ele>6.5</ele>
			 </trkpt>
			 <trkpt lat="39.98901" lon="-75.19834">
				 <ele>6.5</ele>
			 </trkpt>
			 <trkpt lat="39.98941" lon="-75.19793">
				 <ele>6.3</ele>
			 </trkpt>
			 <trkpt lat="39.98968" lon="-75.19767">
				 <ele>6.3</ele>
			 </trkpt>
			 <trkpt lat="39.99011" lon="-75.19723">
				 <ele>6.3</ele>
			 </trkpt>
			 <trkpt lat="39.99085" lon="-75.19667">
				 <ele>6.4</ele>
			 </trkpt>
			 <trkpt lat="39.9914" lon="-75.19626">
				 <ele>6.5</ele>
			 </trkpt>
			 <trkpt lat="39.99167" lon="-75.19597">
				 <ele>6.5</ele>
			 </trkpt>
			 <trkpt lat="39.9918" lon="-75.19579">
				 <ele>6.7</ele>
			 </trkpt>
			 <trkpt lat="39.99197" lon="-75.19547">
				 <ele>6.9</ele>
			 </trkpt>
			 <trkpt lat="39.99219" lon="-75.19502">
				 <ele>7</ele>
			 </trkpt>
			 <trkpt lat="39.99256" lon="-75.19435">
				 <ele>7.1</ele>
			 </trkpt>
			 <trkpt lat="39.99278" lon="-75.19398">
				 <ele>7.3</ele>
			 </trkpt>
			 <trkpt lat="39.99289" lon="-75.19383">
				 <ele>7.5</ele>
			 </trkpt>
			 <trkpt lat="39.99315" lon="-75.19352">
				 <ele>7.5</ele>
			 </trkpt>
			 <trkpt lat="39.99377" lon="-75.19284">
				 <ele>7.5</ele>
			 </trkpt>
			 <trkpt lat="39.99384" lon="-75.19277">
				 <ele>7.1</ele>
			 </trkpt>
			 <trkpt lat="39.99393" lon="-75.19272">
				 <ele>6.7</ele>
			 </trkpt>
			 <trkpt lat="39.99435" lon="-75.19256">
				 <ele>6.4</ele>
			 </trkpt>
			 <trkpt lat="39.9944" lon="-75.19256">
				 <ele>6</ele>
			 </trkpt>
			 <trkpt lat="39.99446" lon="-75.19259">
				 <ele>5.6</ele>
			 </trkpt>
			 <trkpt lat="39.99517" lon="-75.19209">
				 <ele>5.4</ele>
			 </trkpt>
			 <trkpt lat="39.99554" lon="-75.1918">
				 <ele>4.9</ele>
			 </trkpt>
			 <trkpt lat="39.99573" lon="-75.19165">
				 <ele>4.5</ele>
			 </trkpt>
			 <trkpt lat="39.99603" lon="-75.19147">
				 <ele>4.4</ele>
			 </trkpt>
			 <trkpt lat="39.99655" lon="-75.19129">
				 <ele>4.4</ele>
			 </trkpt>
			 <trkpt lat="39.99706" lon="-75.19114">
				 <ele>4.4</ele>
			 </trkpt>
			 <trkpt lat="39.99797" lon="-75.19101">
				 <ele>4.6</ele>
			 </trkpt>
			 <trkpt lat="39.99817" lon="-75.19097">
				 <ele>4.7</ele>
			 </trkpt>
			 <trkpt lat="39.99878" lon="-75.19083">
				 <ele>4.9</ele>
			 </trkpt>
			 <trkpt lat="39.99926" lon="-75.19072">
				 <ele>5.2</ele>
			 </trkpt>
			 <trkpt lat="39.99956" lon="-75.19069">
				 <ele>5.5</ele>
			 </trkpt>
			 <trkpt lat="39.99981" lon="-75.19069">
				 <ele>5.5</ele>
			 </trkpt>
			 <trkpt lat="40.00035" lon="-75.19074">
				 <ele>5.8</ele>
			 </trkpt>
			 <trkpt lat="40.00107" lon="-75.19067">
				 <ele>6</ele>
			 </trkpt>
			 <trkpt lat="40.00195" lon="-75.1904">
				 <ele>6.1</ele>
			 </trkpt>
			 <trkpt lat="40.0023" lon="-75.19039">
				 <ele>6.1</ele>
			 </trkpt>
			 <trkpt lat="40.00295" lon="-75.19051">
				 <ele>6.1</ele>
			 </trkpt>
			 <trkpt lat="40.00318" lon="-75.19051">
				 <ele>6.1</ele>
			 </trkpt>
			 <trkpt lat="40.00351" lon="-75.19056">
				 <ele>6.3</ele>
			 </trkpt>
			 <trkpt lat="40.00376" lon="-75.19066">
				 <ele>6.4</ele>
			 </trkpt>
			 <trkpt lat="40.00392" lon="-75.19075">
				 <ele>6.4</ele>
			 </trkpt>
			 <trkpt lat="40.004" lon="-75.19077">
				 <ele>6.3</ele>
			 </trkpt>
			 <trkpt lat="40.00418" lon="-75.19078">
				 <ele>6.3</ele>
			 </trkpt>
			 <trkpt lat="40.00462" lon="-75.19079">
				 <ele>6.4</ele>
			 </trkpt>
			 <trkpt lat="40.00481" lon="-75.19082">
				 <ele>6.4</ele>
			 </trkpt>
			 <trkpt lat="40.00507" lon="-75.19089">
				 <ele>6.4</ele>
			 </trkpt>
			 <trkpt lat="40.00559" lon="-75.19111">
				 <ele>6.4</ele>
			 </trkpt>
			 <trkpt lat="40.00595" lon="-75.19127">
				 <ele>6.4</ele>
			 </trkpt>
			 <trkpt lat="40.00614" lon="-75.1914">
				 <ele>6.4</ele>
			 </trkpt>
			 <trkpt lat="40.00686" lon="-75.19196">
				 <ele>6.3</ele>
			 </trkpt>
			 <trkpt lat="40.007" lon="-75.1921">
				 <ele>6.2</ele>
			 </trkpt>
			 <trkpt lat="40.0071" lon="-75.19223">
				 <ele>6.4</ele>
			 </trkpt>
			 <trkpt lat="40.00736" lon="-75.19263">
				 <ele>6.6</ele>
			 </trkpt>
			 <trkpt lat="40.00757" lon="-75.19301">
				 <ele>7</ele>
			 </trkpt>
			 <trkpt lat="40.00798" lon="-75.19396">
				 <ele>7.3</ele>
			 </trkpt>
			 <trkpt lat="40.00851" lon="-75.19533">
				 <ele>7.5</ele>
			 </trkpt>
			 <trkpt lat="40.00904" lon="-75.19675">
				 <ele>7.8</ele>
			 </trkpt>
			 <trkpt lat="40.00909" lon="-75.19694">
				 <ele>8.1</ele>
			 </trkpt>
			 <trkpt lat="40.009263" lon="-75.196957">
				 <ele>8.4</ele>
			 </trkpt>
			 <trkpt lat="40.009438" lon="-75.197498">
				 <ele>8.6</ele>
			 </trkpt>
			 <trkpt lat="40.009612" lon="-75.198039">
				 <ele>8.9</ele>
			 </trkpt>
			 <trkpt lat="40.009787" lon="-75.19858">
				 <ele>9.3</ele>
			 </trkpt>
			 <trkpt lat="40.009962" lon="-75.19912">
				 <ele>9.5</ele>
			 </trkpt>
			 <trkpt lat="40.010137" lon="-75.199661">
				 <ele>9.8</ele>
			 </trkpt>
			 <trkpt lat="40.010311" lon="-75.200202">
				 <ele>10.3</ele>
			 </trkpt>
			 <trkpt lat="40.010486" lon="-75.200743">
				 <ele>10.5</ele>
			 </trkpt>
			 <trkpt lat="40.010661" lon="-75.201284">
				 <ele>10.6</ele>
			 </trkpt>
			 <trkpt lat="40.010836" lon="-75.201825">
				 <ele>10.8</ele>
			 </trkpt>
			 <trkpt lat="40.01096" lon="-75.20221">
				 <ele>11</ele>
			 </trkpt>
			 <trkpt lat="40.01128" lon="-75.2026">
				 <ele>11.2</ele>
			 </trkpt>
			 <trkpt lat="40.01162" lon="-75.20294">
				 <ele>11.6</ele>
			 </trkpt>
			 <trkpt lat="40.01168" lon="-75.20297">
				 <ele>12.5</ele>
			 </trkpt>
			 <trkpt lat="40.0118" lon="-75.20312">
				 <ele>13.6</ele>
			 </trkpt>
			 <trkpt lat="40.01185" lon="-75.20318">
				 <ele>14.5</ele>
			 </trkpt>
			 <trkpt lat="40.01216" lon="-75.20352">
				 <ele>15.6</ele>
			 </trkpt>
			 <trkpt lat="40.01274" lon="-75.20417">
				 <ele>16.5</ele>
			 </trkpt>
			 <trkpt lat="40.01301" lon="-75.2045">
				 <ele>17.1</ele>
			 </trkpt>
			 <trkpt lat="40.01326" lon="-75.20471">
				 <ele>17.5</ele>
			 </trkpt>
			 <trkpt lat="40.01334" lon="-75.20476">
				 <ele>17.7</ele>
			 </trkpt>
			 <trkpt lat="40.01347" lon="-75.20481">
				 <ele>17.8</ele>
			 </trkpt>
			 <trkpt lat="40.01368" lon="-75.20485">
				 <ele>17.9</ele>
			 </trkpt>
			 <trkpt lat="40.0138" lon="-75.20486">
				 <ele>17.8</ele>
			 </trkpt>
			 <trkpt lat="40.01394" lon="-75.20481">
				 <ele>17.3</ele>
			 </trkpt>
			 <trkpt lat="40.01433" lon="-75.20486">
				 <ele>16.6</ele>
			 </trkpt>
			 <trkpt lat="40.0144" lon="-75.20485">
				 <ele>15.3</ele>
			 </trkpt>
			 <trkpt lat="40.01446" lon="-75.20501">
				 <ele>14.5</ele>
			 </trkpt>
			 <trkpt lat="40.01452" lon="-75.20522">
				 <ele>14.3</ele>
			 </trkpt>
			 <trkpt lat="40.01459" lon="-75.20547">
				 <ele>14.3</ele>
			 </trkpt>
			 <trkpt lat="40.01476" lon="-75.20612">
				 <ele>14.4</ele>
			 </trkpt>
			 <trkpt lat="40.01489" lon="-75.20669">
				 <ele>14.6</ele>
			 </trkpt>
			 <trkpt lat="40.01537" lon="-75.20827">
				 <ele>15.1</ele>
			 </trkpt>
			 <trkpt lat="40.01555" lon="-75.20873">
				 <ele>15.5</ele>
			 </trkpt>
			 <trkpt lat="40.01554" lon="-75.20891">
				 <ele>15.7</ele>
			 </trkpt>
			 <trkpt lat="40.01561" lon="-75.20918">
				 <ele>15.9</ele>
			 </trkpt>
			 <trkpt lat="40.01581" lon="-75.20975">
				 <ele>15.6</ele>
			 </trkpt>
			 <trkpt lat="40.01603" lon="-75.21029">
				 <ele>16.1</ele>
			 </trkpt>
			 <trkpt lat="40.01618" lon="-75.21067">
				 <ele>15.7</ele>
			 </trkpt>
			 <trkpt lat="40.0163" lon="-75.21106">
				 <ele>14.8</ele>
			 </trkpt>
			 <trkpt lat="40.01636" lon="-75.21126">
				 <ele>14.1</ele>
			 </trkpt>
			 <trkpt lat="40.01644" lon="-75.21177">
				 <ele>13.5</ele>
			 </trkpt>
			 <trkpt lat="40.0165" lon="-75.21196">
				 <ele>13.1</ele>
			 </trkpt>
			 <trkpt lat="40.01672" lon="-75.21241">
				 <ele>12.5</ele>
			 </trkpt>
			 <trkpt lat="40.01709" lon="-75.21287">
				 <ele>12</ele>
			 </trkpt>
			 <trkpt lat="40.01743" lon="-75.2132">
				 <ele>11.6</ele>
			 </trkpt>
			 <trkpt lat="40.01846" lon="-75.21388">
				 <ele>11.8</ele>
			 </trkpt>
			 <trkpt lat="40.01917" lon="-75.2144">
				 <ele>12.5</ele>
			 </trkpt>
			 <trkpt lat="40.02008" lon="-75.21555">
				 <ele>13.3</ele>
			 </trkpt>
			 <trkpt lat="40.02201" lon="-75.21806">
				 <ele>13.6</ele>
			 </trkpt>
			 <trkpt lat="40.02205" lon="-75.2181">
				 <ele>13.9</ele>
			 </trkpt>
			 <trkpt lat="40.02405" lon="-75.22068">
				 <ele>14.1</ele>
			 </trkpt>
			 <trkpt lat="40.02452" lon="-75.22129">
				 <ele>14.6</ele>
			 </trkpt>
			 <trkpt lat="40.02458" lon="-75.22141">
				 <ele>15.5</ele>
			 </trkpt>
			 <trkpt lat="40.02508" lon="-75.22267">
				 <ele>16</ele>
			 </trkpt>
			 <trkpt lat="40.02531" lon="-75.22323">
				 <ele>16.2</ele>
			 </trkpt>
			 <trkpt lat="40.02539" lon="-75.22344">
				 <ele>16.2</ele>
			 </trkpt>
			 <trkpt lat="40.0249" lon="-75.22222">
				 <ele>15.6</ele>
			 </trkpt>
			 <trkpt lat="40.02454" lon="-75.22132">
				 <ele>14.8</ele>
			 </trkpt>
			 <trkpt lat="40.02383" lon="-75.2204">
				 <ele>14</ele>
			 </trkpt>
			 <trkpt lat="40.02293" lon="-75.21924">
				 <ele>13.5</ele>
			 </trkpt>
			 <trkpt lat="40.02186" lon="-75.21786">
				 <ele>13.3</ele>
			 </trkpt>
			 <trkpt lat="40.01982" lon="-75.21523">
				 <ele>13.1</ele>
			 </trkpt>
			 <trkpt lat="40.01923" lon="-75.21447">
				 <ele>12.5</ele>
			 </trkpt>
			 <trkpt lat="40.01913" lon="-75.21437">
				 <ele>11.7</ele>
			 </trkpt>
			 <trkpt lat="40.01875" lon="-75.21409">
				 <ele>11.2</ele>
			 </trkpt>
			 <trkpt lat="40.01804" lon="-75.2136">
				 <ele>11</ele>
			 </trkpt>
			 <trkpt lat="40.0175" lon="-75.21325">
				 <ele>11.1</ele>
			 </trkpt>
			 <trkpt lat="40.01736" lon="-75.21314">
				 <ele>11.2</ele>
			 </trkpt>
			 <trkpt lat="40.01716" lon="-75.21295">
				 <ele>11.5</ele>
			 </trkpt>
			 <trkpt lat="40.01683" lon="-75.21256">
				 <ele>11.8</ele>
			 </trkpt>
			 <trkpt lat="40.01676" lon="-75.21247">
				 <ele>12.3</ele>
			 </trkpt>
			 <trkpt lat="40.01661" lon="-75.21219">
				 <ele>12.7</ele>
			 </trkpt>
			 <trkpt lat="40.01646" lon="-75.21188">
				 <ele>13.2</ele>
			 </trkpt>
			 <trkpt lat="40.01638" lon="-75.2114">
				 <ele>13.6</ele>
			 </trkpt>
			 <trkpt lat="40.01633" lon="-75.21116">
				 <ele>14.1</ele>
			 </trkpt>
			 <trkpt lat="40.01627" lon="-75.21095">
				 <ele>14.8</ele>
			 </trkpt>
			 <trkpt lat="40.01611" lon="-75.21049">
				 <ele>15.7</ele>
			 </trkpt>
			 <trkpt lat="40.01592" lon="-75.21003">
				 <ele>16.1</ele>
			 </trkpt>
			 <trkpt lat="40.01569" lon="-75.20939">
				 <ele>16.4</ele>
			 </trkpt>
			 <trkpt lat="40.01559" lon="-75.2091">
				 <ele>16.2</ele>
			 </trkpt>
			 <trkpt lat="40.01554" lon="-75.20891">
				 <ele>15.7</ele>
			 </trkpt>
			 <trkpt lat="40.01555" lon="-75.20873">
				 <ele>15.4</ele>
			 </trkpt>
			 <trkpt lat="40.01532" lon="-75.20812">
				 <ele>15.1</ele>
			 </trkpt>
			 <trkpt lat="40.01517" lon="-75.20764">
				 <ele>15</ele>
			 </trkpt>
			 <trkpt lat="40.015" lon="-75.20706">
				 <ele>15.1</ele>
			 </trkpt>
			 <trkpt lat="40.01481" lon="-75.20638">
				 <ele>15.3</ele>
			 </trkpt>
			 <trkpt lat="40.01444" lon="-75.20655">
				 <ele>14.8</ele>
			 </trkpt>
			 <trkpt lat="40.01401" lon="-75.20671">
				 <ele>14.1</ele>
			 </trkpt>
			 <trkpt lat="40.01379" lon="-75.20675">
				 <ele>13.8</ele>
			 </trkpt>
			 <trkpt lat="40.01354" lon="-75.20675">
				 <ele>13.6</ele>
			 </trkpt>
			 <trkpt lat="40.01333" lon="-75.20667">
				 <ele>13.8</ele>
			 </trkpt>
			 <trkpt lat="40.01322" lon="-75.20661">
				 <ele>14.1</ele>
			 </trkpt>
			 <trkpt lat="40.01314" lon="-75.20655">
				 <ele>14</ele>
			 </trkpt>
			 <trkpt lat="40.01299" lon="-75.20637">
				 <ele>13.7</ele>
			 </trkpt>
			 <trkpt lat="40.01272" lon="-75.20604">
				 <ele>13.3</ele>
			 </trkpt>
			 <trkpt lat="40.01233" lon="-75.20553">
				 <ele>12.6</ele>
			 </trkpt>
			 <trkpt lat="40.01179" lon="-75.20486">
				 <ele>12.1</ele>
			 </trkpt>
			 <trkpt lat="40.01158" lon="-75.20458">
				 <ele>11.7</ele>
			 </trkpt>
			 <trkpt lat="40.011332" lon="-75.20409">
				 <ele>11.5</ele>
			 </trkpt>
			 <trkpt lat="40.011275" lon="-75.203977">
				 <ele>11.2</ele>
			 </trkpt>
			 <trkpt lat="40.01113" lon="-75.203421">
				 <ele>10.8</ele>
			 </trkpt>
			 <trkpt lat="40.010985" lon="-75.202865">
				 <ele>10.3</ele>
			 </trkpt>
			 <trkpt lat="40.010841" lon="-75.20231">
				 <ele>9.8</ele>
			 </trkpt>
			 <trkpt lat="40.010696" lon="-75.201754">
				 <ele>9.5</ele>
			 </trkpt>
			 <trkpt lat="40.010596" lon="-75.201371">
				 <ele>9.4</ele>
			 </trkpt>
			 <trkpt lat="40.010429" lon="-75.200826">
				 <ele>9.2</ele>
			 </trkpt>
			 <trkpt lat="40.010261" lon="-75.200281">
				 <ele>9.2</ele>
			 </trkpt>
			 <trkpt lat="40.010094" lon="-75.199736">
				 <ele>8.9</ele>
			 </trkpt>
			 <trkpt lat="40.009927" lon="-75.199191">
				 <ele>8.8</ele>
			 </trkpt>
			 <trkpt lat="40.00976" lon="-75.198646">
				 <ele>8.7</ele>
			 </trkpt>
			 <trkpt lat="40.009592" lon="-75.198101">
				 <ele>8.6</ele>
			 </trkpt>
			 <trkpt lat="40.009425" lon="-75.197556">
				 <ele>8.5</ele>
			 </trkpt>
			 <trkpt lat="40.009258" lon="-75.197012">
				 <ele>8.4</ele>
			 </trkpt>
			 <trkpt lat="40.00922" lon="-75.196888">
				 <ele>8.3</ele>
			 </trkpt>
			 <trkpt lat="40.009016" lon="-75.196365">
				 <ele>8.2</ele>
			 </trkpt>
			 <trkpt lat="40.008812" lon="-75.195841">
				 <ele>8.1</ele>
			 </trkpt>
			 <trkpt lat="40.008608" lon="-75.195318">
				 <ele>8</ele>
			 </trkpt>
			 <trkpt lat="40.008404" lon="-75.194795">
				 <ele>7.7</ele>
			 </trkpt>
			 <trkpt lat="40.008299" lon="-75.194524">
				 <ele>7.5</ele>
			 </trkpt>
			 <trkpt lat="40.008096" lon="-75.194">
				 <ele>7.2</ele>
			 </trkpt>
			 <trkpt lat="40.007946" lon="-75.193609">
				 <ele>6.9</ele>
			 </trkpt>
			 <trkpt lat="40.007702" lon="-75.193116">
				 <ele>6.9</ele>
			 </trkpt>
			 <trkpt lat="40.00763" lon="-75.19297">
				 <ele>6.9</ele>
			 </trkpt>
			 <trkpt lat="40.00742" lon="-75.19257">
				 <ele>6.9</ele>
			 </trkpt>
			 <trkpt lat="40.00724" lon="-75.19228">
				 <ele>7</ele>
			 </trkpt>
			 <trkpt lat="40.00697" lon="-75.19194">
				 <ele>7.1</ele>
			 </trkpt>
			 <trkpt lat="40.00651" lon="-75.19158">
				 <ele>7.3</ele>
			 </trkpt>
			 <trkpt lat="40.00595" lon="-75.19118">
				 <ele>7.5</ele>
			 </trkpt>
			 <trkpt lat="40.00507" lon="-75.1908">
				 <ele>7.8</ele>
			 </trkpt>
			 <trkpt lat="40.0049" lon="-75.19075">
				 <ele>8.1</ele>
			 </trkpt>
			 <trkpt lat="40.00468" lon="-75.19071">
				 <ele>8.3</ele>
			 </trkpt>
			 <trkpt lat="40.00463" lon="-75.19067">
				 <ele>8.4</ele>
			 </trkpt>
			 <trkpt lat="40.00451" lon="-75.19066">
				 <ele>8.3</ele>
			 </trkpt>
			 <trkpt lat="40.00437" lon="-75.19065">
				 <ele>8.3</ele>
			 </trkpt>
			 <trkpt lat="40.00418" lon="-75.19065">
				 <ele>8.4</ele>
			 </trkpt>
			 <trkpt lat="40.00403" lon="-75.19064">
				 <ele>8.4</ele>
			 </trkpt>
			 <trkpt lat="40.00389" lon="-75.1906">
				 <ele>8.4</ele>
			 </trkpt>
			 <trkpt lat="40.00372" lon="-75.19051">
				 <ele>8.4</ele>
			 </trkpt>
			 <trkpt lat="40.00359" lon="-75.19047">
				 <ele>8.3</ele>
			 </trkpt>
			 <trkpt lat="40.00326" lon="-75.19041">
				 <ele>8.1</ele>
			 </trkpt>
			 <trkpt lat="40.00259" lon="-75.19032">
				 <ele>8</ele>
			 </trkpt>
			 <trkpt lat="40.00216" lon="-75.19026">
				 <ele>8</ele>
			 </trkpt>
			 <trkpt lat="40.00193" lon="-75.19027">
				 <ele>8.1</ele>
			 </trkpt>
			 <trkpt lat="40.00111" lon="-75.19052">
				 <ele>8</ele>
			 </trkpt>
			 <trkpt lat="40.00068" lon="-75.19057">
				 <ele>8</ele>
			 </trkpt>
			 <trkpt lat="40.00035" lon="-75.19058">
				 <ele>7.9</ele>
			 </trkpt>
			 <trkpt lat="40.00006" lon="-75.19056">
				 <ele>7.7</ele>
			 </trkpt>
			 <trkpt lat="39.99975" lon="-75.19054">
				 <ele>7.5</ele>
			 </trkpt>
			 <trkpt lat="39.99954" lon="-75.19055">
				 <ele>7.3</ele>
			 </trkpt>
			 <trkpt lat="39.99937" lon="-75.19057">
				 <ele>7</ele>
			 </trkpt>
			 <trkpt lat="39.99875" lon="-75.19069">
				 <ele>6.8</ele>
			 </trkpt>
			 <trkpt lat="39.99813" lon="-75.19083">
				 <ele>6.5</ele>
			 </trkpt>
			 <trkpt lat="39.99793" lon="-75.19086">
				 <ele>6.4</ele>
			 </trkpt>
			 <trkpt lat="39.99745" lon="-75.19094">
				 <ele>6.1</ele>
			 </trkpt>
			 <trkpt lat="39.99655" lon="-75.19116">
				 <ele>5.9</ele>
			 </trkpt>
			 <trkpt lat="39.99615" lon="-75.19131">
				 <ele>5.8</ele>
			 </trkpt>
			 <trkpt lat="39.99575" lon="-75.19151">
				 <ele>5.8</ele>
			 </trkpt>
			 <trkpt lat="39.99565" lon="-75.19155">
				 <ele>6.1</ele>
			 </trkpt>
			 <trkpt lat="39.99543" lon="-75.19173">
				 <ele>6.4</ele>
			 </trkpt>
			 <trkpt lat="39.99532" lon="-75.19182">
				 <ele>6.6</ele>
			 </trkpt>
			 <trkpt lat="39.99495" lon="-75.19211">
				 <ele>6.9</ele>
			 </trkpt>
			 <trkpt lat="39.99474" lon="-75.19222">
				 <ele>7.2</ele>
			 </trkpt>
			 <trkpt lat="39.99395" lon="-75.19256">
				 <ele>7.5</ele>
			 </trkpt>
			 <trkpt lat="39.99375" lon="-75.19266">
				 <ele>7.8</ele>
			 </trkpt>
			 <trkpt lat="39.99364" lon="-75.19274">
				 <ele>8.2</ele>
			 </trkpt>
			 <trkpt lat="39.99333" lon="-75.19306">
				 <ele>8.5</ele>
			 </trkpt>
			 <trkpt lat="39.99304" lon="-75.19336">
				 <ele>8.7</ele>
			 </trkpt>
			 <trkpt lat="39.99276" lon="-75.1937">
				 <ele>8.8</ele>
			 </trkpt>
			 <trkpt lat="39.99262" lon="-75.1939">
				 <ele>8.7</ele>
			 </trkpt>
			 <trkpt lat="39.99241" lon="-75.19428">
				 <ele>8.6</ele>
			 </trkpt>
			 <trkpt lat="39.99214" lon="-75.19478">
				 <ele>8.5</ele>
			 </trkpt>
			 <trkpt lat="39.99168" lon="-75.19564">
				 <ele>8.5</ele>
			 </trkpt>
			 <trkpt lat="39.99141" lon="-75.196">
				 <ele>8.4</ele>
			 </trkpt>
			 <trkpt lat="39.99115" lon="-75.19624">
				 <ele>8.2</ele>
			 </trkpt>
			 <trkpt lat="39.99057" lon="-75.19661">
				 <ele>8.1</ele>
			 </trkpt>
			 <trkpt lat="39.99022" lon="-75.19685">
				 <ele>8</ele>
			 </trkpt>
			 <trkpt lat="39.99004" lon="-75.19702">
				 <ele>7.9</ele>
			 </trkpt>
			 <trkpt lat="39.98897" lon="-75.19822">
				 <ele>7.9</ele>
			 </trkpt>
			 <trkpt lat="39.98834" lon="-75.19895">
				 <ele>8</ele>
			 </trkpt>
			 <trkpt lat="39.98807" lon="-75.19921">
				 <ele>8</ele>
			 </trkpt>
			 <trkpt lat="39.98757" lon="-75.19963">
				 <ele>7.9</ele>
			 </trkpt>
			 <trkpt lat="39.98727" lon="-75.19989">
				 <ele>7.8</ele>
			 </trkpt>
			 <trkpt lat="39.98671" lon="-75.20049">
				 <ele>7.6</ele>
			 </trkpt>
			 <trkpt lat="39.98651" lon="-75.20073">
				 <ele>7.5</ele>
			 </trkpt>
			 <trkpt lat="39.9862" lon="-75.20122">
				 <ele>7.4</ele>
			 </trkpt>
			 <trkpt lat="39.98579" lon="-75.20195">
				 <ele>7.2</ele>
			 </trkpt>
			 <trkpt lat="39.98561" lon="-75.20219">
				 <ele>7</ele>
			 </trkpt>
			 <trkpt lat="39.98515" lon="-75.2027">
				 <ele>6.8</ele>
			 </trkpt>
			 <trkpt lat="39.98471" lon="-75.20308">
				 <ele>6.7</ele>
			 </trkpt>
			 <trkpt lat="39.98453" lon="-75.20318">
				 <ele>6.5</ele>
			 </trkpt>
			 <trkpt lat="39.98438" lon="-75.20321">
				 <ele>6.5</ele>
			 </trkpt>
			 <trkpt lat="39.98419" lon="-75.20322">
				 <ele>6.6</ele>
			 </trkpt>
			 <trkpt lat="39.98407" lon="-75.2032">
				 <ele>6.8</ele>
			 </trkpt>
			 <trkpt lat="39.9838" lon="-75.20312">
				 <ele>7.1</ele>
			 </trkpt>
			 <trkpt lat="39.98347" lon="-75.20292">
				 <ele>7.4</ele>
			 </trkpt>
			 <trkpt lat="39.98328" lon="-75.20274">
				 <ele>7.5</ele>
			 </trkpt>
			 <trkpt lat="39.98309" lon="-75.20254">
				 <ele>7.7</ele>
			 </trkpt>
			 <trkpt lat="39.98265" lon="-75.20199">
				 <ele>8</ele>
			 </trkpt>
			 <trkpt lat="39.98195" lon="-75.20111">
				 <ele>8.3</ele>
			 </trkpt>
			 <trkpt lat="39.98148" lon="-75.20043">
				 <ele>8.5</ele>
			 </trkpt>
			 <trkpt lat="39.98135" lon="-75.20022">
				 <ele>8.5</ele>
			 </trkpt>
			 <trkpt lat="39.98119" lon="-75.1999">
				 <ele>8.5</ele>
			 </trkpt>
			 <trkpt lat="39.98109" lon="-75.19961">
				 <ele>8.5</ele>
			 </trkpt>
			 <trkpt lat="39.98096" lon="-75.19914">
				 <ele>8.5</ele>
			 </trkpt>
			 <trkpt lat="39.98074" lon="-75.19836">
				 <ele>8.5</ele>
			 </trkpt>
			 <trkpt lat="39.9806" lon="-75.19806">
				 <ele>8.5</ele>
			 </trkpt>
			 <trkpt lat="39.98041" lon="-75.19772">
				 <ele>8.5</ele>
			 </trkpt>
			 <trkpt lat="39.97966" lon="-75.19664">
				 <ele>8.5</ele>
			 </trkpt>
			 <trkpt lat="39.97855" lon="-75.19503">
				 <ele>8.3</ele>
			 </trkpt>
			 <trkpt lat="39.9783" lon="-75.19466">
				 <ele>8.1</ele>
			 </trkpt>
			 <trkpt lat="39.97798" lon="-75.19425">
				 <ele>8.1</ele>
			 </trkpt>
			 <trkpt lat="39.97778" lon="-75.19404">
				 <ele>7.7</ele>
			 </trkpt>
			 <trkpt lat="39.97738" lon="-75.19367">
				 <ele>7.2</ele>
			 </trkpt>
			 <trkpt lat="39.97705" lon="-75.19335">
				 <ele>6.6</ele>
			 </trkpt>
			 <trkpt lat="39.97669" lon="-75.19295">
				 <ele>6</ele>
			 </trkpt>
			 <trkpt lat="39.9762" lon="-75.19246">
				 <ele>5.4</ele>
			 </trkpt>
			 <trkpt lat="39.97576" lon="-75.19205">
				 <ele>4.8</ele>
			 </trkpt>
			 <trkpt lat="39.9754" lon="-75.19175">
				 <ele>4.3</ele>
			 </trkpt>
			 <trkpt lat="39.97479" lon="-75.19129">
				 <ele>3.6</ele>
			 </trkpt>
			 <trkpt lat="39.97396" lon="-75.19076">
				 <ele>3.2</ele>
			 </trkpt>
			 <trkpt lat="39.97347" lon="-75.19047">
				 <ele>2.7</ele>
			 </trkpt>
			 <trkpt lat="39.97255" lon="-75.19005">
				 <ele>2.1</ele>
			 </trkpt>
			 <trkpt lat="39.97231" lon="-75.18995">
				 <ele>2</ele>
			 </trkpt>
			 <trkpt lat="39.97213" lon="-75.18993">
				 <ele>2.1</ele>
			 </trkpt>
			 <trkpt lat="39.97206" lon="-75.18992">
				 <ele>2.3</ele>
			 </trkpt>
			 <trkpt lat="39.9718" lon="-75.18997">
				 <ele>2.3</ele>
			 </trkpt>
			 <trkpt lat="39.97148" lon="-75.19006">
				 <ele>2.4</ele>
			 </trkpt>
			 <trkpt lat="39.97123" lon="-75.1901">
				 <ele>2.5</ele>
			 </trkpt>
			 <trkpt lat="39.97101" lon="-75.1901">
				 <ele>2.6</ele>
			 </trkpt>
			 <trkpt lat="39.97072" lon="-75.19004">
				 <ele>3.1</ele>
			 </trkpt>
			 <trkpt lat="39.97058" lon="-75.18997">
				 <ele>3.5</ele>
			 </trkpt>
			 <trkpt lat="39.97046" lon="-75.1899">
				 <ele>3.8</ele>
			 </trkpt>
			 <trkpt lat="39.97036" lon="-75.18981">
				 <ele>4.3</ele>
			 </trkpt>
			 <trkpt lat="39.97018" lon="-75.18958">
				 <ele>4.6</ele>
			 </trkpt>
			 <trkpt lat="39.97004" lon="-75.18928">
				 <ele>5</ele>
			 </trkpt>
			 <trkpt lat="39.96997" lon="-75.18906">
				 <ele>5.4</ele>
			 </trkpt>
			 <trkpt lat="39.96993" lon="-75.18877">
				 <ele>5.7</ele>
			 </trkpt>
			 <trkpt lat="39.96978" lon="-75.18748">
				 <ele>6.1</ele>
			 </trkpt>
			 <trkpt lat="39.96972" lon="-75.18707">
				 <ele>6.5</ele>
			 </trkpt>
			 <trkpt lat="39.9696" lon="-75.18616">
				 <ele>6.7</ele>
			 </trkpt>
			 <trkpt lat="39.96958" lon="-75.18595">
				 <ele>6.9</ele>
			 </trkpt>
			 <trkpt lat="39.96955" lon="-75.18589">
				 <ele>7.1</ele>
			 </trkpt>
			 <trkpt lat="39.96953" lon="-75.18584">
				 <ele>7.4</ele>
			 </trkpt>
			 <trkpt lat="39.96948" lon="-75.18555">
				 <ele>7.6</ele>
			 </trkpt>
			 <trkpt lat="39.96936" lon="-75.18493">
				 <ele>7.9</ele>
			 </trkpt>
			 <trkpt lat="39.96925" lon="-75.18457">
				 <ele>8.3</ele>
			 </trkpt>
			 <trkpt lat="39.96907" lon="-75.18411">
				 <ele>8.6</ele>
			 </trkpt>
			 <trkpt lat="39.96875" lon="-75.18337">
				 <ele>9</ele>
			 </trkpt>
			 <trkpt lat="39.96865" lon="-75.18317">
				 <ele>9.4</ele>
			 </trkpt>
			 <trkpt lat="39.9685" lon="-75.18291">
				 <ele>9.8</ele>
			 </trkpt>
			 <trkpt lat="39.96826" lon="-75.18251">
				 <ele>10.5</ele>
			 </trkpt>
			 <trkpt lat="39.96797" lon="-75.18213">
				 <ele>11</ele>
			 </trkpt>
			 <trkpt lat="39.96768" lon="-75.18175">
				 <ele>11.5</ele>
			 </trkpt>
			 <trkpt lat="39.96759" lon="-75.18163">
				 <ele>12</ele>
			 </trkpt>
			 <trkpt lat="39.96748" lon="-75.18137">
				 <ele>12.4</ele>
			 </trkpt>
			 <trkpt lat="39.96733" lon="-75.18085">
				 <ele>12.8</ele>
			 </trkpt>
			 <trkpt lat="39.96722" lon="-75.18052">
				 <ele>13.2</ele>
			 </trkpt>
			 <trkpt lat="39.96714" lon="-75.18035">
				 <ele>13.5</ele>
			 </trkpt>
			 <trkpt lat="39.96703" lon="-75.18016">
				 <ele>14</ele>
			 </trkpt>
			 <trkpt lat="39.96692" lon="-75.18">
				 <ele>14.5</ele>
			 </trkpt>
			 <trkpt lat="39.96677" lon="-75.17981">
				 <ele>14.8</ele>
			 </trkpt>
			 <trkpt lat="39.96669" lon="-75.17972">
				 <ele>14.9</ele>
			 </trkpt>
			 <trkpt lat="39.96653" lon="-75.17956">
				 <ele>15</ele>
			 </trkpt>
			 <trkpt lat="39.96637" lon="-75.17944">
				 <ele>15.1</ele>
			 </trkpt>
			 <trkpt lat="39.96622" lon="-75.17935">
				 <ele>15.3</ele>
			 </trkpt>
			 <trkpt lat="39.96615" lon="-75.17931">
				 <ele>15.5</ele>
			 </trkpt>
		 </trkseg>
	 </trk>
</gpx>