<?xml version="1.0" encoding="UTF-8"?>
 <gpx creator="Garmin Connect" version="1.1"
	 xsi:schemaLocation="http://www.topografix.com/GPX/1/1 http://www.topografix.com/GPX/11.xsd"
	 xmlns:ns3="http://www.garmin.com/xmlschemas/TrackPointExtension/v1"
	 xmlns="http://www.topografix.com/GPX/1/1"
	 xmlns:xsi="http://www.w3.org/2001/XMLSchema-instance" xmlns:ns2="http://www.garmin.com/xmlschemas/GpxExtensions/v3">
	 <metadata>
		<name>Honolulu Marathon 2025 - 42.195 km</name>
		 <link href="https://www.goandrace.com">
		 <text>Garmin Connect</text>
		 </link>
	 <time>2026-08-23T23:04:00</time>
	 </metadata>
	 <trk>
		 <name>Honolulu Marathon 2025 - 42.195 km</name>
		 <trkseg>
			 <trkpt lat="21.291955" lon="-157.85073">
				 <ele>1</ele>
			 </trkpt>
			 <trkpt lat="21.291986" lon="-157.851301">
				 <ele>1</ele>
			 </trkpt>
			 <trkpt lat="21.292026" lon="-157.851673">
				 <ele>1</ele>
			 </trkpt>
			 <trkpt lat="21.292099" lon="-157.852039">
				 <ele>1</ele>
			 </trkpt>
			 <trkpt lat="21.292206" lon="-157.852395">
				 <ele>1</ele>
			 </trkpt>
			 <trkpt lat="21.292346" lon="-157.852739">
				 <ele>1</ele>
			 </trkpt>
			 <trkpt lat="21.292516" lon="-157.853066">
				 <ele>1</ele>
			 </trkpt>
			 <trkpt lat="21.292731" lon="-157.853408">
				 <ele>1</ele>
			 </trkpt>
			 <trkpt lat="21.292901" lon="-157.853677">
				 <ele>1</ele>
			 </trkpt>
			 <trkpt lat="21.292987" lon="-157.853813">
				 <ele>1</ele>
			 </trkpt>
			 <trkpt lat="21.293024" lon="-157.853871">
				 <ele>1</ele>
			 </trkpt>
			 <trkpt lat="21.293076" lon="-157.853955">
				 <ele>1</ele>
			 </trkpt>
			 <trkpt lat="21.293623" lon="-157.854856">
				 <ele>1</ele>
			 </trkpt>
			 <trkpt lat="21.29413" lon="-157.855681">
				 <ele>1</ele>
			 </trkpt>
			 <trkpt lat="21.294394" lon="-157.856179">
				 <ele>1</ele>
			 </trkpt>
			 <trkpt lat="21.294514" lon="-157.856484">
				 <ele>1</ele>
			 </trkpt>
			 <trkpt lat="21.294626" lon="-157.856771">
				 <ele>1</ele>
			 </trkpt>
			 <trkpt lat="21.294857" lon="-157.857362">
				 <ele>1</ele>
			 </trkpt>
			 <trkpt lat="21.294957" lon="-157.857626">
				 <ele>1</ele>
			 </trkpt>
			 <trkpt lat="21.295024" lon="-157.857802">
				 <ele>1</ele>
			 </trkpt>
			 <trkpt lat="21.295059" lon="-157.857877">
				 <ele>1</ele>
			 </trkpt>
			 <trkpt lat="21.295647" lon="-157.859129">
				 <ele>1</ele>
			 </trkpt>
			 <trkpt lat="21.295891" lon="-157.859648">
				 <ele>1</ele>
			 </trkpt>
			 <trkpt lat="21.29604" lon="-157.859963">
				 <ele>1</ele>
			 </trkpt>
			 <trkpt lat="21.296232" lon="-157.860392">
				 <ele>1</ele>
			 </trkpt>
			 <trkpt lat="21.296326" lon="-157.860535">
				 <ele>1</ele>
			 </trkpt>
			 <trkpt lat="21.296364" lon="-157.860576">
				 <ele>1</ele>
			 </trkpt>
			 <trkpt lat="21.296425" lon="-157.860643">
				 <ele>1</ele>
			 </trkpt>
			 <trkpt lat="21.296491" lon="-157.860713">
				 <ele>1</ele>
			 </trkpt>
			 <trkpt lat="21.296645" lon="-157.860872">
				 <ele>1</ele>
			 </trkpt>
			 <trkpt lat="21.297012" lon="-157.861218">
				 <ele>1</ele>
			 </trkpt>
			 <trkpt lat="21.297317" lon="-157.861512">
				 <ele>1</ele>
			 </trkpt>
			 <trkpt lat="21.297378" lon="-157.86157">
				 <ele>1</ele>
			 </trkpt>
			 <trkpt lat="21.297417" lon="-157.861606">
				 <ele>1</ele>
			 </trkpt>
			 <trkpt lat="21.29781" lon="-157.86197">
				 <ele>1</ele>
			 </trkpt>
			 <trkpt lat="21.29813" lon="-157.862273">
				 <ele>1</ele>
			 </trkpt>
			 <trkpt lat="21.298243" lon="-157.862362">
				 <ele>1</ele>
			 </trkpt>
			 <trkpt lat="21.298315" lon="-157.862422">
				 <ele>1</ele>
			 </trkpt>
			 <trkpt lat="21.29885" lon="-157.862825">
				 <ele>1</ele>
			 </trkpt>
			 <trkpt lat="21.299066" lon="-157.862932">
				 <ele>1</ele>
			 </trkpt>
			 <trkpt lat="21.29911" lon="-157.862944">
				 <ele>1</ele>
			 </trkpt>
			 <trkpt lat="21.299173" lon="-157.862961">
				 <ele>1</ele>
			 </trkpt>
			 <trkpt lat="21.299513" lon="-157.862996">
				 <ele>1</ele>
			 </trkpt>
			 <trkpt lat="21.300477" lon="-157.863085">
				 <ele>1</ele>
			 </trkpt>
			 <trkpt lat="21.301" lon="-157.863133">
				 <ele>1</ele>
			 </trkpt>
			 <trkpt lat="21.301877" lon="-157.86324">
				 <ele>1</ele>
			 </trkpt>
			 <trkpt lat="21.302363" lon="-157.863284">
				 <ele>1</ele>
			 </trkpt>
			 <trkpt lat="21.303144" lon="-157.863332">
				 <ele>1</ele>
			 </trkpt>
			 <trkpt lat="21.303243" lon="-157.863333">
				 <ele>1</ele>
			 </trkpt>
			 <trkpt lat="21.303438" lon="-157.863312">
				 <ele>1</ele>
			 </trkpt>
			 <trkpt lat="21.303534" lon="-157.863289">
				 <ele>1</ele>
			 </trkpt>
			 <trkpt lat="21.303639" lon="-157.863255">
				 <ele>1</ele>
			 </trkpt>
			 <trkpt lat="21.303741" lon="-157.863211">
				 <ele>1</ele>
			 </trkpt>
			 <trkpt lat="21.304176" lon="-157.862994">
				 <ele>1</ele>
			 </trkpt>
			 <trkpt lat="21.304478" lon="-157.86285">
				 <ele>1</ele>
			 </trkpt>
			 <trkpt lat="21.304805" lon="-157.862725">
				 <ele>1</ele>
			 </trkpt>
			 <trkpt lat="21.304918" lon="-157.862699">
				 <ele>1</ele>
			 </trkpt>
			 <trkpt lat="21.305032" lon="-157.862682">
				 <ele>1</ele>
			 </trkpt>
			 <trkpt lat="21.305205" lon="-157.862674">
				 <ele>1</ele>
			 </trkpt>
			 <trkpt lat="21.305378" lon="-157.862686">
				 <ele>1</ele>
			 </trkpt>
			 <trkpt lat="21.305459" lon="-157.862699">
				 <ele>1</ele>
			 </trkpt>
			 <trkpt lat="21.305495" lon="-157.862705">
				 <ele>1</ele>
			 </trkpt>
			 <trkpt lat="21.30561" lon="-157.862734">
				 <ele>1</ele>
			 </trkpt>
			 <trkpt lat="21.305722" lon="-157.862773">
				 <ele>1</ele>
			 </trkpt>
			 <trkpt lat="21.305832" lon="-157.86282">
				 <ele>1</ele>
			 </trkpt>
			 <trkpt lat="21.305938" lon="-157.862876">
				 <ele>1</ele>
			 </trkpt>
			 <trkpt lat="21.306199" lon="-157.863034">
				 <ele>1</ele>
			 </trkpt>
			 <trkpt lat="21.30626" lon="-157.863075">
				 <ele>1</ele>
			 </trkpt>
			 <trkpt lat="21.306686" lon="-157.863363">
				 <ele>1</ele>
			 </trkpt>
			 <trkpt lat="21.307054" lon="-157.863608">
				 <ele>1</ele>
			 </trkpt>
			 <trkpt lat="21.307528" lon="-157.863912">
				 <ele>1</ele>
			 </trkpt>
			 <trkpt lat="21.307848" lon="-157.86411">
				 <ele>1</ele>
			 </trkpt>
			 <trkpt lat="21.307925" lon="-157.864146">
				 <ele>1</ele>
			 </trkpt>
			 <trkpt lat="21.308036" lon="-157.864184">
				 <ele>1</ele>
			 </trkpt>
			 <trkpt lat="21.308153" lon="-157.86421">
				 <ele>1</ele>
			 </trkpt>
			 <trkpt lat="21.308249" lon="-157.864222">
				 <ele>1.1</ele>
			 </trkpt>
			 <trkpt lat="21.308412" lon="-157.864218">
				 <ele>1.2</ele>
			 </trkpt>
			 <trkpt lat="21.309112" lon="-157.864152">
				 <ele>1.4</ele>
			 </trkpt>
			 <trkpt lat="21.309356" lon="-157.864136">
				 <ele>1.6</ele>
			 </trkpt>
			 <trkpt lat="21.309536" lon="-157.864144">
				 <ele>2</ele>
			 </trkpt>
			 <trkpt lat="21.309504" lon="-157.864058">
				 <ele>2.4</ele>
			 </trkpt>
			 <trkpt lat="21.30949" lon="-157.863968">
				 <ele>2.7</ele>
			 </trkpt>
			 <trkpt lat="21.30951" lon="-157.863807">
				 <ele>3</ele>
			 </trkpt>
			 <trkpt lat="21.30968" lon="-157.863366">
				 <ele>3.3</ele>
			 </trkpt>
			 <trkpt lat="21.309945" lon="-157.862675">
				 <ele>3.5</ele>
			 </trkpt>
			 <trkpt lat="21.309975" lon="-157.862595">
				 <ele>3.7</ele>
			 </trkpt>
			 <trkpt lat="21.30992" lon="-157.862561">
				 <ele>3.8</ele>
			 </trkpt>
			 <trkpt lat="21.309727" lon="-157.862444">
				 <ele>3.9</ele>
			 </trkpt>
			 <trkpt lat="21.309546" lon="-157.86233">
				 <ele>3.9</ele>
			 </trkpt>
			 <trkpt lat="21.309164" lon="-157.862092">
				 <ele>3.8</ele>
			 </trkpt>
			 <trkpt lat="21.308504" lon="-157.861545">
				 <ele>3.6</ele>
			 </trkpt>
			 <trkpt lat="21.308124" lon="-157.861235">
				 <ele>3.5</ele>
			 </trkpt>
			 <trkpt lat="21.30782" lon="-157.861001">
				 <ele>3.3</ele>
			 </trkpt>
			 <trkpt lat="21.30776" lon="-157.860955">
				 <ele>3.2</ele>
			 </trkpt>
			 <trkpt lat="21.307097" lon="-157.860412">
				 <ele>3.1</ele>
			 </trkpt>
			 <trkpt lat="21.307031" lon="-157.860359">
				 <ele>3</ele>
			 </trkpt>
			 <trkpt lat="21.306221" lon="-157.859684">
				 <ele>3</ele>
			 </trkpt>
			 <trkpt lat="21.306135" lon="-157.859612">
				 <ele>3</ele>
			 </trkpt>
			 <trkpt lat="21.305893" lon="-157.859369">
				 <ele>3</ele>
			 </trkpt>
			 <trkpt lat="21.305724" lon="-157.859154">
				 <ele>3</ele>
			 </trkpt>
			 <trkpt lat="21.305503" lon="-157.858812">
				 <ele>3</ele>
			 </trkpt>
			 <trkpt lat="21.305392" lon="-157.85863">
				 <ele>3</ele>
			 </trkpt>
			 <trkpt lat="21.305324" lon="-157.858524">
				 <ele>3</ele>
			 </trkpt>
			 <trkpt lat="21.305071" lon="-157.858095">
				 <ele>3</ele>
			 </trkpt>
			 <trkpt lat="21.304656" lon="-157.85737">
				 <ele>3</ele>
			 </trkpt>
			 <trkpt lat="21.304497" lon="-157.857106">
				 <ele>2.9</ele>
			 </trkpt>
			 <trkpt lat="21.304034" lon="-157.856226">
				 <ele>2.8</ele>
			 </trkpt>
			 <trkpt lat="21.303916" lon="-157.855951">
				 <ele>2.7</ele>
			 </trkpt>
			 <trkpt lat="21.303832" lon="-157.855793">
				 <ele>2.6</ele>
			 </trkpt>
			 <trkpt lat="21.303795" lon="-157.855745">
				 <ele>2.5</ele>
			 </trkpt>
			 <trkpt lat="21.303694" lon="-157.855653">
				 <ele>2.5</ele>
			 </trkpt>
			 <trkpt lat="21.303647" lon="-157.85562">
				 <ele>2.4</ele>
			 </trkpt>
			 <trkpt lat="21.303587" lon="-157.855588">
				 <ele>2.3</ele>
			 </trkpt>
			 <trkpt lat="21.303516" lon="-157.85556">
				 <ele>2.1</ele>
			 </trkpt>
			 <trkpt lat="21.303432" lon="-157.855528">
				 <ele>1.9</ele>
			 </trkpt>
			 <trkpt lat="21.302793" lon="-157.855217">
				 <ele>1.7</ele>
			 </trkpt>
			 <trkpt lat="21.302563" lon="-157.855105">
				 <ele>1.6</ele>
			 </trkpt>
			 <trkpt lat="21.302514" lon="-157.855081">
				 <ele>1.5</ele>
			 </trkpt>
			 <trkpt lat="21.302178" lon="-157.854906">
				 <ele>1.5</ele>
			 </trkpt>
			 <trkpt lat="21.301984" lon="-157.854824">
				 <ele>1.4</ele>
			 </trkpt>
			 <trkpt lat="21.301768" lon="-157.854724">
				 <ele>1.3</ele>
			 </trkpt>
			 <trkpt lat="21.301702" lon="-157.8547">
				 <ele>1.2</ele>
			 </trkpt>
			 <trkpt lat="21.301609" lon="-157.854661">
				 <ele>1.1</ele>
			 </trkpt>
			 <trkpt lat="21.301504" lon="-157.854599">
				 <ele>1</ele>
			 </trkpt>
			 <trkpt lat="21.301289" lon="-157.854482">
				 <ele>1</ele>
			 </trkpt>
			 <trkpt lat="21.301207" lon="-157.854431">
				 <ele>1</ele>
			 </trkpt>
			 <trkpt lat="21.301076" lon="-157.854341">
				 <ele>1</ele>
			 </trkpt>
			 <trkpt lat="21.300886" lon="-157.854192">
				 <ele>1</ele>
			 </trkpt>
			 <trkpt lat="21.29985" lon="-157.853389">
				 <ele>1</ele>
			 </trkpt>
			 <trkpt lat="21.299479" lon="-157.8531">
				 <ele>1</ele>
			 </trkpt>
			 <trkpt lat="21.299422" lon="-157.853059">
				 <ele>1</ele>
			 </trkpt>
			 <trkpt lat="21.299271" lon="-157.852949">
				 <ele>1</ele>
			 </trkpt>
			 <trkpt lat="21.299204" lon="-157.852901">
				 <ele>1</ele>
			 </trkpt>
			 <trkpt lat="21.299046" lon="-157.852788">
				 <ele>1</ele>
			 </trkpt>
			 <trkpt lat="21.298959" lon="-157.852725">
				 <ele>1</ele>
			 </trkpt>
			 <trkpt lat="21.298865" lon="-157.852654">
				 <ele>1</ele>
			 </trkpt>
			 <trkpt lat="21.298271" lon="-157.85218">
				 <ele>1</ele>
			 </trkpt>
			 <trkpt lat="21.298127" lon="-157.852065">
				 <ele>1</ele>
			 </trkpt>
			 <trkpt lat="21.297797" lon="-157.851788">
				 <ele>1</ele>
			 </trkpt>
			 <trkpt lat="21.297695" lon="-157.851698">
				 <ele>1</ele>
			 </trkpt>
			 <trkpt lat="21.297508" lon="-157.851539">
				 <ele>1</ele>
			 </trkpt>
			 <trkpt lat="21.297303" lon="-157.851331">
				 <ele>1</ele>
			 </trkpt>
			 <trkpt lat="21.297196" lon="-157.85122">
				 <ele>1</ele>
			 </trkpt>
			 <trkpt lat="21.296947" lon="-157.850926">
				 <ele>1</ele>
			 </trkpt>
			 <trkpt lat="21.29685" lon="-157.850789">
				 <ele>1</ele>
			 </trkpt>
			 <trkpt lat="21.296644" lon="-157.850437">
				 <ele>1</ele>
			 </trkpt>
			 <trkpt lat="21.296523" lon="-157.85021">
				 <ele>1</ele>
			 </trkpt>
			 <trkpt lat="21.296408" lon="-157.849962">
				 <ele>1</ele>
			 </trkpt>
			 <trkpt lat="21.296357" lon="-157.849866">
				 <ele>1</ele>
			 </trkpt>
			 <trkpt lat="21.29627" lon="-157.84968">
				 <ele>1</ele>
			 </trkpt>
			 <trkpt lat="21.29613" lon="-157.849332">
				 <ele>1</ele>
			 </trkpt>
			 <trkpt lat="21.29606" lon="-157.849157">
				 <ele>1</ele>
			 </trkpt>
			 <trkpt lat="21.295934" lon="-157.848881">
				 <ele>1</ele>
			 </trkpt>
			 <trkpt lat="21.29584" lon="-157.848664">
				 <ele>1</ele>
			 </trkpt>
			 <trkpt lat="21.295548" lon="-157.848006">
				 <ele>1</ele>
			 </trkpt>
			 <trkpt lat="21.29549" lon="-157.847878">
				 <ele>1</ele>
			 </trkpt>
			 <trkpt lat="21.294836" lon="-157.846422">
				 <ele>1</ele>
			 </trkpt>
			 <trkpt lat="21.29478" lon="-157.846261">
				 <ele>1</ele>
			 </trkpt>
			 <trkpt lat="21.294664" lon="-157.84639">
				 <ele>1</ele>
			 </trkpt>
			 <trkpt lat="21.294561" lon="-157.846436">
				 <ele>1</ele>
			 </trkpt>
			 <trkpt lat="21.294381" lon="-157.846516">
				 <ele>1</ele>
			 </trkpt>
			 <trkpt lat="21.293852" lon="-157.84672">
				 <ele>1</ele>
			 </trkpt>
			 <trkpt lat="21.293434" lon="-157.846877">
				 <ele>1</ele>
			 </trkpt>
			 <trkpt lat="21.293255" lon="-157.84695">
				 <ele>1</ele>
			 </trkpt>
			 <trkpt lat="21.293176" lon="-157.846987">
				 <ele>1</ele>
			 </trkpt>
			 <trkpt lat="21.292598" lon="-157.847227">
				 <ele>1</ele>
			 </trkpt>
			 <trkpt lat="21.292156" lon="-157.847423">
				 <ele>1</ele>
			 </trkpt>
			 <trkpt lat="21.291854" lon="-157.84756">
				 <ele>1</ele>
			 </trkpt>
			 <trkpt lat="21.29169" lon="-157.847633">
				 <ele>1</ele>
			 </trkpt>
			 <trkpt lat="21.291397" lon="-157.847743">
				 <ele>1</ele>
			 </trkpt>
			 <trkpt lat="21.291262" lon="-157.847764">
				 <ele>1</ele>
			 </trkpt>
			 <trkpt lat="21.291084" lon="-157.847828">
				 <ele>1</ele>
			 </trkpt>
			 <trkpt lat="21.290997" lon="-157.847866">
				 <ele>1</ele>
			 </trkpt>
			 <trkpt lat="21.290931" lon="-157.84783">
				 <ele>1</ele>
			 </trkpt>
			 <trkpt lat="21.290855" lon="-157.847763">
				 <ele>1</ele>
			 </trkpt>
			 <trkpt lat="21.290732" lon="-157.847603">
				 <ele>1</ele>
			 </trkpt>
			 <trkpt lat="21.290364" lon="-157.846697">
				 <ele>1</ele>
			 </trkpt>
			 <trkpt lat="21.290147" lon="-157.846175">
				 <ele>1</ele>
			 </trkpt>
			 <trkpt lat="21.290029" lon="-157.845808">
				 <ele>1</ele>
			 </trkpt>
			 <trkpt lat="21.289975" lon="-157.845614">
				 <ele>1</ele>
			 </trkpt>
			 <trkpt lat="21.289495" lon="-157.843705">
				 <ele>1</ele>
			 </trkpt>
			 <trkpt lat="21.289405" lon="-157.843412">
				 <ele>1</ele>
			 </trkpt>
			 <trkpt lat="21.289215" lon="-157.842613">
				 <ele>1</ele>
			 </trkpt>
			 <trkpt lat="21.289025" lon="-157.841807">
				 <ele>1</ele>
			 </trkpt>
			 <trkpt lat="21.288983" lon="-157.841632">
				 <ele>1</ele>
			 </trkpt>
			 <trkpt lat="21.288949" lon="-157.841494">
				 <ele>1</ele>
			 </trkpt>
			 <trkpt lat="21.288862" lon="-157.841232">
				 <ele>1</ele>
			 </trkpt>
			 <trkpt lat="21.288705" lon="-157.840881">
				 <ele>1</ele>
			 </trkpt>
			 <trkpt lat="21.288614" lon="-157.84078">
				 <ele>1</ele>
			 </trkpt>
			 <trkpt lat="21.288541" lon="-157.840698">
				 <ele>1</ele>
			 </trkpt>
			 <trkpt lat="21.288332" lon="-157.840516">
				 <ele>1</ele>
			 </trkpt>
			 <trkpt lat="21.287991" lon="-157.840391">
				 <ele>1</ele>
			 </trkpt>
			 <trkpt lat="21.287517" lon="-157.840286">
				 <ele>1</ele>
			 </trkpt>
			 <trkpt lat="21.287091" lon="-157.840159">
				 <ele>1</ele>
			 </trkpt>
			 <trkpt lat="21.286892" lon="-157.84005">
				 <ele>1</ele>
			 </trkpt>
			 <trkpt lat="21.285534" lon="-157.838888">
				 <ele>1</ele>
			 </trkpt>
			 <trkpt lat="21.284976" lon="-157.838413">
				 <ele>1</ele>
			 </trkpt>
			 <trkpt lat="21.284791" lon="-157.838196">
				 <ele>1</ele>
			 </trkpt>
			 <trkpt lat="21.284611" lon="-157.837869">
				 <ele>1</ele>
			 </trkpt>
			 <trkpt lat="21.284597" lon="-157.837829">
				 <ele>1</ele>
			 </trkpt>
			 <trkpt lat="21.284559" lon="-157.837715">
				 <ele>1</ele>
			 </trkpt>
			 <trkpt lat="21.284521" lon="-157.837597">
				 <ele>1</ele>
			 </trkpt>
			 <trkpt lat="21.284478" lon="-157.837228">
				 <ele>1</ele>
			 </trkpt>
			 <trkpt lat="21.284523" lon="-157.8368">
				 <ele>1</ele>
			 </trkpt>
			 <trkpt lat="21.28456" lon="-157.836686">
				 <ele>1</ele>
			 </trkpt>
			 <trkpt lat="21.284648" lon="-157.836448">
				 <ele>1</ele>
			 </trkpt>
			 <trkpt lat="21.284771" lon="-157.836116">
				 <ele>1</ele>
			 </trkpt>
			 <trkpt lat="21.284911" lon="-157.83574">
				 <ele>1</ele>
			 </trkpt>
			 <trkpt lat="21.285598" lon="-157.833411">
				 <ele>1</ele>
			 </trkpt>
			 <trkpt lat="21.285605" lon="-157.833368">
				 <ele>1</ele>
			 </trkpt>
			 <trkpt lat="21.285607" lon="-157.833282">
				 <ele>1</ele>
			 </trkpt>
			 <trkpt lat="21.285568" lon="-157.833082">
				 <ele>1</ele>
			 </trkpt>
			 <trkpt lat="21.285547" lon="-157.832973">
				 <ele>1</ele>
			 </trkpt>
			 <trkpt lat="21.285546" lon="-157.832941">
				 <ele>1</ele>
			 </trkpt>
			 <trkpt lat="21.285456" lon="-157.832888">
				 <ele>1</ele>
			 </trkpt>
			 <trkpt lat="21.284828" lon="-157.832516">
				 <ele>1</ele>
			 </trkpt>
			 <trkpt lat="21.284613" lon="-157.832371">
				 <ele>1</ele>
			 </trkpt>
			 <trkpt lat="21.284247" lon="-157.832118">
				 <ele>1</ele>
			 </trkpt>
			 <trkpt lat="21.284028" lon="-157.83198">
				 <ele>1</ele>
			 </trkpt>
			 <trkpt lat="21.283881" lon="-157.831896">
				 <ele>1</ele>
			 </trkpt>
			 <trkpt lat="21.283747" lon="-157.83182">
				 <ele>1</ele>
			 </trkpt>
			 <trkpt lat="21.283654" lon="-157.831767">
				 <ele>1</ele>
			 </trkpt>
			 <trkpt lat="21.283304" lon="-157.831569">
				 <ele>1</ele>
			 </trkpt>
			 <trkpt lat="21.283051" lon="-157.831425">
				 <ele>1</ele>
			 </trkpt>
			 <trkpt lat="21.282907" lon="-157.831343">
				 <ele>1</ele>
			 </trkpt>
			 <trkpt lat="21.282324" lon="-157.831038">
				 <ele>1</ele>
			 </trkpt>
			 <trkpt lat="21.281903" lon="-157.830814">
				 <ele>1</ele>
			 </trkpt>
			 <trkpt lat="21.281491" lon="-157.83059">
				 <ele>1</ele>
			 </trkpt>
			 <trkpt lat="21.281224" lon="-157.830437">
				 <ele>1</ele>
			 </trkpt>
			 <trkpt lat="21.280149" lon="-157.829824">
				 <ele>1</ele>
			 </trkpt>
			 <trkpt lat="21.280082" lon="-157.829785">
				 <ele>1</ele>
			 </trkpt>
			 <trkpt lat="21.279869" lon="-157.829636">
				 <ele>1</ele>
			 </trkpt>
			 <trkpt lat="21.279399" lon="-157.829255">
				 <ele>1</ele>
			 </trkpt>
			 <trkpt lat="21.279369" lon="-157.829225">
				 <ele>1</ele>
			 </trkpt>
			 <trkpt lat="21.278987" lon="-157.828818">
				 <ele>1</ele>
			 </trkpt>
			 <trkpt lat="21.278738" lon="-157.828553">
				 <ele>1</ele>
			 </trkpt>
			 <trkpt lat="21.27819" lon="-157.827931">
				 <ele>1</ele>
			 </trkpt>
			 <trkpt lat="21.278049" lon="-157.827773">
				 <ele>1</ele>
			 </trkpt>
			 <trkpt lat="21.277658" lon="-157.827328">
				 <ele>1</ele>
			 </trkpt>
			 <trkpt lat="21.277507" lon="-157.827157">
				 <ele>1</ele>
			 </trkpt>
			 <trkpt lat="21.276922" lon="-157.826503">
				 <ele>1</ele>
			 </trkpt>
			 <trkpt lat="21.276729" lon="-157.826291">
				 <ele>1</ele>
			 </trkpt>
			 <trkpt lat="21.276539" lon="-157.826079">
				 <ele>1</ele>
			 </trkpt>
			 <trkpt lat="21.276108" lon="-157.825644">
				 <ele>1</ele>
			 </trkpt>
			 <trkpt lat="21.275358" lon="-157.824953">
				 <ele>1</ele>
			 </trkpt>
			 <trkpt lat="21.275125" lon="-157.824703">
				 <ele>1</ele>
			 </trkpt>
			 <trkpt lat="21.274924" lon="-157.824553">
				 <ele>1</ele>
			 </trkpt>
			 <trkpt lat="21.274686" lon="-157.824417">
				 <ele>1</ele>
			 </trkpt>
			 <trkpt lat="21.274628" lon="-157.824389">
				 <ele>1</ele>
			 </trkpt>
			 <trkpt lat="21.274434" lon="-157.824289">
				 <ele>1</ele>
			 </trkpt>
			 <trkpt lat="21.273903" lon="-157.82399">
				 <ele>1</ele>
			 </trkpt>
			 <trkpt lat="21.273105" lon="-157.823584">
				 <ele>1</ele>
			 </trkpt>
			 <trkpt lat="21.272311" lon="-157.823154">
				 <ele>1</ele>
			 </trkpt>
			 <trkpt lat="21.271505" lon="-157.822757">
				 <ele>1</ele>
			 </trkpt>
			 <trkpt lat="21.271231" lon="-157.822634">
				 <ele>1</ele>
			 </trkpt>
			 <trkpt lat="21.271009" lon="-157.822509">
				 <ele>1</ele>
			 </trkpt>
			 <trkpt lat="21.270853" lon="-157.82241">
				 <ele>1</ele>
			 </trkpt>
			 <trkpt lat="21.270652" lon="-157.822197">
				 <ele>1</ele>
			 </trkpt>
			 <trkpt lat="21.270491" lon="-157.822042">
				 <ele>1</ele>
			 </trkpt>
			 <trkpt lat="21.270282" lon="-157.82185">
				 <ele>1</ele>
			 </trkpt>
			 <trkpt lat="21.270074" lon="-157.8216">
				 <ele>1</ele>
			 </trkpt>
			 <trkpt lat="21.269795" lon="-157.82126">
				 <ele>1</ele>
			 </trkpt>
			 <trkpt lat="21.26969" lon="-157.821044">
				 <ele>1</ele>
			 </trkpt>
			 <trkpt lat="21.269642" lon="-157.820908">
				 <ele>1</ele>
			 </trkpt>
			 <trkpt lat="21.269555" lon="-157.820668">
				 <ele>1</ele>
			 </trkpt>
			 <trkpt lat="21.269522" lon="-157.820317">
				 <ele>1</ele>
			 </trkpt>
			 <trkpt lat="21.26948" lon="-157.819864">
				 <ele>1</ele>
			 </trkpt>
			 <trkpt lat="21.269428" lon="-157.819309">
				 <ele>1</ele>
			 </trkpt>
			 <trkpt lat="21.269421" lon="-157.819229">
				 <ele>1</ele>
			 </trkpt>
			 <trkpt lat="21.269414" lon="-157.819175">
				 <ele>1</ele>
			 </trkpt>
			 <trkpt lat="21.269405" lon="-157.81908">
				 <ele>1.2</ele>
			 </trkpt>
			 <trkpt lat="21.269295" lon="-157.817903">
				 <ele>1.4</ele>
			 </trkpt>
			 <trkpt lat="21.269286" lon="-157.817802">
				 <ele>1.5</ele>
			 </trkpt>
			 <trkpt lat="21.269257" lon="-157.817433">
				 <ele>1.7</ele>
			 </trkpt>
			 <trkpt lat="21.269236" lon="-157.8172">
				 <ele>1.8</ele>
			 </trkpt>
			 <trkpt lat="21.269137" lon="-157.815976">
				 <ele>1.9</ele>
			 </trkpt>
			 <trkpt lat="21.269127" lon="-157.815853">
				 <ele>2</ele>
			 </trkpt>
			 <trkpt lat="21.269058" lon="-157.815861">
				 <ele>2.2</ele>
			 </trkpt>
			 <trkpt lat="21.269016" lon="-157.815865">
				 <ele>2.4</ele>
			 </trkpt>
			 <trkpt lat="21.268015" lon="-157.816023">
				 <ele>2.5</ele>
			 </trkpt>
			 <trkpt lat="21.267815" lon="-157.816058">
				 <ele>2.5</ele>
			 </trkpt>
			 <trkpt lat="21.267458" lon="-157.816151">
				 <ele>2.5</ele>
			 </trkpt>
			 <trkpt lat="21.267253" lon="-157.81623">
				 <ele>2.4</ele>
			 </trkpt>
			 <trkpt lat="21.267124" lon="-157.81631">
				 <ele>2.3</ele>
			 </trkpt>
			 <trkpt lat="21.26637" lon="-157.816785">
				 <ele>2.2</ele>
			 </trkpt>
			 <trkpt lat="21.265895" lon="-157.817084">
				 <ele>2.2</ele>
			 </trkpt>
			 <trkpt lat="21.265564" lon="-157.817288">
				 <ele>2.3</ele>
			 </trkpt>
			 <trkpt lat="21.265136" lon="-157.817449">
				 <ele>2.4</ele>
			 </trkpt>
			 <trkpt lat="21.265061" lon="-157.817477">
				 <ele>2.4</ele>
			 </trkpt>
			 <trkpt lat="21.264952" lon="-157.817542">
				 <ele>2.4</ele>
			 </trkpt>
			 <trkpt lat="21.264626" lon="-157.817772">
				 <ele>2.5</ele>
			 </trkpt>
			 <trkpt lat="21.264353" lon="-157.817995">
				 <ele>2.5</ele>
			 </trkpt>
			 <trkpt lat="21.263788" lon="-157.818456">
				 <ele>2.6</ele>
			 </trkpt>
			 <trkpt lat="21.263712" lon="-157.818498">
				 <ele>2.6</ele>
			 </trkpt>
			 <trkpt lat="21.263633" lon="-157.818531">
				 <ele>2.5</ele>
			 </trkpt>
			 <trkpt lat="21.263551" lon="-157.818555">
				 <ele>2.5</ele>
			 </trkpt>
			 <trkpt lat="21.263477" lon="-157.818569">
				 <ele>2.4</ele>
			 </trkpt>
			 <trkpt lat="21.263386" lon="-157.818575">
				 <ele>2.2</ele>
			 </trkpt>
			 <trkpt lat="21.263303" lon="-157.818571">
				 <ele>2</ele>
			 </trkpt>
			 <trkpt lat="21.262642" lon="-157.818452">
				 <ele>1.8</ele>
			 </trkpt>
			 <trkpt lat="21.261764" lon="-157.818311">
				 <ele>1.6</ele>
			 </trkpt>
			 <trkpt lat="21.261229" lon="-157.818236">
				 <ele>1.5</ele>
			 </trkpt>
			 <trkpt lat="21.260951" lon="-157.818217">
				 <ele>1.4</ele>
			 </trkpt>
			 <trkpt lat="21.26051" lon="-157.818232">
				 <ele>1.3</ele>
			 </trkpt>
			 <trkpt lat="21.260449" lon="-157.818262">
				 <ele>1.4</ele>
			 </trkpt>
			 <trkpt lat="21.260361" lon="-157.818271">
				 <ele>1.6</ele>
			 </trkpt>
			 <trkpt lat="21.260294" lon="-157.818262">
				 <ele>1.9</ele>
			 </trkpt>
			 <trkpt lat="21.26024" lon="-157.818245">
				 <ele>2.2</ele>
			 </trkpt>
			 <trkpt lat="21.260168" lon="-157.818178">
				 <ele>2.5</ele>
			 </trkpt>
			 <trkpt lat="21.258754" lon="-157.817481">
				 <ele>2.7</ele>
			 </trkpt>
			 <trkpt lat="21.258397" lon="-157.817293">
				 <ele>3.1</ele>
			 </trkpt>
			 <trkpt lat="21.258271" lon="-157.817197">
				 <ele>3.6</ele>
			 </trkpt>
			 <trkpt lat="21.258171" lon="-157.817095">
				 <ele>4.2</ele>
			 </trkpt>
			 <trkpt lat="21.258109" lon="-157.817019">
				 <ele>4.6</ele>
			 </trkpt>
			 <trkpt lat="21.258006" lon="-157.816848">
				 <ele>5.1</ele>
			 </trkpt>
			 <trkpt lat="21.257969" lon="-157.816765">
				 <ele>5.4</ele>
			 </trkpt>
			 <trkpt lat="21.257906" lon="-157.816518">
				 <ele>5.6</ele>
			 </trkpt>
			 <trkpt lat="21.257877" lon="-157.816431">
				 <ele>5.7</ele>
			 </trkpt>
			 <trkpt lat="21.257803" lon="-157.816263">
				 <ele>5.7</ele>
			 </trkpt>
			 <trkpt lat="21.257762" lon="-157.816189">
				 <ele>5.8</ele>
			 </trkpt>
			 <trkpt lat="21.257668" lon="-157.816049">
				 <ele>6</ele>
			 </trkpt>
			 <trkpt lat="21.256977" lon="-157.815125">
				 <ele>6.1</ele>
			 </trkpt>
			 <trkpt lat="21.256792" lon="-157.814851">
				 <ele>6</ele>
			 </trkpt>
			 <trkpt lat="21.256702" lon="-157.814704">
				 <ele>5.9</ele>
			 </trkpt>
			 <trkpt lat="21.256661" lon="-157.814618">
				 <ele>5.9</ele>
			 </trkpt>
			 <trkpt lat="21.256629" lon="-157.814529">
				 <ele>5.9</ele>
			 </trkpt>
			 <trkpt lat="21.256605" lon="-157.814438">
				 <ele>6.1</ele>
			 </trkpt>
			 <trkpt lat="21.256589" lon="-157.814344">
				 <ele>6.4</ele>
			 </trkpt>
			 <trkpt lat="21.25658" lon="-157.814244">
				 <ele>7.3</ele>
			 </trkpt>
			 <trkpt lat="21.256547" lon="-157.813835">
				 <ele>8.5</ele>
			 </trkpt>
			 <trkpt lat="21.256529" lon="-157.813696">
				 <ele>9.8</ele>
			 </trkpt>
			 <trkpt lat="21.256474" lon="-157.813405">
				 <ele>10.5</ele>
			 </trkpt>
			 <trkpt lat="21.256372" lon="-157.813073">
				 <ele>11.2</ele>
			 </trkpt>
			 <trkpt lat="21.256334" lon="-157.81292">
				 <ele>12</ele>
			 </trkpt>
			 <trkpt lat="21.256314" lon="-157.812761">
				 <ele>12.9</ele>
			 </trkpt>
			 <trkpt lat="21.256312" lon="-157.812598">
				 <ele>13.7</ele>
			 </trkpt>
			 <trkpt lat="21.256372" lon="-157.811986">
				 <ele>15.8</ele>
			 </trkpt>
			 <trkpt lat="21.256386" lon="-157.811883">
				 <ele>17.7</ele>
			 </trkpt>
			 <trkpt lat="21.256392" lon="-157.811779">
				 <ele>19.8</ele>
			 </trkpt>
			 <trkpt lat="21.256392" lon="-157.811675">
				 <ele>21.5</ele>
			 </trkpt>
			 <trkpt lat="21.256384" lon="-157.811576">
				 <ele>22.8</ele>
			 </trkpt>
			 <trkpt lat="21.256121" lon="-157.809984">
				 <ele>23.8</ele>
			 </trkpt>
			 <trkpt lat="21.256026" lon="-157.809409">
				 <ele>25.6</ele>
			 </trkpt>
			 <trkpt lat="21.255725" lon="-157.807591">
				 <ele>27.3</ele>
			 </trkpt>
			 <trkpt lat="21.255702" lon="-157.807362">
				 <ele>28.7</ele>
			 </trkpt>
			 <trkpt lat="21.255698" lon="-157.80724">
				 <ele>29.7</ele>
			 </trkpt>
			 <trkpt lat="21.255702" lon="-157.807108">
				 <ele>31</ele>
			 </trkpt>
			 <trkpt lat="21.255741" lon="-157.806254">
				 <ele>31.1</ele>
			 </trkpt>
			 <trkpt lat="21.255778" lon="-157.805938">
				 <ele>31.5</ele>
			 </trkpt>
			 <trkpt lat="21.255831" lon="-157.805794">
				 <ele>31.1</ele>
			 </trkpt>
			 <trkpt lat="21.256075" lon="-157.805143">
				 <ele>30.8</ele>
			 </trkpt>
			 <trkpt lat="21.256249" lon="-157.804741">
				 <ele>30.5</ele>
			 </trkpt>
			 <trkpt lat="21.25642" lon="-157.804336">
				 <ele>30.3</ele>
			 </trkpt>
			 <trkpt lat="21.256677" lon="-157.803728">
				 <ele>29.6</ele>
			 </trkpt>
			 <trkpt lat="21.256988" lon="-157.802987">
				 <ele>28.9</ele>
			 </trkpt>
			 <trkpt lat="21.257085" lon="-157.802731">
				 <ele>28.1</ele>
			 </trkpt>
			 <trkpt lat="21.257442" lon="-157.801795">
				 <ele>27.6</ele>
			 </trkpt>
			 <trkpt lat="21.25765" lon="-157.801251">
				 <ele>26.8</ele>
			 </trkpt>
			 <trkpt lat="21.257693" lon="-157.801141">
				 <ele>25.6</ele>
			 </trkpt>
			 <trkpt lat="21.257736" lon="-157.801051">
				 <ele>24.4</ele>
			 </trkpt>
			 <trkpt lat="21.257805" lon="-157.800929">
				 <ele>23.5</ele>
			 </trkpt>
			 <trkpt lat="21.257838" lon="-157.800873">
				 <ele>22.7</ele>
			 </trkpt>
			 <trkpt lat="21.25798" lon="-157.800664">
				 <ele>22</ele>
			 </trkpt>
			 <trkpt lat="21.258228" lon="-157.800303">
				 <ele>21.3</ele>
			 </trkpt>
			 <trkpt lat="21.258421" lon="-157.800024">
				 <ele>20.6</ele>
			 </trkpt>
			 <trkpt lat="21.258522" lon="-157.799855">
				 <ele>20.1</ele>
			 </trkpt>
			 <trkpt lat="21.258623" lon="-157.799636">
				 <ele>19.8</ele>
			 </trkpt>
			 <trkpt lat="21.258672" lon="-157.799502">
				 <ele>19.6</ele>
			 </trkpt>
			 <trkpt lat="21.258727" lon="-157.799304">
				 <ele>19.5</ele>
			 </trkpt>
			 <trkpt lat="21.258928" lon="-157.798391">
				 <ele>19.5</ele>
			 </trkpt>
			 <trkpt lat="21.258971" lon="-157.798139">
				 <ele>19.5</ele>
			 </trkpt>
			 <trkpt lat="21.259146" lon="-157.797987">
				 <ele>19.5</ele>
			 </trkpt>
			 <trkpt lat="21.259323" lon="-157.797831">
				 <ele>19.5</ele>
			 </trkpt>
			 <trkpt lat="21.259948" lon="-157.797237">
				 <ele>19.4</ele>
			 </trkpt>
			 <trkpt lat="21.260064" lon="-157.797134">
				 <ele>19.5</ele>
			 </trkpt>
			 <trkpt lat="21.260189" lon="-157.79704">
				 <ele>19.6</ele>
			 </trkpt>
			 <trkpt lat="21.260328" lon="-157.796952">
				 <ele>20.1</ele>
			 </trkpt>
			 <trkpt lat="21.260437" lon="-157.7969">
				 <ele>20.5</ele>
			 </trkpt>
			 <trkpt lat="21.26054" lon="-157.796863">
				 <ele>21.2</ele>
			 </trkpt>
			 <trkpt lat="21.260879" lon="-157.796756">
				 <ele>21.9</ele>
			 </trkpt>
			 <trkpt lat="21.261074" lon="-157.796698">
				 <ele>22.6</ele>
			 </trkpt>
			 <trkpt lat="21.261893" lon="-157.796438">
				 <ele>23.4</ele>
			 </trkpt>
			 <trkpt lat="21.262411" lon="-157.796355">
				 <ele>24.1</ele>
			 </trkpt>
			 <trkpt lat="21.262843" lon="-157.79639">
				 <ele>24.8</ele>
			 </trkpt>
			 <trkpt lat="21.262994" lon="-157.796435">
				 <ele>25.5</ele>
			 </trkpt>
			 <trkpt lat="21.263251" lon="-157.79651">
				 <ele>26.3</ele>
			 </trkpt>
			 <trkpt lat="21.263742" lon="-157.796785">
				 <ele>27.5</ele>
			 </trkpt>
			 <trkpt lat="21.265165" lon="-157.797452">
				 <ele>28.6</ele>
			 </trkpt>
			 <trkpt lat="21.265383" lon="-157.797588">
				 <ele>30</ele>
			 </trkpt>
			 <trkpt lat="21.265471" lon="-157.797655">
				 <ele>31.2</ele>
			 </trkpt>
			 <trkpt lat="21.265594" lon="-157.797762">
				 <ele>32.3</ele>
			 </trkpt>
			 <trkpt lat="21.266136" lon="-157.798297">
				 <ele>33.2</ele>
			 </trkpt>
			 <trkpt lat="21.266629" lon="-157.798787">
				 <ele>33.8</ele>
			 </trkpt>
			 <trkpt lat="21.267165" lon="-157.79931">
				 <ele>33.7</ele>
			 </trkpt>
			 <trkpt lat="21.267295" lon="-157.799475">
				 <ele>33.4</ele>
			 </trkpt>
			 <trkpt lat="21.267372" lon="-157.799406">
				 <ele>33.2</ele>
			 </trkpt>
			 <trkpt lat="21.267532" lon="-157.79926">
				 <ele>33</ele>
			 </trkpt>
			 <trkpt lat="21.267772" lon="-157.799106">
				 <ele>32.5</ele>
			 </trkpt>
			 <trkpt lat="21.268475" lon="-157.798713">
				 <ele>32.2</ele>
			 </trkpt>
			 <trkpt lat="21.269227" lon="-157.798273">
				 <ele>31.6</ele>
			 </trkpt>
			 <trkpt lat="21.269475" lon="-157.798119">
				 <ele>31.1</ele>
			 </trkpt>
			 <trkpt lat="21.269715" lon="-157.79798">
				 <ele>30.5</ele>
			 </trkpt>
			 <trkpt lat="21.270484" lon="-157.797538">
				 <ele>29.2</ele>
			 </trkpt>
			 <trkpt lat="21.271077" lon="-157.797196">
				 <ele>27.6</ele>
			 </trkpt>
			 <trkpt lat="21.271261" lon="-157.797091">
				 <ele>26.5</ele>
			 </trkpt>
			 <trkpt lat="21.271481" lon="-157.796949">
				 <ele>25.6</ele>
			 </trkpt>
			 <trkpt lat="21.271429" lon="-157.796852">
				 <ele>24.5</ele>
			 </trkpt>
			 <trkpt lat="21.271009" lon="-157.79606">
				 <ele>23.1</ele>
			 </trkpt>
			 <trkpt lat="21.270526" lon="-157.79513">
				 <ele>21.5</ele>
			 </trkpt>
			 <trkpt lat="21.270265" lon="-157.794602">
				 <ele>19.6</ele>
			 </trkpt>
			 <trkpt lat="21.270079" lon="-157.794228">
				 <ele>17.5</ele>
			 </trkpt>
			 <trkpt lat="21.269626" lon="-157.793314">
				 <ele>15.4</ele>
			 </trkpt>
			 <trkpt lat="21.269429" lon="-157.792919">
				 <ele>13.4</ele>
			 </trkpt>
			 <trkpt lat="21.269239" lon="-157.79254">
				 <ele>12.2</ele>
			 </trkpt>
			 <trkpt lat="21.269101" lon="-157.792263">
				 <ele>11.5</ele>
			 </trkpt>
			 <trkpt lat="21.268827" lon="-157.791716">
				 <ele>11</ele>
			 </trkpt>
			 <trkpt lat="21.268712" lon="-157.791432">
				 <ele>10.5</ele>
			 </trkpt>
			 <trkpt lat="21.268621" lon="-157.791171">
				 <ele>10.3</ele>
			 </trkpt>
			 <trkpt lat="21.268574" lon="-157.790926">
				 <ele>10.1</ele>
			 </trkpt>
			 <trkpt lat="21.268553" lon="-157.790723">
				 <ele>9.9</ele>
			 </trkpt>
			 <trkpt lat="21.26857" lon="-157.790418">
				 <ele>9.8</ele>
			 </trkpt>
			 <trkpt lat="21.268629" lon="-157.790176">
				 <ele>9.8</ele>
			 </trkpt>
			 <trkpt lat="21.268694" lon="-157.789972">
				 <ele>9.8</ele>
			 </trkpt>
			 <trkpt lat="21.268776" lon="-157.78978">
				 <ele>9.4</ele>
			 </trkpt>
			 <trkpt lat="21.268786" lon="-157.789657">
				 <ele>8.9</ele>
			 </trkpt>
			 <trkpt lat="21.268935" lon="-157.78943">
				 <ele>8.4</ele>
			 </trkpt>
			 <trkpt lat="21.269123" lon="-157.789255">
				 <ele>7.9</ele>
			 </trkpt>
			 <trkpt lat="21.269294" lon="-157.789072">
				 <ele>7.5</ele>
			 </trkpt>
			 <trkpt lat="21.271379" lon="-157.786845">
				 <ele>7.1</ele>
			 </trkpt>
			 <trkpt lat="21.27158" lon="-157.786666">
				 <ele>6.7</ele>
			 </trkpt>
			 <trkpt lat="21.272083" lon="-157.786253">
				 <ele>6.4</ele>
			 </trkpt>
			 <trkpt lat="21.272434" lon="-157.785998">
				 <ele>6.1</ele>
			 </trkpt>
			 <trkpt lat="21.272594" lon="-157.785911">
				 <ele>5.8</ele>
			 </trkpt>
			 <trkpt lat="21.273004" lon="-157.785712">
				 <ele>5.6</ele>
			 </trkpt>
			 <trkpt lat="21.273413" lon="-157.785514">
				 <ele>5.9</ele>
			 </trkpt>
			 <trkpt lat="21.273823" lon="-157.785315">
				 <ele>6.3</ele>
			 </trkpt>
			 <trkpt lat="21.274266" lon="-157.785213">
				 <ele>6.8</ele>
			 </trkpt>
			 <trkpt lat="21.274706" lon="-157.785113">
				 <ele>7.4</ele>
			 </trkpt>
			 <trkpt lat="21.274968" lon="-157.785054">
				 <ele>7.8</ele>
			 </trkpt>
			 <trkpt lat="21.27541" lon="-157.784966">
				 <ele>8.4</ele>
			 </trkpt>
			 <trkpt lat="21.275852" lon="-157.784878">
				 <ele>8.8</ele>
			 </trkpt>
			 <trkpt lat="21.276226" lon="-157.784804">
				 <ele>9.4</ele>
			 </trkpt>
			 <trkpt lat="21.276673" lon="-157.784751">
				 <ele>9.8</ele>
			 </trkpt>
			 <trkpt lat="21.27712" lon="-157.784698">
				 <ele>10.3</ele>
			 </trkpt>
			 <trkpt lat="21.277555" lon="-157.784646">
				 <ele>10.6</ele>
			 </trkpt>
			 <trkpt lat="21.278" lon="-157.784574">
				 <ele>11</ele>
			 </trkpt>
			 <trkpt lat="21.278444" lon="-157.784502">
				 <ele>11.2</ele>
			 </trkpt>
			 <trkpt lat="21.278496" lon="-157.784493">
				 <ele>11.2</ele>
			 </trkpt>
			 <trkpt lat="21.27846" lon="-157.784012">
				 <ele>11.3</ele>
			 </trkpt>
			 <trkpt lat="21.27845" lon="-157.783872">
				 <ele>11.4</ele>
			 </trkpt>
			 <trkpt lat="21.278416" lon="-157.783391">
				 <ele>11.3</ele>
			 </trkpt>
			 <trkpt lat="21.278381" lon="-157.78291">
				 <ele>11.2</ele>
			 </trkpt>
			 <trkpt lat="21.278347" lon="-157.782429">
				 <ele>11.1</ele>
			 </trkpt>
			 <trkpt lat="21.278312" lon="-157.781947">
				 <ele>11</ele>
			 </trkpt>
			 <trkpt lat="21.278285" lon="-157.781574">
				 <ele>11</ele>
			 </trkpt>
			 <trkpt lat="21.278155" lon="-157.781112">
				 <ele>11</ele>
			 </trkpt>
			 <trkpt lat="21.27812" lon="-157.780986">
				 <ele>11</ele>
			 </trkpt>
			 <trkpt lat="21.278067" lon="-157.780507">
				 <ele>11</ele>
			 </trkpt>
			 <trkpt lat="21.278015" lon="-157.780028">
				 <ele>10.9</ele>
			 </trkpt>
			 <trkpt lat="21.277962" lon="-157.779549">
				 <ele>10.7</ele>
			 </trkpt>
			 <trkpt lat="21.277909" lon="-157.77907">
				 <ele>10.2</ele>
			 </trkpt>
			 <trkpt lat="21.277857" lon="-157.77859">
				 <ele>9.5</ele>
			 </trkpt>
			 <trkpt lat="21.277804" lon="-157.778111">
				 <ele>8.9</ele>
			 </trkpt>
			 <trkpt lat="21.277752" lon="-157.777632">
				 <ele>8.2</ele>
			 </trkpt>
			 <trkpt lat="21.277699" lon="-157.777153">
				 <ele>7.5</ele>
			 </trkpt>
			 <trkpt lat="21.277647" lon="-157.776673">
				 <ele>6.6</ele>
			 </trkpt>
			 <trkpt lat="21.277594" lon="-157.776194">
				 <ele>5.8</ele>
			 </trkpt>
			 <trkpt lat="21.277541" lon="-157.775715">
				 <ele>5</ele>
			 </trkpt>
			 <trkpt lat="21.277489" lon="-157.775236">
				 <ele>4.3</ele>
			 </trkpt>
			 <trkpt lat="21.277469" lon="-157.775052">
				 <ele>3.9</ele>
			 </trkpt>
			 <trkpt lat="21.277403" lon="-157.774575">
				 <ele>3.2</ele>
			 </trkpt>
			 <trkpt lat="21.277336" lon="-157.774098">
				 <ele>3</ele>
			 </trkpt>
			 <trkpt lat="21.27727" lon="-157.77362">
				 <ele>3</ele>
			 </trkpt>
			 <trkpt lat="21.277224" lon="-157.773284">
				 <ele>3</ele>
			 </trkpt>
			 <trkpt lat="21.277141" lon="-157.772809">
				 <ele>2.9</ele>
			 </trkpt>
			 <trkpt lat="21.277059" lon="-157.772335">
				 <ele>2.9</ele>
			 </trkpt>
			 <trkpt lat="21.276987" lon="-157.771916">
				 <ele>2.8</ele>
			 </trkpt>
			 <trkpt lat="21.276899" lon="-157.771442">
				 <ele>2.7</ele>
			 </trkpt>
			 <trkpt lat="21.276811" lon="-157.770969">
				 <ele>2.7</ele>
			 </trkpt>
			 <trkpt lat="21.276723" lon="-157.770496">
				 <ele>2.7</ele>
			 </trkpt>
			 <trkpt lat="21.276634" lon="-157.770023">
				 <ele>2.5</ele>
			 </trkpt>
			 <trkpt lat="21.276546" lon="-157.76955">
				 <ele>2.7</ele>
			 </trkpt>
			 <trkpt lat="21.276458" lon="-157.769077">
				 <ele>2.6</ele>
			 </trkpt>
			 <trkpt lat="21.27637" lon="-157.768603">
				 <ele>2.5</ele>
			 </trkpt>
			 <trkpt lat="21.276282" lon="-157.76813">
				 <ele>2.5</ele>
			 </trkpt>
			 <trkpt lat="21.276194" lon="-157.767657">
				 <ele>2.7</ele>
			 </trkpt>
			 <trkpt lat="21.276106" lon="-157.767184">
				 <ele>2.8</ele>
			 </trkpt>
			 <trkpt lat="21.276054" lon="-157.766905">
				 <ele>2.9</ele>
			 </trkpt>
			 <trkpt lat="21.276029" lon="-157.766423">
				 <ele>3</ele>
			 </trkpt>
			 <trkpt lat="21.276007" lon="-157.765984">
				 <ele>3</ele>
			 </trkpt>
			 <trkpt lat="21.276067" lon="-157.765505">
				 <ele>2.9</ele>
			 </trkpt>
			 <trkpt lat="21.276128" lon="-157.765027">
				 <ele>2.8</ele>
			 </trkpt>
			 <trkpt lat="21.276189" lon="-157.764549">
				 <ele>2.7</ele>
			 </trkpt>
			 <trkpt lat="21.276249" lon="-157.764071">
				 <ele>2.6</ele>
			 </trkpt>
			 <trkpt lat="21.276308" lon="-157.763607">
				 <ele>2.5</ele>
			 </trkpt>
			 <trkpt lat="21.276365" lon="-157.763129">
				 <ele>2.4</ele>
			 </trkpt>
			 <trkpt lat="21.276422" lon="-157.76265">
				 <ele>2.1</ele>
			 </trkpt>
			 <trkpt lat="21.276479" lon="-157.762171">
				 <ele>1.9</ele>
			 </trkpt>
			 <trkpt lat="21.276535" lon="-157.761693">
				 <ele>1.7</ele>
			 </trkpt>
			 <trkpt lat="21.276592" lon="-157.761214">
				 <ele>1.5</ele>
			 </trkpt>
			 <trkpt lat="21.276599" lon="-157.761162">
				 <ele>1.5</ele>
			 </trkpt>
			 <trkpt lat="21.276677" lon="-157.760687">
				 <ele>1.5</ele>
			 </trkpt>
			 <trkpt lat="21.276755" lon="-157.760212">
				 <ele>1.4</ele>
			 </trkpt>
			 <trkpt lat="21.276833" lon="-157.759737">
				 <ele>1.3</ele>
			 </trkpt>
			 <trkpt lat="21.276912" lon="-157.759261">
				 <ele>1.3</ele>
			 </trkpt>
			 <trkpt lat="21.27699" lon="-157.758786">
				 <ele>1.3</ele>
			 </trkpt>
			 <trkpt lat="21.277031" lon="-157.758538">
				 <ele>1.3</ele>
			 </trkpt>
			 <trkpt lat="21.278121" lon="-157.754121">
				 <ele>1.3</ele>
			 </trkpt>
			 <trkpt lat="21.27818" lon="-157.753424">
				 <ele>1.2</ele>
			 </trkpt>
			 <trkpt lat="21.278437" lon="-157.750818">
				 <ele>1.2</ele>
			 </trkpt>
			 <trkpt lat="21.278549" lon="-157.750351">
				 <ele>1.2</ele>
			 </trkpt>
			 <trkpt lat="21.27866" lon="-157.749883">
				 <ele>1.1</ele>
			 </trkpt>
			 <trkpt lat="21.278772" lon="-157.749416">
				 <ele>1</ele>
			 </trkpt>
			 <trkpt lat="21.278884" lon="-157.748948">
				 <ele>1</ele>
			 </trkpt>
			 <trkpt lat="21.278995" lon="-157.748481">
				 <ele>1.1</ele>
			 </trkpt>
			 <trkpt lat="21.279107" lon="-157.748013">
				 <ele>1.1</ele>
			 </trkpt>
			 <trkpt lat="21.279219" lon="-157.747546">
				 <ele>1.1</ele>
			 </trkpt>
			 <trkpt lat="21.27933" lon="-157.747078">
				 <ele>1.2</ele>
			 </trkpt>
			 <trkpt lat="21.279356" lon="-157.746972">
				 <ele>1.3</ele>
			 </trkpt>
			 <trkpt lat="21.279481" lon="-157.746508">
				 <ele>1.4</ele>
			 </trkpt>
			 <trkpt lat="21.279606" lon="-157.746045">
				 <ele>1.4</ele>
			 </trkpt>
			 <trkpt lat="21.279731" lon="-157.745581">
				 <ele>1.4</ele>
			 </trkpt>
			 <trkpt lat="21.279856" lon="-157.745117">
				 <ele>1.4</ele>
			 </trkpt>
			 <trkpt lat="21.279966" lon="-157.744709">
				 <ele>1.4</ele>
			 </trkpt>
			 <trkpt lat="21.280086" lon="-157.744244">
				 <ele>1.4</ele>
			 </trkpt>
			 <trkpt lat="21.280206" lon="-157.743779">
				 <ele>1.3</ele>
			 </trkpt>
			 <trkpt lat="21.280326" lon="-157.743314">
				 <ele>1.3</ele>
			 </trkpt>
			 <trkpt lat="21.28036" lon="-157.743183">
				 <ele>1.3</ele>
			 </trkpt>
			 <trkpt lat="21.280452" lon="-157.742711">
				 <ele>1.2</ele>
			 </trkpt>
			 <trkpt lat="21.28046" lon="-157.742669">
				 <ele>1.1</ele>
			 </trkpt>
			 <trkpt lat="21.280531" lon="-157.742193">
				 <ele>1</ele>
			 </trkpt>
			 <trkpt lat="21.280565" lon="-157.741969">
				 <ele>1</ele>
			 </trkpt>
			 <trkpt lat="21.280617" lon="-157.74149">
				 <ele>1</ele>
			 </trkpt>
			 <trkpt lat="21.280669" lon="-157.741011">
				 <ele>1</ele>
			 </trkpt>
			 <trkpt lat="21.280722" lon="-157.740532">
				 <ele>1</ele>
			 </trkpt>
			 <trkpt lat="21.280774" lon="-157.740052">
				 <ele>1</ele>
			 </trkpt>
			 <trkpt lat="21.280827" lon="-157.739573">
				 <ele>1</ele>
			 </trkpt>
			 <trkpt lat="21.280852" lon="-157.739341">
				 <ele>1</ele>
			 </trkpt>
			 <trkpt lat="21.28097" lon="-157.738875">
				 <ele>1</ele>
			 </trkpt>
			 <trkpt lat="21.281087" lon="-157.73841">
				 <ele>1</ele>
			 </trkpt>
			 <trkpt lat="21.281205" lon="-157.737944">
				 <ele>1</ele>
			 </trkpt>
			 <trkpt lat="21.281228" lon="-157.737852">
				 <ele>1</ele>
			 </trkpt>
			 <trkpt lat="21.281351" lon="-157.737388">
				 <ele>1</ele>
			 </trkpt>
			 <trkpt lat="21.281475" lon="-157.736924">
				 <ele>1</ele>
			 </trkpt>
			 <trkpt lat="21.281599" lon="-157.73646">
				 <ele>1</ele>
			 </trkpt>
			 <trkpt lat="21.281723" lon="-157.735996">
				 <ele>1</ele>
			 </trkpt>
			 <trkpt lat="21.28174" lon="-157.735933">
				 <ele>1</ele>
			 </trkpt>
			 <trkpt lat="21.281867" lon="-157.73547">
				 <ele>1</ele>
			 </trkpt>
			 <trkpt lat="21.281994" lon="-157.735007">
				 <ele>1</ele>
			 </trkpt>
			 <trkpt lat="21.282121" lon="-157.734544">
				 <ele>1</ele>
			 </trkpt>
			 <trkpt lat="21.282249" lon="-157.734081">
				 <ele>1</ele>
			 </trkpt>
			 <trkpt lat="21.282376" lon="-157.733618">
				 <ele>1</ele>
			 </trkpt>
			 <trkpt lat="21.282449" lon="-157.733353">
				 <ele>1</ele>
			 </trkpt>
			 <trkpt lat="21.28253" lon="-157.732878">
				 <ele>1</ele>
			 </trkpt>
			 <trkpt lat="21.28254" lon="-157.732822">
				 <ele>1</ele>
			 </trkpt>
			 <trkpt lat="21.282577" lon="-157.732341">
				 <ele>1</ele>
			 </trkpt>
			 <trkpt lat="21.282614" lon="-157.73186">
				 <ele>1.1</ele>
			 </trkpt>
			 <trkpt lat="21.282632" lon="-157.731629">
				 <ele>1.3</ele>
			 </trkpt>
			 <trkpt lat="21.282739" lon="-157.731168">
				 <ele>1.3</ele>
			 </trkpt>
			 <trkpt lat="21.2829" lon="-157.730718">
				 <ele>1.3</ele>
			 </trkpt>
			 <trkpt lat="21.282964" lon="-157.730539">
				 <ele>1.3</ele>
			 </trkpt>
			 <trkpt lat="21.283175" lon="-157.730113">
				 <ele>1.3</ele>
			 </trkpt>
			 <trkpt lat="21.283386" lon="-157.729687">
				 <ele>1.3</ele>
			 </trkpt>
			 <trkpt lat="21.283597" lon="-157.729261">
				 <ele>1.4</ele>
			 </trkpt>
			 <trkpt lat="21.283757" lon="-157.728938">
				 <ele>1.5</ele>
			 </trkpt>
			 <trkpt lat="21.283975" lon="-157.728516">
				 <ele>1.5</ele>
			 </trkpt>
			 <trkpt lat="21.284192" lon="-157.728093">
				 <ele>1.5</ele>
			 </trkpt>
			 <trkpt lat="21.28424" lon="-157.728">
				 <ele>1.4</ele>
			 </trkpt>
			 <trkpt lat="21.284482" lon="-157.727593">
				 <ele>1.2</ele>
			 </trkpt>
			 <trkpt lat="21.284724" lon="-157.727186">
				 <ele>1.2</ele>
			 </trkpt>
			 <trkpt lat="21.284956" lon="-157.726795">
				 <ele>1.2</ele>
			 </trkpt>
			 <trkpt lat="21.285175" lon="-157.726373">
				 <ele>1.2</ele>
			 </trkpt>
			 <trkpt lat="21.285282" lon="-157.726167">
				 <ele>1.2</ele>
			 </trkpt>
			 <trkpt lat="21.285427" lon="-157.72571">
				 <ele>1.2</ele>
			 </trkpt>
			 <trkpt lat="21.285522" lon="-157.725413">
				 <ele>1.1</ele>
			 </trkpt>
			 <trkpt lat="21.285641" lon="-157.724948">
				 <ele>1</ele>
			 </trkpt>
			 <trkpt lat="21.28576" lon="-157.724483">
				 <ele>1</ele>
			 </trkpt>
			 <trkpt lat="21.285825" lon="-157.724229">
				 <ele>1</ele>
			 </trkpt>
			 <trkpt lat="21.285927" lon="-157.723759">
				 <ele>1</ele>
			 </trkpt>
			 <trkpt lat="21.28603" lon="-157.723289">
				 <ele>1</ele>
			 </trkpt>
			 <trkpt lat="21.286132" lon="-157.722819">
				 <ele>1</ele>
			 </trkpt>
			 <trkpt lat="21.286234" lon="-157.722349">
				 <ele>1</ele>
			 </trkpt>
			 <trkpt lat="21.286264" lon="-157.722214">
				 <ele>1</ele>
			 </trkpt>
			 <trkpt lat="21.286278" lon="-157.721732">
				 <ele>1</ele>
			 </trkpt>
			 <trkpt lat="21.286293" lon="-157.721252">
				 <ele>1</ele>
			 </trkpt>
			 <trkpt lat="21.286225" lon="-157.720775">
				 <ele>0.9</ele>
			 </trkpt>
			 <trkpt lat="21.28617" lon="-157.720384">
				 <ele>0.9</ele>
			 </trkpt>
			 <trkpt lat="21.286024" lon="-157.719928">
				 <ele>0.9</ele>
			 </trkpt>
			 <trkpt lat="21.28589" lon="-157.719508">
				 <ele>0.9</ele>
			 </trkpt>
			 <trkpt lat="21.285686" lon="-157.719078">
				 <ele>0.9</ele>
			 </trkpt>
			 <trkpt lat="21.285502" lon="-157.718689">
				 <ele>0.9</ele>
			 </trkpt>
			 <trkpt lat="21.285247" lon="-157.718291">
				 <ele>0.9</ele>
			 </trkpt>
			 <trkpt lat="21.284993" lon="-157.717893">
				 <ele>0.9</ele>
			 </trkpt>
			 <trkpt lat="21.284738" lon="-157.717496">
				 <ele>0.9</ele>
			 </trkpt>
			 <trkpt lat="21.284719" lon="-157.717466">
				 <ele>0.8</ele>
			 </trkpt>
			 <trkpt lat="21.284824" lon="-157.717382">
				 <ele>0.8</ele>
			 </trkpt>
			 <trkpt lat="21.285016" lon="-157.717233">
				 <ele>0.9</ele>
			 </trkpt>
			 <trkpt lat="21.285377" lon="-157.716922">
				 <ele>0.9</ele>
			 </trkpt>
			 <trkpt lat="21.285731" lon="-157.71653">
				 <ele>0.9</ele>
			 </trkpt>
			 <trkpt lat="21.28595" lon="-157.716294">
				 <ele>0.9</ele>
			 </trkpt>
			 <trkpt lat="21.286234" lon="-157.715969">
				 <ele>0.9</ele>
			 </trkpt>
			 <trkpt lat="21.286509" lon="-157.715692">
				 <ele>0.9</ele>
			 </trkpt>
			 <trkpt lat="21.287001" lon="-157.71526">
				 <ele>1</ele>
			 </trkpt>
			 <trkpt lat="21.287498" lon="-157.71483">
				 <ele>1.1</ele>
			 </trkpt>
			 <trkpt lat="21.287996" lon="-157.714394">
				 <ele>1.2</ele>
			 </trkpt>
			 <trkpt lat="21.288441" lon="-157.714017">
				 <ele>1.5</ele>
			 </trkpt>
			 <trkpt lat="21.288511" lon="-157.713957">
				 <ele>1.6</ele>
			 </trkpt>
			 <trkpt lat="21.288906" lon="-157.713605">
				 <ele>1.8</ele>
			 </trkpt>
			 <trkpt lat="21.288987" lon="-157.71351">
				 <ele>1.9</ele>
			 </trkpt>
			 <trkpt lat="21.289102" lon="-157.71336">
				 <ele>2</ele>
			 </trkpt>
			 <trkpt lat="21.289638" lon="-157.712504">
				 <ele>2.1</ele>
			 </trkpt>
			 <trkpt lat="21.289712" lon="-157.71241">
				 <ele>2.2</ele>
			 </trkpt>
			 <trkpt lat="21.289768" lon="-157.712338">
				 <ele>2.4</ele>
			 </trkpt>
			 <trkpt lat="21.289841" lon="-157.712265">
				 <ele>2.5</ele>
			 </trkpt>
			 <trkpt lat="21.289962" lon="-157.712169">
				 <ele>2.5</ele>
			 </trkpt>
			 <trkpt lat="21.290093" lon="-157.712086">
				 <ele>2.5</ele>
			 </trkpt>
			 <trkpt lat="21.290186" lon="-157.712042">
				 <ele>2.4</ele>
			 </trkpt>
			 <trkpt lat="21.292206" lon="-157.711312">
				 <ele>2.4</ele>
			 </trkpt>
			 <trkpt lat="21.292895" lon="-157.711042">
				 <ele>2.4</ele>
			 </trkpt>
			 <trkpt lat="21.293093" lon="-157.710941">
				 <ele>2.5</ele>
			 </trkpt>
			 <trkpt lat="21.293211" lon="-157.710867">
				 <ele>2.5</ele>
			 </trkpt>
			 <trkpt lat="21.293383" lon="-157.710712">
				 <ele>2.6</ele>
			 </trkpt>
			 <trkpt lat="21.293503" lon="-157.710568">
				 <ele>2.7</ele>
			 </trkpt>
			 <trkpt lat="21.293577" lon="-157.710457">
				 <ele>2.7</ele>
			 </trkpt>
			 <trkpt lat="21.293626" lon="-157.710374">
				 <ele>2.6</ele>
			 </trkpt>
			 <trkpt lat="21.29364" lon="-157.710343">
				 <ele>2.7</ele>
			 </trkpt>
			 <trkpt lat="21.293684" lon="-157.710251">
				 <ele>2.7</ele>
			 </trkpt>
			 <trkpt lat="21.29372" lon="-157.710146">
				 <ele>2.7</ele>
			 </trkpt>
			 <trkpt lat="21.293743" lon="-157.710058">
				 <ele>2.6</ele>
			 </trkpt>
			 <trkpt lat="21.29378" lon="-157.7099">
				 <ele>2.5</ele>
			 </trkpt>
			 <trkpt lat="21.293799" lon="-157.709784">
				 <ele>2.5</ele>
			 </trkpt>
			 <trkpt lat="21.293815" lon="-157.709529">
				 <ele>2.3</ele>
			 </trkpt>
			 <trkpt lat="21.293816" lon="-157.70933">
				 <ele>2.1</ele>
			 </trkpt>
			 <trkpt lat="21.293818" lon="-157.709108">
				 <ele>2</ele>
			 </trkpt>
			 <trkpt lat="21.293806" lon="-157.708984">
				 <ele>2</ele>
			 </trkpt>
			 <trkpt lat="21.293786" lon="-157.708863">
				 <ele>2.1</ele>
			 </trkpt>
			 <trkpt lat="21.293738" lon="-157.708682">
				 <ele>2.1</ele>
			 </trkpt>
			 <trkpt lat="21.29372" lon="-157.708625">
				 <ele>2.2</ele>
			 </trkpt>
			 <trkpt lat="21.293622" lon="-157.708401">
				 <ele>2.3</ele>
			 </trkpt>
			 <trkpt lat="21.293561" lon="-157.708296">
				 <ele>2.4</ele>
			 </trkpt>
			 <trkpt lat="21.293493" lon="-157.708196">
				 <ele>2.5</ele>
			 </trkpt>
			 <trkpt lat="21.293418" lon="-157.708102">
				 <ele>2.5</ele>
			 </trkpt>
			 <trkpt lat="21.293337" lon="-157.708014">
				 <ele>2.7</ele>
			 </trkpt>
			 <trkpt lat="21.29325" lon="-157.707933">
				 <ele>2.9</ele>
			 </trkpt>
			 <trkpt lat="21.293158" lon="-157.707859">
				 <ele>3</ele>
			 </trkpt>
			 <trkpt lat="21.293085" lon="-157.707813">
				 <ele>3</ele>
			 </trkpt>
			 <trkpt lat="21.293003" lon="-157.70776">
				 <ele>3</ele>
			 </trkpt>
			 <trkpt lat="21.292853" lon="-157.707686">
				 <ele>3</ele>
			 </trkpt>
			 <trkpt lat="21.292745" lon="-157.707645">
				 <ele>2.8</ele>
			 </trkpt>
			 <trkpt lat="21.292633" lon="-157.707613">
				 <ele>2.6</ele>
			 </trkpt>
			 <trkpt lat="21.29252" lon="-157.70759">
				 <ele>2.5</ele>
			 </trkpt>
			 <trkpt lat="21.292234" lon="-157.707559">
				 <ele>2.5</ele>
			 </trkpt>
			 <trkpt lat="21.29174" lon="-157.707508">
				 <ele>2.4</ele>
			 </trkpt>
			 <trkpt lat="21.290839" lon="-157.707416">
				 <ele>2.3</ele>
			 </trkpt>
			 <trkpt lat="21.29067" lon="-157.7074">
				 <ele>2.1</ele>
			 </trkpt>
			 <trkpt lat="21.29025" lon="-157.707374">
				 <ele>1.9</ele>
			 </trkpt>
			 <trkpt lat="21.290108" lon="-157.707367">
				 <ele>1.7</ele>
			 </trkpt>
			 <trkpt lat="21.289991" lon="-157.707352">
				 <ele>1.5</ele>
			 </trkpt>
			 <trkpt lat="21.289782" lon="-157.707302">
				 <ele>1.4</ele>
			 </trkpt>
			 <trkpt lat="21.289637" lon="-157.70725">
				 <ele>1.4</ele>
			 </trkpt>
			 <trkpt lat="21.287652" lon="-157.7062">
				 <ele>1.4</ele>
			 </trkpt>
			 <trkpt lat="21.287422" lon="-157.706069">
				 <ele>1.3</ele>
			 </trkpt>
			 <trkpt lat="21.287218" lon="-157.705963">
				 <ele>1.2</ele>
			 </trkpt>
			 <trkpt lat="21.286776" lon="-157.705754">
				 <ele>1.1</ele>
			 </trkpt>
			 <trkpt lat="21.2867" lon="-157.705717">
				 <ele>1</ele>
			 </trkpt>
			 <trkpt lat="21.286673" lon="-157.705798">
				 <ele>1</ele>
			 </trkpt>
			 <trkpt lat="21.286356" lon="-157.70653">
				 <ele>1</ele>
			 </trkpt>
			 <trkpt lat="21.286219" lon="-157.706847">
				 <ele>1</ele>
			 </trkpt>
			 <trkpt lat="21.286031" lon="-157.707284">
				 <ele>1</ele>
			 </trkpt>
			 <trkpt lat="21.285737" lon="-157.707984">
				 <ele>1</ele>
			 </trkpt>
			 <trkpt lat="21.285668" lon="-157.708187">
				 <ele>1</ele>
			 </trkpt>
			 <trkpt lat="21.285452" lon="-157.708617">
				 <ele>1</ele>
			 </trkpt>
			 <trkpt lat="21.285275" lon="-157.709009">
				 <ele>1</ele>
			 </trkpt>
			 <trkpt lat="21.285102" lon="-157.70946">
				 <ele>1</ele>
			 </trkpt>
			 <trkpt lat="21.284629" lon="-157.710594">
				 <ele>1</ele>
			 </trkpt>
			 <trkpt lat="21.284575" lon="-157.710723">
				 <ele>1</ele>
			 </trkpt>
			 <trkpt lat="21.284517" lon="-157.710882">
				 <ele>1</ele>
			 </trkpt>
			 <trkpt lat="21.284474" lon="-157.710998">
				 <ele>1</ele>
			 </trkpt>
			 <trkpt lat="21.28445" lon="-157.711066">
				 <ele>1</ele>
			 </trkpt>
			 <trkpt lat="21.284356" lon="-157.711303">
				 <ele>1</ele>
			 </trkpt>
			 <trkpt lat="21.284326" lon="-157.711389">
				 <ele>1</ele>
			 </trkpt>
			 <trkpt lat="21.28422" lon="-157.7117">
				 <ele>1</ele>
			 </trkpt>
			 <trkpt lat="21.284176" lon="-157.711874">
				 <ele>1</ele>
			 </trkpt>
			 <trkpt lat="21.284071" lon="-157.712296">
				 <ele>1</ele>
			 </trkpt>
			 <trkpt lat="21.28398" lon="-157.71266">
				 <ele>1</ele>
			 </trkpt>
			 <trkpt lat="21.283959" lon="-157.712775">
				 <ele>1</ele>
			 </trkpt>
			 <trkpt lat="21.283901" lon="-157.71314">
				 <ele>1</ele>
			 </trkpt>
			 <trkpt lat="21.283883" lon="-157.713274">
				 <ele>1</ele>
			 </trkpt>
			 <trkpt lat="21.283871" lon="-157.713486">
				 <ele>1</ele>
			 </trkpt>
			 <trkpt lat="21.283861" lon="-157.713627">
				 <ele>1</ele>
			 </trkpt>
			 <trkpt lat="21.283813" lon="-157.714299">
				 <ele>1</ele>
			 </trkpt>
			 <trkpt lat="21.283791" lon="-157.714456">
				 <ele>1</ele>
			 </trkpt>
			 <trkpt lat="21.283772" lon="-157.714531">
				 <ele>1</ele>
			 </trkpt>
			 <trkpt lat="21.283717" lon="-157.714675">
				 <ele>1</ele>
			 </trkpt>
			 <trkpt lat="21.283641" lon="-157.714808">
				 <ele>1</ele>
			 </trkpt>
			 <trkpt lat="21.283547" lon="-157.714925">
				 <ele>1</ele>
			 </trkpt>
			 <trkpt lat="21.283477" lon="-157.714993">
				 <ele>1</ele>
			 </trkpt>
			 <trkpt lat="21.283131" lon="-157.715234">
				 <ele>1</ele>
			 </trkpt>
			 <trkpt lat="21.283021" lon="-157.71531">
				 <ele>1</ele>
			 </trkpt>
			 <trkpt lat="21.284639" lon="-157.717724">
				 <ele>1</ele>
			 </trkpt>
			 <trkpt lat="21.285639" lon="-157.719269">
				 <ele>1</ele>
			 </trkpt>
			 <trkpt lat="21.285869" lon="-157.719805">
				 <ele>1</ele>
			 </trkpt>
			 <trkpt lat="21.286079" lon="-157.720535">
				 <ele>1</ele>
			 </trkpt>
			 <trkpt lat="21.286129" lon="-157.721189">
				 <ele>1</ele>
			 </trkpt>
			 <trkpt lat="21.286169" lon="-157.721608">
				 <ele>1</ele>
			 </trkpt>
			 <trkpt lat="21.286089" lon="-157.722209">
				 <ele>1</ele>
			 </trkpt>
			 <trkpt lat="21.286008" lon="-157.722684">
				 <ele>1</ele>
			 </trkpt>
			 <trkpt lat="21.285932" lon="-157.723124">
				 <ele>1</ele>
			 </trkpt>
			 <trkpt lat="21.285815" lon="-157.72359">
				 <ele>1</ele>
			 </trkpt>
			 <trkpt lat="21.285697" lon="-157.724055">
				 <ele>1</ele>
			 </trkpt>
			 <trkpt lat="21.285611" lon="-157.724396">
				 <ele>1</ele>
			 </trkpt>
			 <trkpt lat="21.28549" lon="-157.724861">
				 <ele>1</ele>
			 </trkpt>
			 <trkpt lat="21.28537" lon="-157.725326">
				 <ele>1</ele>
			 </trkpt>
			 <trkpt lat="21.285249" lon="-157.72579">
				 <ele>1</ele>
			 </trkpt>
			 <trkpt lat="21.285205" lon="-157.725962">
				 <ele>1</ele>
			 </trkpt>
			 <trkpt lat="21.285155" lon="-157.726122">
				 <ele>1</ele>
			 </trkpt>
			 <trkpt lat="21.285017" lon="-157.726434">
				 <ele>1</ele>
			 </trkpt>
			 <trkpt lat="21.284923" lon="-157.726591">
				 <ele>1</ele>
			 </trkpt>
			 <trkpt lat="21.284681" lon="-157.726995">
				 <ele>1</ele>
			 </trkpt>
			 <trkpt lat="21.284446" lon="-157.727407">
				 <ele>1</ele>
			 </trkpt>
			 <trkpt lat="21.284211" lon="-157.727819">
				 <ele>1</ele>
			 </trkpt>
			 <trkpt lat="21.283977" lon="-157.72823">
				 <ele>1</ele>
			 </trkpt>
			 <trkpt lat="21.28388" lon="-157.7284">
				 <ele>1</ele>
			 </trkpt>
			 <trkpt lat="21.283667" lon="-157.728825">
				 <ele>1</ele>
			 </trkpt>
			 <trkpt lat="21.283454" lon="-157.72925">
				 <ele>1</ele>
			 </trkpt>
			 <trkpt lat="21.283241" lon="-157.729675">
				 <ele>1</ele>
			 </trkpt>
			 <trkpt lat="21.283028" lon="-157.7301">
				 <ele>1</ele>
			 </trkpt>
			 <trkpt lat="21.28282" lon="-157.730515">
				 <ele>1</ele>
			 </trkpt>
			 <trkpt lat="21.282659" lon="-157.730965">
				 <ele>1</ele>
			 </trkpt>
			 <trkpt lat="21.282644" lon="-157.731005">
				 <ele>1</ele>
			 </trkpt>
			 <trkpt lat="21.282541" lon="-157.731475">
				 <ele>1</ele>
			 </trkpt>
			 <trkpt lat="21.282511" lon="-157.731609">
				 <ele>1</ele>
			 </trkpt>
			 <trkpt lat="21.282477" lon="-157.732091">
				 <ele>1</ele>
			 </trkpt>
			 <trkpt lat="21.282449" lon="-157.732486">
				 <ele>1</ele>
			 </trkpt>
			 <trkpt lat="21.282387" lon="-157.732964">
				 <ele>1</ele>
			 </trkpt>
			 <trkpt lat="21.28237" lon="-157.733094">
				 <ele>1</ele>
			 </trkpt>
			 <trkpt lat="21.282247" lon="-157.733559">
				 <ele>1</ele>
			 </trkpt>
			 <trkpt lat="21.282202" lon="-157.733728">
				 <ele>1</ele>
			 </trkpt>
			 <trkpt lat="21.282074" lon="-157.73419">
				 <ele>1</ele>
			 </trkpt>
			 <trkpt lat="21.281945" lon="-157.734653">
				 <ele>1</ele>
			 </trkpt>
			 <trkpt lat="21.281817" lon="-157.735115">
				 <ele>1</ele>
			 </trkpt>
			 <trkpt lat="21.281688" lon="-157.735577">
				 <ele>1</ele>
			 </trkpt>
			 <trkpt lat="21.28156" lon="-157.73604">
				 <ele>1</ele>
			 </trkpt>
			 <trkpt lat="21.281526" lon="-157.736161">
				 <ele>1</ele>
			 </trkpt>
			 <trkpt lat="21.281401" lon="-157.736624">
				 <ele>1</ele>
			 </trkpt>
			 <trkpt lat="21.281276" lon="-157.737087">
				 <ele>1</ele>
			 </trkpt>
			 <trkpt lat="21.281151" lon="-157.737551">
				 <ele>1</ele>
			 </trkpt>
			 <trkpt lat="21.281025" lon="-157.738014">
				 <ele>1</ele>
			 </trkpt>
			 <trkpt lat="21.2809" lon="-157.738478">
				 <ele>1</ele>
			 </trkpt>
			 <trkpt lat="21.280846" lon="-157.738677">
				 <ele>1</ele>
			 </trkpt>
			 <trkpt lat="21.280748" lon="-157.739148">
				 <ele>1</ele>
			 </trkpt>
			 <trkpt lat="21.280659" lon="-157.739579">
				 <ele>1</ele>
			 </trkpt>
			 <trkpt lat="21.280614" lon="-157.740059">
				 <ele>1</ele>
			 </trkpt>
			 <trkpt lat="21.28057" lon="-157.740539">
				 <ele>1</ele>
			 </trkpt>
			 <trkpt lat="21.280553" lon="-157.74072">
				 <ele>1</ele>
			 </trkpt>
			 <trkpt lat="21.280508" lon="-157.7412">
				 <ele>1</ele>
			 </trkpt>
			 <trkpt lat="21.280462" lon="-157.74168">
				 <ele>1</ele>
			 </trkpt>
			 <trkpt lat="21.280417" lon="-157.74216">
				 <ele>1</ele>
			 </trkpt>
			 <trkpt lat="21.280372" lon="-157.74264">
				 <ele>1.1</ele>
			 </trkpt>
			 <trkpt lat="21.280254" lon="-157.743127">
				 <ele>1.1</ele>
			 </trkpt>
			 <trkpt lat="21.280137" lon="-157.743593">
				 <ele>1.1</ele>
			 </trkpt>
			 <trkpt lat="21.280045" lon="-157.743962">
				 <ele>1.1</ele>
			 </trkpt>
			 <trkpt lat="21.279917" lon="-157.744425">
				 <ele>1.2</ele>
			 </trkpt>
			 <trkpt lat="21.27979" lon="-157.744887">
				 <ele>1.2</ele>
			 </trkpt>
			 <trkpt lat="21.279662" lon="-157.74535">
				 <ele>1.2</ele>
			 </trkpt>
			 <trkpt lat="21.27964" lon="-157.745429">
				 <ele>1.2</ele>
			 </trkpt>
			 <trkpt lat="21.2795" lon="-157.745887">
				 <ele>1.2</ele>
			 </trkpt>
			 <trkpt lat="21.27936" lon="-157.746346">
				 <ele>1.2</ele>
			 </trkpt>
			 <trkpt lat="21.27922" lon="-157.746804">
				 <ele>1.2</ele>
			 </trkpt>
			 <trkpt lat="21.279084" lon="-157.747249">
				 <ele>1.1</ele>
			 </trkpt>
			 <trkpt lat="21.27897" lon="-157.747716">
				 <ele>1.1</ele>
			 </trkpt>
			 <trkpt lat="21.278857" lon="-157.748183">
				 <ele>1.1</ele>
			 </trkpt>
			 <trkpt lat="21.278743" lon="-157.74865">
				 <ele>1.1</ele>
			 </trkpt>
			 <trkpt lat="21.278629" lon="-157.749117">
				 <ele>1</ele>
			 </trkpt>
			 <trkpt lat="21.278568" lon="-157.749367">
				 <ele>1</ele>
			 </trkpt>
			 <trkpt lat="21.278479" lon="-157.74984">
				 <ele>1</ele>
			 </trkpt>
			 <trkpt lat="21.278383" lon="-157.750319">
				 <ele>1</ele>
			 </trkpt>
			 <trkpt lat="21.278287" lon="-157.75079">
				 <ele>1</ele>
			 </trkpt>
			 <trkpt lat="21.278253" lon="-157.750957">
				 <ele>1</ele>
			 </trkpt>
			 <trkpt lat="21.278207" lon="-157.751437">
				 <ele>1</ele>
			 </trkpt>
			 <trkpt lat="21.278161" lon="-157.751917">
				 <ele>1</ele>
			 </trkpt>
			 <trkpt lat="21.278114" lon="-157.752397">
				 <ele>1</ele>
			 </trkpt>
			 <trkpt lat="21.278068" lon="-157.752877">
				 <ele>1.1</ele>
			 </trkpt>
			 <trkpt lat="21.278022" lon="-157.753357">
				 <ele>1.2</ele>
			 </trkpt>
			 <trkpt lat="21.277975" lon="-157.753837">
				 <ele>1.3</ele>
			 </trkpt>
			 <trkpt lat="21.277941" lon="-157.754194">
				 <ele>1.4</ele>
			 </trkpt>
			 <trkpt lat="21.277826" lon="-157.754661">
				 <ele>1.5</ele>
			 </trkpt>
			 <trkpt lat="21.277712" lon="-157.755128">
				 <ele>1.5</ele>
			 </trkpt>
			 <trkpt lat="21.277597" lon="-157.755594">
				 <ele>1.6</ele>
			 </trkpt>
			 <trkpt lat="21.277483" lon="-157.756061">
				 <ele>1.7</ele>
			 </trkpt>
			 <trkpt lat="21.277468" lon="-157.756121">
				 <ele>1.8</ele>
			 </trkpt>
			 <trkpt lat="21.277352" lon="-157.756587">
				 <ele>1.9</ele>
			 </trkpt>
			 <trkpt lat="21.277235" lon="-157.757053">
				 <ele>1.9</ele>
			 </trkpt>
			 <trkpt lat="21.277119" lon="-157.757519">
				 <ele>1.8</ele>
			 </trkpt>
			 <trkpt lat="21.277002" lon="-157.757985">
				 <ele>1.7</ele>
			 </trkpt>
			 <trkpt lat="21.276886" lon="-157.758451">
				 <ele>1.6</ele>
			 </trkpt>
			 <trkpt lat="21.276866" lon="-157.758528">
				 <ele>1.5</ele>
			 </trkpt>
			 <trkpt lat="21.276784" lon="-157.759003">
				 <ele>1.5</ele>
			 </trkpt>
			 <trkpt lat="21.276702" lon="-157.759477">
				 <ele>1.4</ele>
			 </trkpt>
			 <trkpt lat="21.276688" lon="-157.759556">
				 <ele>1.3</ele>
			 </trkpt>
			 <trkpt lat="21.276621" lon="-157.760034">
				 <ele>1.2</ele>
			 </trkpt>
			 <trkpt lat="21.276554" lon="-157.760511">
				 <ele>1.1</ele>
			 </trkpt>
			 <trkpt lat="21.276486" lon="-157.760988">
				 <ele>1</ele>
			 </trkpt>
			 <trkpt lat="21.276419" lon="-157.761465">
				 <ele>1.1</ele>
			 </trkpt>
			 <trkpt lat="21.276351" lon="-157.761942">
				 <ele>1.2</ele>
			 </trkpt>
			 <trkpt lat="21.276284" lon="-157.762419">
				 <ele>1.3</ele>
			 </trkpt>
			 <trkpt lat="21.276216" lon="-157.762896">
				 <ele>1.5</ele>
			 </trkpt>
			 <trkpt lat="21.276149" lon="-157.763373">
				 <ele>1.6</ele>
			 </trkpt>
			 <trkpt lat="21.276082" lon="-157.76385">
				 <ele>1.7</ele>
			 </trkpt>
			 <trkpt lat="21.276058" lon="-157.764019">
				 <ele>1.8</ele>
			 </trkpt>
			 <trkpt lat="21.276008" lon="-157.764498">
				 <ele>1.9</ele>
			 </trkpt>
			 <trkpt lat="21.275958" lon="-157.764978">
				 <ele>2.1</ele>
			 </trkpt>
			 <trkpt lat="21.275908" lon="-157.765457">
				 <ele>2.3</ele>
			 </trkpt>
			 <trkpt lat="21.275858" lon="-157.765937">
				 <ele>2.5</ele>
			 </trkpt>
			 <trkpt lat="21.275868" lon="-157.766649">
				 <ele>3</ele>
			 </trkpt>
			 <trkpt lat="21.276729" lon="-157.771379">
				 <ele>3.5</ele>
			 </trkpt>
			 <trkpt lat="21.277079" lon="-157.773472">
				 <ele>4.1</ele>
			 </trkpt>
			 <trkpt lat="21.277409" lon="-157.776158">
				 <ele>4.7</ele>
			 </trkpt>
			 <trkpt lat="21.277456" lon="-157.776638">
				 <ele>5.5</ele>
			 </trkpt>
			 <trkpt lat="21.277503" lon="-157.777118">
				 <ele>6.3</ele>
			 </trkpt>
			 <trkpt lat="21.27755" lon="-157.777598">
				 <ele>7.1</ele>
			 </trkpt>
			 <trkpt lat="21.277597" lon="-157.778078">
				 <ele>7.8</ele>
			 </trkpt>
			 <trkpt lat="21.277644" lon="-157.778558">
				 <ele>8.4</ele>
			 </trkpt>
			 <trkpt lat="21.277692" lon="-157.779037">
				 <ele>8.9</ele>
			 </trkpt>
			 <trkpt lat="21.277699" lon="-157.77911">
				 <ele>9.4</ele>
			 </trkpt>
			 <trkpt lat="21.277728" lon="-157.779592">
				 <ele>9.5</ele>
			 </trkpt>
			 <trkpt lat="21.277757" lon="-157.780073">
				 <ele>9.7</ele>
			 </trkpt>
			 <trkpt lat="21.277786" lon="-157.780555">
				 <ele>9.8</ele>
			 </trkpt>
			 <trkpt lat="21.277816" lon="-157.781036">
				 <ele>9.9</ele>
			 </trkpt>
			 <trkpt lat="21.277845" lon="-157.781518">
				 <ele>9.9</ele>
			 </trkpt>
			 <trkpt lat="21.277874" lon="-157.781999">
				 <ele>9.9</ele>
			 </trkpt>
			 <trkpt lat="21.277903" lon="-157.782481">
				 <ele>9.9</ele>
			 </trkpt>
			 <trkpt lat="21.277932" lon="-157.782963">
				 <ele>10</ele>
			 </trkpt>
			 <trkpt lat="21.277962" lon="-157.783444">
				 <ele>10.1</ele>
			 </trkpt>
			 <trkpt lat="21.277989" lon="-157.783894">
				 <ele>10.2</ele>
			 </trkpt>
			 <trkpt lat="21.27801" lon="-157.783939">
				 <ele>10.3</ele>
			 </trkpt>
			 <trkpt lat="21.27797" lon="-157.783962">
				 <ele>10.1</ele>
			 </trkpt>
			 <trkpt lat="21.27793" lon="-157.783968">
				 <ele>9.6</ele>
			 </trkpt>
			 <trkpt lat="21.27788" lon="-157.783955">
				 <ele>9</ele>
			 </trkpt>
			 <trkpt lat="21.277807" lon="-157.78392">
				 <ele>8.2</ele>
			 </trkpt>
			 <trkpt lat="21.277706" lon="-157.783865">
				 <ele>7.4</ele>
			 </trkpt>
			 <trkpt lat="21.275419" lon="-157.782606">
				 <ele>6.5</ele>
			 </trkpt>
			 <trkpt lat="21.27321" lon="-157.781376">
				 <ele>5.7</ele>
			 </trkpt>
			 <trkpt lat="21.271871" lon="-157.780402">
				 <ele>4.9</ele>
			 </trkpt>
			 <trkpt lat="21.270957" lon="-157.779729">
				 <ele>4.2</ele>
			 </trkpt>
			 <trkpt lat="21.270514" lon="-157.779404">
				 <ele>3.4</ele>
			 </trkpt>
			 <trkpt lat="21.270311" lon="-157.779259">
				 <ele>2.5</ele>
			 </trkpt>
			 <trkpt lat="21.269824" lon="-157.778897">
				 <ele>2</ele>
			 </trkpt>
			 <trkpt lat="21.26964" lon="-157.778759">
				 <ele>1.7</ele>
			 </trkpt>
			 <trkpt lat="21.2694" lon="-157.778971">
				 <ele>1.5</ele>
			 </trkpt>
			 <trkpt lat="21.2687" lon="-157.77948">
				 <ele>1.5</ele>
			 </trkpt>
			 <trkpt lat="21.267454" lon="-157.780384">
				 <ele>1.4</ele>
			 </trkpt>
			 <trkpt lat="21.266547" lon="-157.781049">
				 <ele>1.3</ele>
			 </trkpt>
			 <trkpt lat="21.266387" lon="-157.781163">
				 <ele>1.2</ele>
			 </trkpt>
			 <trkpt lat="21.266313" lon="-157.781219">
				 <ele>1.1</ele>
			 </trkpt>
			 <trkpt lat="21.266167" lon="-157.781338">
				 <ele>1</ele>
			 </trkpt>
			 <trkpt lat="21.265987" lon="-157.781512">
				 <ele>1</ele>
			 </trkpt>
			 <trkpt lat="21.265926" lon="-157.781581">
				 <ele>1</ele>
			 </trkpt>
			 <trkpt lat="21.265879" lon="-157.781644">
				 <ele>1</ele>
			 </trkpt>
			 <trkpt lat="21.265693" lon="-157.781889">
				 <ele>1</ele>
			 </trkpt>
			 <trkpt lat="21.265662" lon="-157.781921">
				 <ele>1</ele>
			 </trkpt>
			 <trkpt lat="21.265526" lon="-157.782105">
				 <ele>1</ele>
			 </trkpt>
			 <trkpt lat="21.265459" lon="-157.782201">
				 <ele>1</ele>
			 </trkpt>
			 <trkpt lat="21.26464" lon="-157.783352">
				 <ele>1</ele>
			 </trkpt>
			 <trkpt lat="21.264428" lon="-157.783647">
				 <ele>1</ele>
			 </trkpt>
			 <trkpt lat="21.264244" lon="-157.783914">
				 <ele>1</ele>
			 </trkpt>
			 <trkpt lat="21.263903" lon="-157.784397">
				 <ele>1</ele>
			 </trkpt>
			 <trkpt lat="21.2635" lon="-157.784966">
				 <ele>1</ele>
			 </trkpt>
			 <trkpt lat="21.26301" lon="-157.785654">
				 <ele>1</ele>
			 </trkpt>
			 <trkpt lat="21.262938" lon="-157.785769">
				 <ele>1</ele>
			 </trkpt>
			 <trkpt lat="21.262872" lon="-157.785879">
				 <ele>1</ele>
			 </trkpt>
			 <trkpt lat="21.262673" lon="-157.786214">
				 <ele>1</ele>
			 </trkpt>
			 <trkpt lat="21.262516" lon="-157.786522">
				 <ele>1</ele>
			 </trkpt>
			 <trkpt lat="21.262268" lon="-157.787003">
				 <ele>1</ele>
			 </trkpt>
			 <trkpt lat="21.262173" lon="-157.787175">
				 <ele>1</ele>
			 </trkpt>
			 <trkpt lat="21.262138" lon="-157.787245">
				 <ele>1.1</ele>
			 </trkpt>
			 <trkpt lat="21.26208" lon="-157.787356">
				 <ele>1.2</ele>
			 </trkpt>
			 <trkpt lat="21.261979" lon="-157.787558">
				 <ele>1.3</ele>
			 </trkpt>
			 <trkpt lat="21.261849" lon="-157.787808">
				 <ele>1.4</ele>
			 </trkpt>
			 <trkpt lat="21.261444" lon="-157.788581">
				 <ele>1.5</ele>
			 </trkpt>
			 <trkpt lat="21.260751" lon="-157.789968">
				 <ele>1.8</ele>
			 </trkpt>
			 <trkpt lat="21.260705" lon="-157.790062">
				 <ele>2.5</ele>
			 </trkpt>
			 <trkpt lat="21.260628" lon="-157.790209">
				 <ele>3.5</ele>
			 </trkpt>
			 <trkpt lat="21.260574" lon="-157.79034">
				 <ele>5.1</ele>
			 </trkpt>
			 <trkpt lat="21.260478" lon="-157.79065">
				 <ele>6.6</ele>
			 </trkpt>
			 <trkpt lat="21.260342" lon="-157.791217">
				 <ele>8.2</ele>
			 </trkpt>
			 <trkpt lat="21.260021" lon="-157.79273">
				 <ele>9.7</ele>
			 </trkpt>
			 <trkpt lat="21.259781" lon="-157.793878">
				 <ele>11.4</ele>
			 </trkpt>
			 <trkpt lat="21.259542" lon="-157.795042">
				 <ele>13.1</ele>
			 </trkpt>
			 <trkpt lat="21.25941" lon="-157.795751">
				 <ele>14.8</ele>
			 </trkpt>
			 <trkpt lat="21.258971" lon="-157.798139">
				 <ele>16.5</ele>
			 </trkpt>
			 <trkpt lat="21.258928" lon="-157.798391">
				 <ele>17.7</ele>
			 </trkpt>
			 <trkpt lat="21.258727" lon="-157.799304">
				 <ele>18.6</ele>
			 </trkpt>
			 <trkpt lat="21.258672" lon="-157.799502">
				 <ele>19.4</ele>
			 </trkpt>
			 <trkpt lat="21.258629" lon="-157.799619">
				 <ele>19.7</ele>
			 </trkpt>
			 <trkpt lat="21.258522" lon="-157.799855">
				 <ele>20.1</ele>
			 </trkpt>
			 <trkpt lat="21.258421" lon="-157.800024">
				 <ele>20.6</ele>
			 </trkpt>
			 <trkpt lat="21.258228" lon="-157.800303">
				 <ele>21.3</ele>
			 </trkpt>
			 <trkpt lat="21.25798" lon="-157.800664">
				 <ele>22</ele>
			 </trkpt>
			 <trkpt lat="21.257838" lon="-157.800873">
				 <ele>22.7</ele>
			 </trkpt>
			 <trkpt lat="21.257816" lon="-157.800911">
				 <ele>23.5</ele>
			 </trkpt>
			 <trkpt lat="21.257736" lon="-157.801051">
				 <ele>24.4</ele>
			 </trkpt>
			 <trkpt lat="21.257693" lon="-157.801141">
				 <ele>25.6</ele>
			 </trkpt>
			 <trkpt lat="21.25765" lon="-157.801251">
				 <ele>26.8</ele>
			 </trkpt>
			 <trkpt lat="21.257442" lon="-157.801795">
				 <ele>27.6</ele>
			 </trkpt>
			 <trkpt lat="21.257085" lon="-157.802731">
				 <ele>28.1</ele>
			 </trkpt>
			 <trkpt lat="21.256988" lon="-157.802987">
				 <ele>28.9</ele>
			 </trkpt>
			 <trkpt lat="21.256677" lon="-157.803728">
				 <ele>29.6</ele>
			 </trkpt>
			 <trkpt lat="21.25642" lon="-157.804336">
				 <ele>30.3</ele>
			 </trkpt>
			 <trkpt lat="21.256249" lon="-157.804741">
				 <ele>30.5</ele>
			 </trkpt>
			 <trkpt lat="21.256075" lon="-157.805143">
				 <ele>30.7</ele>
			 </trkpt>
			 <trkpt lat="21.255803" lon="-157.805871">
				 <ele>31</ele>
			 </trkpt>
			 <trkpt lat="21.255778" lon="-157.805938">
				 <ele>31.4</ele>
			 </trkpt>
			 <trkpt lat="21.255741" lon="-157.806254">
				 <ele>31</ele>
			 </trkpt>
			 <trkpt lat="21.255702" lon="-157.807108">
				 <ele>30.9</ele>
			 </trkpt>
			 <trkpt lat="21.255698" lon="-157.807235">
				 <ele>29.6</ele>
			 </trkpt>
			 <trkpt lat="21.255702" lon="-157.807362">
				 <ele>28.6</ele>
			 </trkpt>
			 <trkpt lat="21.255725" lon="-157.807591">
				 <ele>27.2</ele>
			 </trkpt>
			 <trkpt lat="21.256026" lon="-157.809409">
				 <ele>25.5</ele>
			 </trkpt>
			 <trkpt lat="21.256121" lon="-157.809984">
				 <ele>23.7</ele>
			 </trkpt>
			 <trkpt lat="21.256384" lon="-157.811576">
				 <ele>22.7</ele>
			 </trkpt>
			 <trkpt lat="21.256392" lon="-157.811675">
				 <ele>21.5</ele>
			 </trkpt>
			 <trkpt lat="21.256392" lon="-157.811779">
				 <ele>19.8</ele>
			 </trkpt>
			 <trkpt lat="21.256386" lon="-157.811883">
				 <ele>17.7</ele>
			 </trkpt>
			 <trkpt lat="21.256372" lon="-157.811986">
				 <ele>15.8</ele>
			 </trkpt>
			 <trkpt lat="21.256312" lon="-157.812598">
				 <ele>13.7</ele>
			 </trkpt>
			 <trkpt lat="21.256314" lon="-157.812761">
				 <ele>12.9</ele>
			 </trkpt>
			 <trkpt lat="21.256334" lon="-157.81292">
				 <ele>12</ele>
			 </trkpt>
			 <trkpt lat="21.256372" lon="-157.813073">
				 <ele>11.2</ele>
			 </trkpt>
			 <trkpt lat="21.256474" lon="-157.813405">
				 <ele>10.5</ele>
			 </trkpt>
			 <trkpt lat="21.256529" lon="-157.813696">
				 <ele>9.7</ele>
			 </trkpt>
			 <trkpt lat="21.256547" lon="-157.813835">
				 <ele>8.4</ele>
			 </trkpt>
			 <trkpt lat="21.256589" lon="-157.814344">
				 <ele>7.2</ele>
			 </trkpt>
			 <trkpt lat="21.256601" lon="-157.814417">
				 <ele>6.5</ele>
			 </trkpt>
			 <trkpt lat="21.256629" lon="-157.814529">
				 <ele>6.1</ele>
			 </trkpt>
			 <trkpt lat="21.256661" lon="-157.814618">
				 <ele>6</ele>
			 </trkpt>
			 <trkpt lat="21.256702" lon="-157.814704">
				 <ele>6</ele>
			 </trkpt>
			 <trkpt lat="21.256792" lon="-157.814851">
				 <ele>6</ele>
			 </trkpt>
			 <trkpt lat="21.256977" lon="-157.815125">
				 <ele>6.1</ele>
			 </trkpt>
			 <trkpt lat="21.257668" lon="-157.816049">
				 <ele>6</ele>
			 </trkpt>
			 <trkpt lat="21.257762" lon="-157.816189">
				 <ele>5.8</ele>
			 </trkpt>
			 <trkpt lat="21.257803" lon="-157.816263">
				 <ele>5.7</ele>
			 </trkpt>
			 <trkpt lat="21.257877" lon="-157.816431">
				 <ele>5.7</ele>
			 </trkpt>
			 <trkpt lat="21.257906" lon="-157.816518">
				 <ele>5.6</ele>
			 </trkpt>
			 <trkpt lat="21.257969" lon="-157.816765">
				 <ele>5.4</ele>
			 </trkpt>
			 <trkpt lat="21.258006" lon="-157.816848">
				 <ele>5.2</ele>
			 </trkpt>
			 <trkpt lat="21.258098" lon="-157.817004">
				 <ele>4.8</ele>
			 </trkpt>
			 <trkpt lat="21.258171" lon="-157.817095">
				 <ele>4.4</ele>
			 </trkpt>
			 <trkpt lat="21.258271" lon="-157.817197">
				 <ele>3.9</ele>
			 </trkpt>
			 <trkpt lat="21.258317" lon="-157.817233">
				 <ele>3.4</ele>
			 </trkpt>
			 <trkpt lat="21.258397" lon="-157.817293">
				 <ele>3</ele>
			 </trkpt>
			 <trkpt lat="21.258754" lon="-157.817481">
				 <ele>2.7</ele>
			 </trkpt>
			 <trkpt lat="21.260168" lon="-157.818178">
				 <ele>2.5</ele>
			 </trkpt>
			 <trkpt lat="21.260308" lon="-157.818192">
				 <ele>2.2</ele>
			 </trkpt>
			 <trkpt lat="21.26051" lon="-157.818232">
				 <ele>1.9</ele>
			 </trkpt>
			 <trkpt lat="21.260917" lon="-157.818831">
				 <ele>1.6</ele>
			 </trkpt>
			 <trkpt lat="21.261426" lon="-157.819554">
				 <ele>1.4</ele>
			 </trkpt>
			 <trkpt lat="21.261536" lon="-157.819694">
				 <ele>1.2</ele>
			 </trkpt>
			 <trkpt lat="21.261589" lon="-157.819715">
				 <ele>1.1</ele>
			 </trkpt>
			 <trkpt lat="21.261635" lon="-157.81975">
				 <ele>1</ele>
			 </trkpt>
			 <trkpt lat="21.26167" lon="-157.819798">
				 <ele>1</ele>
			 </trkpt>
			 <trkpt lat="21.261767" lon="-157.81988">
				 <ele>1</ele>
			 </trkpt>
			 <trkpt lat="21.262104" lon="-157.820089">
				 <ele>1.1</ele>
			 </trkpt>
			 <trkpt lat="21.262182" lon="-157.820124">
				 <ele>1.2</ele>
			 </trkpt>
			 <trkpt lat="21.26273" lon="-157.82034">
				 <ele>1.3</ele>
			 </trkpt>
			 <trkpt lat="21.26364" lon="-157.82056">
				 <ele>1.4</ele>
			 </trkpt>
			 <trkpt lat="21.26399" lon="-157.82064">
				 <ele>1.4</ele>
			 </trkpt>
			 <trkpt lat="21.26594" lon="-157.8211">
				 <ele>1.4</ele>
			 </trkpt>
			 <trkpt lat="21.26593" lon="-157.82115">
				 <ele>1.4</ele>
			 </trkpt>
			 <trkpt lat="21.26594" lon="-157.8211">
				 <ele>1.5</ele>
			 </trkpt>
			 <trkpt lat="21.26646" lon="-157.82123">
				 <ele>1.6</ele>
			 </trkpt>
			 <trkpt lat="21.26781" lon="-157.82155">
				 <ele>1.7</ele>
			 </trkpt>
		 </trkseg>
	 </trk>
</gpx>