<?xml version="1.0" encoding="UTF-8" standalone="no" ?>
<gpx xmlns="http://www.topografix.com/GPX/1/1" xmlns:xsi="http://www.w3.org/2001/XMLSchema-instance" xsi:schemaLocation="http://www.topografix.com/GPX/1/1 http://www.topografix.com/GPX/1/1/gpx.xsd" version="1.1" creator="VisuGPX - https://www.visugpx.com">
  <metadata>
    <name>Marathon de Toulouse</name>
    <desc><![CDATA[Marathon International de Toulouse]]></desc>
  </metadata>
  <trk>
    <name><![CDATA[Marathon de Toulouse_1]]></name>
    <trkseg>
      <trkpt lat="43.58443" lon="1.43187">
        <ele>139</ele>
      </trkpt>
      <trkpt lat="43.58421" lon="1.43691">
        <ele>140</ele>
      </trkpt>
      <trkpt lat="43.58404" lon="1.4408">
        <ele>149</ele>
      </trkpt>
      <trkpt lat="43.58395" lon="1.44284">
        <ele>147</ele>
      </trkpt>
      <trkpt lat="43.5839" lon="1.44419">
        <ele>149</ele>
      </trkpt>
      <trkpt lat="43.5844" lon="1.44788">
        <ele>151</ele>
      </trkpt>
      <trkpt lat="43.58364" lon="1.45065">
        <ele>149</ele>
      </trkpt>
      <trkpt lat="43.58524" lon="1.45451">
        <ele>148</ele>
      </trkpt>
      <trkpt lat="43.58661" lon="1.45796">
        <ele>150</ele>
      </trkpt>
      <trkpt lat="43.58745" lon="1.45989">
        <ele>152</ele>
      </trkpt>
      <trkpt lat="43.58771" lon="1.46017">
        <ele>152</ele>
      </trkpt>
      <trkpt lat="43.58836" lon="1.45865">
        <ele>150</ele>
      </trkpt>
      <trkpt lat="43.58931" lon="1.45644">
        <ele>150</ele>
      </trkpt>
      <trkpt lat="43.59059" lon="1.45361">
        <ele>149</ele>
      </trkpt>
      <trkpt lat="43.59307" lon="1.45324">
        <ele>149</ele>
      </trkpt>
      <trkpt lat="43.59481" lon="1.45294">
        <ele>149</ele>
      </trkpt>
      <trkpt lat="43.59508" lon="1.45365">
        <ele>152</ele>
      </trkpt>
      <trkpt lat="43.59572" lon="1.45397">
        <ele>155</ele>
      </trkpt>
      <trkpt lat="43.59643" lon="1.45354">
        <ele>152</ele>
      </trkpt>
      <trkpt lat="43.59673" lon="1.45271">
        <ele>153</ele>
      </trkpt>
      <trkpt lat="43.59873" lon="1.45245">
        <ele>155</ele>
      </trkpt>
      <trkpt lat="43.60033" lon="1.45226">
        <ele>154</ele>
      </trkpt>
      <trkpt lat="43.60064" lon="1.45075">
        <ele>156</ele>
      </trkpt>
      <trkpt lat="43.60063" lon="1.44968">
        <ele>156</ele>
      </trkpt>
      <trkpt lat="43.60058" lon="1.44816">
        <ele>157</ele>
      </trkpt>
      <trkpt lat="43.60053" lon="1.44644">
        <ele>156</ele>
      </trkpt>
      <trkpt lat="43.60041" lon="1.44459">
        <ele>156</ele>
      </trkpt>
      <trkpt lat="43.60035" lon="1.44369">
        <ele>157</ele>
      </trkpt>
      <trkpt lat="43.59977" lon="1.44116">
        <ele>153</ele>
      </trkpt>
      <trkpt lat="43.59954" lon="1.4402">
        <ele>146</ele>
      </trkpt>
      <trkpt lat="43.59926" lon="1.43852">
        <ele>136</ele>
      </trkpt>
      <trkpt lat="43.59893" lon="1.43653">
        <ele>142</ele>
      </trkpt>
      <trkpt lat="43.5984" lon="1.43372">
        <ele>143</ele>
      </trkpt>
      <trkpt lat="43.59791" lon="1.43088">
        <ele>141</ele>
      </trkpt>
      <trkpt lat="43.60084" lon="1.42863">
        <ele>143</ele>
      </trkpt>
      <trkpt lat="43.60198" lon="1.42794">
        <ele>137</ele>
      </trkpt>
      <trkpt lat="43.60476" lon="1.42807">
        <ele>143</ele>
      </trkpt>
      <trkpt lat="43.60829" lon="1.42831">
        <ele>142</ele>
      </trkpt>
      <trkpt lat="43.61012" lon="1.43391">
        <ele>142</ele>
      </trkpt>
      <trkpt lat="43.61156" lon="1.43869">
        <ele>146</ele>
      </trkpt>
      <trkpt lat="43.61414" lon="1.43775">
        <ele>145</ele>
      </trkpt>
      <trkpt lat="43.61775" lon="1.43672">
        <ele>144</ele>
      </trkpt>
      <trkpt lat="43.62154" lon="1.43526">
        <ele>143</ele>
      </trkpt>
      <trkpt lat="43.62377" lon="1.43436">
        <ele>144</ele>
      </trkpt>
      <trkpt lat="43.62671" lon="1.43391">
        <ele>142</ele>
      </trkpt>
      <trkpt lat="43.62879" lon="1.4338">
        <ele>139</ele>
      </trkpt>
      <trkpt lat="43.63103" lon="1.43372">
        <ele>140</ele>
      </trkpt>
      <trkpt lat="43.63326" lon="1.43342">
        <ele>140</ele>
      </trkpt>
      <trkpt lat="43.63511" lon="1.43312">
        <ele>139</ele>
      </trkpt>
      <trkpt lat="43.63736" lon="1.43324">
        <ele>138</ele>
      </trkpt>
      <trkpt lat="43.63958" lon="1.43337">
        <ele>137</ele>
      </trkpt>
      <trkpt lat="43.64022" lon="1.43322">
        <ele>137</ele>
      </trkpt>
      <trkpt lat="43.64067" lon="1.43234">
        <ele>139</ele>
      </trkpt>
      <trkpt lat="43.64132" lon="1.43247">
        <ele>139</ele>
      </trkpt>
      <trkpt lat="43.64227" lon="1.43331">
        <ele>138</ele>
      </trkpt>
      <trkpt lat="43.64368" lon="1.43344">
        <ele>137</ele>
      </trkpt>
      <trkpt lat="43.646" lon="1.43324">
        <ele>137</ele>
      </trkpt>
      <trkpt lat="43.6489" lon="1.43294">
        <ele>134</ele>
      </trkpt>
      <trkpt lat="43.65235" lon="1.43254">
        <ele>136</ele>
      </trkpt>
      <trkpt lat="43.6553" lon="1.43215">
        <ele>133</ele>
      </trkpt>
      <trkpt lat="43.65823" lon="1.43185">
        <ele>135</ele>
      </trkpt>
      <trkpt lat="43.66177" lon="1.43138">
        <ele>134</ele>
      </trkpt>
      <trkpt lat="43.66193" lon="1.43382">
        <ele>134</ele>
      </trkpt>
      <trkpt lat="43.66241" lon="1.43517">
        <ele>133</ele>
      </trkpt>
      <trkpt lat="43.66337" lon="1.43657">
        <ele>132</ele>
      </trkpt>
      <trkpt lat="43.6641" lon="1.43756">
        <ele>133</ele>
      </trkpt>
      <trkpt lat="43.66478" lon="1.43859">
        <ele>134</ele>
      </trkpt>
      <trkpt lat="43.66568" lon="1.43893">
        <ele>136</ele>
      </trkpt>
      <trkpt lat="43.66649" lon="1.43831">
        <ele>134</ele>
      </trkpt>
      <trkpt lat="43.66767" lon="1.43779">
        <ele>134</ele>
      </trkpt>
      <trkpt lat="43.66708" lon="1.43548">
        <ele>132</ele>
      </trkpt>
      <trkpt lat="43.66629" lon="1.43245">
        <ele>134</ele>
      </trkpt>
      <trkpt lat="43.66837" lon="1.43161">
        <ele>134</ele>
      </trkpt>
      <trkpt lat="43.67029" lon="1.43069">
        <ele>134</ele>
      </trkpt>
      <trkpt lat="43.6723" lon="1.42975">
        <ele>133</ele>
      </trkpt>
      <trkpt lat="43.67374" lon="1.42904">
        <ele>132</ele>
      </trkpt>
      <trkpt lat="43.67537" lon="1.42816">
        <ele>133</ele>
      </trkpt>
      <trkpt lat="43.67715" lon="1.42717">
        <ele>133</ele>
      </trkpt>
      <trkpt lat="43.679" lon="1.42603">
        <ele>132</ele>
      </trkpt>
      <trkpt lat="43.67968" lon="1.42582">
        <ele>130</ele>
      </trkpt>
      <trkpt lat="43.68082" lon="1.42657">
        <ele>129</ele>
      </trkpt>
      <trkpt lat="43.68154" lon="1.42691">
        <ele>128</ele>
      </trkpt>
      <trkpt lat="43.68325" lon="1.42616">
        <ele>127</ele>
      </trkpt>
      <trkpt lat="43.6842" lon="1.42578">
        <ele>128</ele>
      </trkpt>
      <trkpt lat="43.68471" lon="1.42554">
        <ele>127</ele>
      </trkpt>
      <trkpt lat="43.685" lon="1.42449">
        <ele>126</ele>
      </trkpt>
      <trkpt lat="43.68469" lon="1.42402">
        <ele>127</ele>
      </trkpt>
      <trkpt lat="43.68502" lon="1.42324">
        <ele>127</ele>
      </trkpt>
      <trkpt lat="43.68577" lon="1.42168">
        <ele>128</ele>
      </trkpt>
      <trkpt lat="43.68667" lon="1.42196">
        <ele>127</ele>
      </trkpt>
      <trkpt lat="43.68764" lon="1.42299">
        <ele>129</ele>
      </trkpt>
      <trkpt lat="43.68823" lon="1.42318">
        <ele>128</ele>
      </trkpt>
      <trkpt lat="43.68879" lon="1.42262">
        <ele>128</ele>
      </trkpt>
      <trkpt lat="43.68873" lon="1.42086">
        <ele>128</ele>
      </trkpt>
      <trkpt lat="43.68809" lon="1.41801">
        <ele>130</ele>
      </trkpt>
      <trkpt lat="43.68812" lon="1.41689">
        <ele>131</ele>
      </trkpt>
      <trkpt lat="43.68864" lon="1.41621">
        <ele>132</ele>
      </trkpt>
      <trkpt lat="43.68848" lon="1.41563">
        <ele>133</ele>
      </trkpt>
      <trkpt lat="43.68843" lon="1.41522">
        <ele>133</ele>
      </trkpt>
      <trkpt lat="43.68811" lon="1.41417">
        <ele>131</ele>
      </trkpt>
      <trkpt lat="43.69087" lon="1.41183">
        <ele>131</ele>
      </trkpt>
      <trkpt lat="43.69113" lon="1.41161">
        <ele>131</ele>
      </trkpt>
      <trkpt lat="43.69177" lon="1.41217">
        <ele>130</ele>
      </trkpt>
      <trkpt lat="43.69233" lon="1.41325">
        <ele>130</ele>
      </trkpt>
      <trkpt lat="43.69307" lon="1.41492">
        <ele>129</ele>
      </trkpt>
      <trkpt lat="43.69323" lon="1.41631">
        <ele>129</ele>
      </trkpt>
      <trkpt lat="43.69295" lon="1.41769">
        <ele>127</ele>
      </trkpt>
      <trkpt lat="43.69262" lon="1.41902">
        <ele>127</ele>
      </trkpt>
      <trkpt lat="43.69186" lon="1.42127">
        <ele>127</ele>
      </trkpt>
      <trkpt lat="43.69087" lon="1.42236">
        <ele>126</ele>
      </trkpt>
      <trkpt lat="43.68969" lon="1.42273">
        <ele>128</ele>
      </trkpt>
      <trkpt lat="43.68871" lon="1.42299">
        <ele>128</ele>
      </trkpt>
      <trkpt lat="43.68862" lon="1.42354">
        <ele>128</ele>
      </trkpt>
      <trkpt lat="43.68997" lon="1.42483">
        <ele>128</ele>
      </trkpt>
      <trkpt lat="43.69071" lon="1.42537">
        <ele>127</ele>
      </trkpt>
      <trkpt lat="43.69098" lon="1.42599">
        <ele>127</ele>
      </trkpt>
      <trkpt lat="43.69115" lon="1.42659">
        <ele>128</ele>
      </trkpt>
      <trkpt lat="43.69255" lon="1.42773">
        <ele>131</ele>
      </trkpt>
      <trkpt lat="43.69431" lon="1.42833">
        <ele>131</ele>
      </trkpt>
      <trkpt lat="43.69563" lon="1.42865">
        <ele>131</ele>
      </trkpt>
      <trkpt lat="43.69644" lon="1.42827">
        <ele>129</ele>
      </trkpt>
      <trkpt lat="43.69791" lon="1.42912">
        <ele>129</ele>
      </trkpt>
      <trkpt lat="43.69838" lon="1.42938">
        <ele>129</ele>
      </trkpt>
      <trkpt lat="43.69945" lon="1.42972">
        <ele>129</ele>
      </trkpt>
      <trkpt lat="43.70072" lon="1.43056">
        <ele>130</ele>
      </trkpt>
      <trkpt lat="43.70049" lon="1.43125">
        <ele>131</ele>
      </trkpt>
      <trkpt lat="43.69942" lon="1.43215">
        <ele>132</ele>
      </trkpt>
      <trkpt lat="43.69931" lon="1.43264">
        <ele>131</ele>
      </trkpt>
      <trkpt lat="43.69886" lon="1.43292">
        <ele>131</ele>
      </trkpt>
      <trkpt lat="43.6983" lon="1.4341">
        <ele>131</ele>
      </trkpt>
      <trkpt lat="43.69759" lon="1.43505">
        <ele>131</ele>
      </trkpt>
      <trkpt lat="43.69673" lon="1.43597">
        <ele>132</ele>
      </trkpt>
      <trkpt lat="43.69622" lon="1.43648">
        <ele>132</ele>
      </trkpt>
      <trkpt lat="43.69602" lon="1.43496">
        <ele>132</ele>
      </trkpt>
      <trkpt lat="43.69583" lon="1.43378">
        <ele>131</ele>
      </trkpt>
      <trkpt lat="43.69545" lon="1.43314">
        <ele>132</ele>
      </trkpt>
      <trkpt lat="43.69461" lon="1.43247">
        <ele>131</ele>
      </trkpt>
      <trkpt lat="43.69439" lon="1.4323">
        <ele>132</ele>
      </trkpt>
      <trkpt lat="43.69376" lon="1.43258">
        <ele>132</ele>
      </trkpt>
      <trkpt lat="43.69104" lon="1.43183">
        <ele>130</ele>
      </trkpt>
      <trkpt lat="43.68982" lon="1.43372">
        <ele>131</ele>
      </trkpt>
      <trkpt lat="43.68859" lon="1.43556">
        <ele>131</ele>
      </trkpt>
      <trkpt lat="43.68739" lon="1.43743">
        <ele>131</ele>
      </trkpt>
      <trkpt lat="43.68687" lon="1.4382">
        <ele>131</ele>
      </trkpt>
      <trkpt lat="43.68504" lon="1.43968">
        <ele>133</ele>
      </trkpt>
      <trkpt lat="43.68435" lon="1.44054">
        <ele>132</ele>
      </trkpt>
      <trkpt lat="43.68358" lon="1.44146">
        <ele>130</ele>
      </trkpt>
      <trkpt lat="43.68305" lon="1.44253">
        <ele>131</ele>
      </trkpt>
      <trkpt lat="43.6826" lon="1.44404">
        <ele>135</ele>
      </trkpt>
      <trkpt lat="43.68285" lon="1.44633">
        <ele>134</ele>
      </trkpt>
      <trkpt lat="43.6831" lon="1.44801">
        <ele>134</ele>
      </trkpt>
      <trkpt lat="43.68288" lon="1.44998">
        <ele>135</ele>
      </trkpt>
      <trkpt lat="43.68229" lon="1.4511">
        <ele>135</ele>
      </trkpt>
      <trkpt lat="43.68128" lon="1.45223">
        <ele>136</ele>
      </trkpt>
      <trkpt lat="43.68016" lon="1.45318">
        <ele>137</ele>
      </trkpt>
      <trkpt lat="43.67911" lon="1.45395">
        <ele>136</ele>
      </trkpt>
      <trkpt lat="43.67802" lon="1.45496">
        <ele>137</ele>
      </trkpt>
      <trkpt lat="43.67701" lon="1.45592">
        <ele>136</ele>
      </trkpt>
      <trkpt lat="43.6767" lon="1.45616">
        <ele>136</ele>
      </trkpt>
      <trkpt lat="43.67571" lon="1.45625">
        <ele>137</ele>
      </trkpt>
      <trkpt lat="43.6743" lon="1.45674">
        <ele>138</ele>
      </trkpt>
      <trkpt lat="43.67358" lon="1.45676">
        <ele>136</ele>
      </trkpt>
      <trkpt lat="43.6731" lon="1.4561">
        <ele>134</ele>
      </trkpt>
      <trkpt lat="43.67247" lon="1.45627">
        <ele>131</ele>
      </trkpt>
      <trkpt lat="43.6715" lon="1.45653">
        <ele>132</ele>
      </trkpt>
      <trkpt lat="43.67076" lon="1.45663">
        <ele>133</ele>
      </trkpt>
      <trkpt lat="43.67011" lon="1.45747">
        <ele>132</ele>
      </trkpt>
      <trkpt lat="43.66803" lon="1.45831">
        <ele>132</ele>
      </trkpt>
      <trkpt lat="43.66536" lon="1.45816">
        <ele>131</ele>
      </trkpt>
      <trkpt lat="43.66435" lon="1.45751">
        <ele>131</ele>
      </trkpt>
      <trkpt lat="43.66287" lon="1.45796">
        <ele>134</ele>
      </trkpt>
      <trkpt lat="43.66183" lon="1.45633">
        <ele>131</ele>
      </trkpt>
      <trkpt lat="43.66025" lon="1.45507">
        <ele>136</ele>
      </trkpt>
      <trkpt lat="43.65829" lon="1.45485">
        <ele>137</ele>
      </trkpt>
      <trkpt lat="43.65663" lon="1.45638">
        <ele>133</ele>
      </trkpt>
      <trkpt lat="43.65536" lon="1.4579">
        <ele>135</ele>
      </trkpt>
      <trkpt lat="43.65354" lon="1.46277">
        <ele>136</ele>
      </trkpt>
      <trkpt lat="43.6512" lon="1.46519">
        <ele>137</ele>
      </trkpt>
      <trkpt lat="43.6491" lon="1.4653">
        <ele>137</ele>
      </trkpt>
      <trkpt lat="43.64674" lon="1.46519">
        <ele>137</ele>
      </trkpt>
      <trkpt lat="43.64587" lon="1.46513">
        <ele>136</ele>
      </trkpt>
      <trkpt lat="43.64373" lon="1.46483">
        <ele>139</ele>
      </trkpt>
      <trkpt lat="43.64417" lon="1.46352">
        <ele>138</ele>
      </trkpt>
      <trkpt lat="43.64406" lon="1.46125">
        <ele>135</ele>
      </trkpt>
      <trkpt lat="43.64299" lon="1.45728">
        <ele>137</ele>
      </trkpt>
      <trkpt lat="43.643" lon="1.45599">
        <ele>138</ele>
      </trkpt>
      <trkpt lat="43.64033" lon="1.45185">
        <ele>136</ele>
      </trkpt>
      <trkpt lat="43.63974" lon="1.45268">
        <ele>134</ele>
      </trkpt>
      <trkpt lat="43.63837" lon="1.45273">
        <ele>136</ele>
      </trkpt>
      <trkpt lat="43.6367" lon="1.45281">
        <ele>136</ele>
      </trkpt>
      <trkpt lat="43.63522" lon="1.45275">
        <ele>135</ele>
      </trkpt>
      <trkpt lat="43.63302" lon="1.45069">
        <ele>137</ele>
      </trkpt>
      <trkpt lat="43.6321" lon="1.44977">
        <ele>138</ele>
      </trkpt>
      <trkpt lat="43.63076" lon="1.44953">
        <ele>137</ele>
      </trkpt>
      <trkpt lat="43.62929" lon="1.44927">
        <ele>138</ele>
      </trkpt>
      <trkpt lat="43.62848" lon="1.44837">
        <ele>138</ele>
      </trkpt>
      <trkpt lat="43.62735" lon="1.44571">
        <ele>141</ele>
      </trkpt>
      <trkpt lat="43.6264" lon="1.44339">
        <ele>139</ele>
      </trkpt>
      <trkpt lat="43.6248" lon="1.44284">
        <ele>141</ele>
      </trkpt>
      <trkpt lat="43.62582" lon="1.43846">
        <ele>141</ele>
      </trkpt>
      <trkpt lat="43.62651" lon="1.4358">
        <ele>142</ele>
      </trkpt>
      <trkpt lat="43.62688" lon="1.43419">
        <ele>142</ele>
      </trkpt>
      <trkpt lat="43.62691" lon="1.43374">
        <ele>141</ele>
      </trkpt>
      <trkpt lat="43.62374" lon="1.43423">
        <ele>144</ele>
      </trkpt>
      <trkpt lat="43.61798" lon="1.43674">
        <ele>144</ele>
      </trkpt>
      <trkpt lat="43.61503" lon="1.43762">
        <ele>143</ele>
      </trkpt>
      <trkpt lat="43.61156" lon="1.43884">
        <ele>146</ele>
      </trkpt>
      <trkpt lat="43.6113" lon="1.44037">
        <ele>147</ele>
      </trkpt>
      <trkpt lat="43.61052" lon="1.44339">
        <ele>149</ele>
      </trkpt>
      <trkpt lat="43.60895" lon="1.44528">
        <ele>151</ele>
      </trkpt>
      <trkpt lat="43.60725" lon="1.44717">
        <ele>152</ele>
      </trkpt>
      <trkpt lat="43.60552" lon="1.44895">
        <ele>151</ele>
      </trkpt>
      <trkpt lat="43.60328" lon="1.45114">
        <ele>154</ele>
      </trkpt>
      <trkpt lat="43.60249" lon="1.45172">
        <ele>157</ele>
      </trkpt>
      <trkpt lat="43.60073" lon="1.45193">
        <ele>154</ele>
      </trkpt>
      <trkpt lat="43.59784" lon="1.45211">
        <ele>154</ele>
      </trkpt>
      <trkpt lat="43.59668" lon="1.45217">
        <ele>153</ele>
      </trkpt>
      <trkpt lat="43.59609" lon="1.45131">
        <ele>152</ele>
      </trkpt>
      <trkpt lat="43.59522" lon="1.4515">
        <ele>150</ele>
      </trkpt>
      <trkpt lat="43.59492" lon="1.45234">
        <ele>149</ele>
      </trkpt>
      <trkpt lat="43.59306" lon="1.45262">
        <ele>149</ele>
      </trkpt>
      <trkpt lat="43.59122" lon="1.45264">
        <ele>148</ele>
      </trkpt>
      <trkpt lat="43.59424" lon="1.44929">
        <ele>153</ele>
      </trkpt>
      <trkpt lat="43.59471" lon="1.44882">
        <ele>153</ele>
      </trkpt>
      <trkpt lat="43.5937" lon="1.44605">
        <ele>152</ele>
      </trkpt>
      <trkpt lat="43.59328" lon="1.44539">
        <ele>149</ele>
      </trkpt>
      <trkpt lat="43.59295" lon="1.4444">
        <ele>148</ele>
      </trkpt>
      <trkpt lat="43.59429" lon="1.44395">
        <ele>153</ele>
      </trkpt>
      <trkpt lat="43.59536" lon="1.44537">
        <ele>155</ele>
      </trkpt>
      <trkpt lat="43.59721" lon="1.4456">
        <ele>154</ele>
      </trkpt>
      <trkpt lat="43.59954" lon="1.44567">
        <ele>157</ele>
      </trkpt>
      <trkpt lat="43.59977" lon="1.44706">
        <ele>157</ele>
      </trkpt>
      <trkpt lat="43.5998" lon="1.44886">
        <ele>156</ele>
      </trkpt>
      <trkpt lat="43.60049" lon="1.45017">
        <ele>155</ele>
      </trkpt>
      <trkpt lat="43.60067" lon="1.44571">
        <ele>156</ele>
      </trkpt>
      <trkpt lat="43.60485" lon="1.44569">
        <ele>153</ele>
      </trkpt>
      <trkpt lat="43.60482" lon="1.44296">
        <ele>152</ele>
      </trkpt>
    </trkseg>
  </trk>
</gpx>