<?xml version="1.0" encoding="UTF-8"?>
 <gpx creator="Garmin Connect" version="1.1"
	 xsi:schemaLocation="http://www.topografix.com/GPX/1/1 http://www.topografix.com/GPX/11.xsd"
	 xmlns:ns3="http://www.garmin.com/xmlschemas/TrackPointExtension/v1"
	 xmlns="http://www.topografix.com/GPX/1/1"
	 xmlns:xsi="http://www.w3.org/2001/XMLSchema-instance" xmlns:ns2="http://www.garmin.com/xmlschemas/GpxExtensions/v3">
	 <metadata>
		<name>Grandma’s Marathon 2025 - 42.195 km</name>
		 <link href="https://www.goandrace.com">
		 <text>Garmin Connect</text>
		 </link>
	 <time>2026-08-23T23:03:38</time>
	 </metadata>
	 <trk>
		 <name>Grandma’s Marathon 2025 - 42.195 km</name>
		 <trkseg>
			 <trkpt lat="47.006981" lon="-91.711936">
				 <ele>219.7</ele>
			 </trkpt>
			 <trkpt lat="47.000683" lon="-91.720116">
				 <ele>218.9</ele>
			 </trkpt>
			 <trkpt lat="47.000575" lon="-91.720257">
				 <ele>217.9</ele>
			 </trkpt>
			 <trkpt lat="47.000485" lon="-91.720373">
				 <ele>217.3</ele>
			 </trkpt>
			 <trkpt lat="47.000236" lon="-91.720694">
				 <ele>217.2</ele>
			 </trkpt>
			 <trkpt lat="46.99451" lon="-91.728078">
				 <ele>217.1</ele>
			 </trkpt>
			 <trkpt lat="46.99417" lon="-91.728516">
				 <ele>216.2</ele>
			 </trkpt>
			 <trkpt lat="46.992355" lon="-91.730855">
				 <ele>214.5</ele>
			 </trkpt>
			 <trkpt lat="46.989296" lon="-91.734814">
				 <ele>212.8</ele>
			 </trkpt>
			 <trkpt lat="46.988447" lon="-91.735844">
				 <ele>211.1</ele>
			 </trkpt>
			 <trkpt lat="46.987627" lon="-91.736713">
				 <ele>209.4</ele>
			 </trkpt>
			 <trkpt lat="46.981391" lon="-91.743483">
				 <ele>208.1</ele>
			 </trkpt>
			 <trkpt lat="46.979015" lon="-91.746045">
				 <ele>206.8</ele>
			 </trkpt>
			 <trkpt lat="46.978197" lon="-91.74694">
				 <ele>205.9</ele>
			 </trkpt>
			 <trkpt lat="46.978175" lon="-91.746965">
				 <ele>204.7</ele>
			 </trkpt>
			 <trkpt lat="46.977468" lon="-91.74785">
				 <ele>203.2</ele>
			 </trkpt>
			 <trkpt lat="46.977053" lon="-91.748506">
				 <ele>201.5</ele>
			 </trkpt>
			 <trkpt lat="46.976823" lon="-91.748869">
				 <ele>200.5</ele>
			 </trkpt>
			 <trkpt lat="46.9765" lon="-91.749431">
				 <ele>200.1</ele>
			 </trkpt>
			 <trkpt lat="46.976077" lon="-91.750167">
				 <ele>199.7</ele>
			 </trkpt>
			 <trkpt lat="46.975506" lon="-91.75118">
				 <ele>199.4</ele>
			 </trkpt>
			 <trkpt lat="46.975242" lon="-91.751648">
				 <ele>199</ele>
			 </trkpt>
			 <trkpt lat="46.974724" lon="-91.752614">
				 <ele>198.7</ele>
			 </trkpt>
			 <trkpt lat="46.973149" lon="-91.755553">
				 <ele>198.5</ele>
			 </trkpt>
			 <trkpt lat="46.972212" lon="-91.757162">
				 <ele>198.3</ele>
			 </trkpt>
			 <trkpt lat="46.971897" lon="-91.757592">
				 <ele>198.1</ele>
			 </trkpt>
			 <trkpt lat="46.971871" lon="-91.757623">
				 <ele>197.7</ele>
			 </trkpt>
			 <trkpt lat="46.971582" lon="-91.757967">
				 <ele>197.5</ele>
			 </trkpt>
			 <trkpt lat="46.97134" lon="-91.758203">
				 <ele>197.3</ele>
			 </trkpt>
			 <trkpt lat="46.971048" lon="-91.758439">
				 <ele>197.1</ele>
			 </trkpt>
			 <trkpt lat="46.970674" lon="-91.758686">
				 <ele>197.4</ele>
			 </trkpt>
			 <trkpt lat="46.967182" lon="-91.760467">
				 <ele>197.6</ele>
			 </trkpt>
			 <trkpt lat="46.966625" lon="-91.760746">
				 <ele>197.7</ele>
			 </trkpt>
			 <trkpt lat="46.964531" lon="-91.761776">
				 <ele>197.7</ele>
			 </trkpt>
			 <trkpt lat="46.963953" lon="-91.762087">
				 <ele>197.7</ele>
			 </trkpt>
			 <trkpt lat="46.963335" lon="-91.762503">
				 <ele>197.6</ele>
			 </trkpt>
			 <trkpt lat="46.962935" lon="-91.762827">
				 <ele>197.5</ele>
			 </trkpt>
			 <trkpt lat="46.962576" lon="-91.763214">
				 <ele>197.6</ele>
			 </trkpt>
			 <trkpt lat="46.962307" lon="-91.763546">
				 <ele>197.5</ele>
			 </trkpt>
			 <trkpt lat="46.962254" lon="-91.763611">
				 <ele>197.3</ele>
			 </trkpt>
			 <trkpt lat="46.957751" lon="-91.770284">
				 <ele>197</ele>
			 </trkpt>
			 <trkpt lat="46.95723" lon="-91.771036">
				 <ele>196.3</ele>
			 </trkpt>
			 <trkpt lat="46.955598" lon="-91.773374">
				 <ele>195.6</ele>
			 </trkpt>
			 <trkpt lat="46.955305" lon="-91.773792">
				 <ele>195.2</ele>
			 </trkpt>
			 <trkpt lat="46.954022" lon="-91.775702">
				 <ele>194.9</ele>
			 </trkpt>
			 <trkpt lat="46.952696" lon="-91.777657">
				 <ele>194</ele>
			 </trkpt>
			 <trkpt lat="46.95231" lon="-91.778202">
				 <ele>193.1</ele>
			 </trkpt>
			 <trkpt lat="46.951911" lon="-91.778851">
				 <ele>192.1</ele>
			 </trkpt>
			 <trkpt lat="46.951555" lon="-91.779339">
				 <ele>191.2</ele>
			 </trkpt>
			 <trkpt lat="46.950904" lon="-91.780315">
				 <ele>190.6</ele>
			 </trkpt>
			 <trkpt lat="46.949878" lon="-91.781667">
				 <ele>190.5</ele>
			 </trkpt>
			 <trkpt lat="46.949248" lon="-91.78245">
				 <ele>190.7</ele>
			 </trkpt>
			 <trkpt lat="46.949051" lon="-91.782665">
				 <ele>191.3</ele>
			 </trkpt>
			 <trkpt lat="46.948487" lon="-91.783352">
				 <ele>191.5</ele>
			 </trkpt>
			 <trkpt lat="46.947393" lon="-91.784684">
				 <ele>191.8</ele>
			 </trkpt>
			 <trkpt lat="46.946531" lon="-91.785733">
				 <ele>192</ele>
			 </trkpt>
			 <trkpt lat="46.945747" lon="-91.786753">
				 <ele>192.8</ele>
			 </trkpt>
			 <trkpt lat="46.945232" lon="-91.78754">
				 <ele>193.7</ele>
			 </trkpt>
			 <trkpt lat="46.944206" lon="-91.789046">
				 <ele>194.8</ele>
			 </trkpt>
			 <trkpt lat="46.943975" lon="-91.789424">
				 <ele>195.8</ele>
			 </trkpt>
			 <trkpt lat="46.943836" lon="-91.789682">
				 <ele>196.6</ele>
			 </trkpt>
			 <trkpt lat="46.943719" lon="-91.789928">
				 <ele>197.1</ele>
			 </trkpt>
			 <trkpt lat="46.943616" lon="-91.790218">
				 <ele>197</ele>
			 </trkpt>
			 <trkpt lat="46.943521" lon="-91.790572">
				 <ele>196.5</ele>
			 </trkpt>
			 <trkpt lat="46.943272" lon="-91.79168">
				 <ele>196.2</ele>
			 </trkpt>
			 <trkpt lat="46.943188" lon="-91.791923">
				 <ele>195.8</ele>
			 </trkpt>
			 <trkpt lat="46.94311" lon="-91.792129">
				 <ele>195.5</ele>
			 </trkpt>
			 <trkpt lat="46.943008" lon="-91.792319">
				 <ele>195.2</ele>
			 </trkpt>
			 <trkpt lat="46.942845" lon="-91.792542">
				 <ele>194.9</ele>
			 </trkpt>
			 <trkpt lat="46.942651" lon="-91.792739">
				 <ele>194.5</ele>
			 </trkpt>
			 <trkpt lat="46.942299" lon="-91.792926">
				 <ele>194.2</ele>
			 </trkpt>
			 <trkpt lat="46.941734" lon="-91.793139">
				 <ele>193.8</ele>
			 </trkpt>
			 <trkpt lat="46.941504" lon="-91.793264">
				 <ele>193.5</ele>
			 </trkpt>
			 <trkpt lat="46.941417" lon="-91.793341">
				 <ele>193.2</ele>
			 </trkpt>
			 <trkpt lat="46.941329" lon="-91.793419">
				 <ele>193</ele>
			 </trkpt>
			 <trkpt lat="46.941163" lon="-91.79364">
				 <ele>193</ele>
			 </trkpt>
			 <trkpt lat="46.940943" lon="-91.794007">
				 <ele>193</ele>
			 </trkpt>
			 <trkpt lat="46.940779" lon="-91.794379">
				 <ele>193</ele>
			 </trkpt>
			 <trkpt lat="46.940687" lon="-91.794588">
				 <ele>192.9</ele>
			 </trkpt>
			 <trkpt lat="46.940548" lon="-91.794913">
				 <ele>192.5</ele>
			 </trkpt>
			 <trkpt lat="46.938288" lon="-91.799584">
				 <ele>192.5</ele>
			 </trkpt>
			 <trkpt lat="46.937454" lon="-91.801338">
				 <ele>192.5</ele>
			 </trkpt>
			 <trkpt lat="46.937239" lon="-91.801794">
				 <ele>192.5</ele>
			 </trkpt>
			 <trkpt lat="46.936784" lon="-91.802694">
				 <ele>192.5</ele>
			 </trkpt>
			 <trkpt lat="46.936435" lon="-91.803324">
				 <ele>192.5</ele>
			 </trkpt>
			 <trkpt lat="46.934849" lon="-91.805877">
				 <ele>192.5</ele>
			 </trkpt>
			 <trkpt lat="46.933681" lon="-91.807724">
				 <ele>192.4</ele>
			 </trkpt>
			 <trkpt lat="46.932678" lon="-91.809223">
				 <ele>192.2</ele>
			 </trkpt>
			 <trkpt lat="46.931818" lon="-91.81047">
				 <ele>192</ele>
			 </trkpt>
			 <trkpt lat="46.930307" lon="-91.812699">
				 <ele>191.8</ele>
			 </trkpt>
			 <trkpt lat="46.93003" lon="-91.813202">
				 <ele>192</ele>
			 </trkpt>
			 <trkpt lat="46.9298" lon="-91.813715">
				 <ele>192</ele>
			 </trkpt>
			 <trkpt lat="46.929618" lon="-91.814211">
				 <ele>192.1</ele>
			 </trkpt>
			 <trkpt lat="46.929458" lon="-91.814762">
				 <ele>192.4</ele>
			 </trkpt>
			 <trkpt lat="46.929336" lon="-91.815273">
				 <ele>192.9</ele>
			 </trkpt>
			 <trkpt lat="46.929242" lon="-91.815854">
				 <ele>193.5</ele>
			 </trkpt>
			 <trkpt lat="46.929189" lon="-91.816384">
				 <ele>194</ele>
			 </trkpt>
			 <trkpt lat="46.929167" lon="-91.816955">
				 <ele>194.9</ele>
			 </trkpt>
			 <trkpt lat="46.929187" lon="-91.817665">
				 <ele>195.8</ele>
			 </trkpt>
			 <trkpt lat="46.929263" lon="-91.819092">
				 <ele>196.7</ele>
			 </trkpt>
			 <trkpt lat="46.929322" lon="-91.820719">
				 <ele>197.6</ele>
			 </trkpt>
			 <trkpt lat="46.929299" lon="-91.824687">
				 <ele>198.5</ele>
			 </trkpt>
			 <trkpt lat="46.92927" lon="-91.827566">
				 <ele>199.1</ele>
			 </trkpt>
			 <trkpt lat="46.929241" lon="-91.830682">
				 <ele>199.6</ele>
			 </trkpt>
			 <trkpt lat="46.929197" lon="-91.831338">
				 <ele>199.7</ele>
			 </trkpt>
			 <trkpt lat="46.92919" lon="-91.831458">
				 <ele>200.3</ele>
			 </trkpt>
			 <trkpt lat="46.929123" lon="-91.832037">
				 <ele>201</ele>
			 </trkpt>
			 <trkpt lat="46.929012" lon="-91.832644">
				 <ele>201.8</ele>
			 </trkpt>
			 <trkpt lat="46.928799" lon="-91.833652">
				 <ele>202.3</ele>
			 </trkpt>
			 <trkpt lat="46.927523" lon="-91.839551">
				 <ele>202.7</ele>
			 </trkpt>
			 <trkpt lat="46.926787" lon="-91.842497">
				 <ele>203.2</ele>
			 </trkpt>
			 <trkpt lat="46.925612" lon="-91.847001">
				 <ele>203.5</ele>
			 </trkpt>
			 <trkpt lat="46.925308" lon="-91.848171">
				 <ele>203.7</ele>
			 </trkpt>
			 <trkpt lat="46.925095" lon="-91.848812">
				 <ele>203.1</ele>
			 </trkpt>
			 <trkpt lat="46.924929" lon="-91.8492">
				 <ele>202.5</ele>
			 </trkpt>
			 <trkpt lat="46.924875" lon="-91.849329">
				 <ele>202.8</ele>
			 </trkpt>
			 <trkpt lat="46.924643" lon="-91.84978">
				 <ele>202.6</ele>
			 </trkpt>
			 <trkpt lat="46.924337" lon="-91.850278">
				 <ele>202.4</ele>
			 </trkpt>
			 <trkpt lat="46.924039" lon="-91.850673">
				 <ele>202.2</ele>
			 </trkpt>
			 <trkpt lat="46.923938" lon="-91.850791">
				 <ele>202</ele>
			 </trkpt>
			 <trkpt lat="46.923584" lon="-91.851156">
				 <ele>201.8</ele>
			 </trkpt>
			 <trkpt lat="46.923227" lon="-91.851467">
				 <ele>201.5</ele>
			 </trkpt>
			 <trkpt lat="46.922949" lon="-91.85165">
				 <ele>200.5</ele>
			 </trkpt>
			 <trkpt lat="46.922768" lon="-91.85177">
				 <ele>199.5</ele>
			 </trkpt>
			 <trkpt lat="46.922433" lon="-91.851922">
				 <ele>199.5</ele>
			 </trkpt>
			 <trkpt lat="46.921693" lon="-91.852148">
				 <ele>199.2</ele>
			 </trkpt>
			 <trkpt lat="46.921143" lon="-91.852194">
				 <ele>198.1</ele>
			 </trkpt>
			 <trkpt lat="46.920219" lon="-91.852158">
				 <ele>196.7</ele>
			 </trkpt>
			 <trkpt lat="46.919599" lon="-91.852225">
				 <ele>195.4</ele>
			 </trkpt>
			 <trkpt lat="46.918977" lon="-91.852378">
				 <ele>193.9</ele>
			 </trkpt>
			 <trkpt lat="46.91823" lon="-91.852741">
				 <ele>192.4</ele>
			 </trkpt>
			 <trkpt lat="46.917353" lon="-91.853277">
				 <ele>190.7</ele>
			 </trkpt>
			 <trkpt lat="46.915765" lon="-91.854302">
				 <ele>189.4</ele>
			 </trkpt>
			 <trkpt lat="46.91565" lon="-91.854376">
				 <ele>188.5</ele>
			 </trkpt>
			 <trkpt lat="46.915254" lon="-91.854691">
				 <ele>188</ele>
			 </trkpt>
			 <trkpt lat="46.914637" lon="-91.855312">
				 <ele>187.5</ele>
			 </trkpt>
			 <trkpt lat="46.914303" lon="-91.855721">
				 <ele>187.1</ele>
			 </trkpt>
			 <trkpt lat="46.914045" lon="-91.856075">
				 <ele>186.8</ele>
			 </trkpt>
			 <trkpt lat="46.913824" lon="-91.856421">
				 <ele>186.6</ele>
			 </trkpt>
			 <trkpt lat="46.91352" lon="-91.85696">
				 <ele>186.4</ele>
			 </trkpt>
			 <trkpt lat="46.913268" lon="-91.857437">
				 <ele>186.2</ele>
			 </trkpt>
			 <trkpt lat="46.912697" lon="-91.858615">
				 <ele>186.1</ele>
			 </trkpt>
			 <trkpt lat="46.912359" lon="-91.85922">
				 <ele>186.3</ele>
			 </trkpt>
			 <trkpt lat="46.911887" lon="-91.859945">
				 <ele>186.4</ele>
			 </trkpt>
			 <trkpt lat="46.911422" lon="-91.86066">
				 <ele>186.5</ele>
			 </trkpt>
			 <trkpt lat="46.911011" lon="-91.861278">
				 <ele>186.7</ele>
			 </trkpt>
			 <trkpt lat="46.91068" lon="-91.861878">
				 <ele>187</ele>
			 </trkpt>
			 <trkpt lat="46.910445" lon="-91.862469">
				 <ele>187.3</ele>
			 </trkpt>
			 <trkpt lat="46.910133" lon="-91.863515">
				 <ele>187.6</ele>
			 </trkpt>
			 <trkpt lat="46.909737" lon="-91.864875">
				 <ele>188.1</ele>
			 </trkpt>
			 <trkpt lat="46.909339" lon="-91.866219">
				 <ele>188.7</ele>
			 </trkpt>
			 <trkpt lat="46.909185" lon="-91.866738">
				 <ele>189.5</ele>
			 </trkpt>
			 <trkpt lat="46.909032" lon="-91.867278">
				 <ele>190.1</ele>
			 </trkpt>
			 <trkpt lat="46.90892" lon="-91.867852">
				 <ele>190.7</ele>
			 </trkpt>
			 <trkpt lat="46.908846" lon="-91.868575">
				 <ele>191.4</ele>
			 </trkpt>
			 <trkpt lat="46.908766" lon="-91.871192">
				 <ele>192.1</ele>
			 </trkpt>
			 <trkpt lat="46.90871" lon="-91.872245">
				 <ele>192.5</ele>
			 </trkpt>
			 <trkpt lat="46.908625" lon="-91.873326">
				 <ele>193.2</ele>
			 </trkpt>
			 <trkpt lat="46.908374" lon="-91.874884">
				 <ele>193.9</ele>
			 </trkpt>
			 <trkpt lat="46.908249" lon="-91.875466">
				 <ele>194.5</ele>
			 </trkpt>
			 <trkpt lat="46.907879" lon="-91.877142">
				 <ele>195</ele>
			 </trkpt>
			 <trkpt lat="46.907748" lon="-91.877604">
				 <ele>195.4</ele>
			 </trkpt>
			 <trkpt lat="46.907391" lon="-91.878871">
				 <ele>195.6</ele>
			 </trkpt>
			 <trkpt lat="46.907078" lon="-91.879915">
				 <ele>196</ele>
			 </trkpt>
			 <trkpt lat="46.906376" lon="-91.881436">
				 <ele>195.4</ele>
			 </trkpt>
			 <trkpt lat="46.905427" lon="-91.883405">
				 <ele>194.6</ele>
			 </trkpt>
			 <trkpt lat="46.90429" lon="-91.885808">
				 <ele>194.3</ele>
			 </trkpt>
			 <trkpt lat="46.903906" lon="-91.886557">
				 <ele>194.2</ele>
			 </trkpt>
			 <trkpt lat="46.90361" lon="-91.887223">
				 <ele>193.8</ele>
			 </trkpt>
			 <trkpt lat="46.903216" lon="-91.88807">
				 <ele>193.5</ele>
			 </trkpt>
			 <trkpt lat="46.90317" lon="-91.88817">
				 <ele>192.9</ele>
			 </trkpt>
			 <trkpt lat="46.90299" lon="-91.888555">
				 <ele>192</ele>
			 </trkpt>
			 <trkpt lat="46.902857" lon="-91.888842">
				 <ele>191.5</ele>
			 </trkpt>
			 <trkpt lat="46.902357" lon="-91.889627">
				 <ele>191.2</ele>
			 </trkpt>
			 <trkpt lat="46.901628" lon="-91.890374">
				 <ele>190.7</ele>
			 </trkpt>
			 <trkpt lat="46.90059" lon="-91.891406">
				 <ele>191.2</ele>
			 </trkpt>
			 <trkpt lat="46.89977" lon="-91.892564">
				 <ele>191.7</ele>
			 </trkpt>
			 <trkpt lat="46.89948" lon="-91.893058">
				 <ele>191.8</ele>
			 </trkpt>
			 <trkpt lat="46.89873" lon="-91.894332">
				 <ele>191.8</ele>
			 </trkpt>
			 <trkpt lat="46.898047" lon="-91.895457">
				 <ele>191.7</ele>
			 </trkpt>
			 <trkpt lat="46.897517" lon="-91.896202">
				 <ele>191.6</ele>
			 </trkpt>
			 <trkpt lat="46.897466" lon="-91.896259">
				 <ele>191.5</ele>
			 </trkpt>
			 <trkpt lat="46.896772" lon="-91.897048">
				 <ele>191.9</ele>
			 </trkpt>
			 <trkpt lat="46.896477" lon="-91.897487">
				 <ele>191.6</ele>
			 </trkpt>
			 <trkpt lat="46.894133" lon="-91.901409">
				 <ele>191.3</ele>
			 </trkpt>
			 <trkpt lat="46.892808" lon="-91.903704">
				 <ele>190.9</ele>
			 </trkpt>
			 <trkpt lat="46.892535" lon="-91.904166">
				 <ele>190.4</ele>
			 </trkpt>
			 <trkpt lat="46.891168" lon="-91.90611">
				 <ele>189.8</ele>
			 </trkpt>
			 <trkpt lat="46.890192" lon="-91.907346">
				 <ele>189.4</ele>
			 </trkpt>
			 <trkpt lat="46.889254" lon="-91.908425">
				 <ele>188.8</ele>
			 </trkpt>
			 <trkpt lat="46.888527" lon="-91.909194">
				 <ele>188.4</ele>
			 </trkpt>
			 <trkpt lat="46.887886" lon="-91.909832">
				 <ele>187.8</ele>
			 </trkpt>
			 <trkpt lat="46.886723" lon="-91.910909">
				 <ele>187.5</ele>
			 </trkpt>
			 <trkpt lat="46.885665" lon="-91.911923">
				 <ele>187.3</ele>
			 </trkpt>
			 <trkpt lat="46.885382" lon="-91.912194">
				 <ele>187</ele>
			 </trkpt>
			 <trkpt lat="46.884852" lon="-91.912823">
				 <ele>186.7</ele>
			 </trkpt>
			 <trkpt lat="46.884536" lon="-91.913252">
				 <ele>186.6</ele>
			 </trkpt>
			 <trkpt lat="46.884241" lon="-91.913706">
				 <ele>186.5</ele>
			 </trkpt>
			 <trkpt lat="46.884032" lon="-91.914051">
				 <ele>186.5</ele>
			 </trkpt>
			 <trkpt lat="46.883897" lon="-91.914292">
				 <ele>186.4</ele>
			 </trkpt>
			 <trkpt lat="46.883831" lon="-91.914412">
				 <ele>186.3</ele>
			 </trkpt>
			 <trkpt lat="46.883639" lon="-91.914781">
				 <ele>186.4</ele>
			 </trkpt>
			 <trkpt lat="46.883328" lon="-91.915429">
				 <ele>186.5</ele>
			 </trkpt>
			 <trkpt lat="46.881892" lon="-91.918549">
				 <ele>186.5</ele>
			 </trkpt>
			 <trkpt lat="46.881766" lon="-91.91886">
				 <ele>186.6</ele>
			 </trkpt>
			 <trkpt lat="46.881643" lon="-91.919185">
				 <ele>186.8</ele>
			 </trkpt>
			 <trkpt lat="46.88155" lon="-91.91955">
				 <ele>187</ele>
			 </trkpt>
			 <trkpt lat="46.881425" lon="-91.920102">
				 <ele>187.1</ele>
			 </trkpt>
			 <trkpt lat="46.881278" lon="-91.920665">
				 <ele>187.3</ele>
			 </trkpt>
			 <trkpt lat="46.881156" lon="-91.921046">
				 <ele>187.5</ele>
			 </trkpt>
			 <trkpt lat="46.881044" lon="-91.921317">
				 <ele>187.6</ele>
			 </trkpt>
			 <trkpt lat="46.880871" lon="-91.921736">
				 <ele>188</ele>
			 </trkpt>
			 <trkpt lat="46.880719" lon="-91.922151">
				 <ele>188.3</ele>
			 </trkpt>
			 <trkpt lat="46.880646" lon="-91.92242">
				 <ele>188.6</ele>
			 </trkpt>
			 <trkpt lat="46.880604" lon="-91.922728">
				 <ele>188.9</ele>
			 </trkpt>
			 <trkpt lat="46.880589" lon="-91.92305">
				 <ele>189.2</ele>
			 </trkpt>
			 <trkpt lat="46.880585" lon="-91.92379">
				 <ele>189.5</ele>
			 </trkpt>
			 <trkpt lat="46.880567" lon="-91.92416">
				 <ele>189.6</ele>
			 </trkpt>
			 <trkpt lat="46.880497" lon="-91.924632">
				 <ele>189.6</ele>
			 </trkpt>
			 <trkpt lat="46.880413" lon="-91.924997">
				 <ele>189.7</ele>
			 </trkpt>
			 <trkpt lat="46.88029" lon="-91.925343">
				 <ele>189.8</ele>
			 </trkpt>
			 <trkpt lat="46.8801" lon="-91.925754">
				 <ele>189.8</ele>
			 </trkpt>
			 <trkpt lat="46.879719" lon="-91.926401">
				 <ele>189.7</ele>
			 </trkpt>
			 <trkpt lat="46.875935" lon="-91.932841">
				 <ele>189.6</ele>
			 </trkpt>
			 <trkpt lat="46.875614" lon="-91.933385">
				 <ele>189.5</ele>
			 </trkpt>
			 <trkpt lat="46.875489" lon="-91.933604">
				 <ele>189.5</ele>
			 </trkpt>
			 <trkpt lat="46.87499" lon="-91.934355">
				 <ele>189.3</ele>
			 </trkpt>
			 <trkpt lat="46.874645" lon="-91.934833">
				 <ele>189.1</ele>
			 </trkpt>
			 <trkpt lat="46.874585" lon="-91.934912">
				 <ele>189.1</ele>
			 </trkpt>
			 <trkpt lat="46.874322" lon="-91.935275">
				 <ele>189.3</ele>
			 </trkpt>
			 <trkpt lat="46.874056" lon="-91.935727">
				 <ele>189.4</ele>
			 </trkpt>
			 <trkpt lat="46.873948" lon="-91.935992">
				 <ele>189.5</ele>
			 </trkpt>
			 <trkpt lat="46.873901" lon="-91.936142">
				 <ele>189.7</ele>
			 </trkpt>
			 <trkpt lat="46.873881" lon="-91.936205">
				 <ele>190</ele>
			 </trkpt>
			 <trkpt lat="46.873852" lon="-91.936297">
				 <ele>190.2</ele>
			 </trkpt>
			 <trkpt lat="46.873774" lon="-91.936705">
				 <ele>190.3</ele>
			 </trkpt>
			 <trkpt lat="46.873696" lon="-91.937207">
				 <ele>190.5</ele>
			 </trkpt>
			 <trkpt lat="46.873616" lon="-91.93773">
				 <ele>190.7</ele>
			 </trkpt>
			 <trkpt lat="46.873529" lon="-91.938176">
				 <ele>191</ele>
			 </trkpt>
			 <trkpt lat="46.873442" lon="-91.938548">
				 <ele>191.2</ele>
			 </trkpt>
			 <trkpt lat="46.873251" lon="-91.939234">
				 <ele>191.4</ele>
			 </trkpt>
			 <trkpt lat="46.873085" lon="-91.939638">
				 <ele>191.5</ele>
			 </trkpt>
			 <trkpt lat="46.872926" lon="-91.940025">
				 <ele>191.5</ele>
			 </trkpt>
			 <trkpt lat="46.872769" lon="-91.940349">
				 <ele>191.5</ele>
			 </trkpt>
			 <trkpt lat="46.872628" lon="-91.940609">
				 <ele>191.3</ele>
			 </trkpt>
			 <trkpt lat="46.872511" lon="-91.940805">
				 <ele>191.1</ele>
			 </trkpt>
			 <trkpt lat="46.871967" lon="-91.941657">
				 <ele>190.9</ele>
			 </trkpt>
			 <trkpt lat="46.871619" lon="-91.942197">
				 <ele>190.5</ele>
			 </trkpt>
			 <trkpt lat="46.871092" lon="-91.943015">
				 <ele>190.2</ele>
			 </trkpt>
			 <trkpt lat="46.8709" lon="-91.943331">
				 <ele>190</ele>
			 </trkpt>
			 <trkpt lat="46.870765" lon="-91.943593">
				 <ele>189.8</ele>
			 </trkpt>
			 <trkpt lat="46.870729" lon="-91.94368">
				 <ele>189.6</ele>
			 </trkpt>
			 <trkpt lat="46.870641" lon="-91.943887">
				 <ele>189.5</ele>
			 </trkpt>
			 <trkpt lat="46.870567" lon="-91.944093">
				 <ele>189.5</ele>
			 </trkpt>
			 <trkpt lat="46.870269" lon="-91.944968">
				 <ele>189.5</ele>
			 </trkpt>
			 <trkpt lat="46.870087" lon="-91.945509">
				 <ele>189.5</ele>
			 </trkpt>
			 <trkpt lat="46.86907" lon="-91.948527">
				 <ele>189.7</ele>
			 </trkpt>
			 <trkpt lat="46.869034" lon="-91.948633">
				 <ele>190</ele>
			 </trkpt>
			 <trkpt lat="46.869005" lon="-91.948721">
				 <ele>189.9</ele>
			 </trkpt>
			 <trkpt lat="46.868821" lon="-91.949122">
				 <ele>189.9</ele>
			 </trkpt>
			 <trkpt lat="46.867414" lon="-91.952159">
				 <ele>189.6</ele>
			 </trkpt>
			 <trkpt lat="46.867067" lon="-91.952846">
				 <ele>189.5</ele>
			 </trkpt>
			 <trkpt lat="46.866599" lon="-91.953552">
				 <ele>189.4</ele>
			 </trkpt>
			 <trkpt lat="46.864254" lon="-91.956918">
				 <ele>189.5</ele>
			 </trkpt>
			 <trkpt lat="46.863827" lon="-91.95755">
				 <ele>189.5</ele>
			 </trkpt>
			 <trkpt lat="46.863462" lon="-91.958088">
				 <ele>189.5</ele>
			 </trkpt>
			 <trkpt lat="46.863046" lon="-91.958841">
				 <ele>189.5</ele>
			 </trkpt>
			 <trkpt lat="46.862681" lon="-91.959501">
				 <ele>189.2</ele>
			 </trkpt>
			 <trkpt lat="46.861927" lon="-91.960865">
				 <ele>188.9</ele>
			 </trkpt>
			 <trkpt lat="46.860496" lon="-91.962922">
				 <ele>189</ele>
			 </trkpt>
			 <trkpt lat="46.859277" lon="-91.964659">
				 <ele>189.1</ele>
			 </trkpt>
			 <trkpt lat="46.858522" lon="-91.965752">
				 <ele>189.3</ele>
			 </trkpt>
			 <trkpt lat="46.858289" lon="-91.966107">
				 <ele>189.4</ele>
			 </trkpt>
			 <trkpt lat="46.858242" lon="-91.966193">
				 <ele>189.5</ele>
			 </trkpt>
			 <trkpt lat="46.858115" lon="-91.966425">
				 <ele>189.4</ele>
			 </trkpt>
			 <trkpt lat="46.857966" lon="-91.966775">
				 <ele>189.3</ele>
			 </trkpt>
			 <trkpt lat="46.857446" lon="-91.968112">
				 <ele>189.4</ele>
			 </trkpt>
			 <trkpt lat="46.857082" lon="-91.96905">
				 <ele>189.4</ele>
			 </trkpt>
			 <trkpt lat="46.856908" lon="-91.969592">
				 <ele>189.5</ele>
			 </trkpt>
			 <trkpt lat="46.85676" lon="-91.970125">
				 <ele>189.6</ele>
			 </trkpt>
			 <trkpt lat="46.856259" lon="-91.972137">
				 <ele>189.9</ele>
			 </trkpt>
			 <trkpt lat="46.856169" lon="-91.972498">
				 <ele>190.1</ele>
			 </trkpt>
			 <trkpt lat="46.856077" lon="-91.972869">
				 <ele>190.3</ele>
			 </trkpt>
			 <trkpt lat="46.856024" lon="-91.973073">
				 <ele>190.5</ele>
			 </trkpt>
			 <trkpt lat="46.855609" lon="-91.974759">
				 <ele>190.5</ele>
			 </trkpt>
			 <trkpt lat="46.855436" lon="-91.975288">
				 <ele>190.7</ele>
			 </trkpt>
			 <trkpt lat="46.855197" lon="-91.975819">
				 <ele>191</ele>
			 </trkpt>
			 <trkpt lat="46.854942" lon="-91.976265">
				 <ele>191.3</ele>
			 </trkpt>
			 <trkpt lat="46.854844" lon="-91.976412">
				 <ele>191.8</ele>
			 </trkpt>
			 <trkpt lat="46.854684" lon="-91.97665">
				 <ele>192.4</ele>
			 </trkpt>
			 <trkpt lat="46.853824" lon="-91.977816">
				 <ele>192.6</ele>
			 </trkpt>
			 <trkpt lat="46.85363" lon="-91.978089">
				 <ele>193.4</ele>
			 </trkpt>
			 <trkpt lat="46.853344" lon="-91.97858">
				 <ele>194.2</ele>
			 </trkpt>
			 <trkpt lat="46.850096" lon="-91.985186">
				 <ele>194.9</ele>
			 </trkpt>
			 <trkpt lat="46.849552" lon="-91.986134">
				 <ele>195.5</ele>
			 </trkpt>
			 <trkpt lat="46.849143" lon="-91.98679">
				 <ele>196.3</ele>
			 </trkpt>
			 <trkpt lat="46.848561" lon="-91.987733">
				 <ele>196.7</ele>
			 </trkpt>
			 <trkpt lat="46.84819" lon="-91.988311">
				 <ele>197</ele>
			 </trkpt>
			 <trkpt lat="46.847714" lon="-91.989018">
				 <ele>197.3</ele>
			 </trkpt>
			 <trkpt lat="46.847533" lon="-91.989287">
				 <ele>197.3</ele>
			 </trkpt>
			 <trkpt lat="46.846825" lon="-91.990297">
				 <ele>197.3</ele>
			 </trkpt>
			 <trkpt lat="46.846669" lon="-91.990521">
				 <ele>197.5</ele>
			 </trkpt>
			 <trkpt lat="46.843356" lon="-91.995261">
				 <ele>197.2</ele>
			 </trkpt>
			 <trkpt lat="46.843074" lon="-91.995664">
				 <ele>196.7</ele>
			 </trkpt>
			 <trkpt lat="46.842985" lon="-91.995755">
				 <ele>196.4</ele>
			 </trkpt>
			 <trkpt lat="46.842878" lon="-91.995842">
				 <ele>196.1</ele>
			 </trkpt>
			 <trkpt lat="46.842638" lon="-91.995993">
				 <ele>195.8</ele>
			 </trkpt>
			 <trkpt lat="46.842335" lon="-91.996207">
				 <ele>195.5</ele>
			 </trkpt>
			 <trkpt lat="46.842134" lon="-91.996483">
				 <ele>195.5</ele>
			 </trkpt>
			 <trkpt lat="46.842097" lon="-91.996624">
				 <ele>195.4</ele>
			 </trkpt>
			 <trkpt lat="46.841831" lon="-91.997153">
				 <ele>195.3</ele>
			 </trkpt>
			 <trkpt lat="46.84177" lon="-91.997274">
				 <ele>195.2</ele>
			 </trkpt>
			 <trkpt lat="46.841452" lon="-91.997739">
				 <ele>194.8</ele>
			 </trkpt>
			 <trkpt lat="46.841134" lon="-91.998204">
				 <ele>194.6</ele>
			 </trkpt>
			 <trkpt lat="46.840932" lon="-91.998499">
				 <ele>194.5</ele>
			 </trkpt>
			 <trkpt lat="46.840634" lon="-91.998898">
				 <ele>194</ele>
			 </trkpt>
			 <trkpt lat="46.840255" lon="-91.999253">
				 <ele>193.5</ele>
			 </trkpt>
			 <trkpt lat="46.839877" lon="-91.999607">
				 <ele>193.1</ele>
			 </trkpt>
			 <trkpt lat="46.839498" lon="-91.999961">
				 <ele>192.6</ele>
			 </trkpt>
			 <trkpt lat="46.839244" lon="-92.000199">
				 <ele>192.2</ele>
			 </trkpt>
			 <trkpt lat="46.838894" lon="-92.000612">
				 <ele>191.7</ele>
			 </trkpt>
			 <trkpt lat="46.838584" lon="-92.000979">
				 <ele>191.3</ele>
			 </trkpt>
			 <trkpt lat="46.838316" lon="-92.001439">
				 <ele>190.8</ele>
			 </trkpt>
			 <trkpt lat="46.838284" lon="-92.001542">
				 <ele>190.5</ele>
			 </trkpt>
			 <trkpt lat="46.838247" lon="-92.001617">
				 <ele>190.3</ele>
			 </trkpt>
			 <trkpt lat="46.83821" lon="-92.001693">
				 <ele>190</ele>
			 </trkpt>
			 <trkpt lat="46.838174" lon="-92.001768">
				 <ele>190</ele>
			 </trkpt>
			 <trkpt lat="46.838137" lon="-92.001843">
				 <ele>189.9</ele>
			 </trkpt>
			 <trkpt lat="46.838101" lon="-92.001919">
				 <ele>189.8</ele>
			 </trkpt>
			 <trkpt lat="46.838064" lon="-92.001994">
				 <ele>189.7</ele>
			 </trkpt>
			 <trkpt lat="46.838028" lon="-92.002069">
				 <ele>189.6</ele>
			 </trkpt>
			 <trkpt lat="46.837997" lon="-92.002152">
				 <ele>189.5</ele>
			 </trkpt>
			 <trkpt lat="46.837967" lon="-92.002235">
				 <ele>189.5</ele>
			 </trkpt>
			 <trkpt lat="46.837936" lon="-92.002318">
				 <ele>189.5</ele>
			 </trkpt>
			 <trkpt lat="46.837906" lon="-92.002401">
				 <ele>189.5</ele>
			 </trkpt>
			 <trkpt lat="46.837875" lon="-92.002484">
				 <ele>189.5</ele>
			 </trkpt>
			 <trkpt lat="46.837845" lon="-92.002567">
				 <ele>189.5</ele>
			 </trkpt>
			 <trkpt lat="46.837814" lon="-92.00265">
				 <ele>189.5</ele>
			 </trkpt>
			 <trkpt lat="46.837784" lon="-92.002733">
				 <ele>189.5</ele>
			 </trkpt>
			 <trkpt lat="46.837754" lon="-92.002828">
				 <ele>189.6</ele>
			 </trkpt>
			 <trkpt lat="46.837724" lon="-92.002923">
				 <ele>189.7</ele>
			 </trkpt>
			 <trkpt lat="46.837694" lon="-92.003018">
				 <ele>189.8</ele>
			 </trkpt>
			 <trkpt lat="46.837664" lon="-92.003113">
				 <ele>189.9</ele>
			 </trkpt>
			 <trkpt lat="46.837634" lon="-92.003207">
				 <ele>190</ele>
			 </trkpt>
			 <trkpt lat="46.837604" lon="-92.003302">
				 <ele>190</ele>
			 </trkpt>
			 <trkpt lat="46.837574" lon="-92.003397">
				 <ele>189.9</ele>
			 </trkpt>
			 <trkpt lat="46.837545" lon="-92.003492">
				 <ele>189.8</ele>
			 </trkpt>
			 <trkpt lat="46.837515" lon="-92.003587">
				 <ele>189.7</ele>
			 </trkpt>
			 <trkpt lat="46.837485" lon="-92.003682">
				 <ele>189.6</ele>
			 </trkpt>
			 <trkpt lat="46.837455" lon="-92.003777">
				 <ele>189.5</ele>
			 </trkpt>
			 <trkpt lat="46.837425" lon="-92.003872">
				 <ele>189.5</ele>
			 </trkpt>
			 <trkpt lat="46.837395" lon="-92.003966">
				 <ele>189.4</ele>
			 </trkpt>
			 <trkpt lat="46.837365" lon="-92.004061">
				 <ele>189.3</ele>
			 </trkpt>
			 <trkpt lat="46.837336" lon="-92.004156">
				 <ele>189.2</ele>
			 </trkpt>
			 <trkpt lat="46.837306" lon="-92.004251">
				 <ele>189.2</ele>
			 </trkpt>
			 <trkpt lat="46.837276" lon="-92.004346">
				 <ele>189.2</ele>
			 </trkpt>
			 <trkpt lat="46.837246" lon="-92.004441">
				 <ele>189.3</ele>
			 </trkpt>
			 <trkpt lat="46.837216" lon="-92.004536">
				 <ele>189.4</ele>
			 </trkpt>
			 <trkpt lat="46.837186" lon="-92.004631">
				 <ele>189.5</ele>
			 </trkpt>
			 <trkpt lat="46.837156" lon="-92.004725">
				 <ele>189.5</ele>
			 </trkpt>
			 <trkpt lat="46.837126" lon="-92.00482">
				 <ele>189.6</ele>
			 </trkpt>
			 <trkpt lat="46.837097" lon="-92.004915">
				 <ele>189.7</ele>
			 </trkpt>
			 <trkpt lat="46.837067" lon="-92.00501">
				 <ele>189.8</ele>
			 </trkpt>
			 <trkpt lat="46.837037" lon="-92.005105">
				 <ele>189.8</ele>
			 </trkpt>
			 <trkpt lat="46.837007" lon="-92.0052">
				 <ele>189.8</ele>
			 </trkpt>
			 <trkpt lat="46.836977" lon="-92.005295">
				 <ele>189.7</ele>
			 </trkpt>
			 <trkpt lat="46.836951" lon="-92.005388">
				 <ele>189.5</ele>
			 </trkpt>
			 <trkpt lat="46.836925" lon="-92.005482">
				 <ele>189.1</ele>
			 </trkpt>
			 <trkpt lat="46.836898" lon="-92.005576">
				 <ele>188.6</ele>
			 </trkpt>
			 <trkpt lat="46.836872" lon="-92.00567">
				 <ele>188.1</ele>
			 </trkpt>
			 <trkpt lat="46.836846" lon="-92.005764">
				 <ele>187.5</ele>
			 </trkpt>
			 <trkpt lat="46.83682" lon="-92.005858">
				 <ele>187</ele>
			 </trkpt>
			 <trkpt lat="46.836793" lon="-92.005952">
				 <ele>186.5</ele>
			 </trkpt>
			 <trkpt lat="46.836767" lon="-92.006046">
				 <ele>186.3</ele>
			 </trkpt>
			 <trkpt lat="46.836741" lon="-92.006139">
				 <ele>186.3</ele>
			 </trkpt>
			 <trkpt lat="46.836715" lon="-92.006233">
				 <ele>186.4</ele>
			 </trkpt>
			 <trkpt lat="46.836702" lon="-92.006324">
				 <ele>186.5</ele>
			 </trkpt>
			 <trkpt lat="46.836689" lon="-92.006415">
				 <ele>186.7</ele>
			 </trkpt>
			 <trkpt lat="46.836676" lon="-92.006506">
				 <ele>187.1</ele>
			 </trkpt>
			 <trkpt lat="46.836663" lon="-92.006597">
				 <ele>187.5</ele>
			 </trkpt>
			 <trkpt lat="46.83665" lon="-92.006687">
				 <ele>188.1</ele>
			 </trkpt>
			 <trkpt lat="46.836638" lon="-92.006778">
				 <ele>188.7</ele>
			 </trkpt>
			 <trkpt lat="46.836625" lon="-92.006869">
				 <ele>189.4</ele>
			 </trkpt>
			 <trkpt lat="46.836616" lon="-92.00697">
				 <ele>189.9</ele>
			 </trkpt>
			 <trkpt lat="46.836606" lon="-92.007071">
				 <ele>190.3</ele>
			 </trkpt>
			 <trkpt lat="46.836597" lon="-92.007172">
				 <ele>190.5</ele>
			 </trkpt>
			 <trkpt lat="46.836588" lon="-92.007273">
				 <ele>190.5</ele>
			 </trkpt>
			 <trkpt lat="46.836579" lon="-92.007374">
				 <ele>190.6</ele>
			 </trkpt>
			 <trkpt lat="46.83657" lon="-92.007475">
				 <ele>190.7</ele>
			 </trkpt>
			 <trkpt lat="46.836561" lon="-92.007576">
				 <ele>190.8</ele>
			 </trkpt>
			 <trkpt lat="46.836551" lon="-92.007677">
				 <ele>190.9</ele>
			 </trkpt>
			 <trkpt lat="46.836542" lon="-92.007778">
				 <ele>191</ele>
			 </trkpt>
			 <trkpt lat="46.836533" lon="-92.007879">
				 <ele>191</ele>
			 </trkpt>
			 <trkpt lat="46.836524" lon="-92.00798">
				 <ele>191</ele>
			 </trkpt>
			 <trkpt lat="46.836515" lon="-92.008081">
				 <ele>191</ele>
			 </trkpt>
			 <trkpt lat="46.836506" lon="-92.008182">
				 <ele>191</ele>
			 </trkpt>
			 <trkpt lat="46.836496" lon="-92.008282">
				 <ele>191</ele>
			 </trkpt>
			 <trkpt lat="46.836487" lon="-92.008383">
				 <ele>191</ele>
			 </trkpt>
			 <trkpt lat="46.836478" lon="-92.008484">
				 <ele>191</ele>
			 </trkpt>
			 <trkpt lat="46.836454" lon="-92.008581">
				 <ele>191</ele>
			 </trkpt>
			 <trkpt lat="46.836431" lon="-92.008678">
				 <ele>191</ele>
			 </trkpt>
			 <trkpt lat="46.836407" lon="-92.008775">
				 <ele>191</ele>
			 </trkpt>
			 <trkpt lat="46.836383" lon="-92.008873">
				 <ele>191</ele>
			 </trkpt>
			 <trkpt lat="46.836359" lon="-92.00897">
				 <ele>191</ele>
			 </trkpt>
			 <trkpt lat="46.836336" lon="-92.009067">
				 <ele>191</ele>
			 </trkpt>
			 <trkpt lat="46.836312" lon="-92.009164">
				 <ele>190.9</ele>
			 </trkpt>
			 <trkpt lat="46.836284" lon="-92.00926">
				 <ele>190.8</ele>
			 </trkpt>
			 <trkpt lat="46.836256" lon="-92.009357">
				 <ele>190.7</ele>
			 </trkpt>
			 <trkpt lat="46.836228" lon="-92.009454">
				 <ele>190.6</ele>
			 </trkpt>
			 <trkpt lat="46.8362" lon="-92.009551">
				 <ele>190.5</ele>
			 </trkpt>
			 <trkpt lat="46.836172" lon="-92.009648">
				 <ele>190.5</ele>
			 </trkpt>
			 <trkpt lat="46.836144" lon="-92.009745">
				 <ele>190.4</ele>
			 </trkpt>
			 <trkpt lat="46.836116" lon="-92.009842">
				 <ele>190.3</ele>
			 </trkpt>
			 <trkpt lat="46.836088" lon="-92.009938">
				 <ele>190.2</ele>
			 </trkpt>
			 <trkpt lat="46.836061" lon="-92.010035">
				 <ele>190.1</ele>
			 </trkpt>
			 <trkpt lat="46.836033" lon="-92.010132">
				 <ele>190</ele>
			 </trkpt>
			 <trkpt lat="46.836005" lon="-92.010229">
				 <ele>190</ele>
			 </trkpt>
			 <trkpt lat="46.835977" lon="-92.010326">
				 <ele>190</ele>
			 </trkpt>
			 <trkpt lat="46.835949" lon="-92.010423">
				 <ele>190</ele>
			 </trkpt>
			 <trkpt lat="46.835921" lon="-92.01052">
				 <ele>190</ele>
			 </trkpt>
			 <trkpt lat="46.835893" lon="-92.010617">
				 <ele>190</ele>
			 </trkpt>
			 <trkpt lat="46.835865" lon="-92.010713">
				 <ele>190</ele>
			 </trkpt>
			 <trkpt lat="46.835837" lon="-92.01081">
				 <ele>190</ele>
			 </trkpt>
			 <trkpt lat="46.835809" lon="-92.010907">
				 <ele>190</ele>
			 </trkpt>
			 <trkpt lat="46.835781" lon="-92.011004">
				 <ele>190</ele>
			 </trkpt>
			 <trkpt lat="46.835753" lon="-92.011101">
				 <ele>190</ele>
			 </trkpt>
			 <trkpt lat="46.835725" lon="-92.011198">
				 <ele>190</ele>
			 </trkpt>
			 <trkpt lat="46.835697" lon="-92.011295">
				 <ele>190</ele>
			 </trkpt>
			 <trkpt lat="46.835669" lon="-92.011391">
				 <ele>190</ele>
			 </trkpt>
			 <trkpt lat="46.835641" lon="-92.011488">
				 <ele>190</ele>
			 </trkpt>
			 <trkpt lat="46.835613" lon="-92.011585">
				 <ele>190</ele>
			 </trkpt>
			 <trkpt lat="46.835586" lon="-92.011682">
				 <ele>190</ele>
			 </trkpt>
			 <trkpt lat="46.835558" lon="-92.011779">
				 <ele>190</ele>
			 </trkpt>
			 <trkpt lat="46.83553" lon="-92.011876">
				 <ele>190</ele>
			 </trkpt>
			 <trkpt lat="46.835502" lon="-92.011973">
				 <ele>190</ele>
			 </trkpt>
			 <trkpt lat="46.835474" lon="-92.012069">
				 <ele>190</ele>
			 </trkpt>
			 <trkpt lat="46.835446" lon="-92.012166">
				 <ele>190</ele>
			 </trkpt>
			 <trkpt lat="46.835418" lon="-92.012263">
				 <ele>190</ele>
			 </trkpt>
			 <trkpt lat="46.83539" lon="-92.01236">
				 <ele>190.1</ele>
			 </trkpt>
			 <trkpt lat="46.835362" lon="-92.012457">
				 <ele>190.2</ele>
			 </trkpt>
			 <trkpt lat="46.835334" lon="-92.012554">
				 <ele>190.3</ele>
			 </trkpt>
			 <trkpt lat="46.835306" lon="-92.012651">
				 <ele>190.4</ele>
			 </trkpt>
			 <trkpt lat="46.835278" lon="-92.012747">
				 <ele>190.5</ele>
			 </trkpt>
			 <trkpt lat="46.83525" lon="-92.012844">
				 <ele>190.7</ele>
			 </trkpt>
			 <trkpt lat="46.835222" lon="-92.012941">
				 <ele>190.9</ele>
			 </trkpt>
			 <trkpt lat="46.835194" lon="-92.013038">
				 <ele>191.1</ele>
			 </trkpt>
			 <trkpt lat="46.835166" lon="-92.013135">
				 <ele>191.3</ele>
			 </trkpt>
			 <trkpt lat="46.835138" lon="-92.013232">
				 <ele>191.5</ele>
			 </trkpt>
			 <trkpt lat="46.835111" lon="-92.013329">
				 <ele>191.6</ele>
			 </trkpt>
			 <trkpt lat="46.835083" lon="-92.013425">
				 <ele>191.7</ele>
			 </trkpt>
			 <trkpt lat="46.835055" lon="-92.013522">
				 <ele>191.8</ele>
			 </trkpt>
			 <trkpt lat="46.835027" lon="-92.013619">
				 <ele>191.9</ele>
			 </trkpt>
			 <trkpt lat="46.834999" lon="-92.013716">
				 <ele>192.1</ele>
			 </trkpt>
			 <trkpt lat="46.834971" lon="-92.013813">
				 <ele>192.2</ele>
			 </trkpt>
			 <trkpt lat="46.834943" lon="-92.01391">
				 <ele>192.2</ele>
			 </trkpt>
			 <trkpt lat="46.834915" lon="-92.014007">
				 <ele>192.2</ele>
			 </trkpt>
			 <trkpt lat="46.834887" lon="-92.014104">
				 <ele>192.2</ele>
			 </trkpt>
			 <trkpt lat="46.834859" lon="-92.0142">
				 <ele>192.2</ele>
			 </trkpt>
			 <trkpt lat="46.834831" lon="-92.014297">
				 <ele>192.3</ele>
			 </trkpt>
			 <trkpt lat="46.834803" lon="-92.014394">
				 <ele>192.4</ele>
			 </trkpt>
			 <trkpt lat="46.834775" lon="-92.014491">
				 <ele>192.5</ele>
			 </trkpt>
			 <trkpt lat="46.834747" lon="-92.014588">
				 <ele>192.5</ele>
			 </trkpt>
			 <trkpt lat="46.834719" lon="-92.014685">
				 <ele>192.5</ele>
			 </trkpt>
			 <trkpt lat="46.834691" lon="-92.014782">
				 <ele>192.5</ele>
			 </trkpt>
			 <trkpt lat="46.834663" lon="-92.014878">
				 <ele>192.5</ele>
			 </trkpt>
			 <trkpt lat="46.834636" lon="-92.014975">
				 <ele>192.6</ele>
			 </trkpt>
			 <trkpt lat="46.834608" lon="-92.015072">
				 <ele>192.7</ele>
			 </trkpt>
			 <trkpt lat="46.83458" lon="-92.015169">
				 <ele>192.8</ele>
			 </trkpt>
			 <trkpt lat="46.834552" lon="-92.015266">
				 <ele>192.9</ele>
			 </trkpt>
			 <trkpt lat="46.834524" lon="-92.015363">
				 <ele>192.9</ele>
			 </trkpt>
			 <trkpt lat="46.834496" lon="-92.01546">
				 <ele>192.9</ele>
			 </trkpt>
			 <trkpt lat="46.834468" lon="-92.015556">
				 <ele>192.9</ele>
			 </trkpt>
			 <trkpt lat="46.83444" lon="-92.015653">
				 <ele>193</ele>
			 </trkpt>
			 <trkpt lat="46.834412" lon="-92.01575">
				 <ele>193</ele>
			 </trkpt>
			 <trkpt lat="46.834384" lon="-92.015847">
				 <ele>193</ele>
			 </trkpt>
			 <trkpt lat="46.834356" lon="-92.015944">
				 <ele>193</ele>
			 </trkpt>
			 <trkpt lat="46.834328" lon="-92.016041">
				 <ele>193</ele>
			 </trkpt>
			 <trkpt lat="46.8343" lon="-92.016138">
				 <ele>193</ele>
			 </trkpt>
			 <trkpt lat="46.834272" lon="-92.016234">
				 <ele>193</ele>
			 </trkpt>
			 <trkpt lat="46.834244" lon="-92.016331">
				 <ele>193</ele>
			 </trkpt>
			 <trkpt lat="46.834216" lon="-92.016428">
				 <ele>193</ele>
			 </trkpt>
			 <trkpt lat="46.834188" lon="-92.016525">
				 <ele>193.1</ele>
			 </trkpt>
			 <trkpt lat="46.834161" lon="-92.016622">
				 <ele>193.2</ele>
			 </trkpt>
			 <trkpt lat="46.834133" lon="-92.016719">
				 <ele>193.3</ele>
			 </trkpt>
			 <trkpt lat="46.834105" lon="-92.016816">
				 <ele>193.4</ele>
			 </trkpt>
			 <trkpt lat="46.834077" lon="-92.016912">
				 <ele>193.5</ele>
			 </trkpt>
			 <trkpt lat="46.834049" lon="-92.017009">
				 <ele>193.6</ele>
			 </trkpt>
			 <trkpt lat="46.834021" lon="-92.017106">
				 <ele>193.8</ele>
			 </trkpt>
			 <trkpt lat="46.833993" lon="-92.017203">
				 <ele>194</ele>
			 </trkpt>
			 <trkpt lat="46.833965" lon="-92.0173">
				 <ele>194.3</ele>
			 </trkpt>
			 <trkpt lat="46.833937" lon="-92.017397">
				 <ele>194.5</ele>
			 </trkpt>
			 <trkpt lat="46.833909" lon="-92.017494">
				 <ele>194.8</ele>
			 </trkpt>
			 <trkpt lat="46.833881" lon="-92.017591">
				 <ele>195</ele>
			 </trkpt>
			 <trkpt lat="46.833853" lon="-92.017687">
				 <ele>195.2</ele>
			 </trkpt>
			 <trkpt lat="46.833825" lon="-92.017784">
				 <ele>195.4</ele>
			 </trkpt>
			 <trkpt lat="46.833797" lon="-92.017881">
				 <ele>195.5</ele>
			 </trkpt>
			 <trkpt lat="46.833769" lon="-92.017978">
				 <ele>195.7</ele>
			 </trkpt>
			 <trkpt lat="46.833741" lon="-92.018075">
				 <ele>195.8</ele>
			 </trkpt>
			 <trkpt lat="46.833714" lon="-92.018172">
				 <ele>195.9</ele>
			 </trkpt>
			 <trkpt lat="46.833686" lon="-92.018269">
				 <ele>196</ele>
			 </trkpt>
			 <trkpt lat="46.833658" lon="-92.018365">
				 <ele>196</ele>
			 </trkpt>
			 <trkpt lat="46.83363" lon="-92.018462">
				 <ele>196</ele>
			 </trkpt>
			 <trkpt lat="46.833602" lon="-92.018559">
				 <ele>196</ele>
			 </trkpt>
			 <trkpt lat="46.833574" lon="-92.018656">
				 <ele>196</ele>
			 </trkpt>
			 <trkpt lat="46.833549" lon="-92.018732">
				 <ele>196</ele>
			 </trkpt>
			 <trkpt lat="46.833524" lon="-92.018809">
				 <ele>196</ele>
			 </trkpt>
			 <trkpt lat="46.833499" lon="-92.018885">
				 <ele>196</ele>
			 </trkpt>
			 <trkpt lat="46.833465" lon="-92.018963">
				 <ele>196</ele>
			 </trkpt>
			 <trkpt lat="46.833431" lon="-92.019041">
				 <ele>196</ele>
			 </trkpt>
			 <trkpt lat="46.833397" lon="-92.019119">
				 <ele>196</ele>
			 </trkpt>
			 <trkpt lat="46.833354" lon="-92.0192">
				 <ele>196</ele>
			 </trkpt>
			 <trkpt lat="46.833311" lon="-92.019282">
				 <ele>196.1</ele>
			 </trkpt>
			 <trkpt lat="46.833268" lon="-92.019363">
				 <ele>196.2</ele>
			 </trkpt>
			 <trkpt lat="46.833226" lon="-92.019445">
				 <ele>196.3</ele>
			 </trkpt>
			 <trkpt lat="46.833183" lon="-92.019526">
				 <ele>196.4</ele>
			 </trkpt>
			 <trkpt lat="46.83314" lon="-92.019608">
				 <ele>196.5</ele>
			 </trkpt>
			 <trkpt lat="46.833097" lon="-92.019689">
				 <ele>196.5</ele>
			 </trkpt>
			 <trkpt lat="46.833054" lon="-92.019771">
				 <ele>196.6</ele>
			 </trkpt>
			 <trkpt lat="46.833011" lon="-92.019852">
				 <ele>196.7</ele>
			 </trkpt>
			 <trkpt lat="46.832968" lon="-92.019934">
				 <ele>196.8</ele>
			 </trkpt>
			 <trkpt lat="46.832925" lon="-92.020015">
				 <ele>196.9</ele>
			 </trkpt>
			 <trkpt lat="46.832882" lon="-92.020097">
				 <ele>197</ele>
			 </trkpt>
			 <trkpt lat="46.832839" lon="-92.020178">
				 <ele>197</ele>
			 </trkpt>
			 <trkpt lat="46.832796" lon="-92.02026">
				 <ele>197</ele>
			 </trkpt>
			 <trkpt lat="46.832753" lon="-92.020342">
				 <ele>197</ele>
			 </trkpt>
			 <trkpt lat="46.832709" lon="-92.020423">
				 <ele>197</ele>
			 </trkpt>
			 <trkpt lat="46.832665" lon="-92.020505">
				 <ele>197</ele>
			 </trkpt>
			 <trkpt lat="46.832622" lon="-92.020586">
				 <ele>197</ele>
			 </trkpt>
			 <trkpt lat="46.832578" lon="-92.020668">
				 <ele>197</ele>
			 </trkpt>
			 <trkpt lat="46.832534" lon="-92.02075">
				 <ele>197</ele>
			 </trkpt>
			 <trkpt lat="46.832491" lon="-92.020831">
				 <ele>197</ele>
			 </trkpt>
			 <trkpt lat="46.832447" lon="-92.020913">
				 <ele>197</ele>
			 </trkpt>
			 <trkpt lat="46.832403" lon="-92.020995">
				 <ele>197</ele>
			 </trkpt>
			 <trkpt lat="46.83236" lon="-92.021076">
				 <ele>197</ele>
			 </trkpt>
			 <trkpt lat="46.832316" lon="-92.021158">
				 <ele>197</ele>
			 </trkpt>
			 <trkpt lat="46.832272" lon="-92.02124">
				 <ele>197</ele>
			 </trkpt>
			 <trkpt lat="46.832229" lon="-92.021321">
				 <ele>197</ele>
			 </trkpt>
			 <trkpt lat="46.832185" lon="-92.021403">
				 <ele>197</ele>
			 </trkpt>
			 <trkpt lat="46.832141" lon="-92.021485">
				 <ele>197</ele>
			 </trkpt>
			 <trkpt lat="46.832097" lon="-92.021566">
				 <ele>197</ele>
			 </trkpt>
			 <trkpt lat="46.832054" lon="-92.021648">
				 <ele>197</ele>
			 </trkpt>
			 <trkpt lat="46.83201" lon="-92.02173">
				 <ele>197</ele>
			 </trkpt>
			 <trkpt lat="46.831966" lon="-92.021811">
				 <ele>197</ele>
			 </trkpt>
			 <trkpt lat="46.831923" lon="-92.021893">
				 <ele>197</ele>
			 </trkpt>
			 <trkpt lat="46.831879" lon="-92.021975">
				 <ele>197</ele>
			 </trkpt>
			 <trkpt lat="46.831835" lon="-92.022056">
				 <ele>197</ele>
			 </trkpt>
			 <trkpt lat="46.831792" lon="-92.022138">
				 <ele>197</ele>
			 </trkpt>
			 <trkpt lat="46.831748" lon="-92.022219">
				 <ele>197</ele>
			 </trkpt>
			 <trkpt lat="46.831704" lon="-92.022301">
				 <ele>197</ele>
			 </trkpt>
			 <trkpt lat="46.831656" lon="-92.022378">
				 <ele>197</ele>
			 </trkpt>
			 <trkpt lat="46.831608" lon="-92.022455">
				 <ele>197</ele>
			 </trkpt>
			 <trkpt lat="46.83156" lon="-92.022532">
				 <ele>197</ele>
			 </trkpt>
			 <trkpt lat="46.831512" lon="-92.022609">
				 <ele>197</ele>
			 </trkpt>
			 <trkpt lat="46.831464" lon="-92.022686">
				 <ele>197</ele>
			 </trkpt>
			 <trkpt lat="46.831416" lon="-92.022763">
				 <ele>196.9</ele>
			 </trkpt>
			 <trkpt lat="46.831368" lon="-92.02284">
				 <ele>196.8</ele>
			 </trkpt>
			 <trkpt lat="46.83132" lon="-92.022917">
				 <ele>196.7</ele>
			 </trkpt>
			 <trkpt lat="46.831272" lon="-92.022994">
				 <ele>196.6</ele>
			 </trkpt>
			 <trkpt lat="46.831224" lon="-92.023071">
				 <ele>196.5</ele>
			 </trkpt>
			 <trkpt lat="46.831176" lon="-92.023148">
				 <ele>196.3</ele>
			 </trkpt>
			 <trkpt lat="46.831128" lon="-92.023225">
				 <ele>196.1</ele>
			 </trkpt>
			 <trkpt lat="46.83108" lon="-92.023302">
				 <ele>196</ele>
			 </trkpt>
			 <trkpt lat="46.831032" lon="-92.023379">
				 <ele>195.9</ele>
			 </trkpt>
			 <trkpt lat="46.830984" lon="-92.023456">
				 <ele>195.8</ele>
			 </trkpt>
			 <trkpt lat="46.830936" lon="-92.023533">
				 <ele>195.7</ele>
			 </trkpt>
			 <trkpt lat="46.830888" lon="-92.02361">
				 <ele>195.7</ele>
			 </trkpt>
			 <trkpt lat="46.83084" lon="-92.023687">
				 <ele>195.8</ele>
			 </trkpt>
			 <trkpt lat="46.830792" lon="-92.023764">
				 <ele>195.9</ele>
			 </trkpt>
			 <trkpt lat="46.830744" lon="-92.023841">
				 <ele>196</ele>
			 </trkpt>
			 <trkpt lat="46.830696" lon="-92.023918">
				 <ele>196.2</ele>
			 </trkpt>
			 <trkpt lat="46.830648" lon="-92.023995">
				 <ele>196.4</ele>
			 </trkpt>
			 <trkpt lat="46.8306" lon="-92.024072">
				 <ele>196.5</ele>
			 </trkpt>
			 <trkpt lat="46.830552" lon="-92.024149">
				 <ele>196.6</ele>
			 </trkpt>
			 <trkpt lat="46.830504" lon="-92.024226">
				 <ele>196.7</ele>
			 </trkpt>
			 <trkpt lat="46.830456" lon="-92.024303">
				 <ele>196.8</ele>
			 </trkpt>
			 <trkpt lat="46.830408" lon="-92.02438">
				 <ele>196.9</ele>
			 </trkpt>
			 <trkpt lat="46.83036" lon="-92.024457">
				 <ele>197</ele>
			 </trkpt>
			 <trkpt lat="46.830312" lon="-92.024534">
				 <ele>197</ele>
			 </trkpt>
			 <trkpt lat="46.830264" lon="-92.024611">
				 <ele>197</ele>
			 </trkpt>
			 <trkpt lat="46.830216" lon="-92.024688">
				 <ele>197</ele>
			 </trkpt>
			 <trkpt lat="46.830168" lon="-92.024765">
				 <ele>197</ele>
			 </trkpt>
			 <trkpt lat="46.83012" lon="-92.024842">
				 <ele>197</ele>
			 </trkpt>
			 <trkpt lat="46.830072" lon="-92.024919">
				 <ele>197.1</ele>
			 </trkpt>
			 <trkpt lat="46.830024" lon="-92.024996">
				 <ele>197.2</ele>
			 </trkpt>
			 <trkpt lat="46.829976" lon="-92.025073">
				 <ele>197.3</ele>
			 </trkpt>
			 <trkpt lat="46.829928" lon="-92.02515">
				 <ele>197.4</ele>
			 </trkpt>
			 <trkpt lat="46.82988" lon="-92.025227">
				 <ele>197.5</ele>
			 </trkpt>
			 <trkpt lat="46.829832" lon="-92.025304">
				 <ele>197.5</ele>
			 </trkpt>
			 <trkpt lat="46.829784" lon="-92.025381">
				 <ele>197.6</ele>
			 </trkpt>
			 <trkpt lat="46.829736" lon="-92.025458">
				 <ele>197.7</ele>
			 </trkpt>
			 <trkpt lat="46.829688" lon="-92.025535">
				 <ele>197.9</ele>
			 </trkpt>
			 <trkpt lat="46.82964" lon="-92.025612">
				 <ele>198</ele>
			 </trkpt>
			 <trkpt lat="46.829592" lon="-92.025689">
				 <ele>198.1</ele>
			 </trkpt>
			 <trkpt lat="46.829544" lon="-92.025766">
				 <ele>198.1</ele>
			 </trkpt>
			 <trkpt lat="46.829496" lon="-92.025843">
				 <ele>198.2</ele>
			 </trkpt>
			 <trkpt lat="46.829448" lon="-92.02592">
				 <ele>198.3</ele>
			 </trkpt>
			 <trkpt lat="46.829402" lon="-92.025996">
				 <ele>198.4</ele>
			 </trkpt>
			 <trkpt lat="46.829356" lon="-92.026071">
				 <ele>198.5</ele>
			 </trkpt>
			 <trkpt lat="46.82931" lon="-92.026147">
				 <ele>198.5</ele>
			 </trkpt>
			 <trkpt lat="46.829264" lon="-92.026223">
				 <ele>198.6</ele>
			 </trkpt>
			 <trkpt lat="46.82922" lon="-92.026291">
				 <ele>198.7</ele>
			 </trkpt>
			 <trkpt lat="46.829176" lon="-92.02636">
				 <ele>198.7</ele>
			 </trkpt>
			 <trkpt lat="46.829132" lon="-92.026429">
				 <ele>198.8</ele>
			 </trkpt>
			 <trkpt lat="46.829088" lon="-92.026497">
				 <ele>198.9</ele>
			 </trkpt>
			 <trkpt lat="46.829044" lon="-92.026566">
				 <ele>199</ele>
			 </trkpt>
			 <trkpt lat="46.829" lon="-92.026635">
				 <ele>199</ele>
			 </trkpt>
			 <trkpt lat="46.828956" lon="-92.026704">
				 <ele>198.9</ele>
			 </trkpt>
			 <trkpt lat="46.828912" lon="-92.026772">
				 <ele>198.9</ele>
			 </trkpt>
			 <trkpt lat="46.828856" lon="-92.026837">
				 <ele>198.8</ele>
			 </trkpt>
			 <trkpt lat="46.8288" lon="-92.026901">
				 <ele>198.7</ele>
			 </trkpt>
			 <trkpt lat="46.828744" lon="-92.026965">
				 <ele>198.6</ele>
			 </trkpt>
			 <trkpt lat="46.828688" lon="-92.027029">
				 <ele>198.5</ele>
			 </trkpt>
			 <trkpt lat="46.828632" lon="-92.027093">
				 <ele>198.5</ele>
			 </trkpt>
			 <trkpt lat="46.828576" lon="-92.027157">
				 <ele>198.4</ele>
			 </trkpt>
			 <trkpt lat="46.828521" lon="-92.027221">
				 <ele>198.3</ele>
			 </trkpt>
			 <trkpt lat="46.828465" lon="-92.027285">
				 <ele>198.2</ele>
			 </trkpt>
			 <trkpt lat="46.828409" lon="-92.027349">
				 <ele>198</ele>
			 </trkpt>
			 <trkpt lat="46.828353" lon="-92.027414">
				 <ele>197.9</ele>
			 </trkpt>
			 <trkpt lat="46.828297" lon="-92.027478">
				 <ele>197.7</ele>
			 </trkpt>
			 <trkpt lat="46.828241" lon="-92.027542">
				 <ele>197.5</ele>
			 </trkpt>
			 <trkpt lat="46.828185" lon="-92.027606">
				 <ele>197.5</ele>
			 </trkpt>
			 <trkpt lat="46.828129" lon="-92.02767">
				 <ele>197.3</ele>
			 </trkpt>
			 <trkpt lat="46.828073" lon="-92.027734">
				 <ele>197.1</ele>
			 </trkpt>
			 <trkpt lat="46.828017" lon="-92.027798">
				 <ele>196.9</ele>
			 </trkpt>
			 <trkpt lat="46.827961" lon="-92.027862">
				 <ele>196.7</ele>
			 </trkpt>
			 <trkpt lat="46.827905" lon="-92.027926">
				 <ele>196.5</ele>
			 </trkpt>
			 <trkpt lat="46.827849" lon="-92.027991">
				 <ele>196.4</ele>
			 </trkpt>
			 <trkpt lat="46.827793" lon="-92.028055">
				 <ele>196.3</ele>
			 </trkpt>
			 <trkpt lat="46.827737" lon="-92.028119">
				 <ele>196.2</ele>
			 </trkpt>
			 <trkpt lat="46.827681" lon="-92.028183">
				 <ele>196.1</ele>
			 </trkpt>
			 <trkpt lat="46.827625" lon="-92.028247">
				 <ele>196.1</ele>
			 </trkpt>
			 <trkpt lat="46.827569" lon="-92.028311">
				 <ele>196</ele>
			 </trkpt>
			 <trkpt lat="46.827513" lon="-92.028375">
				 <ele>196</ele>
			 </trkpt>
			 <trkpt lat="46.827457" lon="-92.028439">
				 <ele>196</ele>
			 </trkpt>
			 <trkpt lat="46.827401" lon="-92.028503">
				 <ele>196</ele>
			 </trkpt>
			 <trkpt lat="46.827345" lon="-92.028568">
				 <ele>196</ele>
			 </trkpt>
			 <trkpt lat="46.827289" lon="-92.028632">
				 <ele>196</ele>
			 </trkpt>
			 <trkpt lat="46.827233" lon="-92.028696">
				 <ele>196</ele>
			 </trkpt>
			 <trkpt lat="46.827177" lon="-92.02876">
				 <ele>196</ele>
			 </trkpt>
			 <trkpt lat="46.827121" lon="-92.028824">
				 <ele>196</ele>
			 </trkpt>
			 <trkpt lat="46.827065" lon="-92.028888">
				 <ele>196</ele>
			 </trkpt>
			 <trkpt lat="46.827009" lon="-92.028952">
				 <ele>196</ele>
			 </trkpt>
			 <trkpt lat="46.826953" lon="-92.029017">
				 <ele>196</ele>
			 </trkpt>
			 <trkpt lat="46.826896" lon="-92.029081">
				 <ele>196</ele>
			 </trkpt>
			 <trkpt lat="46.82684" lon="-92.029145">
				 <ele>196</ele>
			 </trkpt>
			 <trkpt lat="46.826784" lon="-92.029209">
				 <ele>196</ele>
			 </trkpt>
			 <trkpt lat="46.826728" lon="-92.029274">
				 <ele>196</ele>
			 </trkpt>
			 <trkpt lat="46.826672" lon="-92.029338">
				 <ele>196</ele>
			 </trkpt>
			 <trkpt lat="46.826615" lon="-92.029402">
				 <ele>196</ele>
			 </trkpt>
			 <trkpt lat="46.826559" lon="-92.029467">
				 <ele>196</ele>
			 </trkpt>
			 <trkpt lat="46.826503" lon="-92.029531">
				 <ele>196</ele>
			 </trkpt>
			 <trkpt lat="46.826447" lon="-92.029595">
				 <ele>196</ele>
			 </trkpt>
			 <trkpt lat="46.82639" lon="-92.029659">
				 <ele>196</ele>
			 </trkpt>
			 <trkpt lat="46.826334" lon="-92.029724">
				 <ele>196</ele>
			 </trkpt>
			 <trkpt lat="46.826278" lon="-92.029788">
				 <ele>196</ele>
			 </trkpt>
			 <trkpt lat="46.826222" lon="-92.029852">
				 <ele>196</ele>
			 </trkpt>
			 <trkpt lat="46.826166" lon="-92.029916">
				 <ele>196</ele>
			 </trkpt>
			 <trkpt lat="46.826109" lon="-92.029981">
				 <ele>196</ele>
			 </trkpt>
			 <trkpt lat="46.826053" lon="-92.030045">
				 <ele>196</ele>
			 </trkpt>
			 <trkpt lat="46.825997" lon="-92.030109">
				 <ele>196</ele>
			 </trkpt>
			 <trkpt lat="46.825941" lon="-92.030174">
				 <ele>196</ele>
			 </trkpt>
			 <trkpt lat="46.825884" lon="-92.030238">
				 <ele>196</ele>
			 </trkpt>
			 <trkpt lat="46.825831" lon="-92.030304">
				 <ele>196</ele>
			 </trkpt>
			 <trkpt lat="46.825777" lon="-92.030369">
				 <ele>196</ele>
			 </trkpt>
			 <trkpt lat="46.825723" lon="-92.030435">
				 <ele>196</ele>
			 </trkpt>
			 <trkpt lat="46.825669" lon="-92.030501">
				 <ele>196</ele>
			 </trkpt>
			 <trkpt lat="46.825615" lon="-92.030566">
				 <ele>196</ele>
			 </trkpt>
			 <trkpt lat="46.825562" lon="-92.030632">
				 <ele>196</ele>
			 </trkpt>
			 <trkpt lat="46.825508" lon="-92.030698">
				 <ele>196</ele>
			 </trkpt>
			 <trkpt lat="46.825454" lon="-92.030763">
				 <ele>196</ele>
			 </trkpt>
			 <trkpt lat="46.8254" lon="-92.030829">
				 <ele>196</ele>
			 </trkpt>
			 <trkpt lat="46.825346" lon="-92.030895">
				 <ele>196</ele>
			 </trkpt>
			 <trkpt lat="46.825293" lon="-92.030961">
				 <ele>196</ele>
			 </trkpt>
			 <trkpt lat="46.825239" lon="-92.031026">
				 <ele>196</ele>
			 </trkpt>
			 <trkpt lat="46.825185" lon="-92.031092">
				 <ele>196</ele>
			 </trkpt>
			 <trkpt lat="46.825143" lon="-92.031149">
				 <ele>196.1</ele>
			 </trkpt>
			 <trkpt lat="46.8251" lon="-92.031205">
				 <ele>196.2</ele>
			 </trkpt>
			 <trkpt lat="46.825058" lon="-92.031262">
				 <ele>196.3</ele>
			 </trkpt>
			 <trkpt lat="46.825015" lon="-92.031319">
				 <ele>196.4</ele>
			 </trkpt>
			 <trkpt lat="46.824977" lon="-92.03138">
				 <ele>196.5</ele>
			 </trkpt>
			 <trkpt lat="46.824939" lon="-92.03144">
				 <ele>196.5</ele>
			 </trkpt>
			 <trkpt lat="46.824901" lon="-92.031501">
				 <ele>196.6</ele>
			 </trkpt>
			 <trkpt lat="46.824859" lon="-92.031586">
				 <ele>196.7</ele>
			 </trkpt>
			 <trkpt lat="46.824817" lon="-92.031671">
				 <ele>196.8</ele>
			 </trkpt>
			 <trkpt lat="46.824775" lon="-92.031755">
				 <ele>196.9</ele>
			 </trkpt>
			 <trkpt lat="46.824733" lon="-92.03184">
				 <ele>197</ele>
			 </trkpt>
			 <trkpt lat="46.824691" lon="-92.031925">
				 <ele>197</ele>
			 </trkpt>
			 <trkpt lat="46.82465" lon="-92.03201">
				 <ele>197</ele>
			 </trkpt>
			 <trkpt lat="46.82461" lon="-92.032096">
				 <ele>197</ele>
			 </trkpt>
			 <trkpt lat="46.824569" lon="-92.032182">
				 <ele>197</ele>
			 </trkpt>
			 <trkpt lat="46.824529" lon="-92.032267">
				 <ele>197</ele>
			 </trkpt>
			 <trkpt lat="46.824489" lon="-92.032353">
				 <ele>197</ele>
			 </trkpt>
			 <trkpt lat="46.824448" lon="-92.032438">
				 <ele>197</ele>
			 </trkpt>
			 <trkpt lat="46.824408" lon="-92.032524">
				 <ele>197</ele>
			 </trkpt>
			 <trkpt lat="46.824367" lon="-92.032609">
				 <ele>197</ele>
			 </trkpt>
			 <trkpt lat="46.824327" lon="-92.032695">
				 <ele>197.1</ele>
			 </trkpt>
			 <trkpt lat="46.824287" lon="-92.03278">
				 <ele>197.2</ele>
			 </trkpt>
			 <trkpt lat="46.824246" lon="-92.032866">
				 <ele>197.3</ele>
			 </trkpt>
			 <trkpt lat="46.824206" lon="-92.032952">
				 <ele>197.3</ele>
			 </trkpt>
			 <trkpt lat="46.824166" lon="-92.033037">
				 <ele>197.3</ele>
			 </trkpt>
			 <trkpt lat="46.824125" lon="-92.033123">
				 <ele>197.3</ele>
			 </trkpt>
			 <trkpt lat="46.824085" lon="-92.033208">
				 <ele>197.3</ele>
			 </trkpt>
			 <trkpt lat="46.824044" lon="-92.033294">
				 <ele>197.3</ele>
			 </trkpt>
			 <trkpt lat="46.824004" lon="-92.033379">
				 <ele>197.3</ele>
			 </trkpt>
			 <trkpt lat="46.823964" lon="-92.033465">
				 <ele>197.3</ele>
			 </trkpt>
			 <trkpt lat="46.823923" lon="-92.03355">
				 <ele>197.3</ele>
			 </trkpt>
			 <trkpt lat="46.823883" lon="-92.033636">
				 <ele>197.2</ele>
			 </trkpt>
			 <trkpt lat="46.823843" lon="-92.033722">
				 <ele>197.1</ele>
			 </trkpt>
			 <trkpt lat="46.823802" lon="-92.033807">
				 <ele>197</ele>
			 </trkpt>
			 <trkpt lat="46.823762" lon="-92.033893">
				 <ele>197</ele>
			 </trkpt>
			 <trkpt lat="46.823721" lon="-92.033978">
				 <ele>197</ele>
			 </trkpt>
			 <trkpt lat="46.823681" lon="-92.034064">
				 <ele>197</ele>
			 </trkpt>
			 <trkpt lat="46.823641" lon="-92.034149">
				 <ele>197</ele>
			 </trkpt>
			 <trkpt lat="46.8236" lon="-92.034235">
				 <ele>197</ele>
			 </trkpt>
			 <trkpt lat="46.82356" lon="-92.034321">
				 <ele>197</ele>
			 </trkpt>
			 <trkpt lat="46.82352" lon="-92.034406">
				 <ele>197</ele>
			 </trkpt>
			 <trkpt lat="46.823479" lon="-92.034492">
				 <ele>197</ele>
			 </trkpt>
			 <trkpt lat="46.823439" lon="-92.034577">
				 <ele>197</ele>
			 </trkpt>
			 <trkpt lat="46.823398" lon="-92.034663">
				 <ele>197</ele>
			 </trkpt>
			 <trkpt lat="46.823358" lon="-92.034748">
				 <ele>197.1</ele>
			 </trkpt>
			 <trkpt lat="46.823318" lon="-92.034834">
				 <ele>197.2</ele>
			 </trkpt>
			 <trkpt lat="46.823277" lon="-92.034919">
				 <ele>197.3</ele>
			 </trkpt>
			 <trkpt lat="46.823237" lon="-92.035005">
				 <ele>197.3</ele>
			 </trkpt>
			 <trkpt lat="46.823197" lon="-92.035091">
				 <ele>197.3</ele>
			 </trkpt>
			 <trkpt lat="46.823156" lon="-92.035176">
				 <ele>197.3</ele>
			 </trkpt>
			 <trkpt lat="46.823116" lon="-92.035262">
				 <ele>197.2</ele>
			 </trkpt>
			 <trkpt lat="46.823075" lon="-92.035347">
				 <ele>197</ele>
			 </trkpt>
			 <trkpt lat="46.823035" lon="-92.035433">
				 <ele>196.7</ele>
			 </trkpt>
			 <trkpt lat="46.822995" lon="-92.035518">
				 <ele>196.4</ele>
			 </trkpt>
			 <trkpt lat="46.822954" lon="-92.035604">
				 <ele>196</ele>
			 </trkpt>
			 <trkpt lat="46.822914" lon="-92.035689">
				 <ele>195.7</ele>
			 </trkpt>
			 <trkpt lat="46.822874" lon="-92.035775">
				 <ele>195.5</ele>
			 </trkpt>
			 <trkpt lat="46.822833" lon="-92.035861">
				 <ele>195.5</ele>
			 </trkpt>
			 <trkpt lat="46.822793" lon="-92.035946">
				 <ele>195.5</ele>
			 </trkpt>
			 <trkpt lat="46.822752" lon="-92.036032">
				 <ele>195.5</ele>
			 </trkpt>
			 <trkpt lat="46.822712" lon="-92.036117">
				 <ele>195.5</ele>
			 </trkpt>
			 <trkpt lat="46.822672" lon="-92.036203">
				 <ele>195.5</ele>
			 </trkpt>
			 <trkpt lat="46.822631" lon="-92.036288">
				 <ele>195.7</ele>
			 </trkpt>
			 <trkpt lat="46.822591" lon="-92.036374">
				 <ele>196</ele>
			 </trkpt>
			 <trkpt lat="46.822551" lon="-92.036459">
				 <ele>196.4</ele>
			 </trkpt>
			 <trkpt lat="46.82251" lon="-92.036545">
				 <ele>196.7</ele>
			 </trkpt>
			 <trkpt lat="46.822485" lon="-92.036606">
				 <ele>196.9</ele>
			 </trkpt>
			 <trkpt lat="46.822459" lon="-92.036666">
				 <ele>197</ele>
			 </trkpt>
			 <trkpt lat="46.822434" lon="-92.036727">
				 <ele>197</ele>
			 </trkpt>
			 <trkpt lat="46.822405" lon="-92.036808">
				 <ele>197</ele>
			 </trkpt>
			 <trkpt lat="46.822377" lon="-92.036889">
				 <ele>197.1</ele>
			 </trkpt>
			 <trkpt lat="46.822349" lon="-92.03697">
				 <ele>197.2</ele>
			 </trkpt>
			 <trkpt lat="46.822334" lon="-92.03707">
				 <ele>197.3</ele>
			 </trkpt>
			 <trkpt lat="46.82232" lon="-92.037169">
				 <ele>197.4</ele>
			 </trkpt>
			 <trkpt lat="46.822306" lon="-92.037269">
				 <ele>197.5</ele>
			 </trkpt>
			 <trkpt lat="46.822304" lon="-92.037374">
				 <ele>197.5</ele>
			 </trkpt>
			 <trkpt lat="46.822302" lon="-92.037479">
				 <ele>197.5</ele>
			 </trkpt>
			 <trkpt lat="46.8223" lon="-92.037584">
				 <ele>197.6</ele>
			 </trkpt>
			 <trkpt lat="46.822298" lon="-92.037689">
				 <ele>197.7</ele>
			 </trkpt>
			 <trkpt lat="46.822296" lon="-92.037794">
				 <ele>197.8</ele>
			 </trkpt>
			 <trkpt lat="46.822294" lon="-92.037899">
				 <ele>197.9</ele>
			 </trkpt>
			 <trkpt lat="46.822292" lon="-92.038004">
				 <ele>197.9</ele>
			 </trkpt>
			 <trkpt lat="46.82229" lon="-92.038109">
				 <ele>197.9</ele>
			 </trkpt>
			 <trkpt lat="46.822288" lon="-92.038214">
				 <ele>197.9</ele>
			 </trkpt>
			 <trkpt lat="46.822286" lon="-92.038319">
				 <ele>198</ele>
			 </trkpt>
			 <trkpt lat="46.822284" lon="-92.038424">
				 <ele>198.1</ele>
			 </trkpt>
			 <trkpt lat="46.822282" lon="-92.038529">
				 <ele>198.2</ele>
			 </trkpt>
			 <trkpt lat="46.82228" lon="-92.038635">
				 <ele>198.5</ele>
			 </trkpt>
			 <trkpt lat="46.822278" lon="-92.03874">
				 <ele>198.6</ele>
			 </trkpt>
			 <trkpt lat="46.822276" lon="-92.038845">
				 <ele>198.8</ele>
			 </trkpt>
			 <trkpt lat="46.822274" lon="-92.03895">
				 <ele>199</ele>
			 </trkpt>
			 <trkpt lat="46.822272" lon="-92.039055">
				 <ele>199.2</ele>
			 </trkpt>
			 <trkpt lat="46.82227" lon="-92.03916">
				 <ele>199.4</ele>
			 </trkpt>
			 <trkpt lat="46.822268" lon="-92.039265">
				 <ele>199.6</ele>
			 </trkpt>
			 <trkpt lat="46.822266" lon="-92.03937">
				 <ele>199.9</ele>
			 </trkpt>
			 <trkpt lat="46.822264" lon="-92.039475">
				 <ele>200.1</ele>
			 </trkpt>
			 <trkpt lat="46.822262" lon="-92.03958">
				 <ele>200.4</ele>
			 </trkpt>
			 <trkpt lat="46.82226" lon="-92.039685">
				 <ele>200.6</ele>
			 </trkpt>
			 <trkpt lat="46.822258" lon="-92.03979">
				 <ele>200.8</ele>
			 </trkpt>
			 <trkpt lat="46.822256" lon="-92.039895">
				 <ele>201.1</ele>
			 </trkpt>
			 <trkpt lat="46.822254" lon="-92.040001">
				 <ele>201.4</ele>
			 </trkpt>
			 <trkpt lat="46.822252" lon="-92.040106">
				 <ele>201.6</ele>
			 </trkpt>
			 <trkpt lat="46.82225" lon="-92.040211">
				 <ele>201.9</ele>
			 </trkpt>
			 <trkpt lat="46.822248" lon="-92.040316">
				 <ele>202.3</ele>
			 </trkpt>
			 <trkpt lat="46.822246" lon="-92.040421">
				 <ele>202.5</ele>
			 </trkpt>
			 <trkpt lat="46.822244" lon="-92.040526">
				 <ele>202.8</ele>
			 </trkpt>
			 <trkpt lat="46.822242" lon="-92.040631">
				 <ele>203.2</ele>
			 </trkpt>
			 <trkpt lat="46.82224" lon="-92.040736">
				 <ele>203.5</ele>
			 </trkpt>
			 <trkpt lat="46.822238" lon="-92.040841">
				 <ele>203.7</ele>
			 </trkpt>
			 <trkpt lat="46.822236" lon="-92.040946">
				 <ele>204</ele>
			 </trkpt>
			 <trkpt lat="46.822234" lon="-92.041051">
				 <ele>204.2</ele>
			 </trkpt>
			 <trkpt lat="46.822232" lon="-92.041156">
				 <ele>204.4</ele>
			 </trkpt>
			 <trkpt lat="46.82223" lon="-92.041261">
				 <ele>204.5</ele>
			 </trkpt>
			 <trkpt lat="46.822228" lon="-92.041367">
				 <ele>204.7</ele>
			 </trkpt>
			 <trkpt lat="46.822226" lon="-92.041472">
				 <ele>204.8</ele>
			 </trkpt>
			 <trkpt lat="46.822224" lon="-92.041577">
				 <ele>204.9</ele>
			 </trkpt>
			 <trkpt lat="46.822222" lon="-92.041682">
				 <ele>205</ele>
			 </trkpt>
			 <trkpt lat="46.82222" lon="-92.041787">
				 <ele>205</ele>
			 </trkpt>
			 <trkpt lat="46.822218" lon="-92.041892">
				 <ele>205</ele>
			 </trkpt>
			 <trkpt lat="46.822216" lon="-92.041997">
				 <ele>205</ele>
			 </trkpt>
			 <trkpt lat="46.822214" lon="-92.042102">
				 <ele>205</ele>
			 </trkpt>
			 <trkpt lat="46.822212" lon="-92.042207">
				 <ele>205.1</ele>
			 </trkpt>
			 <trkpt lat="46.82221" lon="-92.042312">
				 <ele>205.2</ele>
			 </trkpt>
			 <trkpt lat="46.822208" lon="-92.042417">
				 <ele>205.3</ele>
			 </trkpt>
			 <trkpt lat="46.822206" lon="-92.042522">
				 <ele>205.4</ele>
			 </trkpt>
			 <trkpt lat="46.822204" lon="-92.042627">
				 <ele>205.5</ele>
			 </trkpt>
			 <trkpt lat="46.822202" lon="-92.042733">
				 <ele>205.5</ele>
			 </trkpt>
			 <trkpt lat="46.8222" lon="-92.042838">
				 <ele>205.6</ele>
			 </trkpt>
			 <trkpt lat="46.822198" lon="-92.042943">
				 <ele>205.7</ele>
			 </trkpt>
			 <trkpt lat="46.822185" lon="-92.043035">
				 <ele>205.8</ele>
			 </trkpt>
			 <trkpt lat="46.822172" lon="-92.043126">
				 <ele>205.9</ele>
			 </trkpt>
			 <trkpt lat="46.822159" lon="-92.043218">
				 <ele>205.9</ele>
			 </trkpt>
			 <trkpt lat="46.822134" lon="-92.043315">
				 <ele>205.8</ele>
			 </trkpt>
			 <trkpt lat="46.82211" lon="-92.043411">
				 <ele>205.7</ele>
			 </trkpt>
			 <trkpt lat="46.822086" lon="-92.043507">
				 <ele>205.6</ele>
			 </trkpt>
			 <trkpt lat="46.822062" lon="-92.043603">
				 <ele>205.5</ele>
			 </trkpt>
			 <trkpt lat="46.822035" lon="-92.04368">
				 <ele>205.5</ele>
			 </trkpt>
			 <trkpt lat="46.822009" lon="-92.043756">
				 <ele>205.5</ele>
			 </trkpt>
			 <trkpt lat="46.821973" lon="-92.043831">
				 <ele>205.5</ele>
			 </trkpt>
			 <trkpt lat="46.821938" lon="-92.043905">
				 <ele>205.5</ele>
			 </trkpt>
			 <trkpt lat="46.821662" lon="-92.044396">
				 <ele>205.2</ele>
			 </trkpt>
			 <trkpt lat="46.821324" lon="-92.04483">
				 <ele>204.9</ele>
			 </trkpt>
			 <trkpt lat="46.820987" lon="-92.045265">
				 <ele>204.7</ele>
			 </trkpt>
			 <trkpt lat="46.82095" lon="-92.045313">
				 <ele>204.5</ele>
			 </trkpt>
			 <trkpt lat="46.820616" lon="-92.045752">
				 <ele>204.2</ele>
			 </trkpt>
			 <trkpt lat="46.820282" lon="-92.046192">
				 <ele>203.9</ele>
			 </trkpt>
			 <trkpt lat="46.819947" lon="-92.046631">
				 <ele>203.6</ele>
			 </trkpt>
			 <trkpt lat="46.819613" lon="-92.04707">
				 <ele>203.3</ele>
			 </trkpt>
			 <trkpt lat="46.819279" lon="-92.04751">
				 <ele>202.9</ele>
			 </trkpt>
			 <trkpt lat="46.819163" lon="-92.047663">
				 <ele>202.6</ele>
			 </trkpt>
			 <trkpt lat="46.81883" lon="-92.048105">
				 <ele>202.4</ele>
			 </trkpt>
			 <trkpt lat="46.818498" lon="-92.048548">
				 <ele>202.3</ele>
			 </trkpt>
			 <trkpt lat="46.818165" lon="-92.04899">
				 <ele>202.1</ele>
			 </trkpt>
			 <trkpt lat="46.817833" lon="-92.049433">
				 <ele>201.7</ele>
			 </trkpt>
			 <trkpt lat="46.817501" lon="-92.049875">
				 <ele>201.1</ele>
			 </trkpt>
			 <trkpt lat="46.817168" lon="-92.050318">
				 <ele>200.6</ele>
			 </trkpt>
			 <trkpt lat="46.816836" lon="-92.05076">
				 <ele>200</ele>
			 </trkpt>
			 <trkpt lat="46.816504" lon="-92.051203">
				 <ele>199.4</ele>
			 </trkpt>
			 <trkpt lat="46.816171" lon="-92.051646">
				 <ele>198.8</ele>
			 </trkpt>
			 <trkpt lat="46.815839" lon="-92.052088">
				 <ele>198.3</ele>
			 </trkpt>
			 <trkpt lat="46.815506" lon="-92.052531">
				 <ele>197.6</ele>
			 </trkpt>
			 <trkpt lat="46.815174" lon="-92.052973">
				 <ele>197.1</ele>
			 </trkpt>
			 <trkpt lat="46.814842" lon="-92.053416">
				 <ele>196.6</ele>
			 </trkpt>
			 <trkpt lat="46.814509" lon="-92.053858">
				 <ele>196.3</ele>
			 </trkpt>
			 <trkpt lat="46.814377" lon="-92.054034">
				 <ele>196.1</ele>
			 </trkpt>
			 <trkpt lat="46.814044" lon="-92.054476">
				 <ele>196.3</ele>
			 </trkpt>
			 <trkpt lat="46.813711" lon="-92.054917">
				 <ele>196.5</ele>
			 </trkpt>
			 <trkpt lat="46.813378" lon="-92.055358">
				 <ele>196.8</ele>
			 </trkpt>
			 <trkpt lat="46.813045" lon="-92.055799">
				 <ele>197.2</ele>
			 </trkpt>
			 <trkpt lat="46.812711" lon="-92.056241">
				 <ele>197.5</ele>
			 </trkpt>
			 <trkpt lat="46.812378" lon="-92.056682">
				 <ele>197.7</ele>
			 </trkpt>
			 <trkpt lat="46.812045" lon="-92.057123">
				 <ele>198</ele>
			 </trkpt>
			 <trkpt lat="46.811712" lon="-92.057565">
				 <ele>198.3</ele>
			 </trkpt>
			 <trkpt lat="46.811532" lon="-92.057804">
				 <ele>198.5</ele>
			 </trkpt>
			 <trkpt lat="46.811192" lon="-92.058234">
				 <ele>198.7</ele>
			 </trkpt>
			 <trkpt lat="46.810853" lon="-92.058665">
				 <ele>199.4</ele>
			 </trkpt>
			 <trkpt lat="46.810513" lon="-92.059096">
				 <ele>200.2</ele>
			 </trkpt>
			 <trkpt lat="46.810443" lon="-92.059185">
				 <ele>200.8</ele>
			 </trkpt>
			 <trkpt lat="46.810113" lon="-92.059631">
				 <ele>201.5</ele>
			 </trkpt>
			 <trkpt lat="46.809783" lon="-92.060078">
				 <ele>202.3</ele>
			 </trkpt>
			 <trkpt lat="46.809453" lon="-92.060524">
				 <ele>203.2</ele>
			 </trkpt>
			 <trkpt lat="46.809124" lon="-92.060971">
				 <ele>204.3</ele>
			 </trkpt>
			 <trkpt lat="46.808794" lon="-92.061417">
				 <ele>205.5</ele>
			 </trkpt>
			 <trkpt lat="46.808464" lon="-92.061864">
				 <ele>206.6</ele>
			 </trkpt>
			 <trkpt lat="46.808391" lon="-92.061963">
				 <ele>207.8</ele>
			 </trkpt>
			 <trkpt lat="46.808312" lon="-92.062222">
				 <ele>208.9</ele>
			 </trkpt>
			 <trkpt lat="46.808011" lon="-92.06271">
				 <ele>209.6</ele>
			 </trkpt>
			 <trkpt lat="46.807822" lon="-92.063017">
				 <ele>210.3</ele>
			 </trkpt>
			 <trkpt lat="46.807783" lon="-92.063077">
				 <ele>210.9</ele>
			 </trkpt>
			 <trkpt lat="46.807716" lon="-92.063188">
				 <ele>211.4</ele>
			 </trkpt>
			 <trkpt lat="46.807471" lon="-92.063659">
				 <ele>211.8</ele>
			 </trkpt>
			 <trkpt lat="46.807367" lon="-92.063858">
				 <ele>212.1</ele>
			 </trkpt>
			 <trkpt lat="46.807082" lon="-92.064405">
				 <ele>212.2</ele>
			 </trkpt>
			 <trkpt lat="46.806988" lon="-92.064585">
				 <ele>212</ele>
			 </trkpt>
			 <trkpt lat="46.806937" lon="-92.064683">
				 <ele>211.7</ele>
			 </trkpt>
			 <trkpt lat="46.806187" lon="-92.06616">
				 <ele>211.5</ele>
			 </trkpt>
			 <trkpt lat="46.805906" lon="-92.066689">
				 <ele>211.2</ele>
			 </trkpt>
			 <trkpt lat="46.805616" lon="-92.067242">
				 <ele>210.9</ele>
			 </trkpt>
			 <trkpt lat="46.805429" lon="-92.067595">
				 <ele>210.5</ele>
			 </trkpt>
			 <trkpt lat="46.805384" lon="-92.067663">
				 <ele>210.2</ele>
			 </trkpt>
			 <trkpt lat="46.805315" lon="-92.067774">
				 <ele>209.8</ele>
			 </trkpt>
			 <trkpt lat="46.805021" lon="-92.068327">
				 <ele>209.4</ele>
			 </trkpt>
			 <trkpt lat="46.804876" lon="-92.068598">
				 <ele>208.8</ele>
			 </trkpt>
			 <trkpt lat="46.804684" lon="-92.068967">
				 <ele>208.3</ele>
			 </trkpt>
			 <trkpt lat="46.804606" lon="-92.069117">
				 <ele>207.9</ele>
			 </trkpt>
			 <trkpt lat="46.804456" lon="-92.069398">
				 <ele>207.5</ele>
			 </trkpt>
			 <trkpt lat="46.804355" lon="-92.069589">
				 <ele>207.2</ele>
			 </trkpt>
			 <trkpt lat="46.804265" lon="-92.069762">
				 <ele>206.8</ele>
			 </trkpt>
			 <trkpt lat="46.804235" lon="-92.069818">
				 <ele>206.4</ele>
			 </trkpt>
			 <trkpt lat="46.804114" lon="-92.07005">
				 <ele>205.9</ele>
			 </trkpt>
			 <trkpt lat="46.803858" lon="-92.070541">
				 <ele>205.5</ele>
			 </trkpt>
			 <trkpt lat="46.803808" lon="-92.070636">
				 <ele>205</ele>
			 </trkpt>
			 <trkpt lat="46.80373" lon="-92.070784">
				 <ele>204.5</ele>
			 </trkpt>
			 <trkpt lat="46.80365" lon="-92.070935">
				 <ele>204.1</ele>
			 </trkpt>
			 <trkpt lat="46.803545" lon="-92.071133">
				 <ele>203.5</ele>
			 </trkpt>
			 <trkpt lat="46.803366" lon="-92.071468">
				 <ele>203</ele>
			 </trkpt>
			 <trkpt lat="46.803158" lon="-92.07186">
				 <ele>202.5</ele>
			 </trkpt>
			 <trkpt lat="46.803009" lon="-92.072141">
				 <ele>201.9</ele>
			 </trkpt>
			 <trkpt lat="46.80267" lon="-92.072797">
				 <ele>201.4</ele>
			 </trkpt>
			 <trkpt lat="46.802594" lon="-92.072945">
				 <ele>200.9</ele>
			 </trkpt>
			 <trkpt lat="46.802465" lon="-92.073195">
				 <ele>200.5</ele>
			 </trkpt>
			 <trkpt lat="46.80235" lon="-92.073416">
				 <ele>200</ele>
			 </trkpt>
			 <trkpt lat="46.801932" lon="-92.074211">
				 <ele>199.6</ele>
			 </trkpt>
			 <trkpt lat="46.801555" lon="-92.074927">
				 <ele>199.4</ele>
			 </trkpt>
			 <trkpt lat="46.801521" lon="-92.074992">
				 <ele>199.3</ele>
			 </trkpt>
			 <trkpt lat="46.8014" lon="-92.075222">
				 <ele>199.3</ele>
			 </trkpt>
			 <trkpt lat="46.801245" lon="-92.075517">
				 <ele>199.3</ele>
			 </trkpt>
			 <trkpt lat="46.800769" lon="-92.07642">
				 <ele>199.4</ele>
			 </trkpt>
			 <trkpt lat="46.800404" lon="-92.077117">
				 <ele>199.5</ele>
			 </trkpt>
			 <trkpt lat="46.800009" lon="-92.077872">
				 <ele>199.5</ele>
			 </trkpt>
			 <trkpt lat="46.799976" lon="-92.077934">
				 <ele>199.6</ele>
			 </trkpt>
			 <trkpt lat="46.79993" lon="-92.078019">
				 <ele>199.7</ele>
			 </trkpt>
			 <trkpt lat="46.799504" lon="-92.078802">
				 <ele>199.7</ele>
			 </trkpt>
			 <trkpt lat="46.799233" lon="-92.079313">
				 <ele>199.8</ele>
			 </trkpt>
			 <trkpt lat="46.799187" lon="-92.079398">
				 <ele>199.9</ele>
			 </trkpt>
			 <trkpt lat="46.79917" lon="-92.079429">
				 <ele>200.1</ele>
			 </trkpt>
			 <trkpt lat="46.799151" lon="-92.079463">
				 <ele>200.3</ele>
			 </trkpt>
			 <trkpt lat="46.798598" lon="-92.080459">
				 <ele>200.5</ele>
			 </trkpt>
			 <trkpt lat="46.798483" lon="-92.080682">
				 <ele>200.8</ele>
			 </trkpt>
			 <trkpt lat="46.798431" lon="-92.080779">
				 <ele>201.3</ele>
			 </trkpt>
			 <trkpt lat="46.797688" lon="-92.082176">
				 <ele>201.7</ele>
			 </trkpt>
			 <trkpt lat="46.79779" lon="-92.082329">
				 <ele>202.2</ele>
			 </trkpt>
			 <trkpt lat="46.797819" lon="-92.082373">
				 <ele>202.6</ele>
			 </trkpt>
			 <trkpt lat="46.798097" lon="-92.082792">
				 <ele>203.1</ele>
			 </trkpt>
			 <trkpt lat="46.798354" lon="-92.083179">
				 <ele>203.4</ele>
			 </trkpt>
			 <trkpt lat="46.798039" lon="-92.083649">
				 <ele>203.6</ele>
			 </trkpt>
			 <trkpt lat="46.797706" lon="-92.08409">
				 <ele>203.6</ele>
			 </trkpt>
			 <trkpt lat="46.797373" lon="-92.084532">
				 <ele>203.6</ele>
			 </trkpt>
			 <trkpt lat="46.79704" lon="-92.084973">
				 <ele>203.5</ele>
			 </trkpt>
			 <trkpt lat="46.796707" lon="-92.085415">
				 <ele>203.2</ele>
			 </trkpt>
			 <trkpt lat="46.796356" lon="-92.085874">
				 <ele>202.6</ele>
			 </trkpt>
			 <trkpt lat="46.796021" lon="-92.086312">
				 <ele>202.2</ele>
			 </trkpt>
			 <trkpt lat="46.795686" lon="-92.08675">
				 <ele>201.7</ele>
			 </trkpt>
			 <trkpt lat="46.79535" lon="-92.087188">
				 <ele>201.2</ele>
			 </trkpt>
			 <trkpt lat="46.795176" lon="-92.087416">
				 <ele>200.7</ele>
			 </trkpt>
			 <trkpt lat="46.79489" lon="-92.087868">
				 <ele>200.4</ele>
			 </trkpt>
			 <trkpt lat="46.794661" lon="-92.08831">
				 <ele>199.9</ele>
			 </trkpt>
			 <trkpt lat="46.794377" lon="-92.088786">
				 <ele>199.5</ele>
			 </trkpt>
			 <trkpt lat="46.794155" lon="-92.088948">
				 <ele>199</ele>
			 </trkpt>
			 <trkpt lat="46.793886" lon="-92.089203">
				 <ele>198.6</ele>
			 </trkpt>
			 <trkpt lat="46.793549" lon="-92.089638">
				 <ele>198.5</ele>
			 </trkpt>
			 <trkpt lat="46.793213" lon="-92.090074">
				 <ele>198.5</ele>
			 </trkpt>
			 <trkpt lat="46.792876" lon="-92.090509">
				 <ele>198.5</ele>
			 </trkpt>
			 <trkpt lat="46.792539" lon="-92.090945">
				 <ele>198.2</ele>
			 </trkpt>
			 <trkpt lat="46.792296" lon="-92.091259">
				 <ele>198</ele>
			 </trkpt>
			 <trkpt lat="46.792081" lon="-92.091836">
				 <ele>197.8</ele>
			 </trkpt>
			 <trkpt lat="46.791923" lon="-92.092061">
				 <ele>197.6</ele>
			 </trkpt>
			 <trkpt lat="46.791793" lon="-92.092222">
				 <ele>197.5</ele>
			 </trkpt>
			 <trkpt lat="46.791395" lon="-92.09253">
				 <ele>197.4</ele>
			 </trkpt>
			 <trkpt lat="46.791255" lon="-92.092639">
				 <ele>197.2</ele>
			 </trkpt>
			 <trkpt lat="46.790918" lon="-92.093075">
				 <ele>196.8</ele>
			 </trkpt>
			 <trkpt lat="46.790582" lon="-92.093511">
				 <ele>196.3</ele>
			 </trkpt>
			 <trkpt lat="46.790246" lon="-92.093947">
				 <ele>195.7</ele>
			 </trkpt>
			 <trkpt lat="46.789909" lon="-92.094383">
				 <ele>195</ele>
			 </trkpt>
			 <trkpt lat="46.789573" lon="-92.094819">
				 <ele>194.4</ele>
			 </trkpt>
			 <trkpt lat="46.789237" lon="-92.095255">
				 <ele>193.7</ele>
			 </trkpt>
			 <trkpt lat="46.7889" lon="-92.095691">
				 <ele>193</ele>
			 </trkpt>
			 <trkpt lat="46.788564" lon="-92.096127">
				 <ele>192.2</ele>
			 </trkpt>
			 <trkpt lat="46.788228" lon="-92.096562">
				 <ele>191.5</ele>
			 </trkpt>
			 <trkpt lat="46.787891" lon="-92.096998">
				 <ele>190.7</ele>
			 </trkpt>
			 <trkpt lat="46.787555" lon="-92.097434">
				 <ele>190.2</ele>
			 </trkpt>
			 <trkpt lat="46.787219" lon="-92.09787">
				 <ele>189.8</ele>
			 </trkpt>
			 <trkpt lat="46.786882" lon="-92.098306">
				 <ele>189.5</ele>
			 </trkpt>
			 <trkpt lat="46.786546" lon="-92.098742">
				 <ele>189.3</ele>
			 </trkpt>
			 <trkpt lat="46.78621" lon="-92.099178">
				 <ele>189.2</ele>
			 </trkpt>
			 <trkpt lat="46.785873" lon="-92.099614">
				 <ele>189.3</ele>
			 </trkpt>
			 <trkpt lat="46.785537" lon="-92.10005">
				 <ele>189.5</ele>
			 </trkpt>
			 <trkpt lat="46.785201" lon="-92.100486">
				 <ele>189.9</ele>
			 </trkpt>
			 <trkpt lat="46.784864" lon="-92.100922">
				 <ele>190.4</ele>
			 </trkpt>
			 <trkpt lat="46.784528" lon="-92.101357">
				 <ele>190.8</ele>
			 </trkpt>
			 <trkpt lat="46.784192" lon="-92.101793">
				 <ele>191.3</ele>
			 </trkpt>
			 <trkpt lat="46.783855" lon="-92.102229">
				 <ele>191.6</ele>
			 </trkpt>
			 <trkpt lat="46.783519" lon="-92.102665">
				 <ele>191.5</ele>
			 </trkpt>
			 <trkpt lat="46.783183" lon="-92.103101">
				 <ele>191.2</ele>
			 </trkpt>
			 <trkpt lat="46.782847" lon="-92.103537">
				 <ele>190.7</ele>
			 </trkpt>
			 <trkpt lat="46.78251" lon="-92.103973">
				 <ele>190.3</ele>
			 </trkpt>
			 <trkpt lat="46.782243" lon="-92.104319">
				 <ele>189.7</ele>
			 </trkpt>
			 <trkpt lat="46.781886" lon="-92.103921">
				 <ele>189</ele>
			 </trkpt>
			 <trkpt lat="46.78161" lon="-92.103391">
				 <ele>188.3</ele>
			 </trkpt>
			 <trkpt lat="46.78134" lon="-92.102866">
				 <ele>187.5</ele>
			 </trkpt>
			 <trkpt lat="46.781069" lon="-92.102342">
				 <ele>186.6</ele>
			 </trkpt>
			 <trkpt lat="46.781015" lon="-92.102236">
				 <ele>185.8</ele>
			 </trkpt>
			 <trkpt lat="46.780838" lon="-92.101708">
				 <ele>185</ele>
			 </trkpt>
			 <trkpt lat="46.780541" lon="-92.101214">
				 <ele>184.6</ele>
			 </trkpt>
			 <trkpt lat="46.780244" lon="-92.100721">
				 <ele>184.5</ele>
			 </trkpt>
			 <trkpt lat="46.780121" lon="-92.100516">
				 <ele>184.4</ele>
			 </trkpt>
			 <trkpt lat="46.779816" lon="-92.100137">
				 <ele>184.3</ele>
			 </trkpt>
			 <trkpt lat="46.77945" lon="-92.099757">
				 <ele>184.2</ele>
			 </trkpt>
			 <trkpt lat="46.779203" lon="-92.099502">
				 <ele>184.1</ele>
			 </trkpt>
			 <trkpt lat="46.779192" lon="-92.09929">
				 <ele>184</ele>
			 </trkpt>
			 <trkpt lat="46.77923" lon="-92.099219">
				 <ele>184</ele>
			 </trkpt>
			 <trkpt lat="46.779274" lon="-92.099151">
				 <ele>184</ele>
			 </trkpt>
			 <trkpt lat="46.779314" lon="-92.099098">
				 <ele>184</ele>
			 </trkpt>
			 <trkpt lat="46.779354" lon="-92.099045">
				 <ele>184</ele>
			 </trkpt>
			 <trkpt lat="46.779393" lon="-92.098992">
				 <ele>184</ele>
			 </trkpt>
			 <trkpt lat="46.779446" lon="-92.09892">
				 <ele>184</ele>
			 </trkpt>
			 <trkpt lat="46.779499" lon="-92.098848">
				 <ele>184</ele>
			 </trkpt>
			 <trkpt lat="46.779551" lon="-92.098776">
				 <ele>184</ele>
			 </trkpt>
			 <trkpt lat="46.779604" lon="-92.098704">
				 <ele>184</ele>
			 </trkpt>
			 <trkpt lat="46.779657" lon="-92.098632">
				 <ele>184</ele>
			 </trkpt>
			 <trkpt lat="46.779709" lon="-92.09856">
				 <ele>184</ele>
			 </trkpt>
			 <trkpt lat="46.779762" lon="-92.098488">
				 <ele>184</ele>
			 </trkpt>
			 <trkpt lat="46.779815" lon="-92.098417">
				 <ele>184</ele>
			 </trkpt>
			 <trkpt lat="46.779867" lon="-92.098345">
				 <ele>184</ele>
			 </trkpt>
			 <trkpt lat="46.77992" lon="-92.098273">
				 <ele>184</ele>
			 </trkpt>
			 <trkpt lat="46.779973" lon="-92.098201">
				 <ele>184</ele>
			 </trkpt>
			 <trkpt lat="46.780025" lon="-92.098129">
				 <ele>184</ele>
			 </trkpt>
			 <trkpt lat="46.780078" lon="-92.098057">
				 <ele>184</ele>
			 </trkpt>
			 <trkpt lat="46.78013" lon="-92.097985">
				 <ele>184</ele>
			 </trkpt>
			 <trkpt lat="46.780183" lon="-92.097913">
				 <ele>184</ele>
			 </trkpt>
			 <trkpt lat="46.780236" lon="-92.097841">
				 <ele>184</ele>
			 </trkpt>
			 <trkpt lat="46.780288" lon="-92.097769">
				 <ele>184</ele>
			 </trkpt>
			 <trkpt lat="46.780341" lon="-92.097697">
				 <ele>184</ele>
			 </trkpt>
			 <trkpt lat="46.780394" lon="-92.097625">
				 <ele>184</ele>
			 </trkpt>
			 <trkpt lat="46.780446" lon="-92.097553">
				 <ele>184</ele>
			 </trkpt>
			 <trkpt lat="46.780499" lon="-92.097481">
				 <ele>184</ele>
			 </trkpt>
			 <trkpt lat="46.780552" lon="-92.097409">
				 <ele>184</ele>
			 </trkpt>
			 <trkpt lat="46.780604" lon="-92.097337">
				 <ele>184</ele>
			 </trkpt>
			 <trkpt lat="46.780657" lon="-92.097265">
				 <ele>184</ele>
			 </trkpt>
			 <trkpt lat="46.78071" lon="-92.097193">
				 <ele>184</ele>
			 </trkpt>
			 <trkpt lat="46.780762" lon="-92.097121">
				 <ele>184</ele>
			 </trkpt>
			 <trkpt lat="46.780815" lon="-92.097049">
				 <ele>184</ele>
			 </trkpt>
			 <trkpt lat="46.780868" lon="-92.096977">
				 <ele>184</ele>
			 </trkpt>
			 <trkpt lat="46.78092" lon="-92.096905">
				 <ele>184</ele>
			 </trkpt>
			 <trkpt lat="46.780973" lon="-92.096855">
				 <ele>184</ele>
			 </trkpt>
			 <trkpt lat="46.781025" lon="-92.096805">
				 <ele>184</ele>
			 </trkpt>
			 <trkpt lat="46.781089" lon="-92.096767">
				 <ele>184</ele>
			 </trkpt>
			 <trkpt lat="46.781153" lon="-92.09673">
				 <ele>184</ele>
			 </trkpt>
			 <trkpt lat="46.781224" lon="-92.096717">
				 <ele>184</ele>
			 </trkpt>
			 <trkpt lat="46.781295" lon="-92.096704">
				 <ele>184</ele>
			 </trkpt>
			 <trkpt lat="46.781345" lon="-92.09671">
				 <ele>184</ele>
			 </trkpt>
			 <trkpt lat="46.781396" lon="-92.096715">
				 <ele>184</ele>
			 </trkpt>
			 <trkpt lat="46.781446" lon="-92.096746">
				 <ele>184</ele>
			 </trkpt>
			 <trkpt lat="46.781496" lon="-92.096777">
				 <ele>184</ele>
			 </trkpt>
			 <trkpt lat="46.781561" lon="-92.096818">
				 <ele>184</ele>
			 </trkpt>
			 <trkpt lat="46.781625" lon="-92.09686">
				 <ele>184</ele>
			 </trkpt>
			 <trkpt lat="46.781689" lon="-92.096902">
				 <ele>184</ele>
			 </trkpt>
			 <trkpt lat="46.781754" lon="-92.096943">
				 <ele>184</ele>
			 </trkpt>
			 <trkpt lat="46.781818" lon="-92.096985">
				 <ele>184</ele>
			 </trkpt>
			 <trkpt lat="46.781883" lon="-92.097027">
				 <ele>184</ele>
			 </trkpt>
			 <trkpt lat="46.781947" lon="-92.097068">
				 <ele>184</ele>
			 </trkpt>
			 <trkpt lat="46.782011" lon="-92.09711">
				 <ele>184</ele>
			 </trkpt>
			 <trkpt lat="46.782076" lon="-92.097152">
				 <ele>184</ele>
			 </trkpt>
			 <trkpt lat="46.78214" lon="-92.097194">
				 <ele>184</ele>
			 </trkpt>
			 <trkpt lat="46.782205" lon="-92.097235">
				 <ele>184</ele>
			 </trkpt>
			 <trkpt lat="46.782269" lon="-92.097277">
				 <ele>184</ele>
			 </trkpt>
			 <trkpt lat="46.782333" lon="-92.097319">
				 <ele>184</ele>
			 </trkpt>
			 <trkpt lat="46.782398" lon="-92.09736">
				 <ele>184</ele>
			 </trkpt>
			 <trkpt lat="46.782462" lon="-92.097402">
				 <ele>184</ele>
			 </trkpt>
			 <trkpt lat="46.782527" lon="-92.097444">
				 <ele>184</ele>
			 </trkpt>
			 <trkpt lat="46.782591" lon="-92.097485">
				 <ele>184</ele>
			 </trkpt>
			 <trkpt lat="46.782655" lon="-92.097527">
				 <ele>184</ele>
			 </trkpt>
			 <trkpt lat="46.78272" lon="-92.097569">
				 <ele>184</ele>
			 </trkpt>
			 <trkpt lat="46.782784" lon="-92.09761">
				 <ele>184</ele>
			 </trkpt>
			 <trkpt lat="46.782849" lon="-92.097652">
				 <ele>184</ele>
			 </trkpt>
			 <trkpt lat="46.782913" lon="-92.097694">
				 <ele>184</ele>
			 </trkpt>
			 <trkpt lat="46.782977" lon="-92.097735">
				 <ele>184</ele>
			 </trkpt>
			 <trkpt lat="46.783042" lon="-92.097777">
				 <ele>184</ele>
			 </trkpt>
			 <trkpt lat="46.783106" lon="-92.097819">
				 <ele>184</ele>
			 </trkpt>
			 <trkpt lat="46.783171" lon="-92.09786">
				 <ele>184</ele>
			 </trkpt>
			 <trkpt lat="46.783235" lon="-92.097902">
				 <ele>184</ele>
			 </trkpt>
			 <trkpt lat="46.7833" lon="-92.097944">
				 <ele>184</ele>
			 </trkpt>
			 <trkpt lat="46.783364" lon="-92.097985">
				 <ele>184</ele>
			 </trkpt>
			 <trkpt lat="46.783428" lon="-92.098027">
				 <ele>184</ele>
			 </trkpt>
			 <trkpt lat="46.783493" lon="-92.098069">
				 <ele>184</ele>
			 </trkpt>
			 <trkpt lat="46.783557" lon="-92.09811">
				 <ele>184</ele>
			 </trkpt>
			 <trkpt lat="46.783622" lon="-92.098152">
				 <ele>184</ele>
			 </trkpt>
			 <trkpt lat="46.783686" lon="-92.098194">
				 <ele>184</ele>
			 </trkpt>
			 <trkpt lat="46.78375" lon="-92.098236">
				 <ele>184.1</ele>
			 </trkpt>
			 <trkpt lat="46.783815" lon="-92.098277">
				 <ele>184.2</ele>
			 </trkpt>
			 <trkpt lat="46.783879" lon="-92.098319">
				 <ele>184.3</ele>
			 </trkpt>
			 <trkpt lat="46.783935" lon="-92.098255">
				 <ele>184.4</ele>
			 </trkpt>
			 <trkpt lat="46.783991" lon="-92.09819">
				 <ele>184.5</ele>
			 </trkpt>
			 <trkpt lat="46.784047" lon="-92.098126">
				 <ele>184.5</ele>
			 </trkpt>
			 <trkpt lat="46.784102" lon="-92.098061">
				 <ele>184.6</ele>
			 </trkpt>
			 <trkpt lat="46.784158" lon="-92.097997">
				 <ele>184.7</ele>
			 </trkpt>
			 <trkpt lat="46.784214" lon="-92.097933">
				 <ele>184.8</ele>
			 </trkpt>
			 <trkpt lat="46.78427" lon="-92.097868">
				 <ele>184.9</ele>
			 </trkpt>
			 <trkpt lat="46.784326" lon="-92.097804">
				 <ele>185</ele>
			 </trkpt>
			 <trkpt lat="46.784382" lon="-92.09774">
				 <ele>185</ele>
			 </trkpt>
			 <trkpt lat="46.78442" lon="-92.097672">
				 <ele>185</ele>
			 </trkpt>
			 <trkpt lat="46.784459" lon="-92.097604">
				 <ele>185</ele>
			 </trkpt>
			 <trkpt lat="46.784497" lon="-92.097536">
				 <ele>185</ele>
			 </trkpt>
			 <trkpt lat="46.784536" lon="-92.097469">
				 <ele>185</ele>
			 </trkpt>
			 <trkpt lat="46.784574" lon="-92.097401">
				 <ele>185</ele>
			 </trkpt>
			 <trkpt lat="46.784613" lon="-92.097333">
				 <ele>185</ele>
			 </trkpt>
			 <trkpt lat="46.784652" lon="-92.097257">
				 <ele>185</ele>
			 </trkpt>
			 <trkpt lat="46.78469" lon="-92.09718">
				 <ele>185</ele>
			 </trkpt>
			 <trkpt lat="46.784729" lon="-92.097104">
				 <ele>185</ele>
			 </trkpt>
			 <trkpt lat="46.784768" lon="-92.097027">
				 <ele>185</ele>
			 </trkpt>
			 <trkpt lat="46.784807" lon="-92.096951">
				 <ele>185</ele>
			 </trkpt>
			 <trkpt lat="46.784833" lon="-92.096913">
				 <ele>185</ele>
			 </trkpt>
			 <trkpt lat="46.78486" lon="-92.096875">
				 <ele>185</ele>
			 </trkpt>
			 <trkpt lat="46.784906" lon="-92.09682">
				 <ele>185</ele>
			 </trkpt>
			 <trkpt lat="46.784952" lon="-92.096766">
				 <ele>185</ele>
			 </trkpt>
			 <trkpt lat="46.784998" lon="-92.096711">
				 <ele>185</ele>
			 </trkpt>
			 <trkpt lat="46.785044" lon="-92.096657">
				 <ele>185</ele>
			 </trkpt>
			 <trkpt lat="46.78509" lon="-92.096602">
				 <ele>185</ele>
			 </trkpt>
			 <trkpt lat="46.785146" lon="-92.096557">
				 <ele>185</ele>
			 </trkpt>
			 <trkpt lat="46.785201" lon="-92.096511">
				 <ele>185</ele>
			 </trkpt>
			 <trkpt lat="46.785257" lon="-92.096466">
				 <ele>185</ele>
			 </trkpt>
			 <trkpt lat="46.785312" lon="-92.09642">
				 <ele>185</ele>
			 </trkpt>
			 <trkpt lat="46.785368" lon="-92.096374">
				 <ele>185</ele>
			 </trkpt>
			 <trkpt lat="46.785423" lon="-92.09634">
				 <ele>185</ele>
			 </trkpt>
			 <trkpt lat="46.785479" lon="-92.096306">
				 <ele>185</ele>
			 </trkpt>
			 <trkpt lat="46.785535" lon="-92.096272">
				 <ele>185</ele>
			 </trkpt>
			 <trkpt lat="46.78559" lon="-92.096238">
				 <ele>185</ele>
			 </trkpt>
			 <trkpt lat="46.785646" lon="-92.096204">
				 <ele>185</ele>
			 </trkpt>
			 <trkpt lat="46.785687" lon="-92.096129">
				 <ele>185</ele>
			 </trkpt>
			 <trkpt lat="46.785728" lon="-92.096054">
				 <ele>185</ele>
			 </trkpt>
			 <trkpt lat="46.78577" lon="-92.095978">
				 <ele>185</ele>
			 </trkpt>
			 <trkpt lat="46.785811" lon="-92.095903">
				 <ele>185</ele>
			 </trkpt>
			 <trkpt lat="46.785852" lon="-92.095828">
				 <ele>185</ele>
			 </trkpt>
			 <trkpt lat="46.785893" lon="-92.095753">
				 <ele>185</ele>
			 </trkpt>
			 <trkpt lat="46.785935" lon="-92.095677">
				 <ele>185</ele>
			 </trkpt>
			 <trkpt lat="46.785976" lon="-92.095602">
				 <ele>185</ele>
			 </trkpt>
			 <trkpt lat="46.786017" lon="-92.095527">
				 <ele>185</ele>
			 </trkpt>
			 <trkpt lat="46.785974" lon="-92.095496">
				 <ele>185</ele>
			 </trkpt>
			 <trkpt lat="46.785904" lon="-92.095482">
				 <ele>185</ele>
			 </trkpt>
			 <trkpt lat="46.785834" lon="-92.095468">
				 <ele>185</ele>
			 </trkpt>
			 <trkpt lat="46.785764" lon="-92.095454">
				 <ele>184.9</ele>
			 </trkpt>
			 <trkpt lat="46.785695" lon="-92.09544">
				 <ele>184.8</ele>
			 </trkpt>
			 <trkpt lat="46.785635" lon="-92.095401">
				 <ele>184.7</ele>
			 </trkpt>
			 <trkpt lat="46.785576" lon="-92.095362">
				 <ele>184.6</ele>
			 </trkpt>
			 <trkpt lat="46.785517" lon="-92.095323">
				 <ele>184.5</ele>
			 </trkpt>
			 <trkpt lat="46.785458" lon="-92.095284">
				 <ele>184.5</ele>
			 </trkpt>
			 <trkpt lat="46.785416" lon="-92.095238">
				 <ele>184.4</ele>
			 </trkpt>
			 <trkpt lat="46.785375" lon="-92.095193">
				 <ele>184.3</ele>
			 </trkpt>
			 <trkpt lat="46.785333" lon="-92.095147">
				 <ele>184.2</ele>
			 </trkpt>
			 <trkpt lat="46.785294" lon="-92.095082">
				 <ele>184.1</ele>
			 </trkpt>
			 <trkpt lat="46.785255" lon="-92.095016">
				 <ele>184</ele>
			 </trkpt>
			 <trkpt lat="46.785216" lon="-92.094951">
				 <ele>184</ele>
			 </trkpt>
			 <trkpt lat="46.785177" lon="-92.094886">
				 <ele>184</ele>
			 </trkpt>
			 <trkpt lat="46.785134" lon="-92.094879">
				 <ele>184</ele>
			 </trkpt>
			 <trkpt lat="46.785104" lon="-92.094899">
				 <ele>184</ele>
			 </trkpt>
			 <trkpt lat="46.785048" lon="-92.09494">
				 <ele>184</ele>
			 </trkpt>
			 <trkpt lat="46.784992" lon="-92.09498">
				 <ele>184</ele>
			 </trkpt>
			 <trkpt lat="46.784935" lon="-92.095021">
				 <ele>184</ele>
			 </trkpt>
			 <trkpt lat="46.784841" lon="-92.094997">
				 <ele>184</ele>
			 </trkpt>
			 <trkpt lat="46.784772" lon="-92.094968">
				 <ele>184</ele>
			 </trkpt>
			 <trkpt lat="46.784703" lon="-92.09494">
				 <ele>184</ele>
			 </trkpt>
			 <trkpt lat="46.784634" lon="-92.094912">
				 <ele>184</ele>
			 </trkpt>
			 <trkpt lat="46.784565" lon="-92.094883">
				 <ele>184</ele>
			 </trkpt>
			 <trkpt lat="46.784497" lon="-92.094855">
				 <ele>184</ele>
			 </trkpt>
			 <trkpt lat="46.784428" lon="-92.094826">
				 <ele>184</ele>
			 </trkpt>
			 <trkpt lat="46.784359" lon="-92.094798">
				 <ele>184</ele>
			 </trkpt>
			 <trkpt lat="46.78429" lon="-92.094769">
				 <ele>184</ele>
			 </trkpt>
			 <trkpt lat="46.784221" lon="-92.094741">
				 <ele>184</ele>
			 </trkpt>
			 <trkpt lat="46.784152" lon="-92.094713">
				 <ele>184</ele>
			 </trkpt>
			 <trkpt lat="46.784084" lon="-92.094684">
				 <ele>184</ele>
			 </trkpt>
			 <trkpt lat="46.784015" lon="-92.094656">
				 <ele>184</ele>
			 </trkpt>
			 <trkpt lat="46.783946" lon="-92.094627">
				 <ele>184</ele>
			 </trkpt>
			 <trkpt lat="46.783877" lon="-92.094599">
				 <ele>184</ele>
			 </trkpt>
			 <trkpt lat="46.783808" lon="-92.09457">
				 <ele>184</ele>
			 </trkpt>
			 <trkpt lat="46.783739" lon="-92.094542">
				 <ele>184</ele>
			 </trkpt>
			 <trkpt lat="46.783671" lon="-92.094514">
				 <ele>184</ele>
			 </trkpt>
			 <trkpt lat="46.783602" lon="-92.094485">
				 <ele>184</ele>
			 </trkpt>
			 <trkpt lat="46.783533" lon="-92.094457">
				 <ele>184</ele>
			 </trkpt>
			 <trkpt lat="46.783464" lon="-92.094428">
				 <ele>184</ele>
			 </trkpt>
			 <trkpt lat="46.783398" lon="-92.094402">
				 <ele>184</ele>
			 </trkpt>
			 <trkpt lat="46.783332" lon="-92.094376">
				 <ele>184</ele>
			 </trkpt>
			 <trkpt lat="46.783266" lon="-92.09435">
				 <ele>184</ele>
			 </trkpt>
			 <trkpt lat="46.7832" lon="-92.094325">
				 <ele>184</ele>
			 </trkpt>
			 <trkpt lat="46.783134" lon="-92.094299">
				 <ele>184</ele>
			 </trkpt>
			 <trkpt lat="46.783068" lon="-92.094273">
				 <ele>184</ele>
			 </trkpt>
			 <trkpt lat="46.783002" lon="-92.094247">
				 <ele>184</ele>
			 </trkpt>
			 <trkpt lat="46.782936" lon="-92.094221">
				 <ele>184</ele>
			 </trkpt>
			 <trkpt lat="46.782871" lon="-92.094195">
				 <ele>184</ele>
			 </trkpt>
			 <trkpt lat="46.782805" lon="-92.094169">
				 <ele>184</ele>
			 </trkpt>
			 <trkpt lat="46.782739" lon="-92.094143">
				 <ele>184</ele>
			 </trkpt>
			 <trkpt lat="46.782683" lon="-92.094118">
				 <ele>184</ele>
			 </trkpt>
			 <trkpt lat="46.782628" lon="-92.094093">
				 <ele>184</ele>
			 </trkpt>
			 <trkpt lat="46.782572" lon="-92.094068">
				 <ele>184</ele>
			 </trkpt>
			 <trkpt lat="46.782516" lon="-92.094044">
				 <ele>184</ele>
			 </trkpt>
			 <trkpt lat="46.782449" lon="-92.094008">
				 <ele>184</ele>
			 </trkpt>
			 <trkpt lat="46.782382" lon="-92.093973">
				 <ele>184</ele>
			 </trkpt>
			 <trkpt lat="46.782314" lon="-92.093938">
				 <ele>184</ele>
			 </trkpt>
			 <trkpt lat="46.782247" lon="-92.093902">
				 <ele>184</ele>
			 </trkpt>
			 <trkpt lat="46.78218" lon="-92.093867">
				 <ele>184</ele>
			 </trkpt>
			 <trkpt lat="46.782112" lon="-92.093832">
				 <ele>184</ele>
			 </trkpt>
		 </trkseg>
	 </trk>
</gpx>