<?xml version="1.0" encoding="UTF-8"?>
 <gpx creator="Garmin Connect" version="1.1"
	 xsi:schemaLocation="http://www.topografix.com/GPX/1/1 http://www.topografix.com/GPX/11.xsd"
	 xmlns:ns3="http://www.garmin.com/xmlschemas/TrackPointExtension/v1"
	 xmlns="http://www.topografix.com/GPX/1/1"
	 xmlns:xsi="http://www.w3.org/2001/XMLSchema-instance" xmlns:ns2="http://www.garmin.com/xmlschemas/GpxExtensions/v3">
	 <metadata>
		<name>The Zurich Marató Barcelona 2025 - 42.195 km</name>
		 <link href="https://www.goandrace.com">
		 <text>Garmin Connect</text>
		 </link>
	 <time>2026-08-23T23:06:19</time>
	 </metadata>
	 <trk>
		 <name>The Zurich Marató Barcelona 2025 - 42.195 km</name>
		 <trkseg>
			 <trkpt lat="41.388797" lon="2.169161">
				 <ele>39</ele>
			 </trkpt>
			 <trkpt lat="41.389139" lon="2.168771">
				 <ele>38.3</ele>
			 </trkpt>
			 <trkpt lat="41.38935" lon="2.168529">
				 <ele>37.9</ele>
			 </trkpt>
			 <trkpt lat="41.38974" lon="2.16877">
				 <ele>37.9</ele>
			 </trkpt>
			 <trkpt lat="41.390059" lon="2.169193">
				 <ele>37.9</ele>
			 </trkpt>
			 <trkpt lat="41.390377" lon="2.169616">
				 <ele>38.1</ele>
			 </trkpt>
			 <trkpt lat="41.390696" lon="2.170039">
				 <ele>38</ele>
			 </trkpt>
			 <trkpt lat="41.391015" lon="2.170461">
				 <ele>37.2</ele>
			 </trkpt>
			 <trkpt lat="41.391333" lon="2.170884">
				 <ele>36.6</ele>
			 </trkpt>
			 <trkpt lat="41.391652" lon="2.171307">
				 <ele>36.2</ele>
			 </trkpt>
			 <trkpt lat="41.391971" lon="2.17173">
				 <ele>36.2</ele>
			 </trkpt>
			 <trkpt lat="41.39229" lon="2.172153">
				 <ele>36.1</ele>
			 </trkpt>
			 <trkpt lat="41.392608" lon="2.172576">
				 <ele>36.1</ele>
			 </trkpt>
			 <trkpt lat="41.392927" lon="2.172998">
				 <ele>36.1</ele>
			 </trkpt>
			 <trkpt lat="41.393246" lon="2.173421">
				 <ele>35.8</ele>
			 </trkpt>
			 <trkpt lat="41.393564" lon="2.173844">
				 <ele>35.2</ele>
			 </trkpt>
			 <trkpt lat="41.393883" lon="2.174267">
				 <ele>34.4</ele>
			 </trkpt>
			 <trkpt lat="41.39396" lon="2.174369">
				 <ele>33.8</ele>
			 </trkpt>
			 <trkpt lat="41.394187" lon="2.174887">
				 <ele>33.9</ele>
			 </trkpt>
			 <trkpt lat="41.394278" lon="2.175095">
				 <ele>34.4</ele>
			 </trkpt>
			 <trkpt lat="41.394449" lon="2.175649">
				 <ele>34.8</ele>
			 </trkpt>
			 <trkpt lat="41.39456" lon="2.17601">
				 <ele>34.8</ele>
			 </trkpt>
			 <trkpt lat="41.39471" lon="2.17615">
				 <ele>34.8</ele>
			 </trkpt>
			 <trkpt lat="41.39483" lon="2.17619">
				 <ele>35</ele>
			 </trkpt>
			 <trkpt lat="41.39502" lon="2.17619">
				 <ele>34.2</ele>
			 </trkpt>
			 <trkpt lat="41.39522" lon="2.17627">
				 <ele>33.7</ele>
			 </trkpt>
			 <trkpt lat="41.39537" lon="2.17636">
				 <ele>33.9</ele>
			 </trkpt>
			 <trkpt lat="41.39573" lon="2.17669">
				 <ele>33.6</ele>
			 </trkpt>
			 <trkpt lat="41.39627" lon="2.17738">
				 <ele>33</ele>
			 </trkpt>
			 <trkpt lat="41.396832" lon="2.178106">
				 <ele>32.1</ele>
			 </trkpt>
			 <trkpt lat="41.397394" lon="2.178832">
				 <ele>31.4</ele>
			 </trkpt>
			 <trkpt lat="41.397956" lon="2.179558">
				 <ele>30.8</ele>
			 </trkpt>
			 <trkpt lat="41.398518" lon="2.180284">
				 <ele>30.8</ele>
			 </trkpt>
			 <trkpt lat="41.39908" lon="2.18101">
				 <ele>31.4</ele>
			 </trkpt>
			 <trkpt lat="41.399333" lon="2.180843">
				 <ele>30.8</ele>
			 </trkpt>
			 <trkpt lat="41.399667" lon="2.180441">
				 <ele>31</ele>
			 </trkpt>
			 <trkpt lat="41.4" lon="2.180039">
				 <ele>30.8</ele>
			 </trkpt>
			 <trkpt lat="41.400334" lon="2.179637">
				 <ele>30.5</ele>
			 </trkpt>
			 <trkpt lat="41.400668" lon="2.179235">
				 <ele>30.6</ele>
			 </trkpt>
			 <trkpt lat="41.401001" lon="2.178833">
				 <ele>31.1</ele>
			 </trkpt>
			 <trkpt lat="41.401335" lon="2.178431">
				 <ele>32.7</ele>
			 </trkpt>
			 <trkpt lat="41.401668" lon="2.178029">
				 <ele>33.7</ele>
			 </trkpt>
			 <trkpt lat="41.4018" lon="2.17787">
				 <ele>34.5</ele>
			 </trkpt>
			 <trkpt lat="41.40181" lon="2.1778">
				 <ele>34.9</ele>
			 </trkpt>
			 <trkpt lat="41.40168" lon="2.17763">
				 <ele>34.8</ele>
			 </trkpt>
			 <trkpt lat="41.401066" lon="2.176807">
				 <ele>35.7</ele>
			 </trkpt>
			 <trkpt lat="41.400452" lon="2.175985">
				 <ele>36.7</ele>
			 </trkpt>
			 <trkpt lat="41.399838" lon="2.175162">
				 <ele>38.4</ele>
			 </trkpt>
			 <trkpt lat="41.399224" lon="2.17434">
				 <ele>39.9</ele>
			 </trkpt>
			 <trkpt lat="41.39861" lon="2.173517">
				 <ele>41.4</ele>
			 </trkpt>
			 <trkpt lat="41.397996" lon="2.172695">
				 <ele>42.4</ele>
			 </trkpt>
			 <trkpt lat="41.397382" lon="2.171872">
				 <ele>42.2</ele>
			 </trkpt>
			 <trkpt lat="41.396769" lon="2.17105">
				 <ele>42.3</ele>
			 </trkpt>
			 <trkpt lat="41.396155" lon="2.170228">
				 <ele>43</ele>
			 </trkpt>
			 <trkpt lat="41.395541" lon="2.169405">
				 <ele>43.6</ele>
			 </trkpt>
			 <trkpt lat="41.394927" lon="2.168583">
				 <ele>44.1</ele>
			 </trkpt>
			 <trkpt lat="41.394313" lon="2.16776">
				 <ele>44.5</ele>
			 </trkpt>
			 <trkpt lat="41.393699" lon="2.166938">
				 <ele>45.5</ele>
			 </trkpt>
			 <trkpt lat="41.393085" lon="2.166116">
				 <ele>45.9</ele>
			 </trkpt>
			 <trkpt lat="41.392471" lon="2.165293">
				 <ele>45.6</ele>
			 </trkpt>
			 <trkpt lat="41.391857" lon="2.164471">
				 <ele>45.5</ele>
			 </trkpt>
			 <trkpt lat="41.391243" lon="2.163649">
				 <ele>45.9</ele>
			 </trkpt>
			 <trkpt lat="41.390629" lon="2.162826">
				 <ele>46.2</ele>
			 </trkpt>
			 <trkpt lat="41.390015" lon="2.162004">
				 <ele>46.2</ele>
			 </trkpt>
			 <trkpt lat="41.389401" lon="2.161182">
				 <ele>45.9</ele>
			 </trkpt>
			 <trkpt lat="41.388787" lon="2.16036">
				 <ele>45.5</ele>
			 </trkpt>
			 <trkpt lat="41.388173" lon="2.159537">
				 <ele>45.1</ele>
			 </trkpt>
			 <trkpt lat="41.387558" lon="2.158715">
				 <ele>44.8</ele>
			 </trkpt>
			 <trkpt lat="41.386944" lon="2.157893">
				 <ele>44</ele>
			 </trkpt>
			 <trkpt lat="41.38633" lon="2.157071">
				 <ele>43.9</ele>
			 </trkpt>
			 <trkpt lat="41.385716" lon="2.156249">
				 <ele>44.4</ele>
			 </trkpt>
			 <trkpt lat="41.385102" lon="2.155426">
				 <ele>44.7</ele>
			 </trkpt>
			 <trkpt lat="41.384488" lon="2.154604">
				 <ele>44.5</ele>
			 </trkpt>
			 <trkpt lat="41.383874" lon="2.153782">
				 <ele>44.6</ele>
			 </trkpt>
			 <trkpt lat="41.38326" lon="2.15296">
				 <ele>44.5</ele>
			 </trkpt>
			 <trkpt lat="41.383243" lon="2.152673">
				 <ele>43.9</ele>
			 </trkpt>
			 <trkpt lat="41.383553" lon="2.152239">
				 <ele>43.5</ele>
			 </trkpt>
			 <trkpt lat="41.383862" lon="2.151804">
				 <ele>43.7</ele>
			 </trkpt>
			 <trkpt lat="41.383947" lon="2.151685">
				 <ele>44</ele>
			 </trkpt>
			 <trkpt lat="41.384265" lon="2.152108">
				 <ele>44.3</ele>
			 </trkpt>
			 <trkpt lat="41.384584" lon="2.152532">
				 <ele>44.2</ele>
			 </trkpt>
			 <trkpt lat="41.384902" lon="2.152955">
				 <ele>44.4</ele>
			 </trkpt>
			 <trkpt lat="41.38522" lon="2.153379">
				 <ele>44.6</ele>
			 </trkpt>
			 <trkpt lat="41.385539" lon="2.153802">
				 <ele>44.8</ele>
			 </trkpt>
			 <trkpt lat="41.385857" lon="2.154225">
				 <ele>44.7</ele>
			 </trkpt>
			 <trkpt lat="41.386175" lon="2.154649">
				 <ele>44.7</ele>
			 </trkpt>
			 <trkpt lat="41.386494" lon="2.155072">
				 <ele>45.1</ele>
			 </trkpt>
			 <trkpt lat="41.386812" lon="2.155496">
				 <ele>46</ele>
			 </trkpt>
			 <trkpt lat="41.38713" lon="2.155919">
				 <ele>46.4</ele>
			 </trkpt>
			 <trkpt lat="41.387448" lon="2.156343">
				 <ele>46.5</ele>
			 </trkpt>
			 <trkpt lat="41.387767" lon="2.156766">
				 <ele>46.9</ele>
			 </trkpt>
			 <trkpt lat="41.388085" lon="2.157189">
				 <ele>46.9</ele>
			 </trkpt>
			 <trkpt lat="41.388403" lon="2.157613">
				 <ele>46.9</ele>
			 </trkpt>
			 <trkpt lat="41.388722" lon="2.158036">
				 <ele>46.9</ele>
			 </trkpt>
			 <trkpt lat="41.38904" lon="2.15846">
				 <ele>47</ele>
			 </trkpt>
			 <trkpt lat="41.389358" lon="2.158883">
				 <ele>47.4</ele>
			 </trkpt>
			 <trkpt lat="41.389677" lon="2.159306">
				 <ele>48.1</ele>
			 </trkpt>
			 <trkpt lat="41.389995" lon="2.15973">
				 <ele>48.5</ele>
			 </trkpt>
			 <trkpt lat="41.390313" lon="2.160153">
				 <ele>48.8</ele>
			 </trkpt>
			 <trkpt lat="41.390632" lon="2.160577">
				 <ele>49.2</ele>
			 </trkpt>
			 <trkpt lat="41.39095" lon="2.161">
				 <ele>49.5</ele>
			 </trkpt>
			 <trkpt lat="41.391268" lon="2.161423">
				 <ele>49.5</ele>
			 </trkpt>
			 <trkpt lat="41.391587" lon="2.161847">
				 <ele>49.4</ele>
			 </trkpt>
			 <trkpt lat="41.391905" lon="2.16227">
				 <ele>49.3</ele>
			 </trkpt>
			 <trkpt lat="41.392223" lon="2.162694">
				 <ele>49</ele>
			 </trkpt>
			 <trkpt lat="41.392541" lon="2.163117">
				 <ele>49.3</ele>
			 </trkpt>
			 <trkpt lat="41.39286" lon="2.16354">
				 <ele>49.6</ele>
			 </trkpt>
			 <trkpt lat="41.393178" lon="2.163964">
				 <ele>49.7</ele>
			 </trkpt>
			 <trkpt lat="41.393496" lon="2.164387">
				 <ele>50</ele>
			 </trkpt>
			 <trkpt lat="41.393815" lon="2.164811">
				 <ele>49.6</ele>
			 </trkpt>
			 <trkpt lat="41.394133" lon="2.165234">
				 <ele>49.1</ele>
			 </trkpt>
			 <trkpt lat="41.394451" lon="2.165657">
				 <ele>48.8</ele>
			 </trkpt>
			 <trkpt lat="41.39477" lon="2.166081">
				 <ele>48.7</ele>
			 </trkpt>
			 <trkpt lat="41.395088" lon="2.166504">
				 <ele>48.5</ele>
			 </trkpt>
			 <trkpt lat="41.395406" lon="2.166928">
				 <ele>48.2</ele>
			 </trkpt>
			 <trkpt lat="41.395725" lon="2.167351">
				 <ele>47.7</ele>
			 </trkpt>
			 <trkpt lat="41.396043" lon="2.167775">
				 <ele>46.9</ele>
			 </trkpt>
			 <trkpt lat="41.396361" lon="2.168198">
				 <ele>46.3</ele>
			 </trkpt>
			 <trkpt lat="41.396679" lon="2.168621">
				 <ele>45.7</ele>
			 </trkpt>
			 <trkpt lat="41.396998" lon="2.169045">
				 <ele>44.7</ele>
			 </trkpt>
			 <trkpt lat="41.397316" lon="2.169468">
				 <ele>44</ele>
			 </trkpt>
			 <trkpt lat="41.397634" lon="2.169892">
				 <ele>43.6</ele>
			 </trkpt>
			 <trkpt lat="41.397953" lon="2.170315">
				 <ele>43.6</ele>
			 </trkpt>
			 <trkpt lat="41.398271" lon="2.170738">
				 <ele>43.7</ele>
			 </trkpt>
			 <trkpt lat="41.398589" lon="2.171162">
				 <ele>44</ele>
			 </trkpt>
			 <trkpt lat="41.398908" lon="2.171585">
				 <ele>44.3</ele>
			 </trkpt>
			 <trkpt lat="41.399226" lon="2.172009">
				 <ele>44.7</ele>
			 </trkpt>
			 <trkpt lat="41.399544" lon="2.172432">
				 <ele>45</ele>
			 </trkpt>
			 <trkpt lat="41.399863" lon="2.172855">
				 <ele>44.6</ele>
			 </trkpt>
			 <trkpt lat="41.400181" lon="2.173279">
				 <ele>44.4</ele>
			 </trkpt>
			 <trkpt lat="41.400499" lon="2.173702">
				 <ele>44.2</ele>
			 </trkpt>
			 <trkpt lat="41.400818" lon="2.174126">
				 <ele>44.1</ele>
			 </trkpt>
			 <trkpt lat="41.401136" lon="2.174549">
				 <ele>43.9</ele>
			 </trkpt>
			 <trkpt lat="41.401454" lon="2.174972">
				 <ele>43.3</ele>
			 </trkpt>
			 <trkpt lat="41.401772" lon="2.175396">
				 <ele>43</ele>
			 </trkpt>
			 <trkpt lat="41.402091" lon="2.175819">
				 <ele>42.6</ele>
			 </trkpt>
			 <trkpt lat="41.402409" lon="2.176243">
				 <ele>42</ele>
			 </trkpt>
			 <trkpt lat="41.402727" lon="2.176666">
				 <ele>41.4</ele>
			 </trkpt>
			 <trkpt lat="41.403046" lon="2.177089">
				 <ele>41.1</ele>
			 </trkpt>
			 <trkpt lat="41.403364" lon="2.177513">
				 <ele>41.4</ele>
			 </trkpt>
			 <trkpt lat="41.403682" lon="2.177936">
				 <ele>41.5</ele>
			 </trkpt>
			 <trkpt lat="41.404001" lon="2.17836">
				 <ele>41.9</ele>
			 </trkpt>
			 <trkpt lat="41.404319" lon="2.178783">
				 <ele>42</ele>
			 </trkpt>
			 <trkpt lat="41.404637" lon="2.179207">
				 <ele>42.2</ele>
			 </trkpt>
			 <trkpt lat="41.404956" lon="2.17963">
				 <ele>42.2</ele>
			 </trkpt>
			 <trkpt lat="41.405274" lon="2.180053">
				 <ele>42</ele>
			 </trkpt>
			 <trkpt lat="41.405592" lon="2.180477">
				 <ele>42.1</ele>
			 </trkpt>
			 <trkpt lat="41.405911" lon="2.1809">
				 <ele>42.3</ele>
			 </trkpt>
			 <trkpt lat="41.406229" lon="2.181324">
				 <ele>42.4</ele>
			 </trkpt>
			 <trkpt lat="41.406547" lon="2.181747">
				 <ele>42.2</ele>
			 </trkpt>
			 <trkpt lat="41.406865" lon="2.18217">
				 <ele>41.9</ele>
			 </trkpt>
			 <trkpt lat="41.407184" lon="2.182594">
				 <ele>41.5</ele>
			 </trkpt>
			 <trkpt lat="41.407502" lon="2.183017">
				 <ele>41</ele>
			 </trkpt>
			 <trkpt lat="41.40782" lon="2.183441">
				 <ele>40.7</ele>
			 </trkpt>
			 <trkpt lat="41.408139" lon="2.183864">
				 <ele>40.4</ele>
			 </trkpt>
			 <trkpt lat="41.408457" lon="2.184287">
				 <ele>39.9</ele>
			 </trkpt>
			 <trkpt lat="41.408775" lon="2.184711">
				 <ele>39.1</ele>
			 </trkpt>
			 <trkpt lat="41.409094" lon="2.185134">
				 <ele>38</ele>
			 </trkpt>
			 <trkpt lat="41.409412" lon="2.185558">
				 <ele>37.1</ele>
			 </trkpt>
			 <trkpt lat="41.40973" lon="2.185981">
				 <ele>36.1</ele>
			 </trkpt>
			 <trkpt lat="41.410049" lon="2.186404">
				 <ele>35.4</ele>
			 </trkpt>
			 <trkpt lat="41.410367" lon="2.186828">
				 <ele>34.8</ele>
			 </trkpt>
			 <trkpt lat="41.410685" lon="2.187251">
				 <ele>34.5</ele>
			 </trkpt>
			 <trkpt lat="41.411003" lon="2.187675">
				 <ele>34</ele>
			 </trkpt>
			 <trkpt lat="41.411322" lon="2.188098">
				 <ele>33.1</ele>
			 </trkpt>
			 <trkpt lat="41.41164" lon="2.188521">
				 <ele>32.2</ele>
			 </trkpt>
			 <trkpt lat="41.411958" lon="2.188945">
				 <ele>31.3</ele>
			 </trkpt>
			 <trkpt lat="41.412277" lon="2.189368">
				 <ele>30.4</ele>
			 </trkpt>
			 <trkpt lat="41.412595" lon="2.189792">
				 <ele>29.5</ele>
			 </trkpt>
			 <trkpt lat="41.412913" lon="2.190215">
				 <ele>28.7</ele>
			 </trkpt>
			 <trkpt lat="41.413232" lon="2.190639">
				 <ele>27.5</ele>
			 </trkpt>
			 <trkpt lat="41.41355" lon="2.191062">
				 <ele>26.6</ele>
			 </trkpt>
			 <trkpt lat="41.413868" lon="2.191485">
				 <ele>25.8</ele>
			 </trkpt>
			 <trkpt lat="41.414187" lon="2.191909">
				 <ele>24.9</ele>
			 </trkpt>
			 <trkpt lat="41.414505" lon="2.192332">
				 <ele>24.2</ele>
			 </trkpt>
			 <trkpt lat="41.414823" lon="2.192756">
				 <ele>23.6</ele>
			 </trkpt>
			 <trkpt lat="41.415142" lon="2.193179">
				 <ele>22.8</ele>
			 </trkpt>
			 <trkpt lat="41.415399" lon="2.193521">
				 <ele>22.3</ele>
			 </trkpt>
			 <trkpt lat="41.41572" lon="2.193101">
				 <ele>22.5</ele>
			 </trkpt>
			 <trkpt lat="41.41604" lon="2.192681">
				 <ele>22.6</ele>
			 </trkpt>
			 <trkpt lat="41.416361" lon="2.19226">
				 <ele>23.3</ele>
			 </trkpt>
			 <trkpt lat="41.416682" lon="2.19184">
				 <ele>24.9</ele>
			 </trkpt>
			 <trkpt lat="41.417002" lon="2.19142">
				 <ele>26.2</ele>
			 </trkpt>
			 <trkpt lat="41.417323" lon="2.190999">
				 <ele>27</ele>
			 </trkpt>
			 <trkpt lat="41.417644" lon="2.190579">
				 <ele>27.9</ele>
			 </trkpt>
			 <trkpt lat="41.417964" lon="2.190159">
				 <ele>29.4</ele>
			 </trkpt>
			 <trkpt lat="41.418285" lon="2.189738">
				 <ele>30.5</ele>
			 </trkpt>
			 <trkpt lat="41.418606" lon="2.189318">
				 <ele>31.3</ele>
			 </trkpt>
			 <trkpt lat="41.418707" lon="2.189185">
				 <ele>31.8</ele>
			 </trkpt>
			 <trkpt lat="41.418903" lon="2.189152">
				 <ele>31.6</ele>
			 </trkpt>
			 <trkpt lat="41.419214" lon="2.189585">
				 <ele>31.7</ele>
			 </trkpt>
			 <trkpt lat="41.419525" lon="2.190018">
				 <ele>31.5</ele>
			 </trkpt>
			 <trkpt lat="41.419836" lon="2.190451">
				 <ele>30.8</ele>
			 </trkpt>
			 <trkpt lat="41.420147" lon="2.190884">
				 <ele>30</ele>
			 </trkpt>
			 <trkpt lat="41.42041" lon="2.19125">
				 <ele>29.3</ele>
			 </trkpt>
			 <trkpt lat="41.42086" lon="2.191234">
				 <ele>28.6</ele>
			 </trkpt>
			 <trkpt lat="41.421309" lon="2.191219">
				 <ele>28</ele>
			 </trkpt>
			 <trkpt lat="41.421759" lon="2.191203">
				 <ele>27.6</ele>
			 </trkpt>
			 <trkpt lat="41.422208" lon="2.191188">
				 <ele>27.7</ele>
			 </trkpt>
			 <trkpt lat="41.422429" lon="2.19118">
				 <ele>28.1</ele>
			 </trkpt>
			 <trkpt lat="41.422535" lon="2.190879">
				 <ele>28.9</ele>
			 </trkpt>
			 <trkpt lat="41.422584" lon="2.190283">
				 <ele>29.6</ele>
			 </trkpt>
			 <trkpt lat="41.422634" lon="2.189687">
				 <ele>30.4</ele>
			 </trkpt>
			 <trkpt lat="41.422683" lon="2.189091">
				 <ele>31</ele>
			 </trkpt>
			 <trkpt lat="41.422733" lon="2.188495">
				 <ele>31.9</ele>
			 </trkpt>
			 <trkpt lat="41.422782" lon="2.187899">
				 <ele>33.2</ele>
			 </trkpt>
			 <trkpt lat="41.422831" lon="2.187303">
				 <ele>34.3</ele>
			 </trkpt>
			 <trkpt lat="41.42284" lon="2.1872">
				 <ele>35.1</ele>
			 </trkpt>
			 <trkpt lat="41.422726" lon="2.187052">
				 <ele>36.1</ele>
			 </trkpt>
			 <trkpt lat="41.422276" lon="2.187049">
				 <ele>37.6</ele>
			 </trkpt>
			 <trkpt lat="41.421826" lon="2.187046">
				 <ele>39.1</ele>
			 </trkpt>
			 <trkpt lat="41.421377" lon="2.187043">
				 <ele>40.1</ele>
			 </trkpt>
			 <trkpt lat="41.420927" lon="2.18704">
				 <ele>40.6</ele>
			 </trkpt>
			 <trkpt lat="41.420477" lon="2.187037">
				 <ele>41</ele>
			 </trkpt>
			 <trkpt lat="41.420028" lon="2.187034">
				 <ele>41.3</ele>
			 </trkpt>
			 <trkpt lat="41.419578" lon="2.18703">
				 <ele>41.5</ele>
			 </trkpt>
			 <trkpt lat="41.419129" lon="2.187027">
				 <ele>41.3</ele>
			 </trkpt>
			 <trkpt lat="41.418679" lon="2.187024">
				 <ele>40.9</ele>
			 </trkpt>
			 <trkpt lat="41.418229" lon="2.187021">
				 <ele>40.5</ele>
			 </trkpt>
			 <trkpt lat="41.41778" lon="2.187018">
				 <ele>40.1</ele>
			 </trkpt>
			 <trkpt lat="41.41733" lon="2.187015">
				 <ele>39.2</ele>
			 </trkpt>
			 <trkpt lat="41.41688" lon="2.187012">
				 <ele>38</ele>
			 </trkpt>
			 <trkpt lat="41.416431" lon="2.187009">
				 <ele>36.9</ele>
			 </trkpt>
			 <trkpt lat="41.415981" lon="2.187006">
				 <ele>36.1</ele>
			 </trkpt>
			 <trkpt lat="41.415531" lon="2.187003">
				 <ele>35.6</ele>
			 </trkpt>
			 <trkpt lat="41.415082" lon="2.187">
				 <ele>35.5</ele>
			 </trkpt>
			 <trkpt lat="41.414632" lon="2.186997">
				 <ele>35.1</ele>
			 </trkpt>
			 <trkpt lat="41.414182" lon="2.186994">
				 <ele>34.9</ele>
			 </trkpt>
			 <trkpt lat="41.413733" lon="2.186991">
				 <ele>35.1</ele>
			 </trkpt>
			 <trkpt lat="41.413283" lon="2.186988">
				 <ele>35.3</ele>
			 </trkpt>
			 <trkpt lat="41.412833" lon="2.186985">
				 <ele>36</ele>
			 </trkpt>
			 <trkpt lat="41.412384" lon="2.186982">
				 <ele>36.5</ele>
			 </trkpt>
			 <trkpt lat="41.41215" lon="2.18698">
				 <ele>37</ele>
			 </trkpt>
			 <trkpt lat="41.41198" lon="2.18676">
				 <ele>37.9</ele>
			 </trkpt>
			 <trkpt lat="41.411345" lon="2.185914">
				 <ele>38.5</ele>
			 </trkpt>
			 <trkpt lat="41.410709" lon="2.185069">
				 <ele>39</ele>
			 </trkpt>
			 <trkpt lat="41.410074" lon="2.184223">
				 <ele>39.1</ele>
			 </trkpt>
			 <trkpt lat="41.409439" lon="2.183378">
				 <ele>39.7</ele>
			 </trkpt>
			 <trkpt lat="41.408803" lon="2.182532">
				 <ele>40.5</ele>
			 </trkpt>
			 <trkpt lat="41.408168" lon="2.181687">
				 <ele>41.2</ele>
			 </trkpt>
			 <trkpt lat="41.407533" lon="2.180841">
				 <ele>41.7</ele>
			 </trkpt>
			 <trkpt lat="41.406897" lon="2.179996">
				 <ele>41</ele>
			 </trkpt>
			 <trkpt lat="41.406262" lon="2.17915">
				 <ele>41.8</ele>
			 </trkpt>
			 <trkpt lat="41.405627" lon="2.178305">
				 <ele>42</ele>
			 </trkpt>
			 <trkpt lat="41.404991" lon="2.177459">
				 <ele>42.5</ele>
			 </trkpt>
			 <trkpt lat="41.404356" lon="2.176614">
				 <ele>43.7</ele>
			 </trkpt>
			 <trkpt lat="41.40372" lon="2.175769">
				 <ele>44.5</ele>
			 </trkpt>
			 <trkpt lat="41.403085" lon="2.174923">
				 <ele>45.5</ele>
			 </trkpt>
			 <trkpt lat="41.40245" lon="2.174078">
				 <ele>45.8</ele>
			 </trkpt>
			 <trkpt lat="41.401814" lon="2.173233">
				 <ele>46.3</ele>
			 </trkpt>
			 <trkpt lat="41.401179" lon="2.172387">
				 <ele>46.3</ele>
			 </trkpt>
			 <trkpt lat="41.400543" lon="2.171542">
				 <ele>46.8</ele>
			 </trkpt>
			 <trkpt lat="41.399908" lon="2.170697">
				 <ele>48.3</ele>
			 </trkpt>
			 <trkpt lat="41.399272" lon="2.169851">
				 <ele>48.4</ele>
			 </trkpt>
			 <trkpt lat="41.398637" lon="2.169006">
				 <ele>49.2</ele>
			 </trkpt>
			 <trkpt lat="41.398001" lon="2.168161">
				 <ele>49.6</ele>
			 </trkpt>
			 <trkpt lat="41.397366" lon="2.167316">
				 <ele>49.6</ele>
			 </trkpt>
			 <trkpt lat="41.396731" lon="2.166471">
				 <ele>49.6</ele>
			 </trkpt>
			 <trkpt lat="41.396095" lon="2.165625">
				 <ele>49.7</ele>
			 </trkpt>
			 <trkpt lat="41.39546" lon="2.16478">
				 <ele>50.2</ele>
			 </trkpt>
			 <trkpt lat="41.394824" lon="2.163935">
				 <ele>50.5</ele>
			 </trkpt>
			 <trkpt lat="41.394189" lon="2.16309">
				 <ele>50.7</ele>
			 </trkpt>
			 <trkpt lat="41.393553" lon="2.162245">
				 <ele>50.7</ele>
			 </trkpt>
			 <trkpt lat="41.392918" lon="2.1614">
				 <ele>50.6</ele>
			 </trkpt>
			 <trkpt lat="41.392282" lon="2.160555">
				 <ele>50.7</ele>
			 </trkpt>
			 <trkpt lat="41.391647" lon="2.15971">
				 <ele>50.5</ele>
			 </trkpt>
			 <trkpt lat="41.391011" lon="2.158865">
				 <ele>49.8</ele>
			 </trkpt>
			 <trkpt lat="41.390376" lon="2.158019">
				 <ele>49.4</ele>
			 </trkpt>
			 <trkpt lat="41.38974" lon="2.157174">
				 <ele>49.2</ele>
			 </trkpt>
			 <trkpt lat="41.389105" lon="2.156329">
				 <ele>48.5</ele>
			 </trkpt>
			 <trkpt lat="41.388469" lon="2.155484">
				 <ele>48.3</ele>
			 </trkpt>
			 <trkpt lat="41.387833" lon="2.154639">
				 <ele>48.2</ele>
			 </trkpt>
			 <trkpt lat="41.387198" lon="2.153795">
				 <ele>48.3</ele>
			 </trkpt>
			 <trkpt lat="41.386562" lon="2.15295">
				 <ele>48</ele>
			 </trkpt>
			 <trkpt lat="41.385927" lon="2.152105">
				 <ele>48</ele>
			 </trkpt>
			 <trkpt lat="41.385291" lon="2.15126">
				 <ele>47.6</ele>
			 </trkpt>
			 <trkpt lat="41.384656" lon="2.150415">
				 <ele>47.3</ele>
			 </trkpt>
			 <trkpt lat="41.38402" lon="2.14957">
				 <ele>47.3</ele>
			 </trkpt>
			 <trkpt lat="41.38392" lon="2.14943">
				 <ele>46.9</ele>
			 </trkpt>
			 <trkpt lat="41.383604" lon="2.149856">
				 <ele>46.1</ele>
			 </trkpt>
			 <trkpt lat="41.383288" lon="2.150282">
				 <ele>45.6</ele>
			 </trkpt>
			 <trkpt lat="41.382972" lon="2.150709">
				 <ele>44.5</ele>
			 </trkpt>
			 <trkpt lat="41.382655" lon="2.151135">
				 <ele>43.2</ele>
			 </trkpt>
			 <trkpt lat="41.382339" lon="2.151561">
				 <ele>42.3</ele>
			 </trkpt>
			 <trkpt lat="41.382023" lon="2.151987">
				 <ele>41</ele>
			 </trkpt>
			 <trkpt lat="41.381707" lon="2.152413">
				 <ele>39.4</ele>
			 </trkpt>
			 <trkpt lat="41.381391" lon="2.152839">
				 <ele>38.1</ele>
			 </trkpt>
			 <trkpt lat="41.381075" lon="2.153266">
				 <ele>37</ele>
			 </trkpt>
			 <trkpt lat="41.380759" lon="2.153692">
				 <ele>35.9</ele>
			 </trkpt>
			 <trkpt lat="41.380442" lon="2.154118">
				 <ele>35.1</ele>
			 </trkpt>
			 <trkpt lat="41.380126" lon="2.154544">
				 <ele>35.1</ele>
			 </trkpt>
			 <trkpt lat="41.37981" lon="2.15497">
				 <ele>34.8</ele>
			 </trkpt>
			 <trkpt lat="41.379763" lon="2.155034">
				 <ele>34.6</ele>
			 </trkpt>
			 <trkpt lat="41.37971" lon="2.15533">
				 <ele>34.1</ele>
			 </trkpt>
			 <trkpt lat="41.380295" lon="2.15611">
				 <ele>33.7</ele>
			 </trkpt>
			 <trkpt lat="41.38088" lon="2.15689">
				 <ele>33.9</ele>
			 </trkpt>
			 <trkpt lat="41.381465" lon="2.15767">
				 <ele>34.2</ele>
			 </trkpt>
			 <trkpt lat="41.38205" lon="2.15845">
				 <ele>34.2</ele>
			 </trkpt>
			 <trkpt lat="41.382635" lon="2.15923">
				 <ele>34.1</ele>
			 </trkpt>
			 <trkpt lat="41.38322" lon="2.16001">
				 <ele>33.8</ele>
			 </trkpt>
			 <trkpt lat="41.383805" lon="2.16079">
				 <ele>33.6</ele>
			 </trkpt>
			 <trkpt lat="41.38439" lon="2.16157">
				 <ele>33.6</ele>
			 </trkpt>
			 <trkpt lat="41.384975" lon="2.16235">
				 <ele>33.8</ele>
			 </trkpt>
			 <trkpt lat="41.38556" lon="2.16313">
				 <ele>34.8</ele>
			 </trkpt>
			 <trkpt lat="41.38598" lon="2.16368">
				 <ele>35.1</ele>
			 </trkpt>
			 <trkpt lat="41.3864" lon="2.16423">
				 <ele>35.3</ele>
			 </trkpt>
			 <trkpt lat="41.38681" lon="2.1648">
				 <ele>35.7</ele>
			 </trkpt>
			 <trkpt lat="41.38722" lon="2.16537">
				 <ele>35.9</ele>
			 </trkpt>
			 <trkpt lat="41.38775" lon="2.16605">
				 <ele>36</ele>
			 </trkpt>
			 <trkpt lat="41.38828" lon="2.16673">
				 <ele>36.2</ele>
			 </trkpt>
			 <trkpt lat="41.388315" lon="2.167269">
				 <ele>36.5</ele>
			 </trkpt>
			 <trkpt lat="41.387988" lon="2.16768">
				 <ele>37</ele>
			 </trkpt>
			 <trkpt lat="41.387661" lon="2.168092">
				 <ele>37.2</ele>
			 </trkpt>
			 <trkpt lat="41.38752" lon="2.16827">
				 <ele>37.3</ele>
			 </trkpt>
			 <trkpt lat="41.387365" lon="2.168243">
				 <ele>36.5</ele>
			 </trkpt>
			 <trkpt lat="41.387155" lon="2.167713">
				 <ele>36.5</ele>
			 </trkpt>
			 <trkpt lat="41.386946" lon="2.167182">
				 <ele>36</ele>
			 </trkpt>
			 <trkpt lat="41.386736" lon="2.166652">
				 <ele>35</ele>
			 </trkpt>
			 <trkpt lat="41.386527" lon="2.166121">
				 <ele>34.4</ele>
			 </trkpt>
			 <trkpt lat="41.386318" lon="2.165591">
				 <ele>34.4</ele>
			 </trkpt>
			 <trkpt lat="41.386108" lon="2.165061">
				 <ele>34.3</ele>
			 </trkpt>
			 <trkpt lat="41.38595" lon="2.16466">
				 <ele>34.2</ele>
			 </trkpt>
			 <trkpt lat="41.385598" lon="2.164287">
				 <ele>33.8</ele>
			 </trkpt>
			 <trkpt lat="41.385327" lon="2.164">
				 <ele>33.3</ele>
			 </trkpt>
			 <trkpt lat="41.38488" lon="2.163934">
				 <ele>33</ele>
			 </trkpt>
			 <trkpt lat="41.384434" lon="2.163868">
				 <ele>32.9</ele>
			 </trkpt>
			 <trkpt lat="41.384174" lon="2.16383">
				 <ele>32.7</ele>
			 </trkpt>
			 <trkpt lat="41.383856" lon="2.163408">
				 <ele>32.8</ele>
			 </trkpt>
			 <trkpt lat="41.383537" lon="2.162985">
				 <ele>33.5</ele>
			 </trkpt>
			 <trkpt lat="41.383218" lon="2.162562">
				 <ele>33.8</ele>
			 </trkpt>
			 <trkpt lat="41.382899" lon="2.162139">
				 <ele>33.9</ele>
			 </trkpt>
			 <trkpt lat="41.382581" lon="2.161717">
				 <ele>34.5</ele>
			 </trkpt>
			 <trkpt lat="41.382262" lon="2.161294">
				 <ele>34.9</ele>
			 </trkpt>
			 <trkpt lat="41.381943" lon="2.160871">
				 <ele>35.1</ele>
			 </trkpt>
			 <trkpt lat="41.381624" lon="2.160449">
				 <ele>35</ele>
			 </trkpt>
			 <trkpt lat="41.381306" lon="2.160026">
				 <ele>35</ele>
			 </trkpt>
			 <trkpt lat="41.380987" lon="2.159603">
				 <ele>35.1</ele>
			 </trkpt>
			 <trkpt lat="41.380668" lon="2.159181">
				 <ele>35.2</ele>
			 </trkpt>
			 <trkpt lat="41.380349" lon="2.158758">
				 <ele>35.4</ele>
			 </trkpt>
			 <trkpt lat="41.380031" lon="2.158335">
				 <ele>35</ele>
			 </trkpt>
			 <trkpt lat="41.379712" lon="2.157913">
				 <ele>35</ele>
			 </trkpt>
			 <trkpt lat="41.379393" lon="2.15749">
				 <ele>35.3</ele>
			 </trkpt>
			 <trkpt lat="41.379074" lon="2.157067">
				 <ele>35.2</ele>
			 </trkpt>
			 <trkpt lat="41.378756" lon="2.156644">
				 <ele>35</ele>
			 </trkpt>
			 <trkpt lat="41.378437" lon="2.156222">
				 <ele>35.2</ele>
			 </trkpt>
			 <trkpt lat="41.378118" lon="2.155799">
				 <ele>35.5</ele>
			 </trkpt>
			 <trkpt lat="41.377871" lon="2.155471">
				 <ele>35.4</ele>
			 </trkpt>
			 <trkpt lat="41.377722" lon="2.155429">
				 <ele>35.1</ele>
			 </trkpt>
			 <trkpt lat="41.377407" lon="2.155856">
				 <ele>35</ele>
			 </trkpt>
			 <trkpt lat="41.377091" lon="2.156283">
				 <ele>34.7</ele>
			 </trkpt>
			 <trkpt lat="41.3771" lon="2.15654">
				 <ele>34.7</ele>
			 </trkpt>
			 <trkpt lat="41.377397" lon="2.156989">
				 <ele>34.8</ele>
			 </trkpt>
			 <trkpt lat="41.377695" lon="2.157439">
				 <ele>34.5</ele>
			 </trkpt>
			 <trkpt lat="41.377829" lon="2.157642">
				 <ele>34.4</ele>
			 </trkpt>
			 <trkpt lat="41.378148" lon="2.158064">
				 <ele>34.5</ele>
			 </trkpt>
			 <trkpt lat="41.378467" lon="2.158486">
				 <ele>34.3</ele>
			 </trkpt>
			 <trkpt lat="41.378786" lon="2.158909">
				 <ele>34</ele>
			 </trkpt>
			 <trkpt lat="41.379105" lon="2.159331">
				 <ele>33.7</ele>
			 </trkpt>
			 <trkpt lat="41.379424" lon="2.159753">
				 <ele>33.3</ele>
			 </trkpt>
			 <trkpt lat="41.379743" lon="2.160176">
				 <ele>32.5</ele>
			 </trkpt>
			 <trkpt lat="41.380062" lon="2.160598">
				 <ele>31.6</ele>
			 </trkpt>
			 <trkpt lat="41.38029" lon="2.1609">
				 <ele>30.5</ele>
			 </trkpt>
			 <trkpt lat="41.379977" lon="2.161331">
				 <ele>29</ele>
			 </trkpt>
			 <trkpt lat="41.379665" lon="2.161762">
				 <ele>27.6</ele>
			 </trkpt>
			 <trkpt lat="41.379352" lon="2.162192">
				 <ele>26.5</ele>
			 </trkpt>
			 <trkpt lat="41.37904" lon="2.162623">
				 <ele>25.6</ele>
			 </trkpt>
			 <trkpt lat="41.378765" lon="2.163001">
				 <ele>25</ele>
			 </trkpt>
			 <trkpt lat="41.378663" lon="2.163098">
				 <ele>24.7</ele>
			 </trkpt>
			 <trkpt lat="41.37858" lon="2.16312">
				 <ele>24.8</ele>
			 </trkpt>
			 <trkpt lat="41.378262" lon="2.162696">
				 <ele>24.8</ele>
			 </trkpt>
			 <trkpt lat="41.377944" lon="2.162273">
				 <ele>25.6</ele>
			 </trkpt>
			 <trkpt lat="41.377626" lon="2.161849">
				 <ele>26.7</ele>
			 </trkpt>
			 <trkpt lat="41.377308" lon="2.161425">
				 <ele>28.2</ele>
			 </trkpt>
			 <trkpt lat="41.37699" lon="2.161001">
				 <ele>29.4</ele>
			 </trkpt>
			 <trkpt lat="41.376672" lon="2.160578">
				 <ele>30.5</ele>
			 </trkpt>
			 <trkpt lat="41.376354" lon="2.160154">
				 <ele>31.5</ele>
			 </trkpt>
			 <trkpt lat="41.376036" lon="2.15973">
				 <ele>32.6</ele>
			 </trkpt>
			 <trkpt lat="41.375809" lon="2.159426">
				 <ele>32.8</ele>
			 </trkpt>
			 <trkpt lat="41.375482" lon="2.159014">
				 <ele>33.2</ele>
			 </trkpt>
			 <trkpt lat="41.37529" lon="2.158771">
				 <ele>32.9</ele>
			 </trkpt>
			 <trkpt lat="41.37505" lon="2.15881">
				 <ele>32.9</ele>
			 </trkpt>
			 <trkpt lat="41.375045" lon="2.159945">
				 <ele>31.9</ele>
			 </trkpt>
			 <trkpt lat="41.37504" lon="2.16108">
				 <ele>31.1</ele>
			 </trkpt>
			 <trkpt lat="41.375037" lon="2.162247">
				 <ele>30.6</ele>
			 </trkpt>
			 <trkpt lat="41.375034" lon="2.163414">
				 <ele>29.5</ele>
			 </trkpt>
			 <trkpt lat="41.375031" lon="2.164581">
				 <ele>28</ele>
			 </trkpt>
			 <trkpt lat="41.375029" lon="2.165749">
				 <ele>26.1</ele>
			 </trkpt>
			 <trkpt lat="41.375026" lon="2.166916">
				 <ele>23.9</ele>
			 </trkpt>
			 <trkpt lat="41.375023" lon="2.168083">
				 <ele>22.5</ele>
			 </trkpt>
			 <trkpt lat="41.37502" lon="2.16925">
				 <ele>20.5</ele>
			 </trkpt>
			 <trkpt lat="41.37501" lon="2.17006">
				 <ele>19.1</ele>
			 </trkpt>
			 <trkpt lat="41.374948" lon="2.171022">
				 <ele>17.5</ele>
			 </trkpt>
			 <trkpt lat="41.374886" lon="2.171984">
				 <ele>16.3</ele>
			 </trkpt>
			 <trkpt lat="41.374824" lon="2.172946">
				 <ele>14.5</ele>
			 </trkpt>
			 <trkpt lat="41.374762" lon="2.173908">
				 <ele>12.3</ele>
			 </trkpt>
			 <trkpt lat="41.3747" lon="2.17487">
				 <ele>11.1</ele>
			 </trkpt>
			 <trkpt lat="41.37465" lon="2.17535">
				 <ele>10.5</ele>
			 </trkpt>
			 <trkpt lat="41.37453" lon="2.17557">
				 <ele>10.2</ele>
			 </trkpt>
			 <trkpt lat="41.37443" lon="2.17573">
				 <ele>9.8</ele>
			 </trkpt>
			 <trkpt lat="41.37443" lon="2.17618">
				 <ele>9.4</ele>
			 </trkpt>
			 <trkpt lat="41.37446" lon="2.17642">
				 <ele>8.8</ele>
			 </trkpt>
			 <trkpt lat="41.37449" lon="2.17655">
				 <ele>8.2</ele>
			 </trkpt>
			 <trkpt lat="41.37454" lon="2.17665">
				 <ele>7.8</ele>
			 </trkpt>
			 <trkpt lat="41.374933" lon="2.176942">
				 <ele>7.7</ele>
			 </trkpt>
			 <trkpt lat="41.375326" lon="2.177234">
				 <ele>7.8</ele>
			 </trkpt>
			 <trkpt lat="41.375442" lon="2.17732">
				 <ele>8.1</ele>
			 </trkpt>
			 <trkpt lat="41.375767" lon="2.177435">
				 <ele>8.5</ele>
			 </trkpt>
			 <trkpt lat="41.376025" lon="2.177602">
				 <ele>9</ele>
			 </trkpt>
			 <trkpt lat="41.376304" lon="2.178057">
				 <ele>9.4</ele>
			 </trkpt>
			 <trkpt lat="41.376683" lon="2.178378">
				 <ele>9.4</ele>
			 </trkpt>
			 <trkpt lat="41.377062" lon="2.1787">
				 <ele>9.5</ele>
			 </trkpt>
			 <trkpt lat="41.377441" lon="2.179022">
				 <ele>9.5</ele>
			 </trkpt>
			 <trkpt lat="41.377821" lon="2.179344">
				 <ele>9.2</ele>
			 </trkpt>
			 <trkpt lat="41.3782" lon="2.179666">
				 <ele>8.8</ele>
			 </trkpt>
			 <trkpt lat="41.378579" lon="2.179988">
				 <ele>8.7</ele>
			 </trkpt>
			 <trkpt lat="41.378959" lon="2.18031">
				 <ele>8.6</ele>
			 </trkpt>
			 <trkpt lat="41.379338" lon="2.180631">
				 <ele>8.5</ele>
			 </trkpt>
			 <trkpt lat="41.379717" lon="2.180953">
				 <ele>8.2</ele>
			 </trkpt>
			 <trkpt lat="41.380097" lon="2.181275">
				 <ele>8.2</ele>
			 </trkpt>
			 <trkpt lat="41.380476" lon="2.181597">
				 <ele>8.1</ele>
			 </trkpt>
			 <trkpt lat="41.380855" lon="2.181919">
				 <ele>8.3</ele>
			 </trkpt>
			 <trkpt lat="41.381235" lon="2.182241">
				 <ele>8.8</ele>
			 </trkpt>
			 <trkpt lat="41.381614" lon="2.182563">
				 <ele>9.8</ele>
			 </trkpt>
			 <trkpt lat="41.381993" lon="2.182884">
				 <ele>11.4</ele>
			 </trkpt>
			 <trkpt lat="41.382372" lon="2.183206">
				 <ele>12.9</ele>
			 </trkpt>
			 <trkpt lat="41.382752" lon="2.183528">
				 <ele>14.3</ele>
			 </trkpt>
			 <trkpt lat="41.383131" lon="2.18385">
				 <ele>15.2</ele>
			 </trkpt>
			 <trkpt lat="41.38351" lon="2.184172">
				 <ele>15.4</ele>
			 </trkpt>
			 <trkpt lat="41.38389" lon="2.184494">
				 <ele>15.4</ele>
			 </trkpt>
			 <trkpt lat="41.384269" lon="2.184815">
				 <ele>15.5</ele>
			 </trkpt>
			 <trkpt lat="41.384648" lon="2.185137">
				 <ele>15.8</ele>
			 </trkpt>
			 <trkpt lat="41.385028" lon="2.185459">
				 <ele>16.2</ele>
			 </trkpt>
			 <trkpt lat="41.385407" lon="2.185781">
				 <ele>16.2</ele>
			 </trkpt>
			 <trkpt lat="41.3855" lon="2.18586">
				 <ele>15.8</ele>
			 </trkpt>
			 <trkpt lat="41.38583" lon="2.185453">
				 <ele>15.2</ele>
			 </trkpt>
			 <trkpt lat="41.38616" lon="2.185046">
				 <ele>14.6</ele>
			 </trkpt>
			 <trkpt lat="41.38649" lon="2.184639">
				 <ele>14.3</ele>
			 </trkpt>
			 <trkpt lat="41.38682" lon="2.184232">
				 <ele>14.3</ele>
			 </trkpt>
			 <trkpt lat="41.387151" lon="2.183825">
				 <ele>14.5</ele>
			 </trkpt>
			 <trkpt lat="41.387481" lon="2.183418">
				 <ele>14.7</ele>
			 </trkpt>
			 <trkpt lat="41.387811" lon="2.183011">
				 <ele>14.3</ele>
			 </trkpt>
			 <trkpt lat="41.388087" lon="2.182671">
				 <ele>14.1</ele>
			 </trkpt>
			 <trkpt lat="41.38819" lon="2.18271">
				 <ele>14.1</ele>
			 </trkpt>
			 <trkpt lat="41.388508" lon="2.183134">
				 <ele>14.3</ele>
			 </trkpt>
			 <trkpt lat="41.388826" lon="2.183558">
				 <ele>14.5</ele>
			 </trkpt>
			 <trkpt lat="41.389144" lon="2.183982">
				 <ele>14.6</ele>
			 </trkpt>
			 <trkpt lat="41.389462" lon="2.184406">
				 <ele>14.5</ele>
			 </trkpt>
			 <trkpt lat="41.389779" lon="2.184829">
				 <ele>14</ele>
			 </trkpt>
			 <trkpt lat="41.390097" lon="2.185253">
				 <ele>13.5</ele>
			 </trkpt>
			 <trkpt lat="41.390415" lon="2.185677">
				 <ele>13.5</ele>
			 </trkpt>
			 <trkpt lat="41.390733" lon="2.186101">
				 <ele>14.1</ele>
			 </trkpt>
			 <trkpt lat="41.391051" lon="2.186525">
				 <ele>15</ele>
			 </trkpt>
			 <trkpt lat="41.391369" lon="2.186949">
				 <ele>15.5</ele>
			 </trkpt>
			 <trkpt lat="41.391687" lon="2.187373">
				 <ele>15.5</ele>
			 </trkpt>
			 <trkpt lat="41.392005" lon="2.187797">
				 <ele>15.5</ele>
			 </trkpt>
			 <trkpt lat="41.392323" lon="2.188221">
				 <ele>15.6</ele>
			 </trkpt>
			 <trkpt lat="41.392641" lon="2.188645">
				 <ele>15.6</ele>
			 </trkpt>
			 <trkpt lat="41.392892" lon="2.18898">
				 <ele>15.4</ele>
			 </trkpt>
			 <trkpt lat="41.3929" lon="2.18927">
				 <ele>15.5</ele>
			 </trkpt>
			 <trkpt lat="41.39283" lon="2.18936">
				 <ele>15.5</ele>
			 </trkpt>
			 <trkpt lat="41.39223" lon="2.190156">
				 <ele>15.4</ele>
			 </trkpt>
			 <trkpt lat="41.39163" lon="2.190953">
				 <ele>15</ele>
			 </trkpt>
			 <trkpt lat="41.39103" lon="2.191749">
				 <ele>14.1</ele>
			 </trkpt>
			 <trkpt lat="41.39043" lon="2.192545">
				 <ele>13.3</ele>
			 </trkpt>
			 <trkpt lat="41.38983" lon="2.193341">
				 <ele>12.7</ele>
			 </trkpt>
			 <trkpt lat="41.38923" lon="2.194138">
				 <ele>12.3</ele>
			 </trkpt>
			 <trkpt lat="41.38863" lon="2.194934">
				 <ele>11.7</ele>
			 </trkpt>
			 <trkpt lat="41.38803" lon="2.19573">
				 <ele>11.5</ele>
			 </trkpt>
			 <trkpt lat="41.38793" lon="2.19586">
				 <ele>11.8</ele>
			 </trkpt>
			 <trkpt lat="41.38788" lon="2.19581">
				 <ele>12.4</ele>
			 </trkpt>
			 <trkpt lat="41.38777" lon="2.1958">
				 <ele>13.7</ele>
			 </trkpt>
			 <trkpt lat="41.3876" lon="2.19585">
				 <ele>15.1</ele>
			 </trkpt>
			 <trkpt lat="41.38754" lon="2.19591">
				 <ele>16.7</ele>
			 </trkpt>
			 <trkpt lat="41.38749" lon="2.196">
				 <ele>18.7</ele>
			 </trkpt>
			 <trkpt lat="41.38745" lon="2.19612">
				 <ele>20</ele>
			 </trkpt>
			 <trkpt lat="41.38746" lon="2.19634">
				 <ele>19.8</ele>
			 </trkpt>
			 <trkpt lat="41.38748" lon="2.19638">
				 <ele>19.4</ele>
			 </trkpt>
			 <trkpt lat="41.38762" lon="2.19657">
				 <ele>18.8</ele>
			 </trkpt>
			 <trkpt lat="41.38766" lon="2.1966">
				 <ele>18.3</ele>
			 </trkpt>
			 <trkpt lat="41.38784" lon="2.19685">
				 <ele>17.6</ele>
			 </trkpt>
			 <trkpt lat="41.38812" lon="2.19725">
				 <ele>16.7</ele>
			 </trkpt>
			 <trkpt lat="41.38835" lon="2.19761">
				 <ele>15.3</ele>
			 </trkpt>
			 <trkpt lat="41.38853" lon="2.19807">
				 <ele>13.7</ele>
			 </trkpt>
			 <trkpt lat="41.38865" lon="2.19856">
				 <ele>11.7</ele>
			 </trkpt>
			 <trkpt lat="41.38877" lon="2.19886">
				 <ele>9.9</ele>
			 </trkpt>
			 <trkpt lat="41.38892" lon="2.19911">
				 <ele>8.8</ele>
			 </trkpt>
			 <trkpt lat="41.38916" lon="2.19943">
				 <ele>9.1</ele>
			 </trkpt>
			 <trkpt lat="41.38948" lon="2.1997">
				 <ele>9.5</ele>
			 </trkpt>
			 <trkpt lat="41.38972" lon="2.19982">
				 <ele>9.5</ele>
			 </trkpt>
			 <trkpt lat="41.38998" lon="2.20001">
				 <ele>9.3</ele>
			 </trkpt>
			 <trkpt lat="41.39031" lon="2.20029">
				 <ele>9.2</ele>
			 </trkpt>
			 <trkpt lat="41.39075" lon="2.20081">
				 <ele>9.1</ele>
			 </trkpt>
			 <trkpt lat="41.39102" lon="2.20125">
				 <ele>9</ele>
			 </trkpt>
			 <trkpt lat="41.39122" lon="2.20164">
				 <ele>8.8</ele>
			 </trkpt>
			 <trkpt lat="41.39136" lon="2.20201">
				 <ele>8.5</ele>
			 </trkpt>
			 <trkpt lat="41.39157" lon="2.20268">
				 <ele>8.2</ele>
			 </trkpt>
			 <trkpt lat="41.39175" lon="2.20313">
				 <ele>7.5</ele>
			 </trkpt>
			 <trkpt lat="41.39217" lon="2.20388">
				 <ele>6.7</ele>
			 </trkpt>
			 <trkpt lat="41.39237" lon="2.2041">
				 <ele>6.3</ele>
			 </trkpt>
			 <trkpt lat="41.3925" lon="2.20429">
				 <ele>6.2</ele>
			 </trkpt>
			 <trkpt lat="41.39279" lon="2.20455">
				 <ele>6.5</ele>
			 </trkpt>
			 <trkpt lat="41.39323" lon="2.20483">
				 <ele>6.5</ele>
			 </trkpt>
			 <trkpt lat="41.39344" lon="2.20492">
				 <ele>6.2</ele>
			 </trkpt>
			 <trkpt lat="41.39414" lon="2.20538">
				 <ele>6</ele>
			 </trkpt>
			 <trkpt lat="41.39456" lon="2.20576">
				 <ele>5.8</ele>
			 </trkpt>
			 <trkpt lat="41.39462" lon="2.20578">
				 <ele>5.7</ele>
			 </trkpt>
			 <trkpt lat="41.39514" lon="2.20642">
				 <ele>5.4</ele>
			 </trkpt>
			 <trkpt lat="41.39542" lon="2.20682">
				 <ele>5.2</ele>
			 </trkpt>
			 <trkpt lat="41.39578" lon="2.2073">
				 <ele>5.3</ele>
			 </trkpt>
			 <trkpt lat="41.39614" lon="2.20778">
				 <ele>5.5</ele>
			 </trkpt>
			 <trkpt lat="41.39635" lon="2.20803">
				 <ele>5.8</ele>
			 </trkpt>
			 <trkpt lat="41.39654" lon="2.2082">
				 <ele>6.5</ele>
			 </trkpt>
			 <trkpt lat="41.3967" lon="2.20831">
				 <ele>7.1</ele>
			 </trkpt>
			 <trkpt lat="41.39719" lon="2.20854">
				 <ele>7.7</ele>
			 </trkpt>
			 <trkpt lat="41.39764" lon="2.20868">
				 <ele>7.9</ele>
			 </trkpt>
			 <trkpt lat="41.39784" lon="2.20878">
				 <ele>8.1</ele>
			 </trkpt>
			 <trkpt lat="41.39813" lon="2.20898">
				 <ele>8.3</ele>
			 </trkpt>
			 <trkpt lat="41.39842" lon="2.20922">
				 <ele>8.5</ele>
			 </trkpt>
			 <trkpt lat="41.3986" lon="2.20934">
				 <ele>9</ele>
			 </trkpt>
			 <trkpt lat="41.39901" lon="2.209675">
				 <ele>9.2</ele>
			 </trkpt>
			 <trkpt lat="41.39942" lon="2.21001">
				 <ele>9.1</ele>
			 </trkpt>
			 <trkpt lat="41.39974" lon="2.21033">
				 <ele>8.8</ele>
			 </trkpt>
			 <trkpt lat="41.40011" lon="2.21075">
				 <ele>8.1</ele>
			 </trkpt>
			 <trkpt lat="41.40042" lon="2.21115">
				 <ele>7.6</ele>
			 </trkpt>
			 <trkpt lat="41.40076" lon="2.21163">
				 <ele>7.6</ele>
			 </trkpt>
			 <trkpt lat="41.40108" lon="2.21221">
				 <ele>7.9</ele>
			 </trkpt>
			 <trkpt lat="41.40121" lon="2.21249">
				 <ele>7.9</ele>
			 </trkpt>
			 <trkpt lat="41.40155" lon="2.21311">
				 <ele>8.1</ele>
			 </trkpt>
			 <trkpt lat="41.40182" lon="2.21352">
				 <ele>8.1</ele>
			 </trkpt>
			 <trkpt lat="41.40233" lon="2.21415">
				 <ele>8</ele>
			 </trkpt>
			 <trkpt lat="41.40259" lon="2.21444">
				 <ele>8.3</ele>
			 </trkpt>
			 <trkpt lat="41.40285" lon="2.21477">
				 <ele>8.6</ele>
			 </trkpt>
			 <trkpt lat="41.403387" lon="2.21548">
				 <ele>8.9</ele>
			 </trkpt>
			 <trkpt lat="41.403923" lon="2.21619">
				 <ele>9.4</ele>
			 </trkpt>
			 <trkpt lat="41.40446" lon="2.2169">
				 <ele>9.7</ele>
			 </trkpt>
			 <trkpt lat="41.40491" lon="2.21747">
				 <ele>9.6</ele>
			 </trkpt>
			 <trkpt lat="41.40536" lon="2.21804">
				 <ele>9.7</ele>
			 </trkpt>
			 <trkpt lat="41.4058" lon="2.21863">
				 <ele>9.5</ele>
			 </trkpt>
			 <trkpt lat="41.40624" lon="2.21922">
				 <ele>9</ele>
			 </trkpt>
			 <trkpt lat="41.40635" lon="2.2191">
				 <ele>8.9</ele>
			 </trkpt>
			 <trkpt lat="41.40676" lon="2.21855">
				 <ele>8.6</ele>
			 </trkpt>
			 <trkpt lat="41.40711" lon="2.21814">
				 <ele>8.3</ele>
			 </trkpt>
			 <trkpt lat="41.407685" lon="2.21736">
				 <ele>8.2</ele>
			 </trkpt>
			 <trkpt lat="41.40826" lon="2.21658">
				 <ele>8</ele>
			 </trkpt>
			 <trkpt lat="41.408634" lon="2.216912">
				 <ele>7.5</ele>
			 </trkpt>
			 <trkpt lat="41.409009" lon="2.217244">
				 <ele>6.7</ele>
			 </trkpt>
			 <trkpt lat="41.409383" lon="2.217576">
				 <ele>6</ele>
			 </trkpt>
			 <trkpt lat="41.409758" lon="2.217908">
				 <ele>5.2</ele>
			 </trkpt>
			 <trkpt lat="41.410132" lon="2.21824">
				 <ele>5</ele>
			 </trkpt>
			 <trkpt lat="41.410506" lon="2.218572">
				 <ele>5.5</ele>
			 </trkpt>
			 <trkpt lat="41.410881" lon="2.218905">
				 <ele>6.5</ele>
			 </trkpt>
			 <trkpt lat="41.411109" lon="2.219107">
				 <ele>6.9</ele>
			 </trkpt>
			 <trkpt lat="41.411169" lon="2.218906">
				 <ele>6.8</ele>
			 </trkpt>
			 <trkpt lat="41.411139" lon="2.218679">
				 <ele>6.5</ele>
			 </trkpt>
			 <trkpt lat="41.411002" lon="2.218108">
				 <ele>6.3</ele>
			 </trkpt>
			 <trkpt lat="41.410864" lon="2.217537">
				 <ele>6.5</ele>
			 </trkpt>
			 <trkpt lat="41.410727" lon="2.216966">
				 <ele>7.4</ele>
			 </trkpt>
			 <trkpt lat="41.410589" lon="2.216395">
				 <ele>8.7</ele>
			 </trkpt>
			 <trkpt lat="41.410451" lon="2.215825">
				 <ele>9.7</ele>
			 </trkpt>
			 <trkpt lat="41.410314" lon="2.215254">
				 <ele>10.5</ele>
			 </trkpt>
			 <trkpt lat="41.410176" lon="2.214683">
				 <ele>10.5</ele>
			 </trkpt>
			 <trkpt lat="41.410039" lon="2.214112">
				 <ele>10.2</ele>
			 </trkpt>
			 <trkpt lat="41.409901" lon="2.213541">
				 <ele>10.7</ele>
			 </trkpt>
			 <trkpt lat="41.409764" lon="2.212971">
				 <ele>11.4</ele>
			 </trkpt>
			 <trkpt lat="41.409626" lon="2.2124">
				 <ele>12</ele>
			 </trkpt>
			 <trkpt lat="41.409489" lon="2.211829">
				 <ele>12.5</ele>
			 </trkpt>
			 <trkpt lat="41.409351" lon="2.211258">
				 <ele>12.9</ele>
			 </trkpt>
			 <trkpt lat="41.409214" lon="2.210687">
				 <ele>12.6</ele>
			 </trkpt>
			 <trkpt lat="41.409076" lon="2.210117">
				 <ele>12</ele>
			 </trkpt>
			 <trkpt lat="41.408939" lon="2.209546">
				 <ele>11.4</ele>
			 </trkpt>
			 <trkpt lat="41.408801" lon="2.208975">
				 <ele>10.9</ele>
			 </trkpt>
			 <trkpt lat="41.408663" lon="2.208404">
				 <ele>10.5</ele>
			 </trkpt>
			 <trkpt lat="41.408526" lon="2.207833">
				 <ele>9.9</ele>
			 </trkpt>
			 <trkpt lat="41.408388" lon="2.207263">
				 <ele>9.5</ele>
			 </trkpt>
			 <trkpt lat="41.408251" lon="2.206692">
				 <ele>9.5</ele>
			 </trkpt>
			 <trkpt lat="41.408113" lon="2.206121">
				 <ele>9.5</ele>
			 </trkpt>
			 <trkpt lat="41.407976" lon="2.20555">
				 <ele>9.2</ele>
			 </trkpt>
			 <trkpt lat="41.407838" lon="2.204979">
				 <ele>8.7</ele>
			 </trkpt>
			 <trkpt lat="41.407701" lon="2.204409">
				 <ele>8.4</ele>
			 </trkpt>
			 <trkpt lat="41.407563" lon="2.203838">
				 <ele>7.7</ele>
			 </trkpt>
			 <trkpt lat="41.407426" lon="2.203267">
				 <ele>7.5</ele>
			 </trkpt>
			 <trkpt lat="41.407288" lon="2.202696">
				 <ele>7.5</ele>
			 </trkpt>
			 <trkpt lat="41.407151" lon="2.202125">
				 <ele>7.5</ele>
			 </trkpt>
			 <trkpt lat="41.407013" lon="2.201555">
				 <ele>7.6</ele>
			 </trkpt>
			 <trkpt lat="41.406875" lon="2.200984">
				 <ele>7.8</ele>
			 </trkpt>
			 <trkpt lat="41.406738" lon="2.200413">
				 <ele>7.7</ele>
			 </trkpt>
			 <trkpt lat="41.4066" lon="2.199842">
				 <ele>7.7</ele>
			 </trkpt>
			 <trkpt lat="41.406463" lon="2.199272">
				 <ele>7.7</ele>
			 </trkpt>
			 <trkpt lat="41.406325" lon="2.198701">
				 <ele>8.2</ele>
			 </trkpt>
			 <trkpt lat="41.406188" lon="2.19813">
				 <ele>8.8</ele>
			 </trkpt>
			 <trkpt lat="41.40605" lon="2.197559">
				 <ele>10</ele>
			 </trkpt>
			 <trkpt lat="41.405913" lon="2.196988">
				 <ele>11.2</ele>
			 </trkpt>
			 <trkpt lat="41.405775" lon="2.196418">
				 <ele>11.9</ele>
			 </trkpt>
			 <trkpt lat="41.405638" lon="2.195847">
				 <ele>12.8</ele>
			 </trkpt>
			 <trkpt lat="41.4055" lon="2.195276">
				 <ele>13.9</ele>
			 </trkpt>
			 <trkpt lat="41.405363" lon="2.194705">
				 <ele>14.8</ele>
			 </trkpt>
			 <trkpt lat="41.405225" lon="2.194134">
				 <ele>15.9</ele>
			 </trkpt>
			 <trkpt lat="41.405088" lon="2.193564">
				 <ele>16.9</ele>
			 </trkpt>
			 <trkpt lat="41.40495" lon="2.192993">
				 <ele>18.1</ele>
			 </trkpt>
			 <trkpt lat="41.404812" lon="2.192422">
				 <ele>18.7</ele>
			 </trkpt>
			 <trkpt lat="41.404675" lon="2.191851">
				 <ele>19.4</ele>
			 </trkpt>
			 <trkpt lat="41.404537" lon="2.19128">
				 <ele>19.6</ele>
			 </trkpt>
			 <trkpt lat="41.4044" lon="2.19071">
				 <ele>19.6</ele>
			 </trkpt>
			 <trkpt lat="41.404366" lon="2.190567">
				 <ele>19.5</ele>
			 </trkpt>
			 <trkpt lat="41.404184" lon="2.190663">
				 <ele>18.8</ele>
			 </trkpt>
			 <trkpt lat="41.404314" lon="2.191237">
				 <ele>17.8</ele>
			 </trkpt>
			 <trkpt lat="41.404443" lon="2.191811">
				 <ele>17.1</ele>
			 </trkpt>
			 <trkpt lat="41.404573" lon="2.192385">
				 <ele>15.9</ele>
			 </trkpt>
			 <trkpt lat="41.404703" lon="2.192959">
				 <ele>14.9</ele>
			 </trkpt>
			 <trkpt lat="41.404832" lon="2.193533">
				 <ele>13.8</ele>
			 </trkpt>
			 <trkpt lat="41.404919" lon="2.193917">
				 <ele>13.1</ele>
			 </trkpt>
			 <trkpt lat="41.405061" lon="2.194486">
				 <ele>12.3</ele>
			 </trkpt>
			 <trkpt lat="41.405203" lon="2.195055">
				 <ele>11.5</ele>
			 </trkpt>
			 <trkpt lat="41.405344" lon="2.195624">
				 <ele>10.6</ele>
			 </trkpt>
			 <trkpt lat="41.405486" lon="2.196193">
				 <ele>10.1</ele>
			 </trkpt>
			 <trkpt lat="41.405628" lon="2.196762">
				 <ele>9.8</ele>
			 </trkpt>
			 <trkpt lat="41.40577" lon="2.197331">
				 <ele>9.5</ele>
			 </trkpt>
			 <trkpt lat="41.405911" lon="2.1979">
				 <ele>8.4</ele>
			 </trkpt>
			 <trkpt lat="41.406053" lon="2.198469">
				 <ele>7.6</ele>
			 </trkpt>
			 <trkpt lat="41.406195" lon="2.199038">
				 <ele>7.1</ele>
			 </trkpt>
			 <trkpt lat="41.406337" lon="2.199607">
				 <ele>6.7</ele>
			 </trkpt>
			 <trkpt lat="41.406479" lon="2.200176">
				 <ele>6.7</ele>
			 </trkpt>
			 <trkpt lat="41.40662" lon="2.200745">
				 <ele>7</ele>
			 </trkpt>
			 <trkpt lat="41.406762" lon="2.201314">
				 <ele>7.4</ele>
			 </trkpt>
			 <trkpt lat="41.406904" lon="2.201883">
				 <ele>7.3</ele>
			 </trkpt>
			 <trkpt lat="41.407046" lon="2.202451">
				 <ele>7</ele>
			 </trkpt>
			 <trkpt lat="41.407187" lon="2.20302">
				 <ele>7.1</ele>
			 </trkpt>
			 <trkpt lat="41.407329" lon="2.203589">
				 <ele>7.2</ele>
			 </trkpt>
			 <trkpt lat="41.407471" lon="2.204158">
				 <ele>7.8</ele>
			 </trkpt>
			 <trkpt lat="41.407613" lon="2.204727">
				 <ele>8.5</ele>
			 </trkpt>
			 <trkpt lat="41.407754" lon="2.205296">
				 <ele>8.9</ele>
			 </trkpt>
			 <trkpt lat="41.407896" lon="2.205865">
				 <ele>9.4</ele>
			 </trkpt>
			 <trkpt lat="41.408038" lon="2.206434">
				 <ele>9.4</ele>
			 </trkpt>
			 <trkpt lat="41.40818" lon="2.207003">
				 <ele>9</ele>
			 </trkpt>
			 <trkpt lat="41.408321" lon="2.207572">
				 <ele>8.6</ele>
			 </trkpt>
			 <trkpt lat="41.408463" lon="2.208141">
				 <ele>9.2</ele>
			 </trkpt>
			 <trkpt lat="41.408605" lon="2.20871">
				 <ele>9.9</ele>
			 </trkpt>
			 <trkpt lat="41.408747" lon="2.209279">
				 <ele>10.2</ele>
			 </trkpt>
			 <trkpt lat="41.408888" lon="2.209848">
				 <ele>10.5</ele>
			 </trkpt>
			 <trkpt lat="41.40903" lon="2.210417">
				 <ele>10.8</ele>
			 </trkpt>
			 <trkpt lat="41.409172" lon="2.210986">
				 <ele>11.2</ele>
			 </trkpt>
			 <trkpt lat="41.409193" lon="2.211072">
				 <ele>11.7</ele>
			 </trkpt>
			 <trkpt lat="41.409331" lon="2.211643">
				 <ele>11.9</ele>
			 </trkpt>
			 <trkpt lat="41.409468" lon="2.212214">
				 <ele>12</ele>
			 </trkpt>
			 <trkpt lat="41.409605" lon="2.212785">
				 <ele>11.8</ele>
			 </trkpt>
			 <trkpt lat="41.409742" lon="2.213356">
				 <ele>11.7</ele>
			 </trkpt>
			 <trkpt lat="41.409778" lon="2.213506">
				 <ele>11.4</ele>
			 </trkpt>
			 <trkpt lat="41.409722" lon="2.213538">
				 <ele>11</ele>
			 </trkpt>
			 <trkpt lat="41.409583" lon="2.213474">
				 <ele>10.9</ele>
			 </trkpt>
			 <trkpt lat="41.409264" lon="2.213051">
				 <ele>11</ele>
			 </trkpt>
			 <trkpt lat="41.408945" lon="2.212629">
				 <ele>11.2</ele>
			 </trkpt>
			 <trkpt lat="41.408625" lon="2.212206">
				 <ele>11.2</ele>
			 </trkpt>
			 <trkpt lat="41.408306" lon="2.211784">
				 <ele>11.1</ele>
			 </trkpt>
			 <trkpt lat="41.407987" lon="2.211361">
				 <ele>11.2</ele>
			 </trkpt>
			 <trkpt lat="41.407668" lon="2.210939">
				 <ele>11.1</ele>
			 </trkpt>
			 <trkpt lat="41.407349" lon="2.210516">
				 <ele>11.3</ele>
			 </trkpt>
			 <trkpt lat="41.40703" lon="2.210094">
				 <ele>11.5</ele>
			 </trkpt>
			 <trkpt lat="41.406711" lon="2.209671">
				 <ele>11.5</ele>
			 </trkpt>
			 <trkpt lat="41.406392" lon="2.209249">
				 <ele>11.6</ele>
			 </trkpt>
			 <trkpt lat="41.406073" lon="2.208826">
				 <ele>11.9</ele>
			 </trkpt>
			 <trkpt lat="41.405754" lon="2.208404">
				 <ele>12</ele>
			 </trkpt>
			 <trkpt lat="41.405435" lon="2.207981">
				 <ele>12.1</ele>
			 </trkpt>
			 <trkpt lat="41.405116" lon="2.207559">
				 <ele>12.2</ele>
			 </trkpt>
			 <trkpt lat="41.404797" lon="2.207136">
				 <ele>11.9</ele>
			 </trkpt>
			 <trkpt lat="41.404478" lon="2.206714">
				 <ele>11.7</ele>
			 </trkpt>
			 <trkpt lat="41.404159" lon="2.206291">
				 <ele>11.8</ele>
			 </trkpt>
			 <trkpt lat="41.40384" lon="2.205869">
				 <ele>11.9</ele>
			 </trkpt>
			 <trkpt lat="41.403521" lon="2.205447">
				 <ele>11.7</ele>
			 </trkpt>
			 <trkpt lat="41.403202" lon="2.205024">
				 <ele>11.9</ele>
			 </trkpt>
			 <trkpt lat="41.402883" lon="2.204602">
				 <ele>12.2</ele>
			 </trkpt>
			 <trkpt lat="41.402564" lon="2.204179">
				 <ele>12.5</ele>
			 </trkpt>
			 <trkpt lat="41.402462" lon="2.204045">
				 <ele>13</ele>
			 </trkpt>
			 <trkpt lat="41.40214" lon="2.203628">
				 <ele>13.5</ele>
			 </trkpt>
			 <trkpt lat="41.401817" lon="2.20321">
				 <ele>13.3</ele>
			 </trkpt>
			 <trkpt lat="41.401494" lon="2.202793">
				 <ele>13.2</ele>
			 </trkpt>
			 <trkpt lat="41.401171" lon="2.202376">
				 <ele>13.1</ele>
			 </trkpt>
			 <trkpt lat="41.400848" lon="2.201959">
				 <ele>13.2</ele>
			 </trkpt>
			 <trkpt lat="41.40071" lon="2.20178">
				 <ele>13.1</ele>
			 </trkpt>
			 <trkpt lat="41.400415" lon="2.201327">
				 <ele>13.1</ele>
			 </trkpt>
			 <trkpt lat="41.40012" lon="2.200874">
				 <ele>12.9</ele>
			 </trkpt>
			 <trkpt lat="41.4" lon="2.20069">
				 <ele>12.3</ele>
			 </trkpt>
			 <trkpt lat="41.399992" lon="2.200404">
				 <ele>11.6</ele>
			 </trkpt>
			 <trkpt lat="41.400303" lon="2.199971">
				 <ele>10.7</ele>
			 </trkpt>
			 <trkpt lat="41.400613" lon="2.199538">
				 <ele>10</ele>
			 </trkpt>
			 <trkpt lat="41.400677" lon="2.199448">
				 <ele>9.9</ele>
			 </trkpt>
			 <trkpt lat="41.401007" lon="2.199041">
				 <ele>9.8</ele>
			 </trkpt>
			 <trkpt lat="41.401338" lon="2.198635">
				 <ele>9.6</ele>
			 </trkpt>
			 <trkpt lat="41.401466" lon="2.198476">
				 <ele>9.5</ele>
			 </trkpt>
			 <trkpt lat="41.401422" lon="2.198115">
				 <ele>9.9</ele>
			 </trkpt>
			 <trkpt lat="41.401106" lon="2.197689">
				 <ele>10.3</ele>
			 </trkpt>
			 <trkpt lat="41.40079" lon="2.197263">
				 <ele>10.7</ele>
			 </trkpt>
			 <trkpt lat="41.400473" lon="2.196837">
				 <ele>11.2</ele>
			 </trkpt>
			 <trkpt lat="41.400157" lon="2.196411">
				 <ele>11.5</ele>
			 </trkpt>
			 <trkpt lat="41.399841" lon="2.195984">
				 <ele>11.7</ele>
			 </trkpt>
			 <trkpt lat="41.399525" lon="2.195558">
				 <ele>12.1</ele>
			 </trkpt>
			 <trkpt lat="41.399209" lon="2.195132">
				 <ele>12.5</ele>
			 </trkpt>
			 <trkpt lat="41.398892" lon="2.194706">
				 <ele>13</ele>
			 </trkpt>
			 <trkpt lat="41.398576" lon="2.19428">
				 <ele>13.6</ele>
			 </trkpt>
			 <trkpt lat="41.39826" lon="2.193854">
				 <ele>13.8</ele>
			 </trkpt>
			 <trkpt lat="41.397944" lon="2.193427">
				 <ele>13.6</ele>
			 </trkpt>
			 <trkpt lat="41.397627" lon="2.193001">
				 <ele>13.5</ele>
			 </trkpt>
			 <trkpt lat="41.397311" lon="2.192575">
				 <ele>13.5</ele>
			 </trkpt>
			 <trkpt lat="41.396995" lon="2.192149">
				 <ele>13.3</ele>
			 </trkpt>
			 <trkpt lat="41.396679" lon="2.191723">
				 <ele>13.3</ele>
			 </trkpt>
			 <trkpt lat="41.39659" lon="2.191604">
				 <ele>13.1</ele>
			 </trkpt>
			 <trkpt lat="41.396467" lon="2.191678">
				 <ele>12.5</ele>
			 </trkpt>
			 <trkpt lat="41.39615" lon="2.192103">
				 <ele>11.8</ele>
			 </trkpt>
			 <trkpt lat="41.395833" lon="2.192528">
				 <ele>11.3</ele>
			 </trkpt>
			 <trkpt lat="41.395516" lon="2.192953">
				 <ele>10.6</ele>
			 </trkpt>
			 <trkpt lat="41.395199" lon="2.193378">
				 <ele>10.1</ele>
			 </trkpt>
			 <trkpt lat="41.394882" lon="2.193804">
				 <ele>9.8</ele>
			 </trkpt>
			 <trkpt lat="41.394565" lon="2.194229">
				 <ele>9.6</ele>
			 </trkpt>
			 <trkpt lat="41.394247" lon="2.194654">
				 <ele>9.5</ele>
			 </trkpt>
			 <trkpt lat="41.39393" lon="2.195079">
				 <ele>9.7</ele>
			 </trkpt>
			 <trkpt lat="41.393613" lon="2.195504">
				 <ele>9.7</ele>
			 </trkpt>
			 <trkpt lat="41.393296" lon="2.195929">
				 <ele>9.9</ele>
			 </trkpt>
			 <trkpt lat="41.392979" lon="2.196354">
				 <ele>10.3</ele>
			 </trkpt>
			 <trkpt lat="41.392662" lon="2.196779">
				 <ele>10.5</ele>
			 </trkpt>
			 <trkpt lat="41.392345" lon="2.197204">
				 <ele>10.9</ele>
			 </trkpt>
			 <trkpt lat="41.392028" lon="2.197629">
				 <ele>11.4</ele>
			 </trkpt>
			 <trkpt lat="41.391711" lon="2.198054">
				 <ele>11.9</ele>
			 </trkpt>
			 <trkpt lat="41.391394" lon="2.198479">
				 <ele>12.1</ele>
			 </trkpt>
			 <trkpt lat="41.391077" lon="2.198904">
				 <ele>12.1</ele>
			 </trkpt>
			 <trkpt lat="41.39076" lon="2.199329">
				 <ele>11.9</ele>
			 </trkpt>
			 <trkpt lat="41.39064" lon="2.19949">
				 <ele>12.1</ele>
			 </trkpt>
			 <trkpt lat="41.39056" lon="2.19937">
				 <ele>12.3</ele>
			 </trkpt>
			 <trkpt lat="41.389945" lon="2.19856">
				 <ele>12.2</ele>
			 </trkpt>
			 <trkpt lat="41.38933" lon="2.19775">
				 <ele>12.4</ele>
			 </trkpt>
			 <trkpt lat="41.388715" lon="2.19694">
				 <ele>12.3</ele>
			 </trkpt>
			 <trkpt lat="41.3881" lon="2.19613">
				 <ele>12.2</ele>
			 </trkpt>
			 <trkpt lat="41.38805" lon="2.19606">
				 <ele>11.8</ele>
			 </trkpt>
			 <trkpt lat="41.388367" lon="2.195634">
				 <ele>11.5</ele>
			 </trkpt>
			 <trkpt lat="41.388683" lon="2.195209">
				 <ele>11.5</ele>
			 </trkpt>
			 <trkpt lat="41.389" lon="2.194783">
				 <ele>11.8</ele>
			 </trkpt>
			 <trkpt lat="41.389317" lon="2.194358">
				 <ele>11.8</ele>
			 </trkpt>
			 <trkpt lat="41.389633" lon="2.193932">
				 <ele>11.6</ele>
			 </trkpt>
			 <trkpt lat="41.38995" lon="2.193507">
				 <ele>11.6</ele>
			 </trkpt>
			 <trkpt lat="41.390267" lon="2.193081">
				 <ele>12.1</ele>
			 </trkpt>
			 <trkpt lat="41.390583" lon="2.192656">
				 <ele>12.4</ele>
			 </trkpt>
			 <trkpt lat="41.3909" lon="2.19223">
				 <ele>12.9</ele>
			 </trkpt>
			 <trkpt lat="41.391217" lon="2.191805">
				 <ele>13.2</ele>
			 </trkpt>
			 <trkpt lat="41.391533" lon="2.191379">
				 <ele>13.9</ele>
			 </trkpt>
			 <trkpt lat="41.39185" lon="2.190954">
				 <ele>14.8</ele>
			 </trkpt>
			 <trkpt lat="41.392167" lon="2.190528">
				 <ele>15.5</ele>
			 </trkpt>
			 <trkpt lat="41.392483" lon="2.190103">
				 <ele>16.2</ele>
			 </trkpt>
			 <trkpt lat="41.3928" lon="2.189677">
				 <ele>17.1</ele>
			 </trkpt>
			 <trkpt lat="41.393117" lon="2.189252">
				 <ele>17.7</ele>
			 </trkpt>
			 <trkpt lat="41.393433" lon="2.188826">
				 <ele>18</ele>
			 </trkpt>
			 <trkpt lat="41.39375" lon="2.188401">
				 <ele>17.9</ele>
			 </trkpt>
			 <trkpt lat="41.394067" lon="2.187975">
				 <ele>17.9</ele>
			 </trkpt>
			 <trkpt lat="41.394384" lon="2.187549">
				 <ele>18.3</ele>
			 </trkpt>
			 <trkpt lat="41.39454" lon="2.18734">
				 <ele>18.6</ele>
			 </trkpt>
			 <trkpt lat="41.394527" lon="2.18674">
				 <ele>18.7</ele>
			 </trkpt>
			 <trkpt lat="41.394524" lon="2.186596">
				 <ele>18.6</ele>
			 </trkpt>
			 <trkpt lat="41.394214" lon="2.186161">
				 <ele>18.3</ele>
			 </trkpt>
			 <trkpt lat="41.393905" lon="2.185727">
				 <ele>17.7</ele>
			 </trkpt>
			 <trkpt lat="41.393595" lon="2.185292">
				 <ele>17.5</ele>
			 </trkpt>
			 <trkpt lat="41.393286" lon="2.184857">
				 <ele>17.8</ele>
			 </trkpt>
			 <trkpt lat="41.392976" lon="2.184422">
				 <ele>18.7</ele>
			 </trkpt>
			 <trkpt lat="41.392666" lon="2.183988">
				 <ele>19.6</ele>
			 </trkpt>
			 <trkpt lat="41.392357" lon="2.183553">
				 <ele>19.8</ele>
			 </trkpt>
			 <trkpt lat="41.392047" lon="2.183118">
				 <ele>19.9</ele>
			 </trkpt>
			 <trkpt lat="41.391738" lon="2.182683">
				 <ele>20.5</ele>
			 </trkpt>
			 <trkpt lat="41.3916" lon="2.18249">
				 <ele>21.2</ele>
			 </trkpt>
			 <trkpt lat="41.3916" lon="2.18228">
				 <ele>22</ele>
			 </trkpt>
			 <trkpt lat="41.392158" lon="2.181508">
				 <ele>23</ele>
			 </trkpt>
			 <trkpt lat="41.392715" lon="2.180735">
				 <ele>24.5</ele>
			 </trkpt>
			 <trkpt lat="41.393273" lon="2.179963">
				 <ele>25.9</ele>
			 </trkpt>
			 <trkpt lat="41.39383" lon="2.17919">
				 <ele>27.1</ele>
			 </trkpt>
			 <trkpt lat="41.3939" lon="2.17911">
				 <ele>27.7</ele>
			 </trkpt>
			 <trkpt lat="41.39377" lon="2.17893">
				 <ele>29</ele>
			 </trkpt>
			 <trkpt lat="41.393142" lon="2.178104">
				 <ele>30.8</ele>
			 </trkpt>
			 <trkpt lat="41.392514" lon="2.177278">
				 <ele>32.5</ele>
			 </trkpt>
			 <trkpt lat="41.391886" lon="2.176452">
				 <ele>33.2</ele>
			 </trkpt>
			 <trkpt lat="41.391258" lon="2.175626">
				 <ele>33.5</ele>
			 </trkpt>
			 <trkpt lat="41.39063" lon="2.1748">
				 <ele>33.9</ele>
			 </trkpt>
			 <trkpt lat="41.39044" lon="2.17478">
				 <ele>34.3</ele>
			 </trkpt>
			 <trkpt lat="41.39039" lon="2.17483">
				 <ele>34.4</ele>
			 </trkpt>
			 <trkpt lat="41.3901" lon="2.17523">
				 <ele>34.5</ele>
			 </trkpt>
			 <trkpt lat="41.39005" lon="2.17529">
				 <ele>34.1</ele>
			 </trkpt>
			 <trkpt lat="41.39002" lon="2.17536">
				 <ele>33.5</ele>
			 </trkpt>
			 <trkpt lat="41.39007" lon="2.17554">
				 <ele>32.1</ele>
			 </trkpt>
			 <trkpt lat="41.39043" lon="2.176565">
				 <ele>30.5</ele>
			 </trkpt>
			 <trkpt lat="41.39079" lon="2.17759">
				 <ele>28.9</ele>
			 </trkpt>
			 <trkpt lat="41.39115" lon="2.178615">
				 <ele>27.7</ele>
			 </trkpt>
			 <trkpt lat="41.39151" lon="2.17964">
				 <ele>26.7</ele>
			 </trkpt>
			 <trkpt lat="41.39158" lon="2.17982">
				 <ele>25.6</ele>
			 </trkpt>
			 <trkpt lat="41.39157" lon="2.17993">
				 <ele>24.5</ele>
			 </trkpt>
			 <trkpt lat="41.39146" lon="2.18006">
				 <ele>23.7</ele>
			 </trkpt>
			 <trkpt lat="41.3913" lon="2.18029">
				 <ele>22.7</ele>
			 </trkpt>
			 <trkpt lat="41.39128" lon="2.18034">
				 <ele>21.5</ele>
			 </trkpt>
			 <trkpt lat="41.39093" lon="2.1808">
				 <ele>20.9</ele>
			 </trkpt>
			 <trkpt lat="41.39058" lon="2.18126">
				 <ele>20.3</ele>
			 </trkpt>
		 </trkseg>
	 </trk>
</gpx>