<?xml version="1.0" encoding="UTF-8"?>
 <gpx creator="Garmin Connect" version="1.1"
	 xsi:schemaLocation="http://www.topografix.com/GPX/1/1 http://www.topografix.com/GPX/11.xsd"
	 xmlns:ns3="http://www.garmin.com/xmlschemas/TrackPointExtension/v1"
	 xmlns="http://www.topografix.com/GPX/1/1"
	 xmlns:xsi="http://www.w3.org/2001/XMLSchema-instance" xmlns:ns2="http://www.garmin.com/xmlschemas/GpxExtensions/v3">
	 <metadata>
		<name>EDP Lisbon Marathon 2024 - 21.098 km</name>
		 <link href="https://www.goandrace.com">
		 <text>Garmin Connect</text>
		 </link>
	 <time>2026-08-23T23:37:30</time>
	 </metadata>
	 <trk>
		 <name>EDP Lisbon Marathon 2024 - 21.098 km</name>
		 <trkseg>
			 <trkpt lat="38.769705" lon="-9.05305">
				 <ele>25</ele>
			 </trkpt>
			 <trkpt lat="38.77092" lon="-9.054711">
				 <ele>25</ele>
			 </trkpt>
			 <trkpt lat="38.774731" lon="-9.059792">
				 <ele>25</ele>
			 </trkpt>
			 <trkpt lat="38.777714" lon="-9.063843">
				 <ele>25</ele>
			 </trkpt>
			 <trkpt lat="38.779255" lon="-9.065919">
				 <ele>25</ele>
			 </trkpt>
			 <trkpt lat="38.780909" lon="-9.068463">
				 <ele>25</ele>
			 </trkpt>
			 <trkpt lat="38.782055" lon="-9.070651">
				 <ele>25</ele>
			 </trkpt>
			 <trkpt lat="38.782927" lon="-9.072736">
				 <ele>25</ele>
			 </trkpt>
			 <trkpt lat="38.783978" lon="-9.075904">
				 <ele>25</ele>
			 </trkpt>
			 <trkpt lat="38.784452" lon="-9.077648">
				 <ele>25</ele>
			 </trkpt>
			 <trkpt lat="38.7847" lon="-9.07883">
				 <ele>25</ele>
			 </trkpt>
			 <trkpt lat="38.784886" lon="-9.079908">
				 <ele>24.9</ele>
			 </trkpt>
			 <trkpt lat="38.785" lon="-9.080862">
				 <ele>24.7</ele>
			 </trkpt>
			 <trkpt lat="38.785137" lon="-9.081875">
				 <ele>24.5</ele>
			 </trkpt>
			 <trkpt lat="38.785459" lon="-9.08496">
				 <ele>24.1</ele>
			 </trkpt>
			 <trkpt lat="38.786062" lon="-9.089845">
				 <ele>23.6</ele>
			 </trkpt>
			 <trkpt lat="38.786335" lon="-9.092149">
				 <ele>23.1</ele>
			 </trkpt>
			 <trkpt lat="38.786443" lon="-9.09303">
				 <ele>22.5</ele>
			 </trkpt>
			 <trkpt lat="38.7866" lon="-9.094344">
				 <ele>21.8</ele>
			 </trkpt>
			 <trkpt lat="38.78676" lon="-9.096">
				 <ele>21.2</ele>
			 </trkpt>
			 <trkpt lat="38.78678" lon="-9.097147">
				 <ele>20.5</ele>
			 </trkpt>
			 <trkpt lat="38.786504" lon="-9.100773">
				 <ele>19.9</ele>
			 </trkpt>
			 <trkpt lat="38.786365" lon="-9.10253">
				 <ele>19.4</ele>
			 </trkpt>
			 <trkpt lat="38.786287" lon="-9.104121">
				 <ele>18.9</ele>
			 </trkpt>
			 <trkpt lat="38.786341" lon="-9.104668">
				 <ele>18.5</ele>
			 </trkpt>
			 <trkpt lat="38.786397" lon="-9.104986">
				 <ele>18.3</ele>
			 </trkpt>
			 <trkpt lat="38.786527" lon="-9.105203">
				 <ele>18.1</ele>
			 </trkpt>
			 <trkpt lat="38.786657" lon="-9.105267">
				 <ele>18</ele>
			 </trkpt>
			 <trkpt lat="38.786857" lon="-9.105287">
				 <ele>17.9</ele>
			 </trkpt>
			 <trkpt lat="38.787123" lon="-9.105192">
				 <ele>17.9</ele>
			 </trkpt>
			 <trkpt lat="38.787367" lon="-9.105018">
				 <ele>17.6</ele>
			 </trkpt>
			 <trkpt lat="38.787538" lon="-9.104806">
				 <ele>17.3</ele>
			 </trkpt>
			 <trkpt lat="38.787908" lon="-9.104407">
				 <ele>16.9</ele>
			 </trkpt>
			 <trkpt lat="38.788278" lon="-9.103344">
				 <ele>16.5</ele>
			 </trkpt>
			 <trkpt lat="38.788878" lon="-9.101783">
				 <ele>16.2</ele>
			 </trkpt>
			 <trkpt lat="38.788847" lon="-9.101098">
				 <ele>15.7</ele>
			 </trkpt>
			 <trkpt lat="38.78866" lon="-9.100782">
				 <ele>15.5</ele>
			 </trkpt>
			 <trkpt lat="38.78842" lon="-9.100637">
				 <ele>15.4</ele>
			 </trkpt>
			 <trkpt lat="38.78811" lon="-9.100559">
				 <ele>15.1</ele>
			 </trkpt>
			 <trkpt lat="38.787701" lon="-9.100528">
				 <ele>14.9</ele>
			 </trkpt>
			 <trkpt lat="38.787145" lon="-9.100454">
				 <ele>14.5</ele>
			 </trkpt>
			 <trkpt lat="38.786815" lon="-9.100422">
				 <ele>14.4</ele>
			 </trkpt>
			 <trkpt lat="38.786345" lon="-9.100307">
				 <ele>14.3</ele>
			 </trkpt>
			 <trkpt lat="38.786052" lon="-9.100153">
				 <ele>14.2</ele>
			 </trkpt>
			 <trkpt lat="38.785883" lon="-9.100209">
				 <ele>14</ele>
			 </trkpt>
			 <trkpt lat="38.785559" lon="-9.100151">
				 <ele>13.6</ele>
			 </trkpt>
			 <trkpt lat="38.785379" lon="-9.100165">
				 <ele>13.5</ele>
			 </trkpt>
			 <trkpt lat="38.785098" lon="-9.100238">
				 <ele>13.4</ele>
			 </trkpt>
			 <trkpt lat="38.784802" lon="-9.100215">
				 <ele>13.1</ele>
			 </trkpt>
			 <trkpt lat="38.784076" lon="-9.100144">
				 <ele>12.9</ele>
			 </trkpt>
			 <trkpt lat="38.783594" lon="-9.10006">
				 <ele>12.9</ele>
			 </trkpt>
			 <trkpt lat="38.782995" lon="-9.099983">
				 <ele>13.3</ele>
			 </trkpt>
			 <trkpt lat="38.782594" lon="-9.099885">
				 <ele>13.1</ele>
			 </trkpt>
			 <trkpt lat="38.782298" lon="-9.099792">
				 <ele>12.9</ele>
			 </trkpt>
			 <trkpt lat="38.78208" lon="-9.099684">
				 <ele>13.1</ele>
			 </trkpt>
			 <trkpt lat="38.781578" lon="-9.099368">
				 <ele>13.3</ele>
			 </trkpt>
			 <trkpt lat="38.780496" lon="-9.098737">
				 <ele>14.1</ele>
			 </trkpt>
			 <trkpt lat="38.779128" lon="-9.097934">
				 <ele>14.3</ele>
			 </trkpt>
			 <trkpt lat="38.778429" lon="-9.097494">
				 <ele>14.5</ele>
			 </trkpt>
			 <trkpt lat="38.777739" lon="-9.097116">
				 <ele>15.1</ele>
			 </trkpt>
			 <trkpt lat="38.777383" lon="-9.097105">
				 <ele>16</ele>
			 </trkpt>
			 <trkpt lat="38.775473" lon="-9.097259">
				 <ele>16.3</ele>
			 </trkpt>
			 <trkpt lat="38.774372" lon="-9.097339">
				 <ele>17.2</ele>
			 </trkpt>
			 <trkpt lat="38.772759" lon="-9.097492">
				 <ele>18</ele>
			 </trkpt>
			 <trkpt lat="38.770864" lon="-9.097654">
				 <ele>17.9</ele>
			 </trkpt>
			 <trkpt lat="38.768915" lon="-9.097819">
				 <ele>17.8</ele>
			 </trkpt>
			 <trkpt lat="38.768332" lon="-9.097855">
				 <ele>17.7</ele>
			 </trkpt>
			 <trkpt lat="38.767068" lon="-9.098002">
				 <ele>17.2</ele>
			 </trkpt>
			 <trkpt lat="38.766234" lon="-9.098032">
				 <ele>17.1</ele>
			 </trkpt>
			 <trkpt lat="38.762879" lon="-9.098301">
				 <ele>16.7</ele>
			 </trkpt>
			 <trkpt lat="38.762049" lon="-9.098376">
				 <ele>16.2</ele>
			 </trkpt>
			 <trkpt lat="38.761903" lon="-9.098517">
				 <ele>15.3</ele>
			 </trkpt>
			 <trkpt lat="38.761739" lon="-9.098564">
				 <ele>14.7</ele>
			 </trkpt>
			 <trkpt lat="38.761618" lon="-9.09856">
				 <ele>12.5</ele>
			 </trkpt>
			 <trkpt lat="38.761496" lon="-9.098365">
				 <ele>11.3</ele>
			 </trkpt>
			 <trkpt lat="38.761511" lon="-9.098184">
				 <ele>10.9</ele>
			 </trkpt>
			 <trkpt lat="38.761596" lon="-9.098096">
				 <ele>10.1</ele>
			 </trkpt>
			 <trkpt lat="38.761632" lon="-9.097929">
				 <ele>9.5</ele>
			 </trkpt>
			 <trkpt lat="38.761566" lon="-9.096562">
				 <ele>9</ele>
			 </trkpt>
			 <trkpt lat="38.76148" lon="-9.096413">
				 <ele>8.9</ele>
			 </trkpt>
			 <trkpt lat="38.761295" lon="-9.096336">
				 <ele>9.1</ele>
			 </trkpt>
			 <trkpt lat="38.760349" lon="-9.096391">
				 <ele>9.8</ele>
			 </trkpt>
			 <trkpt lat="38.759593" lon="-9.09645">
				 <ele>11.3</ele>
			 </trkpt>
			 <trkpt lat="38.759271" lon="-9.096615">
				 <ele>12</ele>
			 </trkpt>
			 <trkpt lat="38.759013" lon="-9.096675">
				 <ele>12.9</ele>
			 </trkpt>
			 <trkpt lat="38.758833" lon="-9.096713">
				 <ele>13.2</ele>
			 </trkpt>
			 <trkpt lat="38.758573" lon="-9.096684">
				 <ele>13.5</ele>
			 </trkpt>
			 <trkpt lat="38.758281" lon="-9.096595">
				 <ele>13.9</ele>
			 </trkpt>
			 <trkpt lat="38.757952" lon="-9.096518">
				 <ele>14.4</ele>
			 </trkpt>
			 <trkpt lat="38.756393" lon="-9.096624">
				 <ele>14.5</ele>
			 </trkpt>
			 <trkpt lat="38.754597" lon="-9.096828">
				 <ele>14.3</ele>
			 </trkpt>
			 <trkpt lat="38.754454" lon="-9.09698">
				 <ele>13.6</ele>
			 </trkpt>
			 <trkpt lat="38.754275" lon="-9.097147">
				 <ele>12.2</ele>
			 </trkpt>
			 <trkpt lat="38.753995" lon="-9.097133">
				 <ele>10</ele>
			 </trkpt>
			 <trkpt lat="38.753859" lon="-9.096904">
				 <ele>8.6</ele>
			 </trkpt>
			 <trkpt lat="38.753695" lon="-9.096409">
				 <ele>7.8</ele>
			 </trkpt>
			 <trkpt lat="38.753475" lon="-9.096033">
				 <ele>7.6</ele>
			 </trkpt>
			 <trkpt lat="38.753181" lon="-9.095801">
				 <ele>7.4</ele>
			 </trkpt>
			 <trkpt lat="38.752919" lon="-9.095753">
				 <ele>6.9</ele>
			 </trkpt>
			 <trkpt lat="38.752506" lon="-9.095728">
				 <ele>6.3</ele>
			 </trkpt>
			 <trkpt lat="38.752144" lon="-9.095788">
				 <ele>5.7</ele>
			 </trkpt>
			 <trkpt lat="38.751535" lon="-9.095968">
				 <ele>5.2</ele>
			 </trkpt>
			 <trkpt lat="38.750099" lon="-9.096362">
				 <ele>4.6</ele>
			 </trkpt>
			 <trkpt lat="38.748105" lon="-9.096905">
				 <ele>4.5</ele>
			 </trkpt>
			 <trkpt lat="38.744678" lon="-9.09775">
				 <ele>4.5</ele>
			 </trkpt>
			 <trkpt lat="38.743563" lon="-9.098121">
				 <ele>4.4</ele>
			 </trkpt>
			 <trkpt lat="38.743401" lon="-9.098181">
				 <ele>4.4</ele>
			 </trkpt>
			 <trkpt lat="38.742989" lon="-9.098503">
				 <ele>4.3</ele>
			 </trkpt>
			 <trkpt lat="38.742825" lon="-9.098693">
				 <ele>4.3</ele>
			 </trkpt>
			 <trkpt lat="38.742602" lon="-9.099049">
				 <ele>4.4</ele>
			 </trkpt>
			 <trkpt lat="38.742399" lon="-9.09939">
				 <ele>4.5</ele>
			 </trkpt>
			 <trkpt lat="38.742319" lon="-9.099607">
				 <ele>4.7</ele>
			 </trkpt>
			 <trkpt lat="38.742232" lon="-9.099843">
				 <ele>5.2</ele>
			 </trkpt>
			 <trkpt lat="38.742126" lon="-9.099911">
				 <ele>5.6</ele>
			 </trkpt>
			 <trkpt lat="38.74208" lon="-9.099959">
				 <ele>5.7</ele>
			 </trkpt>
			 <trkpt lat="38.741746" lon="-9.100439">
				 <ele>6.1</ele>
			 </trkpt>
			 <trkpt lat="38.741449" lon="-9.100714">
				 <ele>6.8</ele>
			 </trkpt>
			 <trkpt lat="38.73838" lon="-9.102596">
				 <ele>7.4</ele>
			 </trkpt>
			 <trkpt lat="38.738042" lon="-9.10277">
				 <ele>7.6</ele>
			 </trkpt>
			 <trkpt lat="38.737351" lon="-9.103033">
				 <ele>7.6</ele>
			 </trkpt>
			 <trkpt lat="38.73596" lon="-9.103545">
				 <ele>7.5</ele>
			 </trkpt>
			 <trkpt lat="38.733657" lon="-9.104157">
				 <ele>7.8</ele>
			 </trkpt>
			 <trkpt lat="38.733219" lon="-9.104297">
				 <ele>8.4</ele>
			 </trkpt>
			 <trkpt lat="38.732456" lon="-9.104621">
				 <ele>8.7</ele>
			 </trkpt>
			 <trkpt lat="38.732178" lon="-9.104773">
				 <ele>8.9</ele>
			 </trkpt>
			 <trkpt lat="38.731763" lon="-9.105005">
				 <ele>9.4</ele>
			 </trkpt>
			 <trkpt lat="38.732444" lon="-9.104668">
				 <ele>9.3</ele>
			 </trkpt>
			 <trkpt lat="38.73312" lon="-9.104374">
				 <ele>8.6</ele>
			 </trkpt>
			 <trkpt lat="38.733683" lon="-9.104187">
				 <ele>8</ele>
			 </trkpt>
			 <trkpt lat="38.735911" lon="-9.103595">
				 <ele>7.6</ele>
			 </trkpt>
			 <trkpt lat="38.735998" lon="-9.103575">
				 <ele>7.7</ele>
			 </trkpt>
			 <trkpt lat="38.73616" lon="-9.103522">
				 <ele>8.1</ele>
			 </trkpt>
			 <trkpt lat="38.737211" lon="-9.103134">
				 <ele>7.9</ele>
			 </trkpt>
			 <trkpt lat="38.737386" lon="-9.103069">
				 <ele>7.6</ele>
			 </trkpt>
			 <trkpt lat="38.737602" lon="-9.102982">
				 <ele>7.1</ele>
			 </trkpt>
			 <trkpt lat="38.737985" lon="-9.102831">
				 <ele>6.8</ele>
			 </trkpt>
			 <trkpt lat="38.738157" lon="-9.102758">
				 <ele>6.5</ele>
			 </trkpt>
			 <trkpt lat="38.738287" lon="-9.102685">
				 <ele>6.4</ele>
			 </trkpt>
			 <trkpt lat="38.740359" lon="-9.10144">
				 <ele>6.5</ele>
			 </trkpt>
			 <trkpt lat="38.741486" lon="-9.100737">
				 <ele>6.5</ele>
			 </trkpt>
			 <trkpt lat="38.741644" lon="-9.100612">
				 <ele>6.8</ele>
			 </trkpt>
			 <trkpt lat="38.741782" lon="-9.10047">
				 <ele>6.9</ele>
			 </trkpt>
			 <trkpt lat="38.742079" lon="-9.100037">
				 <ele>6.8</ele>
			 </trkpt>
			 <trkpt lat="38.742231" lon="-9.09994">
				 <ele>6.6</ele>
			 </trkpt>
			 <trkpt lat="38.742746" lon="-9.09971">
				 <ele>6.4</ele>
			 </trkpt>
			 <trkpt lat="38.743619" lon="-9.099434">
				 <ele>6.3</ele>
			 </trkpt>
			 <trkpt lat="38.74367" lon="-9.099457">
				 <ele>6.5</ele>
			 </trkpt>
			 <trkpt lat="38.74369" lon="-9.099497">
				 <ele>6.5</ele>
			 </trkpt>
			 <trkpt lat="38.743698" lon="-9.09956">
				 <ele>6.7</ele>
			 </trkpt>
			 <trkpt lat="38.743675" lon="-9.099611">
				 <ele>7.1</ele>
			 </trkpt>
			 <trkpt lat="38.743171" lon="-9.099877">
				 <ele>7.4</ele>
			 </trkpt>
			 <trkpt lat="38.742446" lon="-9.100227">
				 <ele>7.4</ele>
			 </trkpt>
			 <trkpt lat="38.741879" lon="-9.100529">
				 <ele>7.5</ele>
			 </trkpt>
			 <trkpt lat="38.741279" lon="-9.100998">
				 <ele>7.4</ele>
			 </trkpt>
			 <trkpt lat="38.740801" lon="-9.101255">
				 <ele>7.4</ele>
			 </trkpt>
			 <trkpt lat="38.740182" lon="-9.101651">
				 <ele>7.5</ele>
			 </trkpt>
			 <trkpt lat="38.739031" lon="-9.10234">
				 <ele>8</ele>
			 </trkpt>
			 <trkpt lat="38.738323" lon="-9.102757">
				 <ele>8.4</ele>
			 </trkpt>
			 <trkpt lat="38.737619" lon="-9.103073">
				 <ele>8.9</ele>
			 </trkpt>
			 <trkpt lat="38.736934" lon="-9.103342">
				 <ele>9.4</ele>
			 </trkpt>
			 <trkpt lat="38.736166" lon="-9.103604">
				 <ele>9.5</ele>
			 </trkpt>
			 <trkpt lat="38.735516" lon="-9.103792">
				 <ele>9.4</ele>
			 </trkpt>
			 <trkpt lat="38.734165" lon="-9.104147">
				 <ele>9.2</ele>
			 </trkpt>
			 <trkpt lat="38.733615" lon="-9.104289">
				 <ele>8.9</ele>
			 </trkpt>
			 <trkpt lat="38.73324" lon="-9.104438">
				 <ele>9</ele>
			 </trkpt>
			 <trkpt lat="38.732645" lon="-9.104662">
				 <ele>8.7</ele>
			 </trkpt>
			 <trkpt lat="38.732013" lon="-9.104985">
				 <ele>8.5</ele>
			 </trkpt>
			 <trkpt lat="38.731518" lon="-9.105312">
				 <ele>8.1</ele>
			 </trkpt>
			 <trkpt lat="38.730523" lon="-9.106013">
				 <ele>7.5</ele>
			 </trkpt>
			 <trkpt lat="38.729779" lon="-9.106597">
				 <ele>6.9</ele>
			 </trkpt>
			 <trkpt lat="38.728724" lon="-9.107525">
				 <ele>6.2</ele>
			 </trkpt>
			 <trkpt lat="38.727845" lon="-9.108623">
				 <ele>5.5</ele>
			 </trkpt>
			 <trkpt lat="38.726992" lon="-9.109704">
				 <ele>5.4</ele>
			 </trkpt>
			 <trkpt lat="38.726647" lon="-9.110141">
				 <ele>5.3</ele>
			 </trkpt>
			 <trkpt lat="38.72622" lon="-9.110538">
				 <ele>5.3</ele>
			 </trkpt>
			 <trkpt lat="38.725264" lon="-9.111357">
				 <ele>5.3</ele>
			 </trkpt>
			 <trkpt lat="38.722468" lon="-9.113785">
				 <ele>5.6</ele>
			 </trkpt>
			 <trkpt lat="38.71962" lon="-9.116284">
				 <ele>5.6</ele>
			 </trkpt>
			 <trkpt lat="38.718318" lon="-9.117467">
				 <ele>5.6</ele>
			 </trkpt>
			 <trkpt lat="38.717112" lon="-9.118763">
				 <ele>5.5</ele>
			 </trkpt>
			 <trkpt lat="38.715973" lon="-9.119993">
				 <ele>5.5</ele>
			 </trkpt>
			 <trkpt lat="38.713702" lon="-9.122485">
				 <ele>5.5</ele>
			 </trkpt>
			 <trkpt lat="38.712898" lon="-9.123361">
				 <ele>5.5</ele>
			 </trkpt>
			 <trkpt lat="38.712311" lon="-9.124209">
				 <ele>5.6</ele>
			 </trkpt>
			 <trkpt lat="38.711799" lon="-9.125112">
				 <ele>5.8</ele>
			 </trkpt>
			 <trkpt lat="38.71138" lon="-9.126115">
				 <ele>6</ele>
			 </trkpt>
			 <trkpt lat="38.711127" lon="-9.12667">
				 <ele>5.9</ele>
			 </trkpt>
			 <trkpt lat="38.710864" lon="-9.127154">
				 <ele>5.8</ele>
			 </trkpt>
			 <trkpt lat="38.710339" lon="-9.127966">
				 <ele>6.1</ele>
			 </trkpt>
			 <trkpt lat="38.70999" lon="-9.128428">
				 <ele>6.5</ele>
			 </trkpt>
			 <trkpt lat="38.709618" lon="-9.128987">
				 <ele>7.4</ele>
			 </trkpt>
			 <trkpt lat="38.708961" lon="-9.13009">
				 <ele>8</ele>
			 </trkpt>
			 <trkpt lat="38.708088" lon="-9.132184">
				 <ele>9.1</ele>
			 </trkpt>
			 <trkpt lat="38.70773" lon="-9.132912">
				 <ele>10.5</ele>
			 </trkpt>
			 <trkpt lat="38.707576" lon="-9.133262">
				 <ele>11.5</ele>
			 </trkpt>
			 <trkpt lat="38.707101" lon="-9.135257">
				 <ele>13.3</ele>
			 </trkpt>
			 <trkpt lat="38.70711" lon="-9.135416">
				 <ele>14.3</ele>
			 </trkpt>
			 <trkpt lat="38.708641" lon="-9.136016">
				 <ele>15.5</ele>
			 </trkpt>
			 <trkpt lat="38.709464" lon="-9.136276">
				 <ele>16.5</ele>
			 </trkpt>
			 <trkpt lat="38.70964" lon="-9.13551">
				 <ele>17.5</ele>
			 </trkpt>
			 <trkpt lat="38.713518" lon="-9.137055">
				 <ele>18.5</ele>
			 </trkpt>
			 <trkpt lat="38.71313" lon="-9.138542">
				 <ele>18.9</ele>
			 </trkpt>
			 <trkpt lat="38.713122" lon="-9.138714">
				 <ele>19.7</ele>
			 </trkpt>
			 <trkpt lat="38.713246" lon="-9.138798">
				 <ele>20.2</ele>
			 </trkpt>
			 <trkpt lat="38.714427" lon="-9.139343">
				 <ele>20.5</ele>
			 </trkpt>
			 <trkpt lat="38.714462" lon="-9.139452">
				 <ele>20.9</ele>
			 </trkpt>
			 <trkpt lat="38.714429" lon="-9.139626">
				 <ele>20.8</ele>
			 </trkpt>
			 <trkpt lat="38.714366" lon="-9.139788">
				 <ele>21.3</ele>
			 </trkpt>
			 <trkpt lat="38.714259" lon="-9.139854">
				 <ele>21.5</ele>
			 </trkpt>
			 <trkpt lat="38.71409" lon="-9.139835">
				 <ele>21.6</ele>
			 </trkpt>
			 <trkpt lat="38.713131" lon="-9.139459">
				 <ele>20.6</ele>
			 </trkpt>
			 <trkpt lat="38.712648" lon="-9.139332">
				 <ele>20.7</ele>
			 </trkpt>
			 <trkpt lat="38.70871" lon="-9.137775">
				 <ele>20.8</ele>
			 </trkpt>
			 <trkpt lat="38.708874" lon="-9.13702">
				 <ele>20.8</ele>
			 </trkpt>
			 <trkpt lat="38.708846" lon="-9.136905">
				 <ele>20.6</ele>
			 </trkpt>
			 <trkpt lat="38.707785" lon="-9.136446">
				 <ele>20.2</ele>
			 </trkpt>
		 </trkseg>
	 </trk>
</gpx>