<?xml version="1.0" encoding="UTF-8"?>
 <gpx creator="Garmin Connect" version="1.1"
	 xsi:schemaLocation="http://www.topografix.com/GPX/1/1 http://www.topografix.com/GPX/11.xsd"
	 xmlns:ns3="http://www.garmin.com/xmlschemas/TrackPointExtension/v1"
	 xmlns="http://www.topografix.com/GPX/1/1"
	 xmlns:xsi="http://www.w3.org/2001/XMLSchema-instance" xmlns:ns2="http://www.garmin.com/xmlschemas/GpxExtensions/v3">
	 <metadata>
		<name>Irish Life Dublin Marathon 2025 - 42.195 km</name>
		 <link href="https://www.goandrace.com">
		 <text>Garmin Connect</text>
		 </link>
	 <time>2026-08-23T23:04:11</time>
	 </metadata>
	 <trk>
		 <name>Irish Life Dublin Marathon 2025 - 42.195 km</name>
		 <trkseg>
			 <trkpt lat="53.334439" lon="-6.255259">
				 <ele>20</ele>
			 </trkpt>
			 <trkpt lat="53.33503" lon="-6.25588">
				 <ele>19.6</ele>
			 </trkpt>
			 <trkpt lat="53.33544" lon="-6.25632">
				 <ele>19.1</ele>
			 </trkpt>
			 <trkpt lat="53.33557" lon="-6.25645">
				 <ele>19.1</ele>
			 </trkpt>
			 <trkpt lat="53.33582" lon="-6.25671">
				 <ele>18.8</ele>
			 </trkpt>
			 <trkpt lat="53.33607" lon="-6.25703">
				 <ele>18.9</ele>
			 </trkpt>
			 <trkpt lat="53.33612" lon="-6.25712">
				 <ele>19.1</ele>
			 </trkpt>
			 <trkpt lat="53.33625" lon="-6.25769">
				 <ele>18.9</ele>
			 </trkpt>
			 <trkpt lat="53.3369" lon="-6.26014">
				 <ele>18.9</ele>
			 </trkpt>
			 <trkpt lat="53.33727" lon="-6.26148">
				 <ele>18.9</ele>
			 </trkpt>
			 <trkpt lat="53.33745" lon="-6.26216">
				 <ele>19.1</ele>
			 </trkpt>
			 <trkpt lat="53.337513" lon="-6.262505">
				 <ele>19.4</ele>
			 </trkpt>
			 <trkpt lat="53.337525" lon="-6.262557">
				 <ele>19.4</ele>
			 </trkpt>
			 <trkpt lat="53.337535" lon="-6.262621">
				 <ele>19.4</ele>
			 </trkpt>
			 <trkpt lat="53.33754" lon="-6.262665">
				 <ele>19.1</ele>
			 </trkpt>
			 <trkpt lat="53.337552" lon="-6.262821">
				 <ele>19</ele>
			 </trkpt>
			 <trkpt lat="53.337552" lon="-6.262925">
				 <ele>18.5</ele>
			 </trkpt>
			 <trkpt lat="53.337546" lon="-6.263702">
				 <ele>18</ele>
			 </trkpt>
			 <trkpt lat="53.337563" lon="-6.264755">
				 <ele>17.5</ele>
			 </trkpt>
			 <trkpt lat="53.337573" lon="-6.265421">
				 <ele>17</ele>
			 </trkpt>
			 <trkpt lat="53.337574" lon="-6.26566">
				 <ele>16.6</ele>
			 </trkpt>
			 <trkpt lat="53.337618" lon="-6.265791">
				 <ele>16.2</ele>
			 </trkpt>
			 <trkpt lat="53.33761" lon="-6.265917">
				 <ele>15.8</ele>
			 </trkpt>
			 <trkpt lat="53.337603" lon="-6.266125">
				 <ele>15.6</ele>
			 </trkpt>
			 <trkpt lat="53.3376" lon="-6.26635">
				 <ele>15.5</ele>
			 </trkpt>
			 <trkpt lat="53.337614" lon="-6.266968">
				 <ele>15.4</ele>
			 </trkpt>
			 <trkpt lat="53.337632" lon="-6.267566">
				 <ele>15.3</ele>
			 </trkpt>
			 <trkpt lat="53.337653" lon="-6.267772">
				 <ele>15.2</ele>
			 </trkpt>
			 <trkpt lat="53.337689" lon="-6.268026">
				 <ele>15.4</ele>
			 </trkpt>
			 <trkpt lat="53.337696" lon="-6.268073">
				 <ele>15.6</ele>
			 </trkpt>
			 <trkpt lat="53.337732" lon="-6.268295">
				 <ele>15.7</ele>
			 </trkpt>
			 <trkpt lat="53.337767" lon="-6.268472">
				 <ele>15.4</ele>
			 </trkpt>
			 <trkpt lat="53.337822" lon="-6.268632">
				 <ele>15</ele>
			 </trkpt>
			 <trkpt lat="53.337992" lon="-6.268996">
				 <ele>14.6</ele>
			 </trkpt>
			 <trkpt lat="53.33815" lon="-6.269298">
				 <ele>14.3</ele>
			 </trkpt>
			 <trkpt lat="53.338207" lon="-6.269495">
				 <ele>13.9</ele>
			 </trkpt>
			 <trkpt lat="53.33828" lon="-6.270208">
				 <ele>13.7</ele>
			 </trkpt>
			 <trkpt lat="53.338316" lon="-6.270496">
				 <ele>13.6</ele>
			 </trkpt>
			 <trkpt lat="53.338356" lon="-6.270724">
				 <ele>13.5</ele>
			 </trkpt>
			 <trkpt lat="53.3384" lon="-6.270924">
				 <ele>13.2</ele>
			 </trkpt>
			 <trkpt lat="53.338426" lon="-6.271028">
				 <ele>12.8</ele>
			 </trkpt>
			 <trkpt lat="53.338612" lon="-6.271713">
				 <ele>12.5</ele>
			 </trkpt>
			 <trkpt lat="53.338684" lon="-6.271979">
				 <ele>12.6</ele>
			 </trkpt>
			 <trkpt lat="53.338808" lon="-6.272321">
				 <ele>12.8</ele>
			 </trkpt>
			 <trkpt lat="53.338868" lon="-6.272489">
				 <ele>13</ele>
			 </trkpt>
			 <trkpt lat="53.339082" lon="-6.272551">
				 <ele>13.2</ele>
			 </trkpt>
			 <trkpt lat="53.339318" lon="-6.272585">
				 <ele>13.4</ele>
			 </trkpt>
			 <trkpt lat="53.339365" lon="-6.27257">
				 <ele>13.4</ele>
			 </trkpt>
			 <trkpt lat="53.339494" lon="-6.272535">
				 <ele>13.3</ele>
			 </trkpt>
			 <trkpt lat="53.339574" lon="-6.272512">
				 <ele>13.3</ele>
			 </trkpt>
			 <trkpt lat="53.339703" lon="-6.272447">
				 <ele>13.3</ele>
			 </trkpt>
			 <trkpt lat="53.339806" lon="-6.272394">
				 <ele>13.2</ele>
			 </trkpt>
			 <trkpt lat="53.339897" lon="-6.272332">
				 <ele>13.1</ele>
			 </trkpt>
			 <trkpt lat="53.339971" lon="-6.272301">
				 <ele>13</ele>
			 </trkpt>
			 <trkpt lat="53.340103" lon="-6.272264">
				 <ele>13</ele>
			 </trkpt>
			 <trkpt lat="53.340196" lon="-6.272256">
				 <ele>13</ele>
			 </trkpt>
			 <trkpt lat="53.340288" lon="-6.272272">
				 <ele>13.1</ele>
			 </trkpt>
			 <trkpt lat="53.340352" lon="-6.272284">
				 <ele>13.2</ele>
			 </trkpt>
			 <trkpt lat="53.340565" lon="-6.272335">
				 <ele>13.5</ele>
			 </trkpt>
			 <trkpt lat="53.340623" lon="-6.272351">
				 <ele>14</ele>
			 </trkpt>
			 <trkpt lat="53.340657" lon="-6.27236">
				 <ele>14.5</ele>
			 </trkpt>
			 <trkpt lat="53.340694" lon="-6.272369">
				 <ele>14.9</ele>
			 </trkpt>
			 <trkpt lat="53.340823" lon="-6.272386">
				 <ele>15.4</ele>
			 </trkpt>
			 <trkpt lat="53.340965" lon="-6.272381">
				 <ele>15.9</ele>
			 </trkpt>
			 <trkpt lat="53.341487" lon="-6.272335">
				 <ele>16.5</ele>
			 </trkpt>
			 <trkpt lat="53.341613" lon="-6.272333">
				 <ele>16.9</ele>
			 </trkpt>
			 <trkpt lat="53.341691" lon="-6.272332">
				 <ele>17.4</ele>
			 </trkpt>
			 <trkpt lat="53.341818" lon="-6.272328">
				 <ele>17.8</ele>
			 </trkpt>
			 <trkpt lat="53.342221" lon="-6.272315">
				 <ele>18.3</ele>
			 </trkpt>
			 <trkpt lat="53.342291" lon="-6.272276">
				 <ele>18.6</ele>
			 </trkpt>
			 <trkpt lat="53.342639" lon="-6.271998">
				 <ele>18.6</ele>
			 </trkpt>
			 <trkpt lat="53.342757" lon="-6.271894">
				 <ele>18.6</ele>
			 </trkpt>
			 <trkpt lat="53.342861" lon="-6.27187">
				 <ele>18.5</ele>
			 </trkpt>
			 <trkpt lat="53.342869" lon="-6.272027">
				 <ele>18.3</ele>
			 </trkpt>
			 <trkpt lat="53.342918" lon="-6.272306">
				 <ele>17.9</ele>
			 </trkpt>
			 <trkpt lat="53.343067" lon="-6.273105">
				 <ele>17.5</ele>
			 </trkpt>
			 <trkpt lat="53.343193" lon="-6.273827">
				 <ele>17.2</ele>
			 </trkpt>
			 <trkpt lat="53.343258" lon="-6.274155">
				 <ele>16.8</ele>
			 </trkpt>
			 <trkpt lat="53.343278" lon="-6.274323">
				 <ele>16.5</ele>
			 </trkpt>
			 <trkpt lat="53.343283" lon="-6.274511">
				 <ele>16.1</ele>
			 </trkpt>
			 <trkpt lat="53.343284" lon="-6.274557">
				 <ele>15.6</ele>
			 </trkpt>
			 <trkpt lat="53.343283" lon="-6.274618">
				 <ele>15.4</ele>
			 </trkpt>
			 <trkpt lat="53.34328" lon="-6.274717">
				 <ele>15</ele>
			 </trkpt>
			 <trkpt lat="53.343273" lon="-6.274876">
				 <ele>14.8</ele>
			 </trkpt>
			 <trkpt lat="53.343311" lon="-6.274984">
				 <ele>14.6</ele>
			 </trkpt>
			 <trkpt lat="53.343354" lon="-6.275082">
				 <ele>14.5</ele>
			 </trkpt>
			 <trkpt lat="53.343442" lon="-6.275236">
				 <ele>14.5</ele>
			 </trkpt>
			 <trkpt lat="53.34352" lon="-6.275378">
				 <ele>14.4</ele>
			 </trkpt>
			 <trkpt lat="53.343563" lon="-6.275462">
				 <ele>14.2</ele>
			 </trkpt>
			 <trkpt lat="53.343644" lon="-6.275614">
				 <ele>13.8</ele>
			 </trkpt>
			 <trkpt lat="53.343787" lon="-6.275872">
				 <ele>13.4</ele>
			 </trkpt>
			 <trkpt lat="53.343843" lon="-6.275977">
				 <ele>12.9</ele>
			 </trkpt>
			 <trkpt lat="53.343883" lon="-6.276033">
				 <ele>12.3</ele>
			 </trkpt>
			 <trkpt lat="53.344032" lon="-6.276217">
				 <ele>11.7</ele>
			 </trkpt>
			 <trkpt lat="53.34415" lon="-6.276327">
				 <ele>11.2</ele>
			 </trkpt>
			 <trkpt lat="53.344301" lon="-6.276338">
				 <ele>10.6</ele>
			 </trkpt>
			 <trkpt lat="53.344388" lon="-6.276322">
				 <ele>10.1</ele>
			 </trkpt>
			 <trkpt lat="53.344592" lon="-6.276266">
				 <ele>9.5</ele>
			 </trkpt>
			 <trkpt lat="53.344687" lon="-6.276226">
				 <ele>8.8</ele>
			 </trkpt>
			 <trkpt lat="53.344965" lon="-6.276071">
				 <ele>8.7</ele>
			 </trkpt>
			 <trkpt lat="53.345083" lon="-6.276001">
				 <ele>8.9</ele>
			 </trkpt>
			 <trkpt lat="53.345156" lon="-6.27595">
				 <ele>9.2</ele>
			 </trkpt>
			 <trkpt lat="53.345202" lon="-6.275918">
				 <ele>8.9</ele>
			 </trkpt>
			 <trkpt lat="53.345247" lon="-6.275886">
				 <ele>8.6</ele>
			 </trkpt>
			 <trkpt lat="53.345205" lon="-6.275125">
				 <ele>8.5</ele>
			 </trkpt>
			 <trkpt lat="53.345139" lon="-6.27438">
				 <ele>8.3</ele>
			 </trkpt>
			 <trkpt lat="53.345106" lon="-6.27401">
				 <ele>8.2</ele>
			 </trkpt>
			 <trkpt lat="53.345044" lon="-6.273264">
				 <ele>8.5</ele>
			 </trkpt>
			 <trkpt lat="53.345" lon="-6.272734">
				 <ele>9.1</ele>
			 </trkpt>
			 <trkpt lat="53.34496" lon="-6.272083">
				 <ele>9.3</ele>
			 </trkpt>
			 <trkpt lat="53.345407" lon="-6.272166">
				 <ele>8.9</ele>
			 </trkpt>
			 <trkpt lat="53.345561" lon="-6.272194">
				 <ele>8.5</ele>
			 </trkpt>
			 <trkpt lat="53.345561" lon="-6.272924">
				 <ele>7.8</ele>
			 </trkpt>
			 <trkpt lat="53.345624" lon="-6.273669">
				 <ele>7.8</ele>
			 </trkpt>
			 <trkpt lat="53.345688" lon="-6.274415">
				 <ele>8</ele>
			 </trkpt>
			 <trkpt lat="53.345752" lon="-6.275161">
				 <ele>8</ele>
			 </trkpt>
			 <trkpt lat="53.345757" lon="-6.275214">
				 <ele>8</ele>
			 </trkpt>
			 <trkpt lat="53.345834" lon="-6.275957">
				 <ele>7.7</ele>
			 </trkpt>
			 <trkpt lat="53.345852" lon="-6.276135">
				 <ele>7.1</ele>
			 </trkpt>
			 <trkpt lat="53.345918" lon="-6.276607">
				 <ele>6.3</ele>
			 </trkpt>
			 <trkpt lat="53.346054" lon="-6.277325">
				 <ele>5.9</ele>
			 </trkpt>
			 <trkpt lat="53.34619" lon="-6.278043">
				 <ele>5.8</ele>
			 </trkpt>
			 <trkpt lat="53.346272" lon="-6.278477">
				 <ele>5.7</ele>
			 </trkpt>
			 <trkpt lat="53.346413" lon="-6.279192">
				 <ele>5.8</ele>
			 </trkpt>
			 <trkpt lat="53.346555" lon="-6.279907">
				 <ele>5.9</ele>
			 </trkpt>
			 <trkpt lat="53.346631" lon="-6.280287">
				 <ele>5.9</ele>
			 </trkpt>
			 <trkpt lat="53.346714" lon="-6.281027">
				 <ele>5.8</ele>
			 </trkpt>
			 <trkpt lat="53.346798" lon="-6.281767">
				 <ele>6.2</ele>
			 </trkpt>
			 <trkpt lat="53.34688" lon="-6.282483">
				 <ele>6.6</ele>
			 </trkpt>
			 <trkpt lat="53.347007" lon="-6.282473">
				 <ele>7</ele>
			 </trkpt>
			 <trkpt lat="53.347398" lon="-6.282354">
				 <ele>7.5</ele>
			 </trkpt>
			 <trkpt lat="53.347428" lon="-6.282344">
				 <ele>7.9</ele>
			 </trkpt>
			 <trkpt lat="53.347932" lon="-6.282165">
				 <ele>8.4</ele>
			 </trkpt>
			 <trkpt lat="53.348279" lon="-6.282077">
				 <ele>8.8</ele>
			 </trkpt>
			 <trkpt lat="53.348566" lon="-6.282006">
				 <ele>9.3</ele>
			 </trkpt>
			 <trkpt lat="53.348743" lon="-6.28196">
				 <ele>9.7</ele>
			 </trkpt>
			 <trkpt lat="53.348834" lon="-6.281941">
				 <ele>10.3</ele>
			 </trkpt>
			 <trkpt lat="53.349219" lon="-6.28186">
				 <ele>10.9</ele>
			 </trkpt>
			 <trkpt lat="53.349731" lon="-6.281743">
				 <ele>11.3</ele>
			 </trkpt>
			 <trkpt lat="53.350029" lon="-6.281722">
				 <ele>11.7</ele>
			 </trkpt>
			 <trkpt lat="53.350082" lon="-6.281739">
				 <ele>12.2</ele>
			 </trkpt>
			 <trkpt lat="53.350301" lon="-6.281817">
				 <ele>12.6</ele>
			 </trkpt>
			 <trkpt lat="53.350386" lon="-6.281847">
				 <ele>13</ele>
			 </trkpt>
			 <trkpt lat="53.350431" lon="-6.281863">
				 <ele>13.2</ele>
			 </trkpt>
			 <trkpt lat="53.350517" lon="-6.281913">
				 <ele>13.4</ele>
			 </trkpt>
			 <trkpt lat="53.350621" lon="-6.281985">
				 <ele>13.5</ele>
			 </trkpt>
			 <trkpt lat="53.350672" lon="-6.282032">
				 <ele>13.7</ele>
			 </trkpt>
			 <trkpt lat="53.350727" lon="-6.282106">
				 <ele>13.8</ele>
			 </trkpt>
			 <trkpt lat="53.350851" lon="-6.282297">
				 <ele>13.9</ele>
			 </trkpt>
			 <trkpt lat="53.350947" lon="-6.282446">
				 <ele>14.1</ele>
			 </trkpt>
			 <trkpt lat="53.351081" lon="-6.28263">
				 <ele>14.2</ele>
			 </trkpt>
			 <trkpt lat="53.351185" lon="-6.282764">
				 <ele>14.3</ele>
			 </trkpt>
			 <trkpt lat="53.351212" lon="-6.282797">
				 <ele>14.3</ele>
			 </trkpt>
			 <trkpt lat="53.351319" lon="-6.282907">
				 <ele>14.3</ele>
			 </trkpt>
			 <trkpt lat="53.351626" lon="-6.283205">
				 <ele>14.3</ele>
			 </trkpt>
			 <trkpt lat="53.351789" lon="-6.283343">
				 <ele>14.4</ele>
			 </trkpt>
			 <trkpt lat="53.351858" lon="-6.283407">
				 <ele>14.5</ele>
			 </trkpt>
			 <trkpt lat="53.352118" lon="-6.283666">
				 <ele>14.5</ele>
			 </trkpt>
			 <trkpt lat="53.352282" lon="-6.283842">
				 <ele>14.7</ele>
			 </trkpt>
			 <trkpt lat="53.352359" lon="-6.283925">
				 <ele>15</ele>
			 </trkpt>
			 <trkpt lat="53.352436" lon="-6.284001">
				 <ele>15.3</ele>
			 </trkpt>
			 <trkpt lat="53.352591" lon="-6.284168">
				 <ele>15.5</ele>
			 </trkpt>
			 <trkpt lat="53.352717" lon="-6.284337">
				 <ele>15.9</ele>
			 </trkpt>
			 <trkpt lat="53.352873" lon="-6.284565">
				 <ele>16.4</ele>
			 </trkpt>
			 <trkpt lat="53.353022" lon="-6.284842">
				 <ele>16.8</ele>
			 </trkpt>
			 <trkpt lat="53.353156" lon="-6.285063">
				 <ele>17.4</ele>
			 </trkpt>
			 <trkpt lat="53.353188" lon="-6.285117">
				 <ele>17.8</ele>
			 </trkpt>
			 <trkpt lat="53.353313" lon="-6.285288">
				 <ele>18.3</ele>
			 </trkpt>
			 <trkpt lat="53.353298" lon="-6.285362">
				 <ele>18.7</ele>
			 </trkpt>
			 <trkpt lat="53.353261" lon="-6.285559">
				 <ele>19.1</ele>
			 </trkpt>
			 <trkpt lat="53.353244" lon="-6.285715">
				 <ele>19.4</ele>
			 </trkpt>
			 <trkpt lat="53.353244" lon="-6.285761">
				 <ele>19.5</ele>
			 </trkpt>
			 <trkpt lat="53.353246" lon="-6.285849">
				 <ele>19.8</ele>
			 </trkpt>
			 <trkpt lat="53.353274" lon="-6.286062">
				 <ele>20</ele>
			 </trkpt>
			 <trkpt lat="53.353282" lon="-6.286116">
				 <ele>20.2</ele>
			 </trkpt>
			 <trkpt lat="53.353338" lon="-6.286381">
				 <ele>20.5</ele>
			 </trkpt>
			 <trkpt lat="53.353417" lon="-6.286715">
				 <ele>20.7</ele>
			 </trkpt>
			 <trkpt lat="53.353435" lon="-6.286787">
				 <ele>21</ele>
			 </trkpt>
			 <trkpt lat="53.353597" lon="-6.287458">
				 <ele>21.4</ele>
			 </trkpt>
			 <trkpt lat="53.35368" lon="-6.287743">
				 <ele>21.7</ele>
			 </trkpt>
			 <trkpt lat="53.353787" lon="-6.288036">
				 <ele>22.2</ele>
			 </trkpt>
			 <trkpt lat="53.353984" lon="-6.288516">
				 <ele>22.7</ele>
			 </trkpt>
			 <trkpt lat="53.35422" lon="-6.289002">
				 <ele>23.4</ele>
			 </trkpt>
			 <trkpt lat="53.354345" lon="-6.289278">
				 <ele>23.9</ele>
			 </trkpt>
			 <trkpt lat="53.35438" lon="-6.289356">
				 <ele>24.4</ele>
			 </trkpt>
			 <trkpt lat="53.354433" lon="-6.289465">
				 <ele>24.9</ele>
			 </trkpt>
			 <trkpt lat="53.354604" lon="-6.289818">
				 <ele>25.5</ele>
			 </trkpt>
			 <trkpt lat="53.354645" lon="-6.289901">
				 <ele>25.9</ele>
			 </trkpt>
			 <trkpt lat="53.354672" lon="-6.289953">
				 <ele>26.5</ele>
			 </trkpt>
			 <trkpt lat="53.354765" lon="-6.290132">
				 <ele>27.1</ele>
			 </trkpt>
			 <trkpt lat="53.355087" lon="-6.290858">
				 <ele>27.6</ele>
			 </trkpt>
			 <trkpt lat="53.355338" lon="-6.291423">
				 <ele>28.2</ele>
			 </trkpt>
			 <trkpt lat="53.355409" lon="-6.291572">
				 <ele>28.6</ele>
			 </trkpt>
			 <trkpt lat="53.355682" lon="-6.292171">
				 <ele>28.8</ele>
			 </trkpt>
			 <trkpt lat="53.355728" lon="-6.292285">
				 <ele>29</ele>
			 </trkpt>
			 <trkpt lat="53.355779" lon="-6.292413">
				 <ele>29.5</ele>
			 </trkpt>
			 <trkpt lat="53.355671" lon="-6.292564">
				 <ele>29.9</ele>
			 </trkpt>
			 <trkpt lat="53.355547" lon="-6.292764">
				 <ele>30.2</ele>
			 </trkpt>
			 <trkpt lat="53.355073" lon="-6.293525">
				 <ele>30.5</ele>
			 </trkpt>
			 <trkpt lat="53.35497" lon="-6.293682">
				 <ele>30.5</ele>
			 </trkpt>
			 <trkpt lat="53.353819" lon="-6.295519">
				 <ele>30.6</ele>
			 </trkpt>
			 <trkpt lat="53.353353" lon="-6.296257">
				 <ele>30.6</ele>
			 </trkpt>
			 <trkpt lat="53.3527" lon="-6.297313">
				 <ele>30.5</ele>
			 </trkpt>
			 <trkpt lat="53.352316" lon="-6.297933">
				 <ele>30.5</ele>
			 </trkpt>
			 <trkpt lat="53.3522" lon="-6.298098">
				 <ele>30.5</ele>
			 </trkpt>
			 <trkpt lat="53.352157" lon="-6.2982">
				 <ele>30.6</ele>
			 </trkpt>
			 <trkpt lat="53.352126" lon="-6.298269">
				 <ele>30.5</ele>
			 </trkpt>
			 <trkpt lat="53.352137" lon="-6.298358">
				 <ele>30.4</ele>
			 </trkpt>
			 <trkpt lat="53.352131" lon="-6.298512">
				 <ele>30.4</ele>
			 </trkpt>
			 <trkpt lat="53.352134" lon="-6.298564">
				 <ele>30.4</ele>
			 </trkpt>
			 <trkpt lat="53.35215" lon="-6.298724">
				 <ele>30.4</ele>
			 </trkpt>
			 <trkpt lat="53.352213" lon="-6.299083">
				 <ele>30.4</ele>
			 </trkpt>
			 <trkpt lat="53.352286" lon="-6.299445">
				 <ele>30.5</ele>
			 </trkpt>
			 <trkpt lat="53.352373" lon="-6.299789">
				 <ele>30.7</ele>
			 </trkpt>
			 <trkpt lat="53.352388" lon="-6.299909">
				 <ele>31</ele>
			 </trkpt>
			 <trkpt lat="53.352437" lon="-6.300169">
				 <ele>31.4</ele>
			 </trkpt>
			 <trkpt lat="53.352499" lon="-6.300374">
				 <ele>31.8</ele>
			 </trkpt>
			 <trkpt lat="53.352673" lon="-6.300797">
				 <ele>32.3</ele>
			 </trkpt>
			 <trkpt lat="53.352748" lon="-6.300925">
				 <ele>32.7</ele>
			 </trkpt>
			 <trkpt lat="53.352877" lon="-6.301125">
				 <ele>33.1</ele>
			 </trkpt>
			 <trkpt lat="53.352941" lon="-6.301219">
				 <ele>33.5</ele>
			 </trkpt>
			 <trkpt lat="53.353011" lon="-6.301325">
				 <ele>33.8</ele>
			 </trkpt>
			 <trkpt lat="53.353152" lon="-6.301533">
				 <ele>34.3</ele>
			 </trkpt>
			 <trkpt lat="53.353366" lon="-6.301758">
				 <ele>34.7</ele>
			 </trkpt>
			 <trkpt lat="53.353553" lon="-6.301976">
				 <ele>35.3</ele>
			 </trkpt>
			 <trkpt lat="53.353624" lon="-6.302048">
				 <ele>35.7</ele>
			 </trkpt>
			 <trkpt lat="53.353723" lon="-6.30213">
				 <ele>36.2</ele>
			 </trkpt>
			 <trkpt lat="53.354099" lon="-6.302419">
				 <ele>36.5</ele>
			 </trkpt>
			 <trkpt lat="53.354607" lon="-6.302612">
				 <ele>37</ele>
			 </trkpt>
			 <trkpt lat="53.355065" lon="-6.302746">
				 <ele>37.5</ele>
			 </trkpt>
			 <trkpt lat="53.355321" lon="-6.30285">
				 <ele>37.8</ele>
			 </trkpt>
			 <trkpt lat="53.355702" lon="-6.303006">
				 <ele>38.1</ele>
			 </trkpt>
			 <trkpt lat="53.355781" lon="-6.303061">
				 <ele>38.4</ele>
			 </trkpt>
			 <trkpt lat="53.356195" lon="-6.303309">
				 <ele>38.5</ele>
			 </trkpt>
			 <trkpt lat="53.356646" lon="-6.303594">
				 <ele>38.5</ele>
			 </trkpt>
			 <trkpt lat="53.357037" lon="-6.303836">
				 <ele>38.3</ele>
			 </trkpt>
			 <trkpt lat="53.356866" lon="-6.304727">
				 <ele>38.2</ele>
			 </trkpt>
			 <trkpt lat="53.356834" lon="-6.304945">
				 <ele>38</ele>
			 </trkpt>
			 <trkpt lat="53.356808" lon="-6.305139">
				 <ele>37.9</ele>
			 </trkpt>
			 <trkpt lat="53.356814" lon="-6.305427">
				 <ele>38.1</ele>
			 </trkpt>
			 <trkpt lat="53.356836" lon="-6.305809">
				 <ele>37.9</ele>
			 </trkpt>
			 <trkpt lat="53.356926" lon="-6.306433">
				 <ele>37.8</ele>
			 </trkpt>
			 <trkpt lat="53.356928" lon="-6.30658">
				 <ele>37.6</ele>
			 </trkpt>
			 <trkpt lat="53.356931" lon="-6.306716">
				 <ele>37.5</ele>
			 </trkpt>
			 <trkpt lat="53.356887" lon="-6.307713">
				 <ele>37.7</ele>
			 </trkpt>
			 <trkpt lat="53.356424" lon="-6.307357">
				 <ele>38</ele>
			 </trkpt>
			 <trkpt lat="53.356359" lon="-6.30731">
				 <ele>38.1</ele>
			 </trkpt>
			 <trkpt lat="53.35572" lon="-6.306895">
				 <ele>37.7</ele>
			 </trkpt>
			 <trkpt lat="53.355428" lon="-6.306749">
				 <ele>37.4</ele>
			 </trkpt>
			 <trkpt lat="53.355169" lon="-6.306636">
				 <ele>36.8</ele>
			 </trkpt>
			 <trkpt lat="53.354972" lon="-6.306573">
				 <ele>36.2</ele>
			 </trkpt>
			 <trkpt lat="53.354613" lon="-6.306576">
				 <ele>35.9</ele>
			 </trkpt>
			 <trkpt lat="53.353834" lon="-6.306674">
				 <ele>35.6</ele>
			 </trkpt>
			 <trkpt lat="53.353697" lon="-6.30669">
				 <ele>35.7</ele>
			 </trkpt>
			 <trkpt lat="53.353436" lon="-6.306767">
				 <ele>35.6</ele>
			 </trkpt>
			 <trkpt lat="53.352618" lon="-6.307102">
				 <ele>35.4</ele>
			 </trkpt>
			 <trkpt lat="53.352484" lon="-6.307188">
				 <ele>35.1</ele>
			 </trkpt>
			 <trkpt lat="53.352483" lon="-6.307574">
				 <ele>35</ele>
			 </trkpt>
			 <trkpt lat="53.352742" lon="-6.30819">
				 <ele>35.4</ele>
			 </trkpt>
			 <trkpt lat="53.353001" lon="-6.308807">
				 <ele>36</ele>
			 </trkpt>
			 <trkpt lat="53.353259" lon="-6.309423">
				 <ele>36.8</ele>
			 </trkpt>
			 <trkpt lat="53.353518" lon="-6.310039">
				 <ele>37.5</ele>
			 </trkpt>
			 <trkpt lat="53.353777" lon="-6.310656">
				 <ele>38.1</ele>
			 </trkpt>
			 <trkpt lat="53.354035" lon="-6.311272">
				 <ele>38.7</ele>
			 </trkpt>
			 <trkpt lat="53.354294" lon="-6.311888">
				 <ele>39.2</ele>
			 </trkpt>
			 <trkpt lat="53.354553" lon="-6.312505">
				 <ele>39.8</ele>
			 </trkpt>
			 <trkpt lat="53.354811" lon="-6.313121">
				 <ele>40.5</ele>
			 </trkpt>
			 <trkpt lat="53.35507" lon="-6.313737">
				 <ele>41.1</ele>
			 </trkpt>
			 <trkpt lat="53.355329" lon="-6.314354">
				 <ele>41.9</ele>
			 </trkpt>
			 <trkpt lat="53.355587" lon="-6.31497">
				 <ele>42.6</ele>
			 </trkpt>
			 <trkpt lat="53.355846" lon="-6.315586">
				 <ele>43.2</ele>
			 </trkpt>
			 <trkpt lat="53.356105" lon="-6.316203">
				 <ele>43.6</ele>
			 </trkpt>
			 <trkpt lat="53.356363" lon="-6.316819">
				 <ele>43.8</ele>
			 </trkpt>
			 <trkpt lat="53.356622" lon="-6.317435">
				 <ele>43.9</ele>
			 </trkpt>
			 <trkpt lat="53.356881" lon="-6.318052">
				 <ele>44.2</ele>
			 </trkpt>
			 <trkpt lat="53.357139" lon="-6.318668">
				 <ele>44.5</ele>
			 </trkpt>
			 <trkpt lat="53.357398" lon="-6.319284">
				 <ele>44.8</ele>
			 </trkpt>
			 <trkpt lat="53.357657" lon="-6.319901">
				 <ele>45.1</ele>
			 </trkpt>
			 <trkpt lat="53.357915" lon="-6.320517">
				 <ele>45.5</ele>
			 </trkpt>
			 <trkpt lat="53.358174" lon="-6.321133">
				 <ele>45.9</ele>
			 </trkpt>
			 <trkpt lat="53.358433" lon="-6.32175">
				 <ele>46.5</ele>
			 </trkpt>
			 <trkpt lat="53.358691" lon="-6.322366">
				 <ele>46.7</ele>
			 </trkpt>
			 <trkpt lat="53.35895" lon="-6.322982">
				 <ele>47</ele>
			 </trkpt>
			 <trkpt lat="53.359209" lon="-6.323599">
				 <ele>47.7</ele>
			 </trkpt>
			 <trkpt lat="53.359467" lon="-6.324215">
				 <ele>48.7</ele>
			 </trkpt>
			 <trkpt lat="53.359726" lon="-6.324831">
				 <ele>49.6</ele>
			 </trkpt>
			 <trkpt lat="53.359985" lon="-6.325448">
				 <ele>50.4</ele>
			 </trkpt>
			 <trkpt lat="53.360243" lon="-6.326064">
				 <ele>50.9</ele>
			 </trkpt>
			 <trkpt lat="53.360502" lon="-6.32668">
				 <ele>51.3</ele>
			 </trkpt>
			 <trkpt lat="53.360761" lon="-6.327297">
				 <ele>51.6</ele>
			 </trkpt>
			 <trkpt lat="53.361019" lon="-6.327913">
				 <ele>51.9</ele>
			 </trkpt>
			 <trkpt lat="53.361278" lon="-6.328529">
				 <ele>52.1</ele>
			 </trkpt>
			 <trkpt lat="53.361537" lon="-6.329146">
				 <ele>52.5</ele>
			 </trkpt>
			 <trkpt lat="53.361795" lon="-6.329762">
				 <ele>52.9</ele>
			 </trkpt>
			 <trkpt lat="53.362054" lon="-6.330378">
				 <ele>53.1</ele>
			 </trkpt>
			 <trkpt lat="53.362313" lon="-6.330995">
				 <ele>53.2</ele>
			 </trkpt>
			 <trkpt lat="53.362571" lon="-6.331611">
				 <ele>53.2</ele>
			 </trkpt>
			 <trkpt lat="53.36283" lon="-6.332227">
				 <ele>53.3</ele>
			 </trkpt>
			 <trkpt lat="53.363089" lon="-6.332844">
				 <ele>53.5</ele>
			 </trkpt>
			 <trkpt lat="53.363347" lon="-6.33346">
				 <ele>53.8</ele>
			 </trkpt>
			 <trkpt lat="53.363606" lon="-6.334076">
				 <ele>53.8</ele>
			 </trkpt>
			 <trkpt lat="53.363865" lon="-6.334693">
				 <ele>54</ele>
			 </trkpt>
			 <trkpt lat="53.364123" lon="-6.335309">
				 <ele>54.4</ele>
			 </trkpt>
			 <trkpt lat="53.364382" lon="-6.335925">
				 <ele>54.5</ele>
			 </trkpt>
			 <trkpt lat="53.364641" lon="-6.336542">
				 <ele>54.5</ele>
			 </trkpt>
			 <trkpt lat="53.364899" lon="-6.337158">
				 <ele>54.3</ele>
			 </trkpt>
			 <trkpt lat="53.365158" lon="-6.337774">
				 <ele>54</ele>
			 </trkpt>
			 <trkpt lat="53.365417" lon="-6.338391">
				 <ele>53.8</ele>
			 </trkpt>
			 <trkpt lat="53.365675" lon="-6.339007">
				 <ele>53.7</ele>
			 </trkpt>
			 <trkpt lat="53.365934" lon="-6.339623">
				 <ele>53.7</ele>
			 </trkpt>
			 <trkpt lat="53.366193" lon="-6.34024">
				 <ele>53.8</ele>
			 </trkpt>
			 <trkpt lat="53.366451" lon="-6.340856">
				 <ele>54.2</ele>
			 </trkpt>
			 <trkpt lat="53.36671" lon="-6.341472">
				 <ele>54.1</ele>
			 </trkpt>
			 <trkpt lat="53.366969" lon="-6.342089">
				 <ele>53.8</ele>
			 </trkpt>
			 <trkpt lat="53.367227" lon="-6.342705">
				 <ele>53.7</ele>
			 </trkpt>
			 <trkpt lat="53.367486" lon="-6.343321">
				 <ele>54.3</ele>
			 </trkpt>
			 <trkpt lat="53.367745" lon="-6.343938">
				 <ele>54.7</ele>
			 </trkpt>
			 <trkpt lat="53.368003" lon="-6.344554">
				 <ele>55.4</ele>
			 </trkpt>
			 <trkpt lat="53.368262" lon="-6.34517">
				 <ele>55.9</ele>
			 </trkpt>
			 <trkpt lat="53.368521" lon="-6.345787">
				 <ele>56.1</ele>
			 </trkpt>
			 <trkpt lat="53.368779" lon="-6.346403">
				 <ele>56.2</ele>
			 </trkpt>
			 <trkpt lat="53.369038" lon="-6.347019">
				 <ele>56.4</ele>
			 </trkpt>
			 <trkpt lat="53.369297" lon="-6.347636">
				 <ele>56.4</ele>
			 </trkpt>
			 <trkpt lat="53.369556" lon="-6.348252">
				 <ele>56.6</ele>
			 </trkpt>
			 <trkpt lat="53.369814" lon="-6.348868">
				 <ele>57.3</ele>
			 </trkpt>
			 <trkpt lat="53.36984" lon="-6.34893">
				 <ele>57.9</ele>
			 </trkpt>
			 <trkpt lat="53.36991" lon="-6.34917">
				 <ele>58.4</ele>
			 </trkpt>
			 <trkpt lat="53.37009" lon="-6.34981">
				 <ele>58.8</ele>
			 </trkpt>
			 <trkpt lat="53.37048" lon="-6.35118">
				 <ele>59.2</ele>
			 </trkpt>
			 <trkpt lat="53.37103" lon="-6.35311">
				 <ele>59.5</ele>
			 </trkpt>
			 <trkpt lat="53.37111" lon="-6.35347">
				 <ele>60.3</ele>
			 </trkpt>
			 <trkpt lat="53.37116" lon="-6.3539">
				 <ele>61.1</ele>
			 </trkpt>
			 <trkpt lat="53.37118" lon="-6.35433">
				 <ele>62</ele>
			 </trkpt>
			 <trkpt lat="53.37118" lon="-6.35466">
				 <ele>63.1</ele>
			 </trkpt>
			 <trkpt lat="53.37118" lon="-6.355">
				 <ele>64</ele>
			 </trkpt>
			 <trkpt lat="53.3712" lon="-6.35547">
				 <ele>64.5</ele>
			 </trkpt>
			 <trkpt lat="53.37125" lon="-6.35587">
				 <ele>64.9</ele>
			 </trkpt>
			 <trkpt lat="53.37138" lon="-6.35651">
				 <ele>65.4</ele>
			 </trkpt>
			 <trkpt lat="53.37179" lon="-6.35792">
				 <ele>65.8</ele>
			 </trkpt>
			 <trkpt lat="53.37186" lon="-6.35818">
				 <ele>66.1</ele>
			 </trkpt>
			 <trkpt lat="53.37192" lon="-6.35861">
				 <ele>66.3</ele>
			 </trkpt>
			 <trkpt lat="53.37214" lon="-6.35998">
				 <ele>66.3</ele>
			 </trkpt>
			 <trkpt lat="53.37222" lon="-6.36044">
				 <ele>66.3</ele>
			 </trkpt>
			 <trkpt lat="53.37239" lon="-6.36088">
				 <ele>66.2</ele>
			 </trkpt>
			 <trkpt lat="53.37252" lon="-6.36114">
				 <ele>65.9</ele>
			 </trkpt>
			 <trkpt lat="53.37275" lon="-6.36166">
				 <ele>65.9</ele>
			 </trkpt>
			 <trkpt lat="53.37287" lon="-6.36201">
				 <ele>66.1</ele>
			 </trkpt>
			 <trkpt lat="53.37301" lon="-6.36244">
				 <ele>66.5</ele>
			 </trkpt>
			 <trkpt lat="53.37306" lon="-6.36254">
				 <ele>66.6</ele>
			 </trkpt>
			 <trkpt lat="53.37293" lon="-6.36261">
				 <ele>66.8</ele>
			 </trkpt>
			 <trkpt lat="53.37263" lon="-6.36276">
				 <ele>67.1</ele>
			 </trkpt>
			 <trkpt lat="53.37222" lon="-6.36292">
				 <ele>67.6</ele>
			 </trkpt>
			 <trkpt lat="53.37153" lon="-6.36315">
				 <ele>68.4</ele>
			 </trkpt>
			 <trkpt lat="53.37142" lon="-6.36323">
				 <ele>68.9</ele>
			 </trkpt>
			 <trkpt lat="53.37122" lon="-6.36335">
				 <ele>69.5</ele>
			 </trkpt>
			 <trkpt lat="53.37103" lon="-6.36344">
				 <ele>70.2</ele>
			 </trkpt>
			 <trkpt lat="53.37062" lon="-6.36353">
				 <ele>70.6</ele>
			 </trkpt>
			 <trkpt lat="53.36997" lon="-6.36362">
				 <ele>71</ele>
			 </trkpt>
			 <trkpt lat="53.36936" lon="-6.36373">
				 <ele>71.3</ele>
			 </trkpt>
			 <trkpt lat="53.36903" lon="-6.36392">
				 <ele>71.5</ele>
			 </trkpt>
			 <trkpt lat="53.36875" lon="-6.36412">
				 <ele>71.8</ele>
			 </trkpt>
			 <trkpt lat="53.36862" lon="-6.36422">
				 <ele>72.3</ele>
			 </trkpt>
			 <trkpt lat="53.3684" lon="-6.36433">
				 <ele>72.5</ele>
			 </trkpt>
			 <trkpt lat="53.3682" lon="-6.3644">
				 <ele>72.3</ele>
			 </trkpt>
			 <trkpt lat="53.36799" lon="-6.36442">
				 <ele>71.8</ele>
			 </trkpt>
			 <trkpt lat="53.36714" lon="-6.36444">
				 <ele>71.4</ele>
			 </trkpt>
			 <trkpt lat="53.36699" lon="-6.36442">
				 <ele>70.5</ele>
			 </trkpt>
			 <trkpt lat="53.36674" lon="-6.36434">
				 <ele>69.5</ele>
			 </trkpt>
			 <trkpt lat="53.36571" lon="-6.364">
				 <ele>68.1</ele>
			 </trkpt>
			 <trkpt lat="53.36395" lon="-6.36343">
				 <ele>66.5</ele>
			 </trkpt>
			 <trkpt lat="53.36352" lon="-6.36327">
				 <ele>65</ele>
			 </trkpt>
			 <trkpt lat="53.36307" lon="-6.36309">
				 <ele>63.5</ele>
			 </trkpt>
			 <trkpt lat="53.3629" lon="-6.36299">
				 <ele>61.5</ele>
			 </trkpt>
			 <trkpt lat="53.36256" lon="-6.36264">
				 <ele>59.2</ele>
			 </trkpt>
			 <trkpt lat="53.36186" lon="-6.36192">
				 <ele>56.9</ele>
			 </trkpt>
			 <trkpt lat="53.36163" lon="-6.36173">
				 <ele>54.8</ele>
			 </trkpt>
			 <trkpt lat="53.36124" lon="-6.36131">
				 <ele>52.9</ele>
			 </trkpt>
			 <trkpt lat="53.36087" lon="-6.3609">
				 <ele>51.5</ele>
			 </trkpt>
			 <trkpt lat="53.36068" lon="-6.36067">
				 <ele>50</ele>
			 </trkpt>
			 <trkpt lat="53.36052" lon="-6.36043">
				 <ele>48.7</ele>
			 </trkpt>
			 <trkpt lat="53.36033" lon="-6.35996">
				 <ele>47.5</ele>
			 </trkpt>
			 <trkpt lat="53.36013" lon="-6.35926">
				 <ele>45.8</ele>
			 </trkpt>
			 <trkpt lat="53.36002" lon="-6.35901">
				 <ele>44.4</ele>
			 </trkpt>
			 <trkpt lat="53.35987" lon="-6.35869">
				 <ele>43.5</ele>
			 </trkpt>
			 <trkpt lat="53.35966" lon="-6.3584">
				 <ele>43.2</ele>
			 </trkpt>
			 <trkpt lat="53.35945" lon="-6.35817">
				 <ele>43.2</ele>
			 </trkpt>
			 <trkpt lat="53.35914" lon="-6.35795">
				 <ele>43.3</ele>
			 </trkpt>
			 <trkpt lat="53.35881" lon="-6.35769">
				 <ele>43.1</ele>
			 </trkpt>
			 <trkpt lat="53.35835" lon="-6.35724">
				 <ele>42.9</ele>
			 </trkpt>
			 <trkpt lat="53.3582" lon="-6.35708">
				 <ele>42.8</ele>
			 </trkpt>
			 <trkpt lat="53.35816" lon="-6.35704">
				 <ele>42.9</ele>
			 </trkpt>
			 <trkpt lat="53.35803" lon="-6.35689">
				 <ele>43.3</ele>
			 </trkpt>
			 <trkpt lat="53.35786" lon="-6.35672">
				 <ele>43.9</ele>
			 </trkpt>
			 <trkpt lat="53.357824" lon="-6.356648">
				 <ele>44.5</ele>
			 </trkpt>
			 <trkpt lat="53.357876" lon="-6.356513">
				 <ele>44.7</ele>
			 </trkpt>
			 <trkpt lat="53.357919" lon="-6.356413">
				 <ele>44.9</ele>
			 </trkpt>
			 <trkpt lat="53.35799" lon="-6.356277">
				 <ele>45.1</ele>
			 </trkpt>
			 <trkpt lat="53.358061" lon="-6.35613">
				 <ele>45.5</ele>
			 </trkpt>
			 <trkpt lat="53.358102" lon="-6.356086">
				 <ele>45.9</ele>
			 </trkpt>
			 <trkpt lat="53.35824" lon="-6.355987">
				 <ele>46.6</ele>
			 </trkpt>
			 <trkpt lat="53.358273" lon="-6.355951">
				 <ele>47.4</ele>
			 </trkpt>
			 <trkpt lat="53.358296" lon="-6.355917">
				 <ele>48</ele>
			 </trkpt>
			 <trkpt lat="53.358577" lon="-6.355484">
				 <ele>48.6</ele>
			 </trkpt>
			 <trkpt lat="53.358707" lon="-6.355239">
				 <ele>49.2</ele>
			 </trkpt>
			 <trkpt lat="53.358878" lon="-6.354837">
				 <ele>49.7</ele>
			 </trkpt>
			 <trkpt lat="53.358898" lon="-6.354777">
				 <ele>50.3</ele>
			 </trkpt>
			 <trkpt lat="53.358957" lon="-6.354601">
				 <ele>50.7</ele>
			 </trkpt>
			 <trkpt lat="53.359085" lon="-6.354218">
				 <ele>51.2</ele>
			 </trkpt>
			 <trkpt lat="53.359099" lon="-6.354179">
				 <ele>51.5</ele>
			 </trkpt>
			 <trkpt lat="53.359248" lon="-6.353832">
				 <ele>51.6</ele>
			 </trkpt>
			 <trkpt lat="53.359345" lon="-6.353645">
				 <ele>51.5</ele>
			 </trkpt>
			 <trkpt lat="53.359448" lon="-6.353458">
				 <ele>51.5</ele>
			 </trkpt>
			 <trkpt lat="53.359504" lon="-6.353359">
				 <ele>51.3</ele>
			 </trkpt>
			 <trkpt lat="53.359582" lon="-6.353219">
				 <ele>51.1</ele>
			 </trkpt>
			 <trkpt lat="53.359693" lon="-6.353019">
				 <ele>50.8</ele>
			 </trkpt>
			 <trkpt lat="53.359903" lon="-6.352533">
				 <ele>50.5</ele>
			 </trkpt>
			 <trkpt lat="53.360053" lon="-6.352124">
				 <ele>50.3</ele>
			 </trkpt>
			 <trkpt lat="53.360132" lon="-6.351836">
				 <ele>50.1</ele>
			 </trkpt>
			 <trkpt lat="53.360153" lon="-6.351731">
				 <ele>50</ele>
			 </trkpt>
			 <trkpt lat="53.360181" lon="-6.351596">
				 <ele>49.8</ele>
			 </trkpt>
			 <trkpt lat="53.360196" lon="-6.351428">
				 <ele>49.6</ele>
			 </trkpt>
			 <trkpt lat="53.360192" lon="-6.351373">
				 <ele>49.5</ele>
			 </trkpt>
			 <trkpt lat="53.360184" lon="-6.351226">
				 <ele>49.3</ele>
			 </trkpt>
			 <trkpt lat="53.360158" lon="-6.351073">
				 <ele>49.3</ele>
			 </trkpt>
			 <trkpt lat="53.360112" lon="-6.350948">
				 <ele>49.3</ele>
			 </trkpt>
			 <trkpt lat="53.360027" lon="-6.350766">
				 <ele>49.4</ele>
			 </trkpt>
			 <trkpt lat="53.359962" lon="-6.350628">
				 <ele>49.5</ele>
			 </trkpt>
			 <trkpt lat="53.359848" lon="-6.350384">
				 <ele>49.6</ele>
			 </trkpt>
			 <trkpt lat="53.359751" lon="-6.350081">
				 <ele>49.6</ele>
			 </trkpt>
			 <trkpt lat="53.359728" lon="-6.349967">
				 <ele>49.5</ele>
			 </trkpt>
			 <trkpt lat="53.359699" lon="-6.349827">
				 <ele>49.4</ele>
			 </trkpt>
			 <trkpt lat="53.359659" lon="-6.349386">
				 <ele>49.2</ele>
			 </trkpt>
			 <trkpt lat="53.359635" lon="-6.349427">
				 <ele>48.9</ele>
			 </trkpt>
			 <trkpt lat="53.359064" lon="-6.350394">
				 <ele>48.5</ele>
			 </trkpt>
			 <trkpt lat="53.359012" lon="-6.350434">
				 <ele>47.8</ele>
			 </trkpt>
			 <trkpt lat="53.358958" lon="-6.350454">
				 <ele>47.2</ele>
			 </trkpt>
			 <trkpt lat="53.358867" lon="-6.350455">
				 <ele>46.5</ele>
			 </trkpt>
			 <trkpt lat="53.358802" lon="-6.350427">
				 <ele>45.8</ele>
			 </trkpt>
			 <trkpt lat="53.358712" lon="-6.350326">
				 <ele>45.2</ele>
			 </trkpt>
			 <trkpt lat="53.3586" lon="-6.350142">
				 <ele>44.5</ele>
			 </trkpt>
			 <trkpt lat="53.358484" lon="-6.349924">
				 <ele>43.6</ele>
			 </trkpt>
			 <trkpt lat="53.358433" lon="-6.349829">
				 <ele>42.6</ele>
			 </trkpt>
			 <trkpt lat="53.358312" lon="-6.349688">
				 <ele>42</ele>
			 </trkpt>
			 <trkpt lat="53.358209" lon="-6.349616">
				 <ele>41.6</ele>
			 </trkpt>
			 <trkpt lat="53.358018" lon="-6.349537">
				 <ele>41.6</ele>
			 </trkpt>
			 <trkpt lat="53.357601" lon="-6.34946">
				 <ele>41.5</ele>
			 </trkpt>
			 <trkpt lat="53.35754" lon="-6.349459">
				 <ele>41.5</ele>
			 </trkpt>
			 <trkpt lat="53.357103" lon="-6.349445">
				 <ele>41.4</ele>
			 </trkpt>
			 <trkpt lat="53.35692" lon="-6.34944">
				 <ele>41.2</ele>
			 </trkpt>
			 <trkpt lat="53.356627" lon="-6.34951">
				 <ele>41</ele>
			 </trkpt>
			 <trkpt lat="53.356244" lon="-6.349729">
				 <ele>40.9</ele>
			 </trkpt>
			 <trkpt lat="53.35621" lon="-6.349748">
				 <ele>41.2</ele>
			 </trkpt>
			 <trkpt lat="53.356167" lon="-6.349762">
				 <ele>41.5</ele>
			 </trkpt>
			 <trkpt lat="53.356017" lon="-6.349753">
				 <ele>41.6</ele>
			 </trkpt>
			 <trkpt lat="53.355978" lon="-6.349737">
				 <ele>41.5</ele>
			 </trkpt>
			 <trkpt lat="53.355859" lon="-6.349698">
				 <ele>41.4</ele>
			 </trkpt>
			 <trkpt lat="53.355703" lon="-6.349587">
				 <ele>41.5</ele>
			 </trkpt>
			 <trkpt lat="53.355524" lon="-6.349372">
				 <ele>41.7</ele>
			 </trkpt>
			 <trkpt lat="53.355415" lon="-6.349142">
				 <ele>42.2</ele>
			 </trkpt>
			 <trkpt lat="53.355332" lon="-6.348857">
				 <ele>42.7</ele>
			 </trkpt>
			 <trkpt lat="53.355289" lon="-6.348711">
				 <ele>43.3</ele>
			 </trkpt>
			 <trkpt lat="53.355199" lon="-6.348279">
				 <ele>43.8</ele>
			 </trkpt>
			 <trkpt lat="53.35511" lon="-6.347941">
				 <ele>44.4</ele>
			 </trkpt>
			 <trkpt lat="53.35498" lon="-6.347711">
				 <ele>44.9</ele>
			 </trkpt>
			 <trkpt lat="53.35488" lon="-6.34769">
				 <ele>45.2</ele>
			 </trkpt>
			 <trkpt lat="53.35483" lon="-6.34769">
				 <ele>45.3</ele>
			 </trkpt>
			 <trkpt lat="53.35477" lon="-6.34772">
				 <ele>45.2</ele>
			 </trkpt>
			 <trkpt lat="53.35461" lon="-6.34787">
				 <ele>44.7</ele>
			 </trkpt>
			 <trkpt lat="53.35452" lon="-6.34795">
				 <ele>44.1</ele>
			 </trkpt>
			 <trkpt lat="53.35432" lon="-6.34805">
				 <ele>43.3</ele>
			 </trkpt>
			 <trkpt lat="53.35421" lon="-6.34805">
				 <ele>42.4</ele>
			 </trkpt>
			 <trkpt lat="53.35408" lon="-6.34795">
				 <ele>41.5</ele>
			 </trkpt>
			 <trkpt lat="53.35374" lon="-6.34762">
				 <ele>40.5</ele>
			 </trkpt>
			 <trkpt lat="53.35356" lon="-6.34746">
				 <ele>39.5</ele>
			 </trkpt>
			 <trkpt lat="53.35339" lon="-6.34735">
				 <ele>38.5</ele>
			 </trkpt>
			 <trkpt lat="53.35312" lon="-6.34721">
				 <ele>38</ele>
			 </trkpt>
			 <trkpt lat="53.35286" lon="-6.34699">
				 <ele>37.6</ele>
			 </trkpt>
			 <trkpt lat="53.35239" lon="-6.34656">
				 <ele>37.4</ele>
			 </trkpt>
			 <trkpt lat="53.352413" lon="-6.346498">
				 <ele>37.5</ele>
			 </trkpt>
			 <trkpt lat="53.352482" lon="-6.34647">
				 <ele>37.5</ele>
			 </trkpt>
			 <trkpt lat="53.352503" lon="-6.346415">
				 <ele>37.4</ele>
			 </trkpt>
			 <trkpt lat="53.352518" lon="-6.346299">
				 <ele>37.5</ele>
			 </trkpt>
			 <trkpt lat="53.352514" lon="-6.346246">
				 <ele>37.5</ele>
			 </trkpt>
			 <trkpt lat="53.352491" lon="-6.346137">
				 <ele>37.6</ele>
			 </trkpt>
			 <trkpt lat="53.352456" lon="-6.345993">
				 <ele>37.7</ele>
			 </trkpt>
			 <trkpt lat="53.352402" lon="-6.345707">
				 <ele>37.6</ele>
			 </trkpt>
			 <trkpt lat="53.352324" lon="-6.345086">
				 <ele>37.5</ele>
			 </trkpt>
			 <trkpt lat="53.35228" lon="-6.344866">
				 <ele>37.1</ele>
			 </trkpt>
			 <trkpt lat="53.352233" lon="-6.344724">
				 <ele>36.7</ele>
			 </trkpt>
			 <trkpt lat="53.352188" lon="-6.344608">
				 <ele>36.4</ele>
			 </trkpt>
			 <trkpt lat="53.352102" lon="-6.34435">
				 <ele>35.9</ele>
			 </trkpt>
			 <trkpt lat="53.352039" lon="-6.344133">
				 <ele>35.6</ele>
			 </trkpt>
			 <trkpt lat="53.351976" lon="-6.343855">
				 <ele>35.4</ele>
			 </trkpt>
			 <trkpt lat="53.35193" lon="-6.343546">
				 <ele>35.2</ele>
			 </trkpt>
			 <trkpt lat="53.351896" lon="-6.342995">
				 <ele>35.1</ele>
			 </trkpt>
			 <trkpt lat="53.352072" lon="-6.342891">
				 <ele>34.9</ele>
			 </trkpt>
			 <trkpt lat="53.351947" lon="-6.342665">
				 <ele>34.8</ele>
			 </trkpt>
			 <trkpt lat="53.351874" lon="-6.342502">
				 <ele>34.7</ele>
			 </trkpt>
			 <trkpt lat="53.351795" lon="-6.342231">
				 <ele>34.8</ele>
			 </trkpt>
			 <trkpt lat="53.351748" lon="-6.341959">
				 <ele>34.9</ele>
			 </trkpt>
			 <trkpt lat="53.351753" lon="-6.34169">
				 <ele>34.9</ele>
			 </trkpt>
			 <trkpt lat="53.351733" lon="-6.341253">
				 <ele>35.1</ele>
			 </trkpt>
			 <trkpt lat="53.351739" lon="-6.341108">
				 <ele>35.2</ele>
			 </trkpt>
			 <trkpt lat="53.351726" lon="-6.340878">
				 <ele>35.2</ele>
			 </trkpt>
			 <trkpt lat="53.351696" lon="-6.340745">
				 <ele>35.2</ele>
			 </trkpt>
			 <trkpt lat="53.351669" lon="-6.340697">
				 <ele>35.2</ele>
			 </trkpt>
			 <trkpt lat="53.351482" lon="-6.340362">
				 <ele>35.2</ele>
			 </trkpt>
			 <trkpt lat="53.35142" lon="-6.340276">
				 <ele>35.1</ele>
			 </trkpt>
			 <trkpt lat="53.351399" lon="-6.340215">
				 <ele>34.7</ele>
			 </trkpt>
			 <trkpt lat="53.351171" lon="-6.340005">
				 <ele>34.3</ele>
			 </trkpt>
			 <trkpt lat="53.350987" lon="-6.33989">
				 <ele>33.7</ele>
			 </trkpt>
			 <trkpt lat="53.350665" lon="-6.340029">
				 <ele>33</ele>
			 </trkpt>
			 <trkpt lat="53.350432" lon="-6.340098">
				 <ele>32.3</ele>
			 </trkpt>
			 <trkpt lat="53.350184" lon="-6.340052">
				 <ele>31.5</ele>
			 </trkpt>
			 <trkpt lat="53.350078" lon="-6.339855">
				 <ele>30.7</ele>
			 </trkpt>
			 <trkpt lat="53.349992" lon="-6.339894">
				 <ele>30</ele>
			 </trkpt>
			 <trkpt lat="53.349939" lon="-6.339942">
				 <ele>29.4</ele>
			 </trkpt>
			 <trkpt lat="53.349843" lon="-6.339699">
				 <ele>28.3</ele>
			 </trkpt>
			 <trkpt lat="53.349792" lon="-6.339564">
				 <ele>26.6</ele>
			 </trkpt>
			 <trkpt lat="53.349573" lon="-6.339067">
				 <ele>25.3</ele>
			 </trkpt>
			 <trkpt lat="53.349371" lon="-6.338694">
				 <ele>24.1</ele>
			 </trkpt>
			 <trkpt lat="53.349045" lon="-6.338269">
				 <ele>23</ele>
			 </trkpt>
			 <trkpt lat="53.348145" lon="-6.337681">
				 <ele>22.1</ele>
			 </trkpt>
			 <trkpt lat="53.347678" lon="-6.337245">
				 <ele>21</ele>
			 </trkpt>
			 <trkpt lat="53.347514" lon="-6.337073">
				 <ele>19.5</ele>
			 </trkpt>
			 <trkpt lat="53.347443" lon="-6.336997">
				 <ele>18.3</ele>
			 </trkpt>
			 <trkpt lat="53.347318" lon="-6.336844">
				 <ele>16.9</ele>
			 </trkpt>
			 <trkpt lat="53.347221" lon="-6.336825">
				 <ele>15.5</ele>
			 </trkpt>
			 <trkpt lat="53.346976" lon="-6.336883">
				 <ele>14.5</ele>
			 </trkpt>
			 <trkpt lat="53.346759" lon="-6.336961">
				 <ele>14.2</ele>
			 </trkpt>
			 <trkpt lat="53.34678" lon="-6.33731">
				 <ele>13.9</ele>
			 </trkpt>
			 <trkpt lat="53.346835" lon="-6.337912">
				 <ele>13.6</ele>
			 </trkpt>
			 <trkpt lat="53.346853" lon="-6.338055">
				 <ele>13.5</ele>
			 </trkpt>
			 <trkpt lat="53.346911" lon="-6.338661">
				 <ele>13.2</ele>
			 </trkpt>
			 <trkpt lat="53.346953" lon="-6.338948">
				 <ele>13</ele>
			 </trkpt>
			 <trkpt lat="53.347069" lon="-6.339515">
				 <ele>13.1</ele>
			 </trkpt>
			 <trkpt lat="53.347114" lon="-6.339693">
				 <ele>13</ele>
			 </trkpt>
			 <trkpt lat="53.347175" lon="-6.339909">
				 <ele>12.8</ele>
			 </trkpt>
			 <trkpt lat="53.347261" lon="-6.340178">
				 <ele>12.6</ele>
			 </trkpt>
			 <trkpt lat="53.347327" lon="-6.340351">
				 <ele>12.5</ele>
			 </trkpt>
			 <trkpt lat="53.347542" lon="-6.340872">
				 <ele>12.4</ele>
			 </trkpt>
			 <trkpt lat="53.347643" lon="-6.341108">
				 <ele>12.2</ele>
			 </trkpt>
			 <trkpt lat="53.347738" lon="-6.341329">
				 <ele>11.9</ele>
			 </trkpt>
			 <trkpt lat="53.34792" lon="-6.341749">
				 <ele>11.5</ele>
			 </trkpt>
			 <trkpt lat="53.348022" lon="-6.341987">
				 <ele>11.1</ele>
			 </trkpt>
			 <trkpt lat="53.34825" lon="-6.34251">
				 <ele>10.7</ele>
			 </trkpt>
			 <trkpt lat="53.348267" lon="-6.342621">
				 <ele>10.5</ele>
			 </trkpt>
			 <trkpt lat="53.348277" lon="-6.342674">
				 <ele>10.5</ele>
			 </trkpt>
			 <trkpt lat="53.348281" lon="-6.342867">
				 <ele>10.4</ele>
			 </trkpt>
			 <trkpt lat="53.348203" lon="-6.343688">
				 <ele>10.2</ele>
			 </trkpt>
			 <trkpt lat="53.348186" lon="-6.343894">
				 <ele>10</ele>
			 </trkpt>
			 <trkpt lat="53.34817" lon="-6.34403">
				 <ele>9.7</ele>
			 </trkpt>
			 <trkpt lat="53.348126" lon="-6.344379">
				 <ele>9.5</ele>
			 </trkpt>
			 <trkpt lat="53.348119" lon="-6.344431">
				 <ele>9.3</ele>
			 </trkpt>
			 <trkpt lat="53.348082" lon="-6.344732">
				 <ele>9.1</ele>
			 </trkpt>
			 <trkpt lat="53.348036" lon="-6.345075">
				 <ele>9.2</ele>
			 </trkpt>
			 <trkpt lat="53.348002" lon="-6.345239">
				 <ele>9.3</ele>
			 </trkpt>
			 <trkpt lat="53.347986" lon="-6.345318">
				 <ele>9.3</ele>
			 </trkpt>
			 <trkpt lat="53.347902" lon="-6.34561">
				 <ele>9.4</ele>
			 </trkpt>
			 <trkpt lat="53.34785" lon="-6.345784">
				 <ele>9.4</ele>
			 </trkpt>
			 <trkpt lat="53.34783" lon="-6.345923">
				 <ele>9.5</ele>
			 </trkpt>
			 <trkpt lat="53.347781" lon="-6.346101">
				 <ele>9.6</ele>
			 </trkpt>
			 <trkpt lat="53.34776" lon="-6.34615">
				 <ele>9.9</ele>
			 </trkpt>
			 <trkpt lat="53.34744" lon="-6.3458">
				 <ele>10.1</ele>
			 </trkpt>
			 <trkpt lat="53.34728" lon="-6.34558">
				 <ele>10.3</ele>
			 </trkpt>
			 <trkpt lat="53.3471" lon="-6.34528">
				 <ele>10.5</ele>
			 </trkpt>
			 <trkpt lat="53.34671" lon="-6.34461">
				 <ele>10.5</ele>
			 </trkpt>
			 <trkpt lat="53.34669" lon="-6.34457">
				 <ele>10.5</ele>
			 </trkpt>
			 <trkpt lat="53.34621" lon="-6.34387">
				 <ele>10.6</ele>
			 </trkpt>
			 <trkpt lat="53.34609" lon="-6.34368">
				 <ele>10.6</ele>
			 </trkpt>
			 <trkpt lat="53.346046" lon="-6.343555">
				 <ele>10.7</ele>
			 </trkpt>
			 <trkpt lat="53.346009" lon="-6.343408">
				 <ele>10.8</ele>
			 </trkpt>
			 <trkpt lat="53.345827" lon="-6.342648">
				 <ele>10.7</ele>
			 </trkpt>
			 <trkpt lat="53.345739" lon="-6.342371">
				 <ele>10.8</ele>
			 </trkpt>
			 <trkpt lat="53.345543" lon="-6.341958">
				 <ele>11.2</ele>
			 </trkpt>
			 <trkpt lat="53.345471" lon="-6.341808">
				 <ele>11.5</ele>
			 </trkpt>
			 <trkpt lat="53.345443" lon="-6.341732">
				 <ele>11.8</ele>
			 </trkpt>
			 <trkpt lat="53.345233" lon="-6.341162">
				 <ele>12.1</ele>
			 </trkpt>
			 <trkpt lat="53.344939" lon="-6.340445">
				 <ele>12.5</ele>
			 </trkpt>
			 <trkpt lat="53.34431" lon="-6.338899">
				 <ele>12.9</ele>
			 </trkpt>
			 <trkpt lat="53.344207" lon="-6.338642">
				 <ele>13.7</ele>
			 </trkpt>
			 <trkpt lat="53.344067" lon="-6.338218">
				 <ele>14.8</ele>
			 </trkpt>
			 <trkpt lat="53.344006" lon="-6.337943">
				 <ele>15.9</ele>
			 </trkpt>
			 <trkpt lat="53.343919" lon="-6.337494">
				 <ele>17.2</ele>
			 </trkpt>
			 <trkpt lat="53.343902" lon="-6.337404">
				 <ele>18.3</ele>
			 </trkpt>
			 <trkpt lat="53.343763" lon="-6.336647">
				 <ele>19.3</ele>
			 </trkpt>
			 <trkpt lat="53.343544" lon="-6.335459">
				 <ele>20.3</ele>
			 </trkpt>
			 <trkpt lat="53.343493" lon="-6.335325">
				 <ele>21.4</ele>
			 </trkpt>
			 <trkpt lat="53.343429" lon="-6.335245">
				 <ele>22.5</ele>
			 </trkpt>
			 <trkpt lat="53.343345" lon="-6.335188">
				 <ele>23.5</ele>
			 </trkpt>
			 <trkpt lat="53.343291" lon="-6.335182">
				 <ele>24.6</ele>
			 </trkpt>
			 <trkpt lat="53.343267" lon="-6.334793">
				 <ele>25.4</ele>
			 </trkpt>
			 <trkpt lat="53.343252" lon="-6.334627">
				 <ele>25.7</ele>
			 </trkpt>
			 <trkpt lat="53.343247" lon="-6.33457">
				 <ele>26.1</ele>
			 </trkpt>
			 <trkpt lat="53.343183" lon="-6.334139">
				 <ele>26.4</ele>
			 </trkpt>
			 <trkpt lat="53.343126" lon="-6.333827">
				 <ele>26.6</ele>
			 </trkpt>
			 <trkpt lat="53.343013" lon="-6.333321">
				 <ele>26.8</ele>
			 </trkpt>
			 <trkpt lat="53.342624" lon="-6.331651">
				 <ele>26.9</ele>
			 </trkpt>
			 <trkpt lat="53.342553" lon="-6.331336">
				 <ele>26.9</ele>
			 </trkpt>
			 <trkpt lat="53.342503" lon="-6.331113">
				 <ele>26.8</ele>
			 </trkpt>
			 <trkpt lat="53.342416" lon="-6.330728">
				 <ele>26.6</ele>
			 </trkpt>
			 <trkpt lat="53.342393" lon="-6.330622">
				 <ele>26.5</ele>
			 </trkpt>
			 <trkpt lat="53.34235" lon="-6.330422">
				 <ele>26.2</ele>
			 </trkpt>
			 <trkpt lat="53.342288" lon="-6.329981">
				 <ele>26.1</ele>
			 </trkpt>
			 <trkpt lat="53.342236" lon="-6.329475">
				 <ele>26</ele>
			 </trkpt>
			 <trkpt lat="53.342206" lon="-6.329124">
				 <ele>25.9</ele>
			 </trkpt>
			 <trkpt lat="53.342123" lon="-6.328471">
				 <ele>25.8</ele>
			 </trkpt>
			 <trkpt lat="53.34209" lon="-6.32772">
				 <ele>25.6</ele>
			 </trkpt>
			 <trkpt lat="53.342056" lon="-6.326969">
				 <ele>25.4</ele>
			 </trkpt>
			 <trkpt lat="53.342053" lon="-6.326893">
				 <ele>25</ele>
			 </trkpt>
			 <trkpt lat="53.342024" lon="-6.326142">
				 <ele>24.8</ele>
			 </trkpt>
			 <trkpt lat="53.342014" lon="-6.325888">
				 <ele>24.6</ele>
			 </trkpt>
			 <trkpt lat="53.341934" lon="-6.325271">
				 <ele>24.5</ele>
			 </trkpt>
			 <trkpt lat="53.341864" lon="-6.32501">
				 <ele>24.5</ele>
			 </trkpt>
			 <trkpt lat="53.341723" lon="-6.324524">
				 <ele>24.3</ele>
			 </trkpt>
			 <trkpt lat="53.341641" lon="-6.324264">
				 <ele>24.2</ele>
			 </trkpt>
			 <trkpt lat="53.341599" lon="-6.324073">
				 <ele>24.2</ele>
			 </trkpt>
			 <trkpt lat="53.341579" lon="-6.323959">
				 <ele>23.9</ele>
			 </trkpt>
			 <trkpt lat="53.34152" lon="-6.323607">
				 <ele>23.8</ele>
			 </trkpt>
			 <trkpt lat="53.341504" lon="-6.323489">
				 <ele>23.8</ele>
			 </trkpt>
			 <trkpt lat="53.34146" lon="-6.32297">
				 <ele>24</ele>
			 </trkpt>
			 <trkpt lat="53.34148" lon="-6.32247">
				 <ele>24.1</ele>
			 </trkpt>
			 <trkpt lat="53.34165" lon="-6.31933">
				 <ele>24.1</ele>
			 </trkpt>
			 <trkpt lat="53.34167" lon="-6.31894">
				 <ele>24</ele>
			 </trkpt>
			 <trkpt lat="53.34166" lon="-6.31861">
				 <ele>23.8</ele>
			 </trkpt>
			 <trkpt lat="53.34173" lon="-6.318">
				 <ele>23.5</ele>
			 </trkpt>
			 <trkpt lat="53.34173" lon="-6.31794">
				 <ele>22.8</ele>
			 </trkpt>
			 <trkpt lat="53.34184" lon="-6.31676">
				 <ele>22.1</ele>
			 </trkpt>
			 <trkpt lat="53.341974" lon="-6.315665">
				 <ele>21.8</ele>
			 </trkpt>
			 <trkpt lat="53.342221" lon="-6.314412">
				 <ele>21.8</ele>
			 </trkpt>
			 <trkpt lat="53.34235" lon="-6.313844">
				 <ele>21.7</ele>
			 </trkpt>
			 <trkpt lat="53.342362" lon="-6.313404">
				 <ele>21.5</ele>
			 </trkpt>
			 <trkpt lat="53.342356" lon="-6.312621">
				 <ele>21.1</ele>
			 </trkpt>
			 <trkpt lat="53.342228" lon="-6.311344">
				 <ele>20.5</ele>
			 </trkpt>
			 <trkpt lat="53.342087" lon="-6.308919">
				 <ele>20</ele>
			 </trkpt>
			 <trkpt lat="53.342048" lon="-6.308433">
				 <ele>19.8</ele>
			 </trkpt>
			 <trkpt lat="53.342064" lon="-6.307875">
				 <ele>19.9</ele>
			 </trkpt>
			 <trkpt lat="53.34158" lon="-6.30781">
				 <ele>20.3</ele>
			 </trkpt>
			 <trkpt lat="53.34138" lon="-6.30779">
				 <ele>20.7</ele>
			 </trkpt>
			 <trkpt lat="53.341" lon="-6.30771">
				 <ele>21</ele>
			 </trkpt>
			 <trkpt lat="53.34054" lon="-6.30763">
				 <ele>20.9</ele>
			 </trkpt>
			 <trkpt lat="53.34027" lon="-6.30761">
				 <ele>20.8</ele>
			 </trkpt>
			 <trkpt lat="53.34011" lon="-6.30762">
				 <ele>20.8</ele>
			 </trkpt>
			 <trkpt lat="53.33976" lon="-6.30767">
				 <ele>21.1</ele>
			 </trkpt>
			 <trkpt lat="53.33958" lon="-6.3077">
				 <ele>21.5</ele>
			 </trkpt>
			 <trkpt lat="53.33942" lon="-6.30774">
				 <ele>22</ele>
			 </trkpt>
			 <trkpt lat="53.33937" lon="-6.30718">
				 <ele>22.2</ele>
			 </trkpt>
			 <trkpt lat="53.33872" lon="-6.30058">
				 <ele>22.3</ele>
			 </trkpt>
			 <trkpt lat="53.33863" lon="-6.29978">
				 <ele>22.3</ele>
			 </trkpt>
			 <trkpt lat="53.338656" lon="-6.299744">
				 <ele>22.2</ele>
			 </trkpt>
			 <trkpt lat="53.338561" lon="-6.299642">
				 <ele>22.1</ele>
			 </trkpt>
			 <trkpt lat="53.338461" lon="-6.29956">
				 <ele>22</ele>
			 </trkpt>
			 <trkpt lat="53.338147" lon="-6.299456">
				 <ele>22</ele>
			 </trkpt>
			 <trkpt lat="53.337854" lon="-6.299365">
				 <ele>22</ele>
			 </trkpt>
			 <trkpt lat="53.337796" lon="-6.299347">
				 <ele>22</ele>
			 </trkpt>
			 <trkpt lat="53.33772" lon="-6.299323">
				 <ele>22</ele>
			 </trkpt>
			 <trkpt lat="53.33768" lon="-6.29931">
				 <ele>22</ele>
			 </trkpt>
			 <trkpt lat="53.33764" lon="-6.299298">
				 <ele>22.1</ele>
			 </trkpt>
			 <trkpt lat="53.337596" lon="-6.299285">
				 <ele>22.1</ele>
			 </trkpt>
			 <trkpt lat="53.337263" lon="-6.29918">
				 <ele>22.2</ele>
			 </trkpt>
			 <trkpt lat="53.337228" lon="-6.29917">
				 <ele>22.3</ele>
			 </trkpt>
			 <trkpt lat="53.337136" lon="-6.299141">
				 <ele>22.4</ele>
			 </trkpt>
			 <trkpt lat="53.336913" lon="-6.299076">
				 <ele>22.5</ele>
			 </trkpt>
			 <trkpt lat="53.336708" lon="-6.299019">
				 <ele>22.5</ele>
			 </trkpt>
			 <trkpt lat="53.336562" lon="-6.298993">
				 <ele>22.5</ele>
			 </trkpt>
			 <trkpt lat="53.336489" lon="-6.298991">
				 <ele>22.5</ele>
			 </trkpt>
			 <trkpt lat="53.336481" lon="-6.298909">
				 <ele>22.4</ele>
			 </trkpt>
			 <trkpt lat="53.336448" lon="-6.298839">
				 <ele>22.2</ele>
			 </trkpt>
			 <trkpt lat="53.336388" lon="-6.298808">
				 <ele>21.9</ele>
			 </trkpt>
			 <trkpt lat="53.336347" lon="-6.298817">
				 <ele>21.7</ele>
			 </trkpt>
			 <trkpt lat="53.336302" lon="-6.298699">
				 <ele>21.5</ele>
			 </trkpt>
			 <trkpt lat="53.336261" lon="-6.298588">
				 <ele>21.2</ele>
			 </trkpt>
			 <trkpt lat="53.336104" lon="-6.298165">
				 <ele>20.9</ele>
			 </trkpt>
			 <trkpt lat="53.336041" lon="-6.297912">
				 <ele>20.6</ele>
			 </trkpt>
			 <trkpt lat="53.335942" lon="-6.297479">
				 <ele>20.4</ele>
			 </trkpt>
			 <trkpt lat="53.33593" lon="-6.297422">
				 <ele>20.1</ele>
			 </trkpt>
			 <trkpt lat="53.335914" lon="-6.297353">
				 <ele>19.8</ele>
			 </trkpt>
			 <trkpt lat="53.335818" lon="-6.296932">
				 <ele>19.5</ele>
			 </trkpt>
			 <trkpt lat="53.335794" lon="-6.296833">
				 <ele>19.4</ele>
			 </trkpt>
			 <trkpt lat="53.335711" lon="-6.296479">
				 <ele>19.3</ele>
			 </trkpt>
			 <trkpt lat="53.335672" lon="-6.296317">
				 <ele>19.2</ele>
			 </trkpt>
			 <trkpt lat="53.335648" lon="-6.296214">
				 <ele>19.2</ele>
			 </trkpt>
			 <trkpt lat="53.335624" lon="-6.296115">
				 <ele>19.2</ele>
			 </trkpt>
			 <trkpt lat="53.335587" lon="-6.295962">
				 <ele>19.2</ele>
			 </trkpt>
			 <trkpt lat="53.335483" lon="-6.295528">
				 <ele>19.3</ele>
			 </trkpt>
			 <trkpt lat="53.335463" lon="-6.29544">
				 <ele>19.4</ele>
			 </trkpt>
			 <trkpt lat="53.335304" lon="-6.294771">
				 <ele>19.5</ele>
			 </trkpt>
			 <trkpt lat="53.335272" lon="-6.29464">
				 <ele>19.5</ele>
			 </trkpt>
			 <trkpt lat="53.335154" lon="-6.294145">
				 <ele>19.7</ele>
			 </trkpt>
			 <trkpt lat="53.335139" lon="-6.294084">
				 <ele>19.9</ele>
			 </trkpt>
			 <trkpt lat="53.335036" lon="-6.293662">
				 <ele>20.1</ele>
			 </trkpt>
			 <trkpt lat="53.334991" lon="-6.293529">
				 <ele>20.5</ele>
			 </trkpt>
			 <trkpt lat="53.334965" lon="-6.293477">
				 <ele>20.7</ele>
			 </trkpt>
			 <trkpt lat="53.33488" lon="-6.29334">
				 <ele>21</ele>
			 </trkpt>
			 <trkpt lat="53.33461" lon="-6.29293">
				 <ele>21.4</ele>
			 </trkpt>
			 <trkpt lat="53.33409" lon="-6.29219">
				 <ele>21.5</ele>
			 </trkpt>
			 <trkpt lat="53.33354" lon="-6.2914">
				 <ele>21.9</ele>
			 </trkpt>
			 <trkpt lat="53.33348" lon="-6.29129">
				 <ele>22.4</ele>
			 </trkpt>
			 <trkpt lat="53.33338" lon="-6.29143">
				 <ele>22.8</ele>
			 </trkpt>
			 <trkpt lat="53.33323" lon="-6.29165">
				 <ele>23.2</ele>
			 </trkpt>
			 <trkpt lat="53.33301" lon="-6.29198">
				 <ele>23.5</ele>
			 </trkpt>
			 <trkpt lat="53.33255" lon="-6.29263">
				 <ele>23.7</ele>
			 </trkpt>
			 <trkpt lat="53.33226" lon="-6.29307">
				 <ele>23.9</ele>
			 </trkpt>
			 <trkpt lat="53.33205" lon="-6.29338">
				 <ele>24.4</ele>
			 </trkpt>
			 <trkpt lat="53.33183" lon="-6.29379">
				 <ele>24.8</ele>
			 </trkpt>
			 <trkpt lat="53.33178" lon="-6.29397">
				 <ele>25.3</ele>
			 </trkpt>
			 <trkpt lat="53.33175" lon="-6.29413">
				 <ele>25.8</ele>
			 </trkpt>
			 <trkpt lat="53.33149" lon="-6.2948">
				 <ele>26.2</ele>
			 </trkpt>
			 <trkpt lat="53.33072" lon="-6.29672">
				 <ele>26.5</ele>
			 </trkpt>
			 <trkpt lat="53.33045" lon="-6.29737">
				 <ele>27.3</ele>
			 </trkpt>
			 <trkpt lat="53.32998" lon="-6.29857">
				 <ele>28.6</ele>
			 </trkpt>
			 <trkpt lat="53.3298" lon="-6.29919">
				 <ele>30.4</ele>
			 </trkpt>
			 <trkpt lat="53.32956" lon="-6.30026">
				 <ele>32.3</ele>
			 </trkpt>
			 <trkpt lat="53.32922" lon="-6.30172">
				 <ele>34</ele>
			 </trkpt>
			 <trkpt lat="53.32871" lon="-6.30408">
				 <ele>35.5</ele>
			 </trkpt>
			 <trkpt lat="53.32712" lon="-6.31145">
				 <ele>36.9</ele>
			 </trkpt>
			 <trkpt lat="53.32645" lon="-6.31457">
				 <ele>38.3</ele>
			 </trkpt>
			 <trkpt lat="53.32639" lon="-6.3148">
				 <ele>39.6</ele>
			 </trkpt>
			 <trkpt lat="53.32636" lon="-6.31492">
				 <ele>41</ele>
			 </trkpt>
			 <trkpt lat="53.32629" lon="-6.31505">
				 <ele>42.3</ele>
			 </trkpt>
			 <trkpt lat="53.32622" lon="-6.31526">
				 <ele>43.1</ele>
			 </trkpt>
			 <trkpt lat="53.32606" lon="-6.31568">
				 <ele>43.5</ele>
			 </trkpt>
			 <trkpt lat="53.32575" lon="-6.31636">
				 <ele>43.5</ele>
			 </trkpt>
			 <trkpt lat="53.32535" lon="-6.31707">
				 <ele>43.7</ele>
			 </trkpt>
			 <trkpt lat="53.32519" lon="-6.31741">
				 <ele>44.1</ele>
			 </trkpt>
			 <trkpt lat="53.32504" lon="-6.3179">
				 <ele>44.5</ele>
			 </trkpt>
			 <trkpt lat="53.32499" lon="-6.31814">
				 <ele>44.8</ele>
			 </trkpt>
			 <trkpt lat="53.32492" lon="-6.3186">
				 <ele>45.2</ele>
			 </trkpt>
			 <trkpt lat="53.32487" lon="-6.31947">
				 <ele>45.5</ele>
			 </trkpt>
			 <trkpt lat="53.32482" lon="-6.32089">
				 <ele>45.6</ele>
			 </trkpt>
			 <trkpt lat="53.32473" lon="-6.32188">
				 <ele>45.6</ele>
			 </trkpt>
			 <trkpt lat="53.32473" lon="-6.32199">
				 <ele>45.8</ele>
			 </trkpt>
			 <trkpt lat="53.32476" lon="-6.32212">
				 <ele>45.9</ele>
			 </trkpt>
			 <trkpt lat="53.32472" lon="-6.32259">
				 <ele>45.8</ele>
			 </trkpt>
			 <trkpt lat="53.32467" lon="-6.32307">
				 <ele>45.5</ele>
			 </trkpt>
			 <trkpt lat="53.32459" lon="-6.3239">
				 <ele>44.9</ele>
			 </trkpt>
			 <trkpt lat="53.32446" lon="-6.32494">
				 <ele>44.3</ele>
			 </trkpt>
			 <trkpt lat="53.3244" lon="-6.32527">
				 <ele>43.5</ele>
			 </trkpt>
			 <trkpt lat="53.32432" lon="-6.32571">
				 <ele>42.8</ele>
			 </trkpt>
			 <trkpt lat="53.32417" lon="-6.32681">
				 <ele>42.4</ele>
			 </trkpt>
			 <trkpt lat="53.32408" lon="-6.32738">
				 <ele>42.3</ele>
			 </trkpt>
			 <trkpt lat="53.32389" lon="-6.32788">
				 <ele>42.4</ele>
			 </trkpt>
			 <trkpt lat="53.32378" lon="-6.32814">
				 <ele>42.4</ele>
			 </trkpt>
			 <trkpt lat="53.32372" lon="-6.32821">
				 <ele>42.5</ele>
			 </trkpt>
			 <trkpt lat="53.3234" lon="-6.32858">
				 <ele>42.7</ele>
			 </trkpt>
			 <trkpt lat="53.32227" lon="-6.32983">
				 <ele>43.2</ele>
			 </trkpt>
			 <trkpt lat="53.32174" lon="-6.3304">
				 <ele>43.7</ele>
			 </trkpt>
			 <trkpt lat="53.32134" lon="-6.33083">
				 <ele>44.5</ele>
			 </trkpt>
			 <trkpt lat="53.32084" lon="-6.33113">
				 <ele>45.5</ele>
			 </trkpt>
			 <trkpt lat="53.31968" lon="-6.33184">
				 <ele>46.5</ele>
			 </trkpt>
			 <trkpt lat="53.31879" lon="-6.33238">
				 <ele>47.1</ele>
			 </trkpt>
			 <trkpt lat="53.31837" lon="-6.33252">
				 <ele>47.5</ele>
			 </trkpt>
			 <trkpt lat="53.318" lon="-6.33265">
				 <ele>48</ele>
			 </trkpt>
			 <trkpt lat="53.31786" lon="-6.33267">
				 <ele>48.5</ele>
			 </trkpt>
			 <trkpt lat="53.3177" lon="-6.33271">
				 <ele>49.1</ele>
			 </trkpt>
			 <trkpt lat="53.31726" lon="-6.33282">
				 <ele>49.5</ele>
			 </trkpt>
			 <trkpt lat="53.317253" lon="-6.332768">
				 <ele>49.9</ele>
			 </trkpt>
			 <trkpt lat="53.317212" lon="-6.332636">
				 <ele>50.2</ele>
			 </trkpt>
			 <trkpt lat="53.317181" lon="-6.332402">
				 <ele>50.3</ele>
			 </trkpt>
			 <trkpt lat="53.317156" lon="-6.332089">
				 <ele>50.4</ele>
			 </trkpt>
			 <trkpt lat="53.317124" lon="-6.331893">
				 <ele>50.4</ele>
			 </trkpt>
			 <trkpt lat="53.317123" lon="-6.331846">
				 <ele>50.5</ele>
			 </trkpt>
			 <trkpt lat="53.317121" lon="-6.331797">
				 <ele>50.5</ele>
			 </trkpt>
			 <trkpt lat="53.31712" lon="-6.331681">
				 <ele>50.4</ele>
			 </trkpt>
			 <trkpt lat="53.31712" lon="-6.331365">
				 <ele>50.2</ele>
			 </trkpt>
			 <trkpt lat="53.317118" lon="-6.331261">
				 <ele>50.1</ele>
			 </trkpt>
			 <trkpt lat="53.317117" lon="-6.331197">
				 <ele>50</ele>
			 </trkpt>
			 <trkpt lat="53.317114" lon="-6.330871">
				 <ele>49.9</ele>
			 </trkpt>
			 <trkpt lat="53.317109" lon="-6.330466">
				 <ele>49.8</ele>
			 </trkpt>
			 <trkpt lat="53.317088" lon="-6.328901">
				 <ele>49.7</ele>
			 </trkpt>
			 <trkpt lat="53.317081" lon="-6.327916">
				 <ele>49.6</ele>
			 </trkpt>
			 <trkpt lat="53.317078" lon="-6.32756">
				 <ele>49.5</ele>
			 </trkpt>
			 <trkpt lat="53.317031" lon="-6.326757">
				 <ele>49.5</ele>
			 </trkpt>
			 <trkpt lat="53.31701" lon="-6.326513">
				 <ele>49.6</ele>
			 </trkpt>
			 <trkpt lat="53.317003" lon="-6.326436">
				 <ele>49.7</ele>
			 </trkpt>
			 <trkpt lat="53.316966" lon="-6.326031">
				 <ele>49.8</ele>
			 </trkpt>
			 <trkpt lat="53.31696" lon="-6.325949">
				 <ele>49.6</ele>
			 </trkpt>
			 <trkpt lat="53.316945" lon="-6.32574">
				 <ele>49.5</ele>
			 </trkpt>
			 <trkpt lat="53.316937" lon="-6.325629">
				 <ele>49.3</ele>
			 </trkpt>
			 <trkpt lat="53.316921" lon="-6.325412">
				 <ele>49.3</ele>
			 </trkpt>
			 <trkpt lat="53.316911" lon="-6.325271">
				 <ele>49.3</ele>
			 </trkpt>
			 <trkpt lat="53.316895" lon="-6.325028">
				 <ele>49.3</ele>
			 </trkpt>
			 <trkpt lat="53.316792" lon="-6.323729">
				 <ele>49.3</ele>
			 </trkpt>
			 <trkpt lat="53.316774" lon="-6.323508">
				 <ele>49.3</ele>
			 </trkpt>
			 <trkpt lat="53.316684" lon="-6.322314">
				 <ele>49.3</ele>
			 </trkpt>
			 <trkpt lat="53.316662" lon="-6.322032">
				 <ele>49.4</ele>
			 </trkpt>
			 <trkpt lat="53.316635" lon="-6.321675">
				 <ele>49.5</ele>
			 </trkpt>
			 <trkpt lat="53.316623" lon="-6.321535">
				 <ele>49.5</ele>
			 </trkpt>
			 <trkpt lat="53.316617" lon="-6.321459">
				 <ele>49.5</ele>
			 </trkpt>
			 <trkpt lat="53.316613" lon="-6.321399">
				 <ele>49.6</ele>
			 </trkpt>
			 <trkpt lat="53.316595" lon="-6.321137">
				 <ele>49.7</ele>
			 </trkpt>
			 <trkpt lat="53.316591" lon="-6.321084">
				 <ele>49.8</ele>
			 </trkpt>
			 <trkpt lat="53.316525" lon="-6.319833">
				 <ele>49.8</ele>
			 </trkpt>
			 <trkpt lat="53.316507" lon="-6.319509">
				 <ele>49.8</ele>
			 </trkpt>
			 <trkpt lat="53.316463" lon="-6.318882">
				 <ele>49.8</ele>
			 </trkpt>
			 <trkpt lat="53.31639" lon="-6.317789">
				 <ele>49.8</ele>
			 </trkpt>
			 <trkpt lat="53.316354" lon="-6.317414">
				 <ele>49.7</ele>
			 </trkpt>
			 <trkpt lat="53.316337" lon="-6.317235">
				 <ele>49.6</ele>
			 </trkpt>
			 <trkpt lat="53.316289" lon="-6.316935">
				 <ele>49.7</ele>
			 </trkpt>
			 <trkpt lat="53.316218" lon="-6.316694">
				 <ele>49.8</ele>
			 </trkpt>
			 <trkpt lat="53.3162" lon="-6.316632">
				 <ele>49.9</ele>
			 </trkpt>
			 <trkpt lat="53.315895" lon="-6.315794">
				 <ele>49.7</ele>
			 </trkpt>
			 <trkpt lat="53.315852" lon="-6.315675">
				 <ele>49.5</ele>
			 </trkpt>
			 <trkpt lat="53.314486" lon="-6.311905">
				 <ele>49.5</ele>
			 </trkpt>
			 <trkpt lat="53.31414" lon="-6.31094">
				 <ele>49.5</ele>
			 </trkpt>
			 <trkpt lat="53.313975" lon="-6.310438">
				 <ele>49.4</ele>
			 </trkpt>
			 <trkpt lat="53.31383" lon="-6.309889">
				 <ele>49.1</ele>
			 </trkpt>
			 <trkpt lat="53.313787" lon="-6.309687">
				 <ele>48.9</ele>
			 </trkpt>
			 <trkpt lat="53.313661" lon="-6.309121">
				 <ele>48.7</ele>
			 </trkpt>
			 <trkpt lat="53.313214" lon="-6.306898">
				 <ele>48.5</ele>
			 </trkpt>
			 <trkpt lat="53.313043" lon="-6.306014">
				 <ele>48.3</ele>
			 </trkpt>
			 <trkpt lat="53.31296" lon="-6.305459">
				 <ele>48.1</ele>
			 </trkpt>
			 <trkpt lat="53.312877" lon="-6.304785">
				 <ele>48.1</ele>
			 </trkpt>
			 <trkpt lat="53.312856" lon="-6.304617">
				 <ele>48</ele>
			 </trkpt>
			 <trkpt lat="53.312842" lon="-6.304517">
				 <ele>47.8</ele>
			 </trkpt>
			 <trkpt lat="53.312775" lon="-6.304034">
				 <ele>47.7</ele>
			 </trkpt>
			 <trkpt lat="53.312723" lon="-6.303552">
				 <ele>47.5</ele>
			 </trkpt>
			 <trkpt lat="53.312656" lon="-6.302993">
				 <ele>47.5</ele>
			 </trkpt>
			 <trkpt lat="53.312635" lon="-6.302735">
				 <ele>47.4</ele>
			 </trkpt>
			 <trkpt lat="53.3126" lon="-6.302313">
				 <ele>47.2</ele>
			 </trkpt>
			 <trkpt lat="53.312582" lon="-6.30219">
				 <ele>47</ele>
			 </trkpt>
			 <trkpt lat="53.312527" lon="-6.301805">
				 <ele>46.7</ele>
			 </trkpt>
			 <trkpt lat="53.312453" lon="-6.301437">
				 <ele>46.4</ele>
			 </trkpt>
			 <trkpt lat="53.312435" lon="-6.301365">
				 <ele>46.2</ele>
			 </trkpt>
			 <trkpt lat="53.312218" lon="-6.300348">
				 <ele>46.1</ele>
			 </trkpt>
			 <trkpt lat="53.312201" lon="-6.300271">
				 <ele>46</ele>
			 </trkpt>
			 <trkpt lat="53.31207" lon="-6.299891">
				 <ele>46.1</ele>
			 </trkpt>
			 <trkpt lat="53.311947" lon="-6.299835">
				 <ele>46.3</ele>
			 </trkpt>
			 <trkpt lat="53.311639" lon="-6.300384">
				 <ele>46.5</ele>
			 </trkpt>
			 <trkpt lat="53.311331" lon="-6.300932">
				 <ele>46.8</ele>
			 </trkpt>
			 <trkpt lat="53.311024" lon="-6.301481">
				 <ele>47.1</ele>
			 </trkpt>
			 <trkpt lat="53.310716" lon="-6.302029">
				 <ele>47.5</ele>
			 </trkpt>
			 <trkpt lat="53.310474" lon="-6.30246">
				 <ele>47.8</ele>
			 </trkpt>
			 <trkpt lat="53.310185" lon="-6.302634">
				 <ele>48.2</ele>
			 </trkpt>
			 <trkpt lat="53.309915" lon="-6.302745">
				 <ele>48.3</ele>
			 </trkpt>
			 <trkpt lat="53.309669" lon="-6.302684">
				 <ele>48.4</ele>
			 </trkpt>
			 <trkpt lat="53.309291" lon="-6.302464">
				 <ele>48.5</ele>
			 </trkpt>
			 <trkpt lat="53.308956" lon="-6.302272">
				 <ele>48.4</ele>
			 </trkpt>
			 <trkpt lat="53.308772" lon="-6.302169">
				 <ele>48.2</ele>
			 </trkpt>
			 <trkpt lat="53.308632" lon="-6.302091">
				 <ele>48</ele>
			 </trkpt>
			 <trkpt lat="53.307747" lon="-6.301595">
				 <ele>47.8</ele>
			 </trkpt>
			 <trkpt lat="53.307407" lon="-6.301408">
				 <ele>47.8</ele>
			 </trkpt>
			 <trkpt lat="53.307049" lon="-6.301211">
				 <ele>47.8</ele>
			 </trkpt>
			 <trkpt lat="53.306807" lon="-6.301048">
				 <ele>47.9</ele>
			 </trkpt>
			 <trkpt lat="53.30676" lon="-6.301016">
				 <ele>48</ele>
			 </trkpt>
			 <trkpt lat="53.306734" lon="-6.300997">
				 <ele>48.3</ele>
			 </trkpt>
			 <trkpt lat="53.306474" lon="-6.300809">
				 <ele>48.6</ele>
			 </trkpt>
			 <trkpt lat="53.30614" lon="-6.300542">
				 <ele>48.8</ele>
			 </trkpt>
			 <trkpt lat="53.305154" lon="-6.299778">
				 <ele>49.2</ele>
			 </trkpt>
			 <trkpt lat="53.304879" lon="-6.299647">
				 <ele>49.6</ele>
			 </trkpt>
			 <trkpt lat="53.304581" lon="-6.299577">
				 <ele>50.2</ele>
			 </trkpt>
			 <trkpt lat="53.304131" lon="-6.299548">
				 <ele>50.8</ele>
			 </trkpt>
			 <trkpt lat="53.303777" lon="-6.299293">
				 <ele>51.4</ele>
			 </trkpt>
			 <trkpt lat="53.303616" lon="-6.299173">
				 <ele>51.7</ele>
			 </trkpt>
			 <trkpt lat="53.30348" lon="-6.299015">
				 <ele>52.1</ele>
			 </trkpt>
			 <trkpt lat="53.303037" lon="-6.298386">
				 <ele>52.5</ele>
			 </trkpt>
			 <trkpt lat="53.302843" lon="-6.298159">
				 <ele>52.6</ele>
			 </trkpt>
			 <trkpt lat="53.302645" lon="-6.298017">
				 <ele>52.7</ele>
			 </trkpt>
			 <trkpt lat="53.302241" lon="-6.297774">
				 <ele>52.9</ele>
			 </trkpt>
			 <trkpt lat="53.302213" lon="-6.297758">
				 <ele>53.1</ele>
			 </trkpt>
			 <trkpt lat="53.302008" lon="-6.29754">
				 <ele>53.3</ele>
			 </trkpt>
			 <trkpt lat="53.30189" lon="-6.297353">
				 <ele>53.5</ele>
			 </trkpt>
			 <trkpt lat="53.301829" lon="-6.297256">
				 <ele>53</ele>
			 </trkpt>
			 <trkpt lat="53.30185" lon="-6.29722">
				 <ele>52.4</ele>
			 </trkpt>
			 <trkpt lat="53.30203" lon="-6.29693">
				 <ele>51.5</ele>
			 </trkpt>
			 <trkpt lat="53.30242" lon="-6.29628">
				 <ele>50.7</ele>
			 </trkpt>
			 <trkpt lat="53.30302" lon="-6.2953">
				 <ele>49.8</ele>
			 </trkpt>
			 <trkpt lat="53.30593" lon="-6.29059">
				 <ele>48.9</ele>
			 </trkpt>
			 <trkpt lat="53.30695" lon="-6.28892">
				 <ele>48</ele>
			 </trkpt>
			 <trkpt lat="53.3078" lon="-6.28755">
				 <ele>47.1</ele>
			 </trkpt>
			 <trkpt lat="53.30892" lon="-6.28573">
				 <ele>46.3</ele>
			 </trkpt>
			 <trkpt lat="53.30919" lon="-6.2853">
				 <ele>45.3</ele>
			 </trkpt>
			 <trkpt lat="53.30948" lon="-6.2848">
				 <ele>44.3</ele>
			 </trkpt>
			 <trkpt lat="53.30954" lon="-6.2847">
				 <ele>44.2</ele>
			 </trkpt>
			 <trkpt lat="53.30958" lon="-6.28456">
				 <ele>43.9</ele>
			 </trkpt>
			 <trkpt lat="53.30974" lon="-6.284">
				 <ele>43.9</ele>
			 </trkpt>
			 <trkpt lat="53.31" lon="-6.28301">
				 <ele>43.9</ele>
			 </trkpt>
			 <trkpt lat="53.31041" lon="-6.28142">
				 <ele>44.1</ele>
			 </trkpt>
			 <trkpt lat="53.31087" lon="-6.27974">
				 <ele>44.1</ele>
			 </trkpt>
			 <trkpt lat="53.31137" lon="-6.27771">
				 <ele>44.2</ele>
			 </trkpt>
			 <trkpt lat="53.31148" lon="-6.2772">
				 <ele>44.3</ele>
			 </trkpt>
			 <trkpt lat="53.31144" lon="-6.27718">
				 <ele>44.3</ele>
			 </trkpt>
			 <trkpt lat="53.31157" lon="-6.27658">
				 <ele>44.4</ele>
			 </trkpt>
			 <trkpt lat="53.31177" lon="-6.27535">
				 <ele>44.4</ele>
			 </trkpt>
			 <trkpt lat="53.31178" lon="-6.27512">
				 <ele>44.1</ele>
			 </trkpt>
			 <trkpt lat="53.31187" lon="-6.27464">
				 <ele>44.1</ele>
			 </trkpt>
			 <trkpt lat="53.31184" lon="-6.27463">
				 <ele>44.1</ele>
			 </trkpt>
			 <trkpt lat="53.31186" lon="-6.27451">
				 <ele>44.1</ele>
			 </trkpt>
			 <trkpt lat="53.31161" lon="-6.27433">
				 <ele>44.1</ele>
			 </trkpt>
			 <trkpt lat="53.31123" lon="-6.27401">
				 <ele>44.3</ele>
			 </trkpt>
			 <trkpt lat="53.31107" lon="-6.27389">
				 <ele>44.4</ele>
			 </trkpt>
			 <trkpt lat="53.31092" lon="-6.27379">
				 <ele>44.4</ele>
			 </trkpt>
			 <trkpt lat="53.31078" lon="-6.27373">
				 <ele>44.3</ele>
			 </trkpt>
			 <trkpt lat="53.31049" lon="-6.27364">
				 <ele>44.1</ele>
			 </trkpt>
			 <trkpt lat="53.31042" lon="-6.27364">
				 <ele>43.9</ele>
			 </trkpt>
			 <trkpt lat="53.31003" lon="-6.27354">
				 <ele>43.8</ele>
			 </trkpt>
			 <trkpt lat="53.30987" lon="-6.27344">
				 <ele>43.7</ele>
			 </trkpt>
			 <trkpt lat="53.30975" lon="-6.27324">
				 <ele>43.7</ele>
			 </trkpt>
			 <trkpt lat="53.30956" lon="-6.27288">
				 <ele>43.7</ele>
			 </trkpt>
			 <trkpt lat="53.3093" lon="-6.27225">
				 <ele>43.6</ele>
			 </trkpt>
			 <trkpt lat="53.30906" lon="-6.2716">
				 <ele>43.5</ele>
			 </trkpt>
			 <trkpt lat="53.30895" lon="-6.27135">
				 <ele>43.4</ele>
			 </trkpt>
			 <trkpt lat="53.30887" lon="-6.27123">
				 <ele>43.3</ele>
			 </trkpt>
			 <trkpt lat="53.30876" lon="-6.27112">
				 <ele>43.2</ele>
			 </trkpt>
			 <trkpt lat="53.30852" lon="-6.27092">
				 <ele>43.1</ele>
			 </trkpt>
			 <trkpt lat="53.30793" lon="-6.27045">
				 <ele>42.9</ele>
			 </trkpt>
			 <trkpt lat="53.30782" lon="-6.27036">
				 <ele>42.7</ele>
			 </trkpt>
			 <trkpt lat="53.30776" lon="-6.27028">
				 <ele>42.5</ele>
			 </trkpt>
			 <trkpt lat="53.3075" lon="-6.27011">
				 <ele>42.3</ele>
			 </trkpt>
			 <trkpt lat="53.30729" lon="-6.26996">
				 <ele>42.3</ele>
			 </trkpt>
			 <trkpt lat="53.30701" lon="-6.26969">
				 <ele>42.3</ele>
			 </trkpt>
			 <trkpt lat="53.306991" lon="-6.269729">
				 <ele>42.3</ele>
			 </trkpt>
			 <trkpt lat="53.306967" lon="-6.269696">
				 <ele>42.4</ele>
			 </trkpt>
			 <trkpt lat="53.307034" lon="-6.269485">
				 <ele>42.5</ele>
			 </trkpt>
			 <trkpt lat="53.307211" lon="-6.268022">
				 <ele>42.6</ele>
			 </trkpt>
			 <trkpt lat="53.307325" lon="-6.267141">
				 <ele>42.7</ele>
			 </trkpt>
			 <trkpt lat="53.307379" lon="-6.266878">
				 <ele>42.8</ele>
			 </trkpt>
			 <trkpt lat="53.307414" lon="-6.266678">
				 <ele>42.9</ele>
			 </trkpt>
			 <trkpt lat="53.307511" lon="-6.266231">
				 <ele>42.9</ele>
			 </trkpt>
			 <trkpt lat="53.307611" lon="-6.2659">
				 <ele>42.9</ele>
			 </trkpt>
			 <trkpt lat="53.307801" lon="-6.265316">
				 <ele>42.5</ele>
			 </trkpt>
			 <trkpt lat="53.30805" lon="-6.264513">
				 <ele>42</ele>
			 </trkpt>
			 <trkpt lat="53.308115" lon="-6.264306">
				 <ele>41.5</ele>
			 </trkpt>
			 <trkpt lat="53.308341" lon="-6.263563">
				 <ele>40.9</ele>
			 </trkpt>
			 <trkpt lat="53.308549" lon="-6.262926">
				 <ele>40.4</ele>
			 </trkpt>
			 <trkpt lat="53.308678" lon="-6.262524">
				 <ele>39.7</ele>
			 </trkpt>
			 <trkpt lat="53.308956" lon="-6.261636">
				 <ele>39.2</ele>
			 </trkpt>
			 <trkpt lat="53.309037" lon="-6.261352">
				 <ele>38.6</ele>
			 </trkpt>
			 <trkpt lat="53.309261" lon="-6.260621">
				 <ele>38</ele>
			 </trkpt>
			 <trkpt lat="53.309157" lon="-6.260499">
				 <ele>37.5</ele>
			 </trkpt>
			 <trkpt lat="53.308966" lon="-6.260236">
				 <ele>36.8</ele>
			 </trkpt>
			 <trkpt lat="53.30876" lon="-6.259941">
				 <ele>36.3</ele>
			 </trkpt>
			 <trkpt lat="53.308732" lon="-6.259885">
				 <ele>35.9</ele>
			 </trkpt>
			 <trkpt lat="53.308706" lon="-6.259833">
				 <ele>35.5</ele>
			 </trkpt>
			 <trkpt lat="53.308675" lon="-6.259738">
				 <ele>35.1</ele>
			 </trkpt>
			 <trkpt lat="53.308649" lon="-6.259531">
				 <ele>34.5</ele>
			 </trkpt>
			 <trkpt lat="53.308641" lon="-6.259389">
				 <ele>33.8</ele>
			 </trkpt>
			 <trkpt lat="53.308641" lon="-6.259156">
				 <ele>33.2</ele>
			 </trkpt>
			 <trkpt lat="53.308641" lon="-6.259096">
				 <ele>32.5</ele>
			 </trkpt>
			 <trkpt lat="53.30866" lon="-6.258704">
				 <ele>31.7</ele>
			 </trkpt>
			 <trkpt lat="53.308673" lon="-6.258418">
				 <ele>30.9</ele>
			 </trkpt>
			 <trkpt lat="53.308675" lon="-6.25822">
				 <ele>30.2</ele>
			 </trkpt>
			 <trkpt lat="53.308661" lon="-6.257793">
				 <ele>29.5</ele>
			 </trkpt>
			 <trkpt lat="53.308597" lon="-6.257268">
				 <ele>28.7</ele>
			 </trkpt>
			 <trkpt lat="53.308374" lon="-6.255516">
				 <ele>28</ele>
			 </trkpt>
			 <trkpt lat="53.308367" lon="-6.255465">
				 <ele>27.4</ele>
			 </trkpt>
			 <trkpt lat="53.308314" lon="-6.255097">
				 <ele>26.9</ele>
			 </trkpt>
			 <trkpt lat="53.308232" lon="-6.254538">
				 <ele>26.5</ele>
			 </trkpt>
			 <trkpt lat="53.308206" lon="-6.25435">
				 <ele>26.4</ele>
			 </trkpt>
			 <trkpt lat="53.30818" lon="-6.254038">
				 <ele>26.5</ele>
			 </trkpt>
			 <trkpt lat="53.30818" lon="-6.25372">
				 <ele>26.6</ele>
			 </trkpt>
			 <trkpt lat="53.308201" lon="-6.253381">
				 <ele>26.9</ele>
			 </trkpt>
			 <trkpt lat="53.308225" lon="-6.253188">
				 <ele>27.1</ele>
			 </trkpt>
			 <trkpt lat="53.30836" lon="-6.252381">
				 <ele>27.3</ele>
			 </trkpt>
			 <trkpt lat="53.308464" lon="-6.251766">
				 <ele>27.5</ele>
			 </trkpt>
			 <trkpt lat="53.3085" lon="-6.25156">
				 <ele>27.5</ele>
			 </trkpt>
			 <trkpt lat="53.308525" lon="-6.251435">
				 <ele>27.5</ele>
			 </trkpt>
			 <trkpt lat="53.308568" lon="-6.251228">
				 <ele>27.5</ele>
			 </trkpt>
			 <trkpt lat="53.308591" lon="-6.251148">
				 <ele>27.3</ele>
			 </trkpt>
			 <trkpt lat="53.308634" lon="-6.251012">
				 <ele>27</ele>
			 </trkpt>
			 <trkpt lat="53.308751" lon="-6.25072">
				 <ele>26.5</ele>
			 </trkpt>
			 <trkpt lat="53.309253" lon="-6.249762">
				 <ele>26.1</ele>
			 </trkpt>
			 <trkpt lat="53.309514" lon="-6.249271">
				 <ele>25.5</ele>
			 </trkpt>
			 <trkpt lat="53.30975" lon="-6.24886">
				 <ele>24.9</ele>
			 </trkpt>
			 <trkpt lat="53.309843" lon="-6.248733">
				 <ele>24.3</ele>
			 </trkpt>
			 <trkpt lat="53.309931" lon="-6.24863">
				 <ele>23.7</ele>
			 </trkpt>
			 <trkpt lat="53.310045" lon="-6.248481">
				 <ele>23.4</ele>
			 </trkpt>
			 <trkpt lat="53.310277" lon="-6.248308">
				 <ele>23.2</ele>
			 </trkpt>
			 <trkpt lat="53.310416" lon="-6.248259">
				 <ele>23</ele>
			 </trkpt>
			 <trkpt lat="53.310549" lon="-6.248218">
				 <ele>22.8</ele>
			 </trkpt>
			 <trkpt lat="53.310657" lon="-6.248184">
				 <ele>22.5</ele>
			 </trkpt>
			 <trkpt lat="53.310949" lon="-6.248083">
				 <ele>22.3</ele>
			 </trkpt>
			 <trkpt lat="53.311081" lon="-6.248038">
				 <ele>22.1</ele>
			 </trkpt>
			 <trkpt lat="53.311313" lon="-6.247958">
				 <ele>22.1</ele>
			 </trkpt>
			 <trkpt lat="53.311504" lon="-6.247892">
				 <ele>22.2</ele>
			 </trkpt>
			 <trkpt lat="53.311572" lon="-6.247869">
				 <ele>22.5</ele>
			 </trkpt>
			 <trkpt lat="53.311728" lon="-6.247815">
				 <ele>22.8</ele>
			 </trkpt>
			 <trkpt lat="53.311978" lon="-6.24776">
				 <ele>23</ele>
			 </trkpt>
			 <trkpt lat="53.312087" lon="-6.247722">
				 <ele>23.1</ele>
			 </trkpt>
			 <trkpt lat="53.31223" lon="-6.247684">
				 <ele>23.3</ele>
			 </trkpt>
			 <trkpt lat="53.31248" lon="-6.247592">
				 <ele>23.6</ele>
			 </trkpt>
			 <trkpt lat="53.312559" lon="-6.247545">
				 <ele>24.1</ele>
			 </trkpt>
			 <trkpt lat="53.312636" lon="-6.247483">
				 <ele>24.6</ele>
			 </trkpt>
			 <trkpt lat="53.312813" lon="-6.2473">
				 <ele>25.2</ele>
			 </trkpt>
			 <trkpt lat="53.312973" lon="-6.247153">
				 <ele>25.7</ele>
			 </trkpt>
			 <trkpt lat="53.313022" lon="-6.247116">
				 <ele>26.1</ele>
			 </trkpt>
			 <trkpt lat="53.313139" lon="-6.247058">
				 <ele>26.4</ele>
			 </trkpt>
			 <trkpt lat="53.313241" lon="-6.247005">
				 <ele>26.6</ele>
			 </trkpt>
			 <trkpt lat="53.313473" lon="-6.246879">
				 <ele>26.8</ele>
			 </trkpt>
			 <trkpt lat="53.31382" lon="-6.246654">
				 <ele>27</ele>
			 </trkpt>
			 <trkpt lat="53.314245" lon="-6.246375">
				 <ele>27.3</ele>
			 </trkpt>
			 <trkpt lat="53.314706" lon="-6.246063">
				 <ele>27.5</ele>
			 </trkpt>
			 <trkpt lat="53.314764" lon="-6.246023">
				 <ele>27.6</ele>
			 </trkpt>
			 <trkpt lat="53.314828" lon="-6.24598">
				 <ele>27.7</ele>
			 </trkpt>
			 <trkpt lat="53.315015" lon="-6.245853">
				 <ele>27.8</ele>
			 </trkpt>
			 <trkpt lat="53.315313" lon="-6.245635">
				 <ele>28</ele>
			 </trkpt>
			 <trkpt lat="53.315545" lon="-6.24547">
				 <ele>28.2</ele>
			 </trkpt>
			 <trkpt lat="53.315668" lon="-6.245403">
				 <ele>28.2</ele>
			 </trkpt>
			 <trkpt lat="53.315981" lon="-6.245242">
				 <ele>28.1</ele>
			 </trkpt>
			 <trkpt lat="53.316167" lon="-6.245143">
				 <ele>28</ele>
			 </trkpt>
			 <trkpt lat="53.316368" lon="-6.245029">
				 <ele>27.8</ele>
			 </trkpt>
			 <trkpt lat="53.316561" lon="-6.244891">
				 <ele>27.5</ele>
			 </trkpt>
			 <trkpt lat="53.316606" lon="-6.244861">
				 <ele>27.2</ele>
			 </trkpt>
			 <trkpt lat="53.316774" lon="-6.244803">
				 <ele>26.7</ele>
			 </trkpt>
			 <trkpt lat="53.317058" lon="-6.244741">
				 <ele>26.3</ele>
			 </trkpt>
			 <trkpt lat="53.317283" lon="-6.244615">
				 <ele>25.7</ele>
			 </trkpt>
			 <trkpt lat="53.317383" lon="-6.244509">
				 <ele>25.2</ele>
			 </trkpt>
			 <trkpt lat="53.317496" lon="-6.24435">
				 <ele>24.7</ele>
			 </trkpt>
			 <trkpt lat="53.317753" lon="-6.24387">
				 <ele>24.4</ele>
			 </trkpt>
			 <trkpt lat="53.318015" lon="-6.243279">
				 <ele>24.1</ele>
			 </trkpt>
			 <trkpt lat="53.318161" lon="-6.242944">
				 <ele>23.9</ele>
			 </trkpt>
			 <trkpt lat="53.318306" lon="-6.242705">
				 <ele>23.7</ele>
			 </trkpt>
			 <trkpt lat="53.318464" lon="-6.242465">
				 <ele>23.5</ele>
			 </trkpt>
			 <trkpt lat="53.318506" lon="-6.242386">
				 <ele>23.4</ele>
			 </trkpt>
			 <trkpt lat="53.318536" lon="-6.242324">
				 <ele>23.2</ele>
			 </trkpt>
			 <trkpt lat="53.318578" lon="-6.242219">
				 <ele>22.9</ele>
			 </trkpt>
			 <trkpt lat="53.318589" lon="-6.242177">
				 <ele>22.8</ele>
			 </trkpt>
			 <trkpt lat="53.318599" lon="-6.24211">
				 <ele>22.5</ele>
			 </trkpt>
			 <trkpt lat="53.3179" lon="-6.24117">
				 <ele>22.2</ele>
			 </trkpt>
			 <trkpt lat="53.31769" lon="-6.24089">
				 <ele>21.7</ele>
			 </trkpt>
			 <trkpt lat="53.31726" lon="-6.24021">
				 <ele>21.3</ele>
			 </trkpt>
			 <trkpt lat="53.31688" lon="-6.23929">
				 <ele>20.7</ele>
			 </trkpt>
			 <trkpt lat="53.31638" lon="-6.23815">
				 <ele>20.3</ele>
			 </trkpt>
			 <trkpt lat="53.3163" lon="-6.23801">
				 <ele>19.8</ele>
			 </trkpt>
			 <trkpt lat="53.31617" lon="-6.23786">
				 <ele>19.5</ele>
			 </trkpt>
			 <trkpt lat="53.31603" lon="-6.23775">
				 <ele>19.1</ele>
			 </trkpt>
			 <trkpt lat="53.31588" lon="-6.2377">
				 <ele>18.9</ele>
			 </trkpt>
			 <trkpt lat="53.31579" lon="-6.23771">
				 <ele>18.6</ele>
			 </trkpt>
			 <trkpt lat="53.31565" lon="-6.23774">
				 <ele>18.5</ele>
			 </trkpt>
			 <trkpt lat="53.31532" lon="-6.23797">
				 <ele>18.5</ele>
			 </trkpt>
			 <trkpt lat="53.31506" lon="-6.23813">
				 <ele>18.8</ele>
			 </trkpt>
			 <trkpt lat="53.31487" lon="-6.23821">
				 <ele>19.2</ele>
			 </trkpt>
			 <trkpt lat="53.31451" lon="-6.23833">
				 <ele>19.8</ele>
			 </trkpt>
			 <trkpt lat="53.31356" lon="-6.23863">
				 <ele>20.4</ele>
			 </trkpt>
			 <trkpt lat="53.31315" lon="-6.23873">
				 <ele>20.8</ele>
			 </trkpt>
			 <trkpt lat="53.31288" lon="-6.23879">
				 <ele>21.4</ele>
			 </trkpt>
			 <trkpt lat="53.31266" lon="-6.23878">
				 <ele>22.1</ele>
			 </trkpt>
			 <trkpt lat="53.3122" lon="-6.23866">
				 <ele>23</ele>
			 </trkpt>
			 <trkpt lat="53.31145" lon="-6.23849">
				 <ele>23.9</ele>
			 </trkpt>
			 <trkpt lat="53.31072" lon="-6.23832">
				 <ele>25</ele>
			 </trkpt>
			 <trkpt lat="53.31039" lon="-6.2382">
				 <ele>25.9</ele>
			 </trkpt>
			 <trkpt lat="53.31003" lon="-6.23805">
				 <ele>26.7</ele>
			 </trkpt>
			 <trkpt lat="53.30954" lon="-6.23778">
				 <ele>27.4</ele>
			 </trkpt>
			 <trkpt lat="53.30878" lon="-6.23732">
				 <ele>28</ele>
			 </trkpt>
			 <trkpt lat="53.30823" lon="-6.23703">
				 <ele>28.7</ele>
			 </trkpt>
			 <trkpt lat="53.308" lon="-6.23692">
				 <ele>29.6</ele>
			 </trkpt>
			 <trkpt lat="53.30786" lon="-6.23686">
				 <ele>30.5</ele>
			 </trkpt>
			 <trkpt lat="53.30768" lon="-6.23686">
				 <ele>31.2</ele>
			 </trkpt>
			 <trkpt lat="53.30707" lon="-6.23694">
				 <ele>31.6</ele>
			 </trkpt>
			 <trkpt lat="53.30637" lon="-6.23696">
				 <ele>31.9</ele>
			 </trkpt>
			 <trkpt lat="53.3061" lon="-6.23695">
				 <ele>32.2</ele>
			 </trkpt>
			 <trkpt lat="53.30597" lon="-6.23693">
				 <ele>32.3</ele>
			 </trkpt>
			 <trkpt lat="53.30582" lon="-6.23684">
				 <ele>32.4</ele>
			 </trkpt>
			 <trkpt lat="53.30568" lon="-6.23669">
				 <ele>32.8</ele>
			 </trkpt>
			 <trkpt lat="53.30536" lon="-6.23636">
				 <ele>33.1</ele>
			 </trkpt>
			 <trkpt lat="53.30487" lon="-6.23578">
				 <ele>33.4</ele>
			 </trkpt>
			 <trkpt lat="53.30435" lon="-6.23528">
				 <ele>33.6</ele>
			 </trkpt>
			 <trkpt lat="53.30409" lon="-6.23497">
				 <ele>33.9</ele>
			 </trkpt>
			 <trkpt lat="53.30363" lon="-6.23434">
				 <ele>34.2</ele>
			 </trkpt>
			 <trkpt lat="53.30356" lon="-6.23423">
				 <ele>34.5</ele>
			 </trkpt>
			 <trkpt lat="53.30329" lon="-6.23386">
				 <ele>34.9</ele>
			 </trkpt>
			 <trkpt lat="53.30303" lon="-6.23361">
				 <ele>35.2</ele>
			 </trkpt>
			 <trkpt lat="53.30294" lon="-6.23354">
				 <ele>35.6</ele>
			 </trkpt>
			 <trkpt lat="53.30291" lon="-6.23342">
				 <ele>36</ele>
			 </trkpt>
			 <trkpt lat="53.30289" lon="-6.23337">
				 <ele>36.1</ele>
			 </trkpt>
			 <trkpt lat="53.30283" lon="-6.23329">
				 <ele>36.3</ele>
			 </trkpt>
			 <trkpt lat="53.30279" lon="-6.2332">
				 <ele>36.4</ele>
			 </trkpt>
			 <trkpt lat="53.30271" lon="-6.23306">
				 <ele>36.5</ele>
			 </trkpt>
			 <trkpt lat="53.30268" lon="-6.23262">
				 <ele>36.8</ele>
			 </trkpt>
			 <trkpt lat="53.30262" lon="-6.23188">
				 <ele>37.1</ele>
			 </trkpt>
			 <trkpt lat="53.30258" lon="-6.2314">
				 <ele>37.3</ele>
			 </trkpt>
			 <trkpt lat="53.30253" lon="-6.23095">
				 <ele>37.4</ele>
			 </trkpt>
			 <trkpt lat="53.30238" lon="-6.23007">
				 <ele>37.5</ele>
			 </trkpt>
			 <trkpt lat="53.30204" lon="-6.22835">
				 <ele>37.7</ele>
			 </trkpt>
			 <trkpt lat="53.30184" lon="-6.22743">
				 <ele>37.9</ele>
			 </trkpt>
			 <trkpt lat="53.30174" lon="-6.22712">
				 <ele>38.2</ele>
			 </trkpt>
			 <trkpt lat="53.30164" lon="-6.2269">
				 <ele>38.5</ele>
			 </trkpt>
			 <trkpt lat="53.30119" lon="-6.22608">
				 <ele>38.5</ele>
			 </trkpt>
			 <trkpt lat="53.30071" lon="-6.22521">
				 <ele>38.5</ele>
			 </trkpt>
			 <trkpt lat="53.30055" lon="-6.22486">
				 <ele>38.3</ele>
			 </trkpt>
			 <trkpt lat="53.30043" lon="-6.22444">
				 <ele>38.1</ele>
			 </trkpt>
			 <trkpt lat="53.30037" lon="-6.22402">
				 <ele>38.1</ele>
			 </trkpt>
			 <trkpt lat="53.30034" lon="-6.22331">
				 <ele>38.2</ele>
			 </trkpt>
			 <trkpt lat="53.30026" lon="-6.22281">
				 <ele>38.4</ele>
			 </trkpt>
			 <trkpt lat="53.30018" lon="-6.22255">
				 <ele>38.7</ele>
			 </trkpt>
			 <trkpt lat="53.30007" lon="-6.22228">
				 <ele>39.3</ele>
			 </trkpt>
			 <trkpt lat="53.29987" lon="-6.22193">
				 <ele>39.8</ele>
			 </trkpt>
			 <trkpt lat="53.29976" lon="-6.22175">
				 <ele>40.3</ele>
			 </trkpt>
			 <trkpt lat="53.29966" lon="-6.22149">
				 <ele>41.1</ele>
			 </trkpt>
			 <trkpt lat="53.29959" lon="-6.22124">
				 <ele>41.9</ele>
			 </trkpt>
			 <trkpt lat="53.29941" lon="-6.22012">
				 <ele>42.7</ele>
			 </trkpt>
			 <trkpt lat="53.29931" lon="-6.21956">
				 <ele>43.5</ele>
			 </trkpt>
			 <trkpt lat="53.29937" lon="-6.21917">
				 <ele>44</ele>
			 </trkpt>
			 <trkpt lat="53.29938" lon="-6.21911">
				 <ele>44.3</ele>
			 </trkpt>
			 <trkpt lat="53.29938" lon="-6.21896">
				 <ele>44.3</ele>
			 </trkpt>
			 <trkpt lat="53.29944" lon="-6.21887">
				 <ele>43.4</ele>
			 </trkpt>
			 <trkpt lat="53.29956" lon="-6.21862">
				 <ele>42</ele>
			 </trkpt>
			 <trkpt lat="53.29972" lon="-6.21825">
				 <ele>40.5</ele>
			 </trkpt>
			 <trkpt lat="53.30015" lon="-6.21721">
				 <ele>38.9</ele>
			 </trkpt>
			 <trkpt lat="53.30047" lon="-6.21639">
				 <ele>37.3</ele>
			 </trkpt>
			 <trkpt lat="53.30145" lon="-6.21403">
				 <ele>35.6</ele>
			 </trkpt>
			 <trkpt lat="53.30252" lon="-6.21135">
				 <ele>33.9</ele>
			 </trkpt>
			 <trkpt lat="53.30266" lon="-6.21102">
				 <ele>32.1</ele>
			 </trkpt>
			 <trkpt lat="53.30341" lon="-6.2092">
				 <ele>30.3</ele>
			 </trkpt>
			 <trkpt lat="53.30361" lon="-6.2087">
				 <ele>28.4</ele>
			 </trkpt>
			 <trkpt lat="53.30378" lon="-6.20895">
				 <ele>26.5</ele>
			 </trkpt>
			 <trkpt lat="53.30405" lon="-6.20934">
				 <ele>25.5</ele>
			 </trkpt>
			 <trkpt lat="53.30508" lon="-6.21082">
				 <ele>24.5</ele>
			 </trkpt>
			 <trkpt lat="53.30542" lon="-6.21131">
				 <ele>23.5</ele>
			 </trkpt>
			 <trkpt lat="53.30672" lon="-6.21321">
				 <ele>22.3</ele>
			 </trkpt>
			 <trkpt lat="53.30724" lon="-6.21403">
				 <ele>21.2</ele>
			 </trkpt>
			 <trkpt lat="53.30785" lon="-6.21513">
				 <ele>20.1</ele>
			 </trkpt>
			 <trkpt lat="53.30865" lon="-6.21665">
				 <ele>19.2</ele>
			 </trkpt>
			 <trkpt lat="53.30993" lon="-6.21914">
				 <ele>18.5</ele>
			 </trkpt>
			 <trkpt lat="53.31015" lon="-6.21952">
				 <ele>17.8</ele>
			 </trkpt>
			 <trkpt lat="53.31046" lon="-6.21994">
				 <ele>17.4</ele>
			 </trkpt>
			 <trkpt lat="53.31056" lon="-6.22006">
				 <ele>16.9</ele>
			 </trkpt>
			 <trkpt lat="53.31078" lon="-6.22027">
				 <ele>16.3</ele>
			 </trkpt>
			 <trkpt lat="53.31125" lon="-6.22066">
				 <ele>15.8</ele>
			 </trkpt>
			 <trkpt lat="53.31226" lon="-6.2214">
				 <ele>15.7</ele>
			 </trkpt>
			 <trkpt lat="53.31269" lon="-6.22173">
				 <ele>15.7</ele>
			 </trkpt>
			 <trkpt lat="53.31296" lon="-6.22197">
				 <ele>15.6</ele>
			 </trkpt>
			 <trkpt lat="53.31324" lon="-6.22227">
				 <ele>15.5</ele>
			 </trkpt>
			 <trkpt lat="53.31343" lon="-6.22253">
				 <ele>15.3</ele>
			 </trkpt>
			 <trkpt lat="53.31368" lon="-6.22291">
				 <ele>15.1</ele>
			 </trkpt>
			 <trkpt lat="53.31376" lon="-6.22278">
				 <ele>14.7</ele>
			 </trkpt>
			 <trkpt lat="53.31398" lon="-6.22235">
				 <ele>14.5</ele>
			 </trkpt>
			 <trkpt lat="53.3143" lon="-6.22174">
				 <ele>13.7</ele>
			 </trkpt>
			 <trkpt lat="53.31444" lon="-6.22143">
				 <ele>12.9</ele>
			 </trkpt>
			 <trkpt lat="53.31495" lon="-6.22049">
				 <ele>12.3</ele>
			 </trkpt>
			 <trkpt lat="53.31559" lon="-6.21933">
				 <ele>11.6</ele>
			 </trkpt>
			 <trkpt lat="53.3165" lon="-6.21764">
				 <ele>11</ele>
			 </trkpt>
			 <trkpt lat="53.31808" lon="-6.21472">
				 <ele>10.4</ele>
			 </trkpt>
			 <trkpt lat="53.31819" lon="-6.21448">
				 <ele>9.7</ele>
			 </trkpt>
			 <trkpt lat="53.31826" lon="-6.2142">
				 <ele>9.2</ele>
			 </trkpt>
			 <trkpt lat="53.3184" lon="-6.21347">
				 <ele>8.5</ele>
			 </trkpt>
			 <trkpt lat="53.31847" lon="-6.21307">
				 <ele>7.9</ele>
			 </trkpt>
			 <trkpt lat="53.31854" lon="-6.2128">
				 <ele>7.4</ele>
			 </trkpt>
			 <trkpt lat="53.3186" lon="-6.21265">
				 <ele>7.5</ele>
			 </trkpt>
			 <trkpt lat="53.31871" lon="-6.21246">
				 <ele>7.7</ele>
			 </trkpt>
			 <trkpt lat="53.31913" lon="-6.21326">
				 <ele>7.7</ele>
			 </trkpt>
			 <trkpt lat="53.31955" lon="-6.21396">
				 <ele>7.7</ele>
			 </trkpt>
			 <trkpt lat="53.31961" lon="-6.21401">
				 <ele>7.6</ele>
			 </trkpt>
			 <trkpt lat="53.31977" lon="-6.21429">
				 <ele>7.6</ele>
			 </trkpt>
			 <trkpt lat="53.31989" lon="-6.21449">
				 <ele>7.5</ele>
			 </trkpt>
			 <trkpt lat="53.3203" lon="-6.21519">
				 <ele>7.5</ele>
			 </trkpt>
			 <trkpt lat="53.32081" lon="-6.21606">
				 <ele>7.8</ele>
			 </trkpt>
			 <trkpt lat="53.32109" lon="-6.21649">
				 <ele>8</ele>
			 </trkpt>
			 <trkpt lat="53.32165" lon="-6.21728">
				 <ele>8.2</ele>
			 </trkpt>
			 <trkpt lat="53.32185" lon="-6.21754">
				 <ele>8.2</ele>
			 </trkpt>
			 <trkpt lat="53.32253" lon="-6.21839">
				 <ele>8.2</ele>
			 </trkpt>
			 <trkpt lat="53.32276" lon="-6.21872">
				 <ele>8.4</ele>
			 </trkpt>
			 <trkpt lat="53.32318" lon="-6.21931">
				 <ele>8.5</ele>
			 </trkpt>
			 <trkpt lat="53.32362" lon="-6.22004">
				 <ele>8.6</ele>
			 </trkpt>
			 <trkpt lat="53.32455" lon="-6.22164">
				 <ele>8.6</ele>
			 </trkpt>
			 <trkpt lat="53.32524" lon="-6.22278">
				 <ele>8.5</ele>
			 </trkpt>
			 <trkpt lat="53.3256" lon="-6.22334">
				 <ele>8.4</ele>
			 </trkpt>
			 <trkpt lat="53.32579" lon="-6.22362">
				 <ele>8</ele>
			 </trkpt>
			 <trkpt lat="53.32606" lon="-6.22395">
				 <ele>7.8</ele>
			 </trkpt>
			 <trkpt lat="53.32646" lon="-6.22429">
				 <ele>7.5</ele>
			 </trkpt>
			 <trkpt lat="53.32666" lon="-6.22451">
				 <ele>7.3</ele>
			 </trkpt>
			 <trkpt lat="53.32688" lon="-6.2247">
				 <ele>6.9</ele>
			 </trkpt>
			 <trkpt lat="53.32708" lon="-6.2249">
				 <ele>6.5</ele>
			 </trkpt>
			 <trkpt lat="53.32718" lon="-6.22503">
				 <ele>6.5</ele>
			 </trkpt>
			 <trkpt lat="53.32734" lon="-6.2253">
				 <ele>6.3</ele>
			 </trkpt>
			 <trkpt lat="53.32753" lon="-6.22576">
				 <ele>6.4</ele>
			 </trkpt>
			 <trkpt lat="53.32768" lon="-6.22621">
				 <ele>6.6</ele>
			 </trkpt>
			 <trkpt lat="53.32788" lon="-6.22693">
				 <ele>6.9</ele>
			 </trkpt>
			 <trkpt lat="53.32832" lon="-6.22856">
				 <ele>7.2</ele>
			 </trkpt>
			 <trkpt lat="53.32854" lon="-6.22936">
				 <ele>7.3</ele>
			 </trkpt>
			 <trkpt lat="53.32863" lon="-6.22968">
				 <ele>7.4</ele>
			 </trkpt>
			 <trkpt lat="53.32865" lon="-6.22985">
				 <ele>7.6</ele>
			 </trkpt>
			 <trkpt lat="53.32867" lon="-6.23">
				 <ele>8</ele>
			 </trkpt>
			 <trkpt lat="53.32876" lon="-6.2303">
				 <ele>8.4</ele>
			 </trkpt>
			 <trkpt lat="53.32885" lon="-6.2306">
				 <ele>8.5</ele>
			 </trkpt>
			 <trkpt lat="53.32899" lon="-6.23093">
				 <ele>8.6</ele>
			 </trkpt>
			 <trkpt lat="53.32937" lon="-6.2318">
				 <ele>8.5</ele>
			 </trkpt>
			 <trkpt lat="53.32944" lon="-6.23196">
				 <ele>8.3</ele>
			 </trkpt>
			 <trkpt lat="53.3296" lon="-6.23226">
				 <ele>8.5</ele>
			 </trkpt>
			 <trkpt lat="53.32963" lon="-6.232218">
				 <ele>8.5</ele>
			 </trkpt>
			 <trkpt lat="53.329688" lon="-6.232302">
				 <ele>8.5</ele>
			 </trkpt>
			 <trkpt lat="53.330028" lon="-6.23275">
				 <ele>8.5</ele>
			 </trkpt>
			 <trkpt lat="53.330053" lon="-6.232781">
				 <ele>8.4</ele>
			 </trkpt>
			 <trkpt lat="53.33069" lon="-6.233539">
				 <ele>8.2</ele>
			 </trkpt>
			 <trkpt lat="53.331466" lon="-6.234519">
				 <ele>8.2</ele>
			 </trkpt>
			 <trkpt lat="53.331612" lon="-6.234698">
				 <ele>8.3</ele>
			 </trkpt>
			 <trkpt lat="53.331728" lon="-6.234839">
				 <ele>8.4</ele>
			 </trkpt>
			 <trkpt lat="53.331818" lon="-6.234965">
				 <ele>8.7</ele>
			 </trkpt>
			 <trkpt lat="53.331926" lon="-6.235082">
				 <ele>9.2</ele>
			 </trkpt>
			 <trkpt lat="53.332199" lon="-6.235312">
				 <ele>9.2</ele>
			 </trkpt>
			 <trkpt lat="53.332305" lon="-6.235408">
				 <ele>9.3</ele>
			 </trkpt>
			 <trkpt lat="53.332341" lon="-6.235432">
				 <ele>9.4</ele>
			 </trkpt>
			 <trkpt lat="53.332398" lon="-6.235469">
				 <ele>9.5</ele>
			 </trkpt>
			 <trkpt lat="53.332498" lon="-6.235539">
				 <ele>9.5</ele>
			 </trkpt>
			 <trkpt lat="53.332577" lon="-6.235595">
				 <ele>9.5</ele>
			 </trkpt>
			 <trkpt lat="53.33289" lon="-6.235815">
				 <ele>9.3</ele>
			 </trkpt>
			 <trkpt lat="53.332977" lon="-6.235878">
				 <ele>8.9</ele>
			 </trkpt>
			 <trkpt lat="53.333123" lon="-6.235984">
				 <ele>8.5</ele>
			 </trkpt>
			 <trkpt lat="53.333283" lon="-6.236094">
				 <ele>8.3</ele>
			 </trkpt>
			 <trkpt lat="53.333369" lon="-6.236153">
				 <ele>8</ele>
			 </trkpt>
			 <trkpt lat="53.333423" lon="-6.23619">
				 <ele>7.8</ele>
			 </trkpt>
			 <trkpt lat="53.33355" lon="-6.236277">
				 <ele>7.9</ele>
			 </trkpt>
			 <trkpt lat="53.333935" lon="-6.23654">
				 <ele>8</ele>
			 </trkpt>
			 <trkpt lat="53.334242" lon="-6.23675">
				 <ele>8.2</ele>
			 </trkpt>
			 <trkpt lat="53.334365" lon="-6.236835">
				 <ele>8.4</ele>
			 </trkpt>
			 <trkpt lat="53.33449" lon="-6.236921">
				 <ele>8.6</ele>
			 </trkpt>
			 <trkpt lat="53.334679" lon="-6.237051">
				 <ele>8.9</ele>
			 </trkpt>
			 <trkpt lat="53.334722" lon="-6.23708">
				 <ele>9.3</ele>
			 </trkpt>
			 <trkpt lat="53.335258" lon="-6.237487">
				 <ele>9.5</ele>
			 </trkpt>
			 <trkpt lat="53.335516" lon="-6.23767">
				 <ele>9.5</ele>
			 </trkpt>
			 <trkpt lat="53.335738" lon="-6.237827">
				 <ele>9.4</ele>
			 </trkpt>
			 <trkpt lat="53.336059" lon="-6.238058">
				 <ele>9.5</ele>
			 </trkpt>
			 <trkpt lat="53.336142" lon="-6.238135">
				 <ele>9.5</ele>
			 </trkpt>
			 <trkpt lat="53.33623" lon="-6.238262">
				 <ele>9.7</ele>
			 </trkpt>
			 <trkpt lat="53.336604" lon="-6.238804">
				 <ele>9.9</ele>
			 </trkpt>
			 <trkpt lat="53.336828" lon="-6.239159">
				 <ele>10.3</ele>
			 </trkpt>
			 <trkpt lat="53.337252" lon="-6.239823">
				 <ele>10.6</ele>
			 </trkpt>
			 <trkpt lat="53.337423" lon="-6.240093">
				 <ele>11.1</ele>
			 </trkpt>
			 <trkpt lat="53.337472" lon="-6.240171">
				 <ele>11.5</ele>
			 </trkpt>
			 <trkpt lat="53.33751" lon="-6.240229">
				 <ele>12.2</ele>
			 </trkpt>
			 <trkpt lat="53.337547" lon="-6.24031">
				 <ele>13.1</ele>
			 </trkpt>
			 <trkpt lat="53.337575" lon="-6.240372">
				 <ele>13.5</ele>
			 </trkpt>
			 <trkpt lat="53.337602" lon="-6.24043">
				 <ele>13.7</ele>
			 </trkpt>
			 <trkpt lat="53.337626" lon="-6.24048">
				 <ele>14.1</ele>
			 </trkpt>
			 <trkpt lat="53.337674" lon="-6.240599">
				 <ele>14.5</ele>
			 </trkpt>
			 <trkpt lat="53.337698" lon="-6.240568">
				 <ele>15</ele>
			 </trkpt>
			 <trkpt lat="53.33753" lon="-6.2408">
				 <ele>15.4</ele>
			 </trkpt>
			 <trkpt lat="53.33681" lon="-6.24191">
				 <ele>15.6</ele>
			 </trkpt>
			 <trkpt lat="53.33638" lon="-6.24258">
				 <ele>15.8</ele>
			 </trkpt>
			 <trkpt lat="53.336621" lon="-6.24323">
				 <ele>16.1</ele>
			 </trkpt>
			 <trkpt lat="53.336639" lon="-6.24328">
				 <ele>16.3</ele>
			 </trkpt>
			 <trkpt lat="53.336603" lon="-6.243332">
				 <ele>16.4</ele>
			 </trkpt>
			 <trkpt lat="53.336579" lon="-6.243394">
				 <ele>17</ele>
			 </trkpt>
			 <trkpt lat="53.336574" lon="-6.243461">
				 <ele>17.5</ele>
			 </trkpt>
			 <trkpt lat="53.336574" lon="-6.243581">
				 <ele>18</ele>
			 </trkpt>
			 <trkpt lat="53.336584" lon="-6.243658">
				 <ele>18.3</ele>
			 </trkpt>
			 <trkpt lat="53.336614" lon="-6.243779">
				 <ele>18.5</ele>
			 </trkpt>
			 <trkpt lat="53.336675" lon="-6.243948">
				 <ele>18.5</ele>
			 </trkpt>
			 <trkpt lat="53.336701" lon="-6.244017">
				 <ele>18.6</ele>
			 </trkpt>
			 <trkpt lat="53.336821" lon="-6.244228">
				 <ele>18.7</ele>
			 </trkpt>
			 <trkpt lat="53.336868" lon="-6.244261">
				 <ele>18.8</ele>
			 </trkpt>
			 <trkpt lat="53.33691" lon="-6.244263">
				 <ele>18.9</ele>
			 </trkpt>
			 <trkpt lat="53.336978" lon="-6.244212">
				 <ele>19</ele>
			 </trkpt>
			 <trkpt lat="53.337017" lon="-6.24433">
				 <ele>19</ele>
			 </trkpt>
			 <trkpt lat="53.337037" lon="-6.244386">
				 <ele>18.8</ele>
			 </trkpt>
		 </trkseg>
	 </trk>
</gpx>