<?xml version="1.0" encoding="UTF-8"?>
<gpx creator="StravaGPX" version="1.1" xmlns="http://www.topografix.com/GPX/1/1" xmlns:xsi="http://www.w3.org/2001/XMLSchema-instance" xsi:schemaLocation="http://www.topografix.com/GPX/1/1 http://www.topografix.com/GPX/1/1/gpx.xsd">
 <metadata>
  <name>23km du Mont-Blanc 2026</name>
  <author>
   <name>Magali Chevalier</name>
   <link href="https://www.strava.com/athletes/34563915"/>
  </author>
  <copyright author="OpenStreetMap contributors">
   <year>2020</year>
   <license>https://www.openstreetmap.org/copyright</license>
  </copyright>
  <link href="https://www.strava.com/routes/3411652340549267652"/>
 </metadata>
 <trk>
  <name>23km du Mont-Blanc 2026</name>
  <link href="https://www.strava.com/routes/3411652340549267652"/>
  <type>running</type>
  <trkseg>
   <trkpt lat="45.929880000000004" lon="6.8763000000000005">
    <ele>1041.8</ele>
   </trkpt>
   <trkpt lat="45.93003" lon="6.87633">
    <ele>1042.89</ele>
   </trkpt>
   <trkpt lat="45.930170000000004" lon="6.87633">
    <ele>1044.07</ele>
   </trkpt>
   <trkpt lat="45.93032" lon="6.87642">
    <ele>1045.41</ele>
   </trkpt>
   <trkpt lat="45.930460000000004" lon="6.876690000000001">
    <ele>1046.7000000000003</ele>
   </trkpt>
   <trkpt lat="45.93052" lon="6.87685">
    <ele>1047.4800000000002</ele>
   </trkpt>
   <trkpt lat="45.93063" lon="6.87706">
    <ele>1048.2</ele>
   </trkpt>
   <trkpt lat="45.93074000000001" lon="6.8772">
    <ele>1048.75</ele>
   </trkpt>
   <trkpt lat="45.930870000000006" lon="6.877320000000001">
    <ele>1049.0400000000002</ele>
   </trkpt>
   <trkpt lat="45.930960000000006" lon="6.87729">
    <ele>1049.0300000000002</ele>
   </trkpt>
   <trkpt lat="45.931020000000004" lon="6.87776">
    <ele>1049.46</ele>
   </trkpt>
   <trkpt lat="45.931230000000006" lon="6.87875">
    <ele>1050.5600000000002</ele>
   </trkpt>
   <trkpt lat="45.931400000000004" lon="6.879790000000001">
    <ele>1052.3</ele>
   </trkpt>
   <trkpt lat="45.93173500368633" lon="6.880719994145212">
    <ele>1053.8100000000002</ele>
   </trkpt>
   <trkpt lat="45.93207" lon="6.8816500000000005">
    <ele>1055.3000000000002</ele>
   </trkpt>
   <trkpt lat="45.9322" lon="6.8821900000000005">
    <ele>1054.9700000000003</ele>
   </trkpt>
   <trkpt lat="45.932410000000004" lon="6.8826600000000004">
    <ele>1055.49</ele>
   </trkpt>
   <trkpt lat="45.932480000000005" lon="6.883220000000001">
    <ele>1055.8500000000001</ele>
   </trkpt>
   <trkpt lat="45.93251" lon="6.88367">
    <ele>1055.83</ele>
   </trkpt>
   <trkpt lat="45.932480000000005" lon="6.884060000000001">
    <ele>1055.97</ele>
   </trkpt>
   <trkpt lat="45.932500000000005" lon="6.88433">
    <ele>1056.3400000000001</ele>
   </trkpt>
   <trkpt lat="45.932550000000006" lon="6.884530000000001">
    <ele>1056.72</ele>
   </trkpt>
   <trkpt lat="45.932660000000006" lon="6.884720000000001">
    <ele>1056.99</ele>
   </trkpt>
   <trkpt lat="45.9328" lon="6.884880000000001">
    <ele>1057.1000000000001</ele>
   </trkpt>
   <trkpt lat="45.93316" lon="6.8854500000000005">
    <ele>1058.1100000000001</ele>
   </trkpt>
   <trkpt lat="45.93343" lon="6.886010000000001">
    <ele>1059.47</ele>
   </trkpt>
   <trkpt lat="45.93366" lon="6.886430000000001">
    <ele>1060.14</ele>
   </trkpt>
   <trkpt lat="45.93383" lon="6.887340000000001">
    <ele>1060.5300000000002</ele>
   </trkpt>
   <trkpt lat="45.93404" lon="6.888140000000001">
    <ele>1062.0500000000002</ele>
   </trkpt>
   <trkpt lat="45.93423000000001" lon="6.8884300000000005">
    <ele>1062.96</ele>
   </trkpt>
   <trkpt lat="45.9343" lon="6.88851">
    <ele>1062.96</ele>
   </trkpt>
   <trkpt lat="45.93453" lon="6.88865">
    <ele>1063.53</ele>
   </trkpt>
   <trkpt lat="45.93459000000001" lon="6.888780000000001">
    <ele>1063.5800000000002</ele>
   </trkpt>
   <trkpt lat="45.9346" lon="6.888960000000001">
    <ele>1063.66</ele>
   </trkpt>
   <trkpt lat="45.93453" lon="6.88914">
    <ele>1063.8400000000001</ele>
   </trkpt>
   <trkpt lat="45.934540000000005" lon="6.889340000000001">
    <ele>1064.27</ele>
   </trkpt>
   <trkpt lat="45.934610000000006" lon="6.889690000000001">
    <ele>1064.84</ele>
   </trkpt>
   <trkpt lat="45.93479000000001" lon="6.8903300000000005">
    <ele>1065.82</ele>
   </trkpt>
   <trkpt lat="45.93488000000001" lon="6.89045">
    <ele>1066.67</ele>
   </trkpt>
   <trkpt lat="45.935030000000005" lon="6.8905">
    <ele>1068.54</ele>
   </trkpt>
   <trkpt lat="45.935210000000005" lon="6.8905">
    <ele>1069.5100000000002</ele>
   </trkpt>
   <trkpt lat="45.93536" lon="6.8904700000000005">
    <ele>1070.2500000000002</ele>
   </trkpt>
   <trkpt lat="45.935610000000004" lon="6.890350000000001">
    <ele>1071.17</ele>
   </trkpt>
   <trkpt lat="45.93572" lon="6.890350000000001">
    <ele>1071.1200000000001</ele>
   </trkpt>
   <trkpt lat="45.935750000000006" lon="6.89038">
    <ele>1071.04</ele>
   </trkpt>
   <trkpt lat="45.9359450015768" lon="6.890969998103017">
    <ele>1069.82</ele>
   </trkpt>
   <trkpt lat="45.93614" lon="6.89156">
    <ele>1070.2</ele>
   </trkpt>
   <trkpt lat="45.93629000000001" lon="6.891850000000001">
    <ele>1070.9</ele>
   </trkpt>
   <trkpt lat="45.93661" lon="6.892320000000001">
    <ele>1072.2200000000003</ele>
   </trkpt>
   <trkpt lat="45.93677" lon="6.892600000000001">
    <ele>1073.04</ele>
   </trkpt>
   <trkpt lat="45.93694000000001" lon="6.893000000000001">
    <ele>1073.77</ele>
   </trkpt>
   <trkpt lat="45.937200000000004" lon="6.893750000000001">
    <ele>1075.0700000000002</ele>
   </trkpt>
   <trkpt lat="45.93748" lon="6.89414">
    <ele>1076.2900000000002</ele>
   </trkpt>
   <trkpt lat="45.93776500131809" lon="6.894674997381406">
    <ele>1077.44</ele>
   </trkpt>
   <trkpt lat="45.938050000000004" lon="6.8952100000000005">
    <ele>1079.6000000000001</ele>
   </trkpt>
   <trkpt lat="45.938320000000004" lon="6.895490000000001">
    <ele>1081.24</ele>
   </trkpt>
   <trkpt lat="45.938370000000006" lon="6.8956800000000005">
    <ele>1081.24</ele>
   </trkpt>
   <trkpt lat="45.938480000000006" lon="6.895950000000001">
    <ele>1082.16</ele>
   </trkpt>
   <trkpt lat="45.93888000117006" lon="6.896484996035985">
    <ele>1084.06</ele>
   </trkpt>
   <trkpt lat="45.939280000000004" lon="6.89702">
    <ele>1085.64</ele>
   </trkpt>
   <trkpt lat="45.93936" lon="6.8969000000000005">
    <ele>1081.19</ele>
   </trkpt>
   <trkpt lat="45.939710000000005" lon="6.89672">
    <ele>1081.85</ele>
   </trkpt>
   <trkpt lat="45.93981" lon="6.896700000000001">
    <ele>1082.02</ele>
   </trkpt>
   <trkpt lat="45.94003000000001" lon="6.8966">
    <ele>1082.5200000000002</ele>
   </trkpt>
   <trkpt lat="45.94012" lon="6.896540000000001">
    <ele>1082.5800000000002</ele>
   </trkpt>
   <trkpt lat="45.940220000000004" lon="6.896660000000001">
    <ele>1085.69</ele>
   </trkpt>
   <trkpt lat="45.940360000000005" lon="6.896730000000001">
    <ele>1085.8300000000002</ele>
   </trkpt>
   <trkpt lat="45.940540000000006" lon="6.89686">
    <ele>1085.89</ele>
   </trkpt>
   <trkpt lat="45.940740000000005" lon="6.8971100000000005">
    <ele>1085.96</ele>
   </trkpt>
   <trkpt lat="45.94086" lon="6.897450000000001">
    <ele>1086.33</ele>
   </trkpt>
   <trkpt lat="45.94104" lon="6.89845">
    <ele>1088.44</ele>
   </trkpt>
   <trkpt lat="45.94113" lon="6.89857">
    <ele>1089.65</ele>
   </trkpt>
   <trkpt lat="45.9416" lon="6.898930000000001">
    <ele>1090.96</ele>
   </trkpt>
   <trkpt lat="45.94164000000001" lon="6.89899">
    <ele>1091.5900000000001</ele>
   </trkpt>
   <trkpt lat="45.94165" lon="6.89909">
    <ele>1091.5900000000001</ele>
   </trkpt>
   <trkpt lat="45.94178" lon="6.899070000000001">
    <ele>1094.5500000000002</ele>
   </trkpt>
   <trkpt lat="45.942190000000004" lon="6.899280000000001">
    <ele>1096.5200000000002</ele>
   </trkpt>
   <trkpt lat="45.94229000000001" lon="6.8993">
    <ele>1097.5700000000002</ele>
   </trkpt>
   <trkpt lat="45.94241" lon="6.899030000000001">
    <ele>1095.6200000000001</ele>
   </trkpt>
   <trkpt lat="45.94279" lon="6.899450000000001">
    <ele>1101.1000000000001</ele>
   </trkpt>
   <trkpt lat="45.94294000000001" lon="6.899590000000001">
    <ele>1101.5400000000002</ele>
   </trkpt>
   <trkpt lat="45.942980000000006" lon="6.899660000000001">
    <ele>1101.5400000000002</ele>
   </trkpt>
   <trkpt lat="45.94323000000001" lon="6.899900000000001">
    <ele>1105.7100000000003</ele>
   </trkpt>
   <trkpt lat="45.943290000000005" lon="6.900150000000001">
    <ele>1106.47</ele>
   </trkpt>
   <trkpt lat="45.943340000000006" lon="6.900570000000001">
    <ele>1109.8300000000002</ele>
   </trkpt>
   <trkpt lat="45.94353" lon="6.90082">
    <ele>1111.31</ele>
   </trkpt>
   <trkpt lat="45.94384" lon="6.900950000000001">
    <ele>1111.04</ele>
   </trkpt>
   <trkpt lat="45.944370000000006" lon="6.900950000000001">
    <ele>1114.38</ele>
   </trkpt>
   <trkpt lat="45.944700000000005" lon="6.90115">
    <ele>1118.71</ele>
   </trkpt>
   <trkpt lat="45.94487" lon="6.901370000000001">
    <ele>1121.3500000000001</ele>
   </trkpt>
   <trkpt lat="45.945080000000004" lon="6.901860000000001">
    <ele>1124.97</ele>
   </trkpt>
   <trkpt lat="45.94545" lon="6.90202">
    <ele>1126.97</ele>
   </trkpt>
   <trkpt lat="45.94583" lon="6.9023900000000005">
    <ele>1128.5800000000002</ele>
   </trkpt>
   <trkpt lat="45.946020000000004" lon="6.9026000000000005">
    <ele>1130.23</ele>
   </trkpt>
   <trkpt lat="45.946760000000005" lon="6.903150000000001">
    <ele>1141.0200000000002</ele>
   </trkpt>
   <trkpt lat="45.946960000000004" lon="6.903390000000001">
    <ele>1143.03</ele>
   </trkpt>
   <trkpt lat="45.947010000000006" lon="6.903600000000001">
    <ele>1145.0800000000002</ele>
   </trkpt>
   <trkpt lat="45.947120000000005" lon="6.90392">
    <ele>1146.23</ele>
   </trkpt>
   <trkpt lat="45.9472" lon="6.9040300000000006">
    <ele>1147.1</ele>
   </trkpt>
   <trkpt lat="45.947320000000005" lon="6.90434">
    <ele>1148.6000000000001</ele>
   </trkpt>
   <trkpt lat="45.947390000000006" lon="6.904450000000001">
    <ele>1149.3300000000002</ele>
   </trkpt>
   <trkpt lat="45.94744" lon="6.9045700000000005">
    <ele>1150.52</ele>
   </trkpt>
   <trkpt lat="45.9474" lon="6.9048300000000005">
    <ele>1152.4500000000003</ele>
   </trkpt>
   <trkpt lat="45.94745" lon="6.905030000000001">
    <ele>1154.3600000000001</ele>
   </trkpt>
   <trkpt lat="45.947520000000004" lon="6.905080000000001">
    <ele>1154.67</ele>
   </trkpt>
   <trkpt lat="45.947630000000004" lon="6.905030000000001">
    <ele>1155.45</ele>
   </trkpt>
   <trkpt lat="45.94773000000001" lon="6.90493">
    <ele>1156.59</ele>
   </trkpt>
   <trkpt lat="45.947880000000005" lon="6.90465">
    <ele>1159.44</ele>
   </trkpt>
   <trkpt lat="45.947900000000004" lon="6.904370000000001">
    <ele>1162.66</ele>
   </trkpt>
   <trkpt lat="45.9478" lon="6.90404">
    <ele>1165.81</ele>
   </trkpt>
   <trkpt lat="45.94774" lon="6.90364">
    <ele>1169.5900000000001</ele>
   </trkpt>
   <trkpt lat="45.94778" lon="6.90347">
    <ele>1170.5500000000002</ele>
   </trkpt>
   <trkpt lat="45.94784000000001" lon="6.9034">
    <ele>1170.8200000000002</ele>
   </trkpt>
   <trkpt lat="45.94794" lon="6.903370000000001">
    <ele>1170.7200000000003</ele>
   </trkpt>
   <trkpt lat="45.948130000000006" lon="6.903480000000001">
    <ele>1170.3400000000001</ele>
   </trkpt>
   <trkpt lat="45.948240000000006" lon="6.903580000000001">
    <ele>1170.8200000000002</ele>
   </trkpt>
   <trkpt lat="45.94841" lon="6.90401">
    <ele>1174.42</ele>
   </trkpt>
   <trkpt lat="45.948660000000004" lon="6.904470000000001">
    <ele>1180.41</ele>
   </trkpt>
   <trkpt lat="45.948710000000005" lon="6.90474">
    <ele>1182.41</ele>
   </trkpt>
   <trkpt lat="45.948640000000005" lon="6.9049700000000005">
    <ele>1186.64</ele>
   </trkpt>
   <trkpt lat="45.948660000000004" lon="6.90514">
    <ele>1187.8600000000001</ele>
   </trkpt>
   <trkpt lat="45.948730000000005" lon="6.9053">
    <ele>1188.46</ele>
   </trkpt>
   <trkpt lat="45.94886" lon="6.9053">
    <ele>1189.6</ele>
   </trkpt>
   <trkpt lat="45.94897" lon="6.90535">
    <ele>1189.95</ele>
   </trkpt>
   <trkpt lat="45.949250000000006" lon="6.9055800000000005">
    <ele>1190.53</ele>
   </trkpt>
   <trkpt lat="45.94952000000001" lon="6.905670000000001">
    <ele>1194.18</ele>
   </trkpt>
   <trkpt lat="45.94961000000001" lon="6.905760000000001">
    <ele>1196.35</ele>
   </trkpt>
   <trkpt lat="45.949780000000004" lon="6.90631">
    <ele>1204.8500000000001</ele>
   </trkpt>
   <trkpt lat="45.9498" lon="6.906540000000001">
    <ele>1208.41</ele>
   </trkpt>
   <trkpt lat="45.94989" lon="6.906820000000001">
    <ele>1214.66</ele>
   </trkpt>
   <trkpt lat="45.94988" lon="6.906910000000001">
    <ele>1214.66</ele>
   </trkpt>
   <trkpt lat="45.94982" lon="6.907000000000001">
    <ele>1217.4600000000003</ele>
   </trkpt>
   <trkpt lat="45.949780000000004" lon="6.907100000000001">
    <ele>1217.4600000000003</ele>
   </trkpt>
   <trkpt lat="45.949780000000004" lon="6.90723">
    <ele>1219.5900000000001</ele>
   </trkpt>
   <trkpt lat="45.94979000000001" lon="6.907240000000001">
    <ele>1219.5900000000001</ele>
   </trkpt>
   <trkpt lat="45.949850000000005" lon="6.907290000000001">
    <ele>1219.5900000000001</ele>
   </trkpt>
   <trkpt lat="45.94989" lon="6.907290000000001">
    <ele>1222.5700000000002</ele>
   </trkpt>
   <trkpt lat="45.95002" lon="6.907170000000001">
    <ele>1225.8500000000001</ele>
   </trkpt>
   <trkpt lat="45.95029" lon="6.90636">
    <ele>1234.01</ele>
   </trkpt>
   <trkpt lat="45.950600001392296" lon="6.905810002946478">
    <ele>1233.18</ele>
   </trkpt>
   <trkpt lat="45.95091" lon="6.90526">
    <ele>1233.97</ele>
   </trkpt>
   <trkpt lat="45.95111000000001" lon="6.9051800000000005">
    <ele>1231.89</ele>
   </trkpt>
   <trkpt lat="45.95147" lon="6.90509">
    <ele>1226.99</ele>
   </trkpt>
   <trkpt lat="45.952070000000006" lon="6.90512">
    <ele>1231.39</ele>
   </trkpt>
   <trkpt lat="45.95234000000001" lon="6.905030000000001">
    <ele>1234.99</ele>
   </trkpt>
   <trkpt lat="45.952490000000004" lon="6.90495">
    <ele>1237.93</ele>
   </trkpt>
   <trkpt lat="45.95275" lon="6.90493">
    <ele>1240.45</ele>
   </trkpt>
   <trkpt lat="45.953450000000004" lon="6.905">
    <ele>1243.27</ele>
   </trkpt>
   <trkpt lat="45.953700000000005" lon="6.90514">
    <ele>1246.31</ele>
   </trkpt>
   <trkpt lat="45.953880000000005" lon="6.90528">
    <ele>1245.3899999999999</ele>
   </trkpt>
   <trkpt lat="45.954370000000004" lon="6.905460000000001">
    <ele>1241.1100000000001</ele>
   </trkpt>
   <trkpt lat="45.95449000000001" lon="6.905460000000001">
    <ele>1240.2700000000002</ele>
   </trkpt>
   <trkpt lat="45.954840000000004" lon="6.905310000000001">
    <ele>1236.07</ele>
   </trkpt>
   <trkpt lat="45.955360000000006" lon="6.90523">
    <ele>1235.51</ele>
   </trkpt>
   <trkpt lat="45.95582499995603" lon="6.90525499978771">
    <ele>1234.0000000000002</ele>
   </trkpt>
   <trkpt lat="45.95629" lon="6.90528">
    <ele>1231.57</ele>
   </trkpt>
   <trkpt lat="45.956680000000006" lon="6.9051800000000005">
    <ele>1228.64</ele>
   </trkpt>
   <trkpt lat="45.95702000000001" lon="6.90507">
    <ele>1225.6</ele>
   </trkpt>
   <trkpt lat="45.95721" lon="6.90507">
    <ele>1223.91</ele>
   </trkpt>
   <trkpt lat="45.95727" lon="6.90519">
    <ele>1223.2200000000003</ele>
   </trkpt>
   <trkpt lat="45.957240000000006" lon="6.905360000000001">
    <ele>1222.76</ele>
   </trkpt>
   <trkpt lat="45.957150000000006" lon="6.905430000000001">
    <ele>1222.38</ele>
   </trkpt>
   <trkpt lat="45.956880000000005" lon="6.90533">
    <ele>1220.7700000000002</ele>
   </trkpt>
   <trkpt lat="45.95628000000001" lon="6.905590000000001">
    <ele>1216.8400000000001</ele>
   </trkpt>
   <trkpt lat="45.956" lon="6.905880000000001">
    <ele>1213.54</ele>
   </trkpt>
   <trkpt lat="45.95586" lon="6.906110000000001">
    <ele>1212.55</ele>
   </trkpt>
   <trkpt lat="45.955850000000005" lon="6.906180000000001">
    <ele>1212.16</ele>
   </trkpt>
   <trkpt lat="45.955870000000004" lon="6.906300000000001">
    <ele>1211.3200000000002</ele>
   </trkpt>
   <trkpt lat="45.95590000000001" lon="6.90634">
    <ele>1211.3200000000002</ele>
   </trkpt>
   <trkpt lat="45.955960000000005" lon="6.906350000000001">
    <ele>1210.1200000000001</ele>
   </trkpt>
   <trkpt lat="45.956320000000005" lon="6.906320000000001">
    <ele>1207.72</ele>
   </trkpt>
   <trkpt lat="45.95674" lon="6.906250000000001">
    <ele>1205.89</ele>
   </trkpt>
   <trkpt lat="45.957260000000005" lon="6.906320000000001">
    <ele>1204.4</ele>
   </trkpt>
   <trkpt lat="45.95731000000001" lon="6.906670000000001">
    <ele>1204.5400000000002</ele>
   </trkpt>
   <trkpt lat="45.957390000000004" lon="6.906980000000001">
    <ele>1205.2200000000003</ele>
   </trkpt>
   <trkpt lat="45.9575" lon="6.90725">
    <ele>1205.6</ele>
   </trkpt>
   <trkpt lat="45.95768" lon="6.907540000000001">
    <ele>1205.99</ele>
   </trkpt>
   <trkpt lat="45.9579" lon="6.908040000000001">
    <ele>1207.64</ele>
   </trkpt>
   <trkpt lat="45.958130000000004" lon="6.9084200000000004">
    <ele>1208.8500000000001</ele>
   </trkpt>
   <trkpt lat="45.958330000000004" lon="6.908810000000001">
    <ele>1210.7800000000002</ele>
   </trkpt>
   <trkpt lat="45.95874500126877" lon="6.909334996152418">
    <ele>1213.0700000000002</ele>
   </trkpt>
   <trkpt lat="45.959160000000004" lon="6.909860000000001">
    <ele>1216.7700000000002</ele>
   </trkpt>
   <trkpt lat="45.95965" lon="6.910220000000001">
    <ele>1220.22</ele>
   </trkpt>
   <trkpt lat="45.95982" lon="6.9103900000000005">
    <ele>1223.7300000000002</ele>
   </trkpt>
   <trkpt lat="45.959950000000006" lon="6.910590000000001">
    <ele>1226.5300000000002</ele>
   </trkpt>
   <trkpt lat="45.960040000000006" lon="6.910780000000001">
    <ele>1228.3700000000001</ele>
   </trkpt>
   <trkpt lat="45.960100000000004" lon="6.9108600000000004">
    <ele>1229.8200000000002</ele>
   </trkpt>
   <trkpt lat="45.96046500071627" lon="6.91126999728018">
    <ele>1236.8300000000002</ele>
   </trkpt>
   <trkpt lat="45.96083" lon="6.9116800000000005">
    <ele>1240.0500000000002</ele>
   </trkpt>
   <trkpt lat="45.961220000000004" lon="6.912050000000001">
    <ele>1241.3500000000001</ele>
   </trkpt>
   <trkpt lat="45.961690000000004" lon="6.91241">
    <ele>1245.18</ele>
   </trkpt>
   <trkpt lat="45.961780000000005" lon="6.91246">
    <ele>1247.09</ele>
   </trkpt>
   <trkpt lat="45.96213" lon="6.912540000000001">
    <ele>1250.9800000000002</ele>
   </trkpt>
   <trkpt lat="45.96222" lon="6.912610000000001">
    <ele>1253.12</ele>
   </trkpt>
   <trkpt lat="45.962590000000006" lon="6.912990000000001">
    <ele>1257.09</ele>
   </trkpt>
   <trkpt lat="45.96291" lon="6.9134">
    <ele>1261.8400000000001</ele>
   </trkpt>
   <trkpt lat="45.96313000000001" lon="6.913620000000001">
    <ele>1263.8100000000002</ele>
   </trkpt>
   <trkpt lat="45.96334" lon="6.91389">
    <ele>1268.31</ele>
   </trkpt>
   <trkpt lat="45.963840000000005" lon="6.91483">
    <ele>1279.43</ele>
   </trkpt>
   <trkpt lat="45.96399" lon="6.915050000000001">
    <ele>1280.61</ele>
   </trkpt>
   <trkpt lat="45.96425000000001" lon="6.91532">
    <ele>1282.31</ele>
   </trkpt>
   <trkpt lat="45.964330000000004" lon="6.915430000000001">
    <ele>1283.65</ele>
   </trkpt>
   <trkpt lat="45.96455" lon="6.91584">
    <ele>1289.26</ele>
   </trkpt>
   <trkpt lat="45.9647" lon="6.915970000000001">
    <ele>1290.67</ele>
   </trkpt>
   <trkpt lat="45.96499" lon="6.91628">
    <ele>1292.38</ele>
   </trkpt>
   <trkpt lat="45.96555" lon="6.91678">
    <ele>1297.35</ele>
   </trkpt>
   <trkpt lat="45.96585" lon="6.917090000000001">
    <ele>1299.94</ele>
   </trkpt>
   <trkpt lat="45.96618" lon="6.91748">
    <ele>1301.18</ele>
   </trkpt>
   <trkpt lat="45.96641" lon="6.91781">
    <ele>1298.95</ele>
   </trkpt>
   <trkpt lat="45.96656" lon="6.91807">
    <ele>1297.9900000000002</ele>
   </trkpt>
   <trkpt lat="45.966620000000006" lon="6.91811">
    <ele>1296.89</ele>
   </trkpt>
   <trkpt lat="45.96676" lon="6.918120000000001">
    <ele>1294.45</ele>
   </trkpt>
   <trkpt lat="45.966840000000005" lon="6.91818">
    <ele>1294.45</ele>
   </trkpt>
   <trkpt lat="45.966910000000006" lon="6.9183">
    <ele>1293.32</ele>
   </trkpt>
   <trkpt lat="45.966950000000004" lon="6.91842">
    <ele>1293.32</ele>
   </trkpt>
   <trkpt lat="45.96701" lon="6.918500000000001">
    <ele>1292.5300000000002</ele>
   </trkpt>
   <trkpt lat="45.967290000000006" lon="6.91868">
    <ele>1289.41</ele>
   </trkpt>
   <trkpt lat="45.96754000000001" lon="6.918920000000001">
    <ele>1285.9</ele>
   </trkpt>
   <trkpt lat="45.967830000000006" lon="6.919270000000001">
    <ele>1282.7400000000002</ele>
   </trkpt>
   <trkpt lat="45.9684" lon="6.919700000000001">
    <ele>1276.7400000000002</ele>
   </trkpt>
   <trkpt lat="45.96871" lon="6.92006">
    <ele>1273.05</ele>
   </trkpt>
   <trkpt lat="45.969060000000006" lon="6.92032">
    <ele>1269.13</ele>
   </trkpt>
   <trkpt lat="45.969370000000005" lon="6.920610000000001">
    <ele>1266.8000000000002</ele>
   </trkpt>
   <trkpt lat="45.969460000000005" lon="6.920730000000001">
    <ele>1265.09</ele>
   </trkpt>
   <trkpt lat="45.96961" lon="6.92098">
    <ele>1264.3500000000001</ele>
   </trkpt>
   <trkpt lat="45.969710000000006" lon="6.92107">
    <ele>1264.18</ele>
   </trkpt>
   <trkpt lat="45.97007000000001" lon="6.92133">
    <ele>1261.5900000000001</ele>
   </trkpt>
   <trkpt lat="45.970290000000006" lon="6.92154">
    <ele>1260.0200000000002</ele>
   </trkpt>
   <trkpt lat="45.97048" lon="6.92184">
    <ele>1259.91</ele>
   </trkpt>
   <trkpt lat="45.97059" lon="6.92203">
    <ele>1263.39</ele>
   </trkpt>
   <trkpt lat="45.970670000000005" lon="6.92229">
    <ele>1268.2</ele>
   </trkpt>
   <trkpt lat="45.970740000000006" lon="6.9227300000000005">
    <ele>1272.37</ele>
   </trkpt>
   <trkpt lat="45.97082" lon="6.92292">
    <ele>1274.48</ele>
   </trkpt>
   <trkpt lat="45.97088" lon="6.922980000000001">
    <ele>1275.5800000000002</ele>
   </trkpt>
   <trkpt lat="45.971050000000005" lon="6.923070000000001">
    <ele>1276.0900000000001</ele>
   </trkpt>
   <trkpt lat="45.97146" lon="6.923470000000001">
    <ele>1274.94</ele>
   </trkpt>
   <trkpt lat="45.972010000000004" lon="6.9241">
    <ele>1271.4</ele>
   </trkpt>
   <trkpt lat="45.97213000000001" lon="6.924270000000001">
    <ele>1267.3700000000001</ele>
   </trkpt>
   <trkpt lat="45.9724" lon="6.924510000000001">
    <ele>1263.13</ele>
   </trkpt>
   <trkpt lat="45.972750000000005" lon="6.924950000000001">
    <ele>1255.0400000000002</ele>
   </trkpt>
   <trkpt lat="45.973090000000006" lon="6.9253100000000005">
    <ele>1255.12</ele>
   </trkpt>
   <trkpt lat="45.973180000000006" lon="6.9255">
    <ele>1256.07</ele>
   </trkpt>
   <trkpt lat="45.97326" lon="6.926">
    <ele>1261.7</ele>
   </trkpt>
   <trkpt lat="45.973310000000005" lon="6.926200000000001">
    <ele>1264.0600000000002</ele>
   </trkpt>
   <trkpt lat="45.97354000000001" lon="6.926590000000001">
    <ele>1272.41</ele>
   </trkpt>
   <trkpt lat="45.97374000000001" lon="6.927230000000001">
    <ele>1284.75</ele>
   </trkpt>
   <trkpt lat="45.973940000000006" lon="6.9275">
    <ele>1288.22</ele>
   </trkpt>
   <trkpt lat="45.97408" lon="6.9276100000000005">
    <ele>1287.9</ele>
   </trkpt>
   <trkpt lat="45.974180000000004" lon="6.927670000000001">
    <ele>1286.7</ele>
   </trkpt>
   <trkpt lat="45.97473" lon="6.927880000000001">
    <ele>1276.93</ele>
   </trkpt>
   <trkpt lat="45.975030000000004" lon="6.928070000000001">
    <ele>1268.0500000000002</ele>
   </trkpt>
   <trkpt lat="45.975260000000006" lon="6.92825">
    <ele>1263.6200000000001</ele>
   </trkpt>
   <trkpt lat="45.97534" lon="6.928280000000001">
    <ele>1262.01</ele>
   </trkpt>
   <trkpt lat="45.97567" lon="6.928310000000001">
    <ele>1257.2</ele>
   </trkpt>
   <trkpt lat="45.97585" lon="6.92853">
    <ele>1255.94</ele>
   </trkpt>
   <trkpt lat="45.97598000000001" lon="6.928630000000001">
    <ele>1255.65</ele>
   </trkpt>
   <trkpt lat="45.976240000000004" lon="6.928770000000001">
    <ele>1255.8200000000002</ele>
   </trkpt>
   <trkpt lat="45.97652" lon="6.928590000000001">
    <ele>1256.5600000000002</ele>
   </trkpt>
   <trkpt lat="45.976870000000005" lon="6.92867">
    <ele>1257.44</ele>
   </trkpt>
   <trkpt lat="45.97719" lon="6.928890000000001">
    <ele>1258.38</ele>
   </trkpt>
   <trkpt lat="45.977360000000004" lon="6.929100000000001">
    <ele>1259.5900000000001</ele>
   </trkpt>
   <trkpt lat="45.977720000000005" lon="6.9298">
    <ele>1264.27</ele>
   </trkpt>
   <trkpt lat="45.97793" lon="6.930040000000001">
    <ele>1265.22</ele>
   </trkpt>
   <trkpt lat="45.97813000000001" lon="6.9302">
    <ele>1265.6000000000001</ele>
   </trkpt>
   <trkpt lat="45.978280000000005" lon="6.930230000000001">
    <ele>1265.6200000000001</ele>
   </trkpt>
   <trkpt lat="45.978440000000006" lon="6.93034">
    <ele>1265.65</ele>
   </trkpt>
   <trkpt lat="45.978570000000005" lon="6.930400000000001">
    <ele>1267.0700000000002</ele>
   </trkpt>
   <trkpt lat="45.97872" lon="6.93095">
    <ele>1269.95</ele>
   </trkpt>
   <trkpt lat="45.9789" lon="6.93132">
    <ele>1269.9900000000002</ele>
   </trkpt>
   <trkpt lat="45.97927000000001" lon="6.931640000000001">
    <ele>1271.74</ele>
   </trkpt>
   <trkpt lat="45.979510000000005" lon="6.93212">
    <ele>1274.54</ele>
   </trkpt>
   <trkpt lat="45.97959" lon="6.932410000000001">
    <ele>1277.22</ele>
   </trkpt>
   <trkpt lat="45.97966" lon="6.93254">
    <ele>1277.41</ele>
   </trkpt>
   <trkpt lat="45.979690000000005" lon="6.932570000000001">
    <ele>1277.41</ele>
   </trkpt>
   <trkpt lat="45.979850000000006" lon="6.932570000000001">
    <ele>1277.3000000000002</ele>
   </trkpt>
   <trkpt lat="45.98022" lon="6.932510000000001">
    <ele>1275.3500000000001</ele>
   </trkpt>
   <trkpt lat="45.980470000000004" lon="6.932550000000001">
    <ele>1273.39</ele>
   </trkpt>
   <trkpt lat="45.98064" lon="6.93268">
    <ele>1272.68</ele>
   </trkpt>
   <trkpt lat="45.98095000000001" lon="6.93275">
    <ele>1271.6200000000001</ele>
   </trkpt>
   <trkpt lat="45.98111" lon="6.93285">
    <ele>1270.78</ele>
   </trkpt>
   <trkpt lat="45.9814" lon="6.93294">
    <ele>1270.01</ele>
   </trkpt>
   <trkpt lat="45.981700000000004" lon="6.932790000000001">
    <ele>1269.09</ele>
   </trkpt>
   <trkpt lat="45.98180000000001" lon="6.9326300000000005">
    <ele>1269.06</ele>
   </trkpt>
   <trkpt lat="45.98189000000001" lon="6.932460000000001">
    <ele>1268.9</ele>
   </trkpt>
   <trkpt lat="45.982200000000006" lon="6.932460000000001">
    <ele>1269.24</ele>
   </trkpt>
   <trkpt lat="45.98246" lon="6.93268">
    <ele>1269.64</ele>
   </trkpt>
   <trkpt lat="45.98304" lon="6.9329600000000005">
    <ele>1271.2800000000002</ele>
   </trkpt>
   <trkpt lat="45.98315" lon="6.933070000000001">
    <ele>1271.03</ele>
   </trkpt>
   <trkpt lat="45.983670000000004" lon="6.9335">
    <ele>1269.89</ele>
   </trkpt>
   <trkpt lat="45.98358" lon="6.933700000000001">
    <ele>1272.58</ele>
   </trkpt>
   <trkpt lat="45.983520000000006" lon="6.93411">
    <ele>1276.8400000000001</ele>
   </trkpt>
   <trkpt lat="45.98339000000001" lon="6.9343">
    <ele>1278.8300000000002</ele>
   </trkpt>
   <trkpt lat="45.983290000000004" lon="6.9345300000000005">
    <ele>1282.55</ele>
   </trkpt>
   <trkpt lat="45.983090000000004" lon="6.93461">
    <ele>1287.86</ele>
   </trkpt>
   <trkpt lat="45.98308" lon="6.9348600000000005">
    <ele>1293.88</ele>
   </trkpt>
   <trkpt lat="45.98301000000001" lon="6.935020000000001">
    <ele>1295.5400000000002</ele>
   </trkpt>
   <trkpt lat="45.98306" lon="6.935180000000001">
    <ele>1296.44</ele>
   </trkpt>
   <trkpt lat="45.98315" lon="6.93529">
    <ele>1299.39</ele>
   </trkpt>
   <trkpt lat="45.983340000000005" lon="6.9352100000000005">
    <ele>1306.74</ele>
   </trkpt>
   <trkpt lat="45.98377000000001" lon="6.935180000000001">
    <ele>1320.8200000000002</ele>
   </trkpt>
   <trkpt lat="45.98389" lon="6.935300000000001">
    <ele>1320.8200000000002</ele>
   </trkpt>
   <trkpt lat="45.983990000000006" lon="6.935320000000001">
    <ele>1322.94</ele>
   </trkpt>
   <trkpt lat="45.984260000000006" lon="6.935460000000001">
    <ele>1328.3200000000002</ele>
   </trkpt>
   <trkpt lat="45.984440000000006" lon="6.9354700000000005">
    <ele>1333.3700000000001</ele>
   </trkpt>
   <trkpt lat="45.984460000000006" lon="6.935530000000001">
    <ele>1334.3400000000001</ele>
   </trkpt>
   <trkpt lat="45.984460000000006" lon="6.935600000000001">
    <ele>1334.3400000000001</ele>
   </trkpt>
   <trkpt lat="45.98425" lon="6.9356800000000005">
    <ele>1340.2200000000003</ele>
   </trkpt>
   <trkpt lat="45.98402" lon="6.93583">
    <ele>1344.93</ele>
   </trkpt>
   <trkpt lat="45.983700000000006" lon="6.936120000000001">
    <ele>1354.9</ele>
   </trkpt>
   <trkpt lat="45.9836" lon="6.9361500000000005">
    <ele>1359.3600000000001</ele>
   </trkpt>
   <trkpt lat="45.98353" lon="6.9362200000000005">
    <ele>1360.0</ele>
   </trkpt>
   <trkpt lat="45.98355" lon="6.936260000000001">
    <ele>1360.0</ele>
   </trkpt>
   <trkpt lat="45.983630000000005" lon="6.9363">
    <ele>1361.3700000000001</ele>
   </trkpt>
   <trkpt lat="45.98402" lon="6.936210000000001">
    <ele>1369.8100000000002</ele>
   </trkpt>
   <trkpt lat="45.98431" lon="6.936380000000001">
    <ele>1376.51</ele>
   </trkpt>
   <trkpt lat="45.98453000000001" lon="6.93641">
    <ele>1381.39</ele>
   </trkpt>
   <trkpt lat="45.98496" lon="6.936230000000001">
    <ele>1389.8000000000002</ele>
   </trkpt>
   <trkpt lat="45.9851" lon="6.936050000000001">
    <ele>1394.2</ele>
   </trkpt>
   <trkpt lat="45.985530000000004" lon="6.935930000000001">
    <ele>1403.43</ele>
   </trkpt>
   <trkpt lat="45.98579" lon="6.935770000000001">
    <ele>1408.02</ele>
   </trkpt>
   <trkpt lat="45.98606" lon="6.935790000000001">
    <ele>1414.8500000000001</ele>
   </trkpt>
   <trkpt lat="45.9864" lon="6.93578">
    <ele>1418.77</ele>
   </trkpt>
   <trkpt lat="45.986610000000006" lon="6.935600000000001">
    <ele>1418.88</ele>
   </trkpt>
   <trkpt lat="45.98686000000001" lon="6.935300000000001">
    <ele>1415.1</ele>
   </trkpt>
   <trkpt lat="45.98713" lon="6.935090000000001">
    <ele>1412.3300000000002</ele>
   </trkpt>
   <trkpt lat="45.98724000000001" lon="6.93503">
    <ele>1411.28</ele>
   </trkpt>
   <trkpt lat="45.98736" lon="6.934880000000001">
    <ele>1408.8600000000001</ele>
   </trkpt>
   <trkpt lat="45.9876" lon="6.934450000000001">
    <ele>1404.46</ele>
   </trkpt>
   <trkpt lat="45.98803" lon="6.934670000000001">
    <ele>1401.04</ele>
   </trkpt>
   <trkpt lat="45.98821" lon="6.93472">
    <ele>1401.04</ele>
   </trkpt>
   <trkpt lat="45.988400000000006" lon="6.9349300000000005">
    <ele>1401.18</ele>
   </trkpt>
   <trkpt lat="45.988490000000006" lon="6.934950000000001">
    <ele>1400.67</ele>
   </trkpt>
   <trkpt lat="45.9887" lon="6.934760000000001">
    <ele>1397.69</ele>
   </trkpt>
   <trkpt lat="45.988870000000006" lon="6.93477">
    <ele>1396.4500000000003</ele>
   </trkpt>
   <trkpt lat="45.989070000000005" lon="6.9347">
    <ele>1395.39</ele>
   </trkpt>
   <trkpt lat="45.98939" lon="6.934150000000001">
    <ele>1394.6900000000003</ele>
   </trkpt>
   <trkpt lat="45.98977000000001" lon="6.93336">
    <ele>1391.69</ele>
   </trkpt>
   <trkpt lat="45.990120000000005" lon="6.93374">
    <ele>1395.95</ele>
   </trkpt>
   <trkpt lat="45.99034" lon="6.934060000000001">
    <ele>1398.4500000000003</ele>
   </trkpt>
   <trkpt lat="45.990750000000006" lon="6.93437">
    <ele>1401.0500000000002</ele>
   </trkpt>
   <trkpt lat="45.99127000000001" lon="6.93503">
    <ele>1407.6000000000001</ele>
   </trkpt>
   <trkpt lat="45.991400000000006" lon="6.93512">
    <ele>1409.67</ele>
   </trkpt>
   <trkpt lat="45.99163" lon="6.935130000000001">
    <ele>1411.31</ele>
   </trkpt>
   <trkpt lat="45.991820000000004" lon="6.93503">
    <ele>1413.92</ele>
   </trkpt>
   <trkpt lat="45.99206" lon="6.9351400000000005">
    <ele>1416.7500000000002</ele>
   </trkpt>
   <trkpt lat="45.992230000000006" lon="6.93515">
    <ele>1419.95</ele>
   </trkpt>
   <trkpt lat="45.992580000000004" lon="6.93557">
    <ele>1427.2300000000002</ele>
   </trkpt>
   <trkpt lat="45.992810000000006" lon="6.935560000000001">
    <ele>1429.6700000000003</ele>
   </trkpt>
   <trkpt lat="45.993" lon="6.93564">
    <ele>1430.1200000000001</ele>
   </trkpt>
   <trkpt lat="45.99326000000001" lon="6.9358">
    <ele>1429.8300000000002</ele>
   </trkpt>
   <trkpt lat="45.993680000000005" lon="6.93597">
    <ele>1426.19</ele>
   </trkpt>
   <trkpt lat="45.99391000000001" lon="6.936120000000001">
    <ele>1423.0500000000002</ele>
   </trkpt>
   <trkpt lat="45.994020000000006" lon="6.93627">
    <ele>1422.1100000000001</ele>
   </trkpt>
   <trkpt lat="45.994400000000006" lon="6.9366200000000005">
    <ele>1419.88</ele>
   </trkpt>
   <trkpt lat="45.99476000000001" lon="6.936870000000001">
    <ele>1415.6200000000001</ele>
   </trkpt>
   <trkpt lat="45.995090000000005" lon="6.9370400000000005">
    <ele>1411.76</ele>
   </trkpt>
   <trkpt lat="45.995250000000006" lon="6.937180000000001">
    <ele>1410.29</ele>
   </trkpt>
   <trkpt lat="45.995450000000005" lon="6.937310000000001">
    <ele>1407.14</ele>
   </trkpt>
   <trkpt lat="45.99562" lon="6.937380000000001">
    <ele>1405.17</ele>
   </trkpt>
   <trkpt lat="45.99577" lon="6.9373700000000005">
    <ele>1403.46</ele>
   </trkpt>
   <trkpt lat="45.99589" lon="6.9375800000000005">
    <ele>1402.0700000000002</ele>
   </trkpt>
   <trkpt lat="45.99636" lon="6.9378400000000005">
    <ele>1392.66</ele>
   </trkpt>
   <trkpt lat="45.99658" lon="6.937990000000001">
    <ele>1388.0</ele>
   </trkpt>
   <trkpt lat="45.99678" lon="6.9380500000000005">
    <ele>1385.5900000000001</ele>
   </trkpt>
   <trkpt lat="45.99644000000001" lon="6.93756">
    <ele>1382.53</ele>
   </trkpt>
   <trkpt lat="45.9962" lon="6.937390000000001">
    <ele>1381.6200000000001</ele>
   </trkpt>
   <trkpt lat="45.99595" lon="6.93679">
    <ele>1375.52</ele>
   </trkpt>
   <trkpt lat="45.995555001296" lon="6.936244996110901">
    <ele>1372.43</ele>
   </trkpt>
   <trkpt lat="45.995160000000006" lon="6.935700000000001">
    <ele>1369.41</ele>
   </trkpt>
   <trkpt lat="45.99497" lon="6.935340000000001">
    <ele>1367.89</ele>
   </trkpt>
   <trkpt lat="45.99501" lon="6.934990000000001">
    <ele>1367.16</ele>
   </trkpt>
   <trkpt lat="45.995250000000006" lon="6.934880000000001">
    <ele>1368.39</ele>
   </trkpt>
   <trkpt lat="45.99584" lon="6.934640000000001">
    <ele>1369.3300000000002</ele>
   </trkpt>
   <trkpt lat="45.99627" lon="6.934690000000001">
    <ele>1369.39</ele>
   </trkpt>
   <trkpt lat="45.99633" lon="6.93484">
    <ele>1369.18</ele>
   </trkpt>
   <trkpt lat="45.99647" lon="6.934740000000001">
    <ele>1369.89</ele>
   </trkpt>
   <trkpt lat="45.996590000000005" lon="6.934740000000001">
    <ele>1370.5600000000002</ele>
   </trkpt>
   <trkpt lat="45.99662000000001" lon="6.93465">
    <ele>1370.7</ele>
   </trkpt>
   <trkpt lat="45.99672" lon="6.93442">
    <ele>1371.2000000000003</ele>
   </trkpt>
   <trkpt lat="45.99741" lon="6.93381">
    <ele>1373.25</ele>
   </trkpt>
   <trkpt lat="45.997640000000004" lon="6.93367">
    <ele>1376.51</ele>
   </trkpt>
   <trkpt lat="45.99752" lon="6.933330000000001">
    <ele>1376.91</ele>
   </trkpt>
   <trkpt lat="45.997330000000005" lon="6.932900000000001">
    <ele>1378.36</ele>
   </trkpt>
   <trkpt lat="45.997310000000006" lon="6.932790000000001">
    <ele>1379.41</ele>
   </trkpt>
   <trkpt lat="45.997260000000004" lon="6.93268">
    <ele>1381.1200000000001</ele>
   </trkpt>
   <trkpt lat="45.997260000000004" lon="6.932600000000001">
    <ele>1381.1200000000001</ele>
   </trkpt>
   <trkpt lat="45.99707" lon="6.9321600000000005">
    <ele>1384.8100000000002</ele>
   </trkpt>
   <trkpt lat="45.99685" lon="6.93186">
    <ele>1385.58</ele>
   </trkpt>
   <trkpt lat="45.99671000000001" lon="6.931610000000001">
    <ele>1387.1100000000001</ele>
   </trkpt>
   <trkpt lat="45.99665" lon="6.931430000000001">
    <ele>1388.5</ele>
   </trkpt>
   <trkpt lat="45.996550000000006" lon="6.931260000000001">
    <ele>1390.9600000000003</ele>
   </trkpt>
   <trkpt lat="45.996500000000005" lon="6.931080000000001">
    <ele>1391.8300000000002</ele>
   </trkpt>
   <trkpt lat="45.996300000000005" lon="6.930750000000001">
    <ele>1394.16</ele>
   </trkpt>
   <trkpt lat="45.996170000000006" lon="6.93048">
    <ele>1396.3600000000001</ele>
   </trkpt>
   <trkpt lat="45.99611" lon="6.930400000000001">
    <ele>1398.3500000000001</ele>
   </trkpt>
   <trkpt lat="45.99602" lon="6.930230000000001">
    <ele>1401.3500000000001</ele>
   </trkpt>
   <trkpt lat="45.99593" lon="6.92996">
    <ele>1403.92</ele>
   </trkpt>
   <trkpt lat="45.99577" lon="6.929600000000001">
    <ele>1405.2600000000002</ele>
   </trkpt>
   <trkpt lat="45.99564" lon="6.92916">
    <ele>1407.0600000000002</ele>
   </trkpt>
   <trkpt lat="45.99568000000001" lon="6.92905">
    <ele>1408.4500000000003</ele>
   </trkpt>
   <trkpt lat="45.995850000000004" lon="6.928820000000001">
    <ele>1408.3300000000002</ele>
   </trkpt>
   <trkpt lat="45.995920000000005" lon="6.92865">
    <ele>1407.58</ele>
   </trkpt>
   <trkpt lat="45.99607" lon="6.928350000000001">
    <ele>1407.68</ele>
   </trkpt>
   <trkpt lat="45.99613" lon="6.928140000000001">
    <ele>1407.7700000000002</ele>
   </trkpt>
   <trkpt lat="45.996170000000006" lon="6.92811">
    <ele>1407.7700000000002</ele>
   </trkpt>
   <trkpt lat="45.996300000000005" lon="6.92811">
    <ele>1407.78</ele>
   </trkpt>
   <trkpt lat="45.99647" lon="6.92792">
    <ele>1408.2500000000002</ele>
   </trkpt>
   <trkpt lat="45.996500000000005" lon="6.92771">
    <ele>1409.94</ele>
   </trkpt>
   <trkpt lat="45.99663" lon="6.92743">
    <ele>1413.88</ele>
   </trkpt>
   <trkpt lat="45.996660000000006" lon="6.927320000000001">
    <ele>1414.67</ele>
   </trkpt>
   <trkpt lat="45.99663" lon="6.926850000000001">
    <ele>1420.86</ele>
   </trkpt>
   <trkpt lat="45.99667" lon="6.92672">
    <ele>1421.43</ele>
   </trkpt>
   <trkpt lat="45.99696" lon="6.926410000000001">
    <ele>1421.5900000000001</ele>
   </trkpt>
   <trkpt lat="45.99712" lon="6.926340000000001">
    <ele>1422.1800000000003</ele>
   </trkpt>
   <trkpt lat="45.99696" lon="6.926410000000001">
    <ele>1421.5900000000001</ele>
   </trkpt>
   <trkpt lat="45.99676" lon="6.9264600000000005">
    <ele>1419.71</ele>
   </trkpt>
   <trkpt lat="45.99662000000001" lon="6.9263900000000005">
    <ele>1420.64</ele>
   </trkpt>
   <trkpt lat="45.996410000000004" lon="6.926150000000001">
    <ele>1424.49</ele>
   </trkpt>
   <trkpt lat="45.996340000000004" lon="6.92611">
    <ele>1424.9900000000002</ele>
   </trkpt>
   <trkpt lat="45.99625" lon="6.926150000000001">
    <ele>1425.71</ele>
   </trkpt>
   <trkpt lat="45.99602" lon="6.926340000000001">
    <ele>1428.3000000000002</ele>
   </trkpt>
   <trkpt lat="45.99575" lon="6.926430000000001">
    <ele>1429.16</ele>
   </trkpt>
   <trkpt lat="45.995380000000004" lon="6.926310000000001">
    <ele>1432.05</ele>
   </trkpt>
   <trkpt lat="45.995200000000004" lon="6.926130000000001">
    <ele>1436.68</ele>
   </trkpt>
   <trkpt lat="45.99504" lon="6.92602">
    <ele>1437.9700000000003</ele>
   </trkpt>
   <trkpt lat="45.99501" lon="6.925980000000001">
    <ele>1438.2700000000002</ele>
   </trkpt>
   <trkpt lat="45.9949" lon="6.9259200000000005">
    <ele>1439.0900000000001</ele>
   </trkpt>
   <trkpt lat="45.99461" lon="6.925520000000001">
    <ele>1449.69</ele>
   </trkpt>
   <trkpt lat="45.99456000000001" lon="6.925420000000001">
    <ele>1450.98</ele>
   </trkpt>
   <trkpt lat="45.994580000000006" lon="6.92534">
    <ele>1452.44</ele>
   </trkpt>
   <trkpt lat="45.99463" lon="6.925280000000001">
    <ele>1455.57</ele>
   </trkpt>
   <trkpt lat="45.994580000000006" lon="6.9252">
    <ele>1458.44</ele>
   </trkpt>
   <trkpt lat="45.9945" lon="6.924970000000001">
    <ele>1462.26</ele>
   </trkpt>
   <trkpt lat="45.99454" lon="6.92489">
    <ele>1462.8500000000001</ele>
   </trkpt>
   <trkpt lat="45.99466" lon="6.924860000000001">
    <ele>1464.1200000000001</ele>
   </trkpt>
   <trkpt lat="45.994710000000005" lon="6.9247000000000005">
    <ele>1465.5500000000002</ele>
   </trkpt>
   <trkpt lat="45.99468" lon="6.924570000000001">
    <ele>1466.93</ele>
   </trkpt>
   <trkpt lat="45.99438000000001" lon="6.92414">
    <ele>1475.43</ele>
   </trkpt>
   <trkpt lat="45.99427000000001" lon="6.9240900000000005">
    <ele>1480.01</ele>
   </trkpt>
   <trkpt lat="45.99434" lon="6.923990000000001">
    <ele>1482.46</ele>
   </trkpt>
   <trkpt lat="45.994240000000005" lon="6.923940000000001">
    <ele>1485.0200000000002</ele>
   </trkpt>
   <trkpt lat="45.99421" lon="6.923850000000001">
    <ele>1486.38</ele>
   </trkpt>
   <trkpt lat="45.994170000000004" lon="6.9238100000000005">
    <ele>1486.38</ele>
   </trkpt>
   <trkpt lat="45.99414" lon="6.9237">
    <ele>1492.0900000000001</ele>
   </trkpt>
   <trkpt lat="45.99414" lon="6.92356">
    <ele>1494.75</ele>
   </trkpt>
   <trkpt lat="45.994080000000004" lon="6.92346">
    <ele>1497.0800000000002</ele>
   </trkpt>
   <trkpt lat="45.99398" lon="6.923400000000001">
    <ele>1498.88</ele>
   </trkpt>
   <trkpt lat="45.99387" lon="6.923290000000001">
    <ele>1501.02</ele>
   </trkpt>
   <trkpt lat="45.993840000000006" lon="6.9232000000000005">
    <ele>1502.76</ele>
   </trkpt>
   <trkpt lat="45.99376" lon="6.923220000000001">
    <ele>1504.92</ele>
   </trkpt>
   <trkpt lat="45.993730000000006" lon="6.92311">
    <ele>1507.2800000000002</ele>
   </trkpt>
   <trkpt lat="45.993640000000006" lon="6.9230100000000006">
    <ele>1509.45</ele>
   </trkpt>
   <trkpt lat="45.993500000000004" lon="6.9229">
    <ele>1511.23</ele>
   </trkpt>
   <trkpt lat="45.993370000000006" lon="6.922750000000001">
    <ele>1514.2900000000002</ele>
   </trkpt>
   <trkpt lat="45.9932" lon="6.92269">
    <ele>1517.3700000000001</ele>
   </trkpt>
   <trkpt lat="45.993140000000004" lon="6.92262">
    <ele>1520.0800000000002</ele>
   </trkpt>
   <trkpt lat="45.99291" lon="6.92255">
    <ele>1522.5300000000002</ele>
   </trkpt>
   <trkpt lat="45.992830000000005" lon="6.9225">
    <ele>1523.9</ele>
   </trkpt>
   <trkpt lat="45.992700000000006" lon="6.9225">
    <ele>1526.13</ele>
   </trkpt>
   <trkpt lat="45.992670000000004" lon="6.92243">
    <ele>1526.96</ele>
   </trkpt>
   <trkpt lat="45.99250000000001" lon="6.92238">
    <ele>1530.8100000000002</ele>
   </trkpt>
   <trkpt lat="45.992430000000006" lon="6.922320000000001">
    <ele>1533.0900000000001</ele>
   </trkpt>
   <trkpt lat="45.992380000000004" lon="6.922230000000001">
    <ele>1535.6900000000003</ele>
   </trkpt>
   <trkpt lat="45.99232000000001" lon="6.922040000000001">
    <ele>1541.2400000000002</ele>
   </trkpt>
   <trkpt lat="45.992250000000006" lon="6.92201">
    <ele>1541.2400000000002</ele>
   </trkpt>
   <trkpt lat="45.992180000000005" lon="6.921880000000001">
    <ele>1543.8700000000001</ele>
   </trkpt>
   <trkpt lat="45.992090000000005" lon="6.92187">
    <ele>1550.0900000000001</ele>
   </trkpt>
   <trkpt lat="45.992070000000005" lon="6.9218">
    <ele>1550.0900000000001</ele>
   </trkpt>
   <trkpt lat="45.99222" lon="6.9217">
    <ele>1555.23</ele>
   </trkpt>
   <trkpt lat="45.99222" lon="6.92166">
    <ele>1555.23</ele>
   </trkpt>
   <trkpt lat="45.99219" lon="6.92166">
    <ele>1555.23</ele>
   </trkpt>
   <trkpt lat="45.99208" lon="6.921600000000001">
    <ele>1558.46</ele>
   </trkpt>
   <trkpt lat="45.992000000000004" lon="6.9214400000000005">
    <ele>1559.7500000000002</ele>
   </trkpt>
   <trkpt lat="45.99195" lon="6.921380000000001">
    <ele>1560.7400000000002</ele>
   </trkpt>
   <trkpt lat="45.991870000000006" lon="6.921360000000001">
    <ele>1562.1200000000001</ele>
   </trkpt>
   <trkpt lat="45.991760000000006" lon="6.921360000000001">
    <ele>1565.3000000000002</ele>
   </trkpt>
   <trkpt lat="45.99168" lon="6.921460000000001">
    <ele>1565.3000000000002</ele>
   </trkpt>
   <trkpt lat="45.99166" lon="6.92147">
    <ele>1565.3000000000002</ele>
   </trkpt>
   <trkpt lat="45.991620000000005" lon="6.921430000000001">
    <ele>1572.6700000000003</ele>
   </trkpt>
   <trkpt lat="45.99157" lon="6.92147">
    <ele>1572.6700000000003</ele>
   </trkpt>
   <trkpt lat="45.99141" lon="6.92133">
    <ele>1575.2700000000002</ele>
   </trkpt>
   <trkpt lat="45.99138000000001" lon="6.92126">
    <ele>1579.3100000000002</ele>
   </trkpt>
   <trkpt lat="45.991170000000004" lon="6.92119">
    <ele>1585.41</ele>
   </trkpt>
   <trkpt lat="45.9911" lon="6.92112">
    <ele>1585.41</ele>
   </trkpt>
   <trkpt lat="45.991130000000005" lon="6.921030000000001">
    <ele>1589.25</ele>
   </trkpt>
   <trkpt lat="45.99103" lon="6.92081">
    <ele>1592.68</ele>
   </trkpt>
   <trkpt lat="45.990930000000006" lon="6.920780000000001">
    <ele>1595.67</ele>
   </trkpt>
   <trkpt lat="45.9909" lon="6.920710000000001">
    <ele>1595.67</ele>
   </trkpt>
   <trkpt lat="45.990730000000006" lon="6.920750000000001">
    <ele>1599.63</ele>
   </trkpt>
   <trkpt lat="45.99065" lon="6.920800000000001">
    <ele>1601.9800000000002</ele>
   </trkpt>
   <trkpt lat="45.990570000000005" lon="6.92081">
    <ele>1604.6</ele>
   </trkpt>
   <trkpt lat="45.99058" lon="6.92074">
    <ele>1604.6</ele>
   </trkpt>
   <trkpt lat="45.990550000000006" lon="6.9207600000000005">
    <ele>1604.6</ele>
   </trkpt>
   <trkpt lat="45.99049" lon="6.9207600000000005">
    <ele>1610.3200000000002</ele>
   </trkpt>
   <trkpt lat="45.99049" lon="6.920700000000001">
    <ele>1610.3200000000002</ele>
   </trkpt>
   <trkpt lat="45.99031" lon="6.920680000000001">
    <ele>1611.64</ele>
   </trkpt>
   <trkpt lat="45.99011" lon="6.920590000000001">
    <ele>1620.2800000000002</ele>
   </trkpt>
   <trkpt lat="45.99006000000001" lon="6.920610000000001">
    <ele>1620.2800000000002</ele>
   </trkpt>
   <trkpt lat="45.990030000000004" lon="6.9206">
    <ele>1620.2800000000002</ele>
   </trkpt>
   <trkpt lat="45.99" lon="6.920540000000001">
    <ele>1626.92</ele>
   </trkpt>
   <trkpt lat="45.98986000000001" lon="6.920470000000001">
    <ele>1629.48</ele>
   </trkpt>
   <trkpt lat="45.9898" lon="6.920400000000001">
    <ele>1631.6800000000003</ele>
   </trkpt>
   <trkpt lat="45.98973" lon="6.92039">
    <ele>1632.65</ele>
   </trkpt>
   <trkpt lat="45.989650000000005" lon="6.92034">
    <ele>1635.45</ele>
   </trkpt>
   <trkpt lat="45.989560000000004" lon="6.920230000000001">
    <ele>1636.4900000000002</ele>
   </trkpt>
   <trkpt lat="45.98942" lon="6.9201500000000005">
    <ele>1638.7600000000002</ele>
   </trkpt>
   <trkpt lat="45.98942" lon="6.92011">
    <ele>1644.65</ele>
   </trkpt>
   <trkpt lat="45.98948" lon="6.92011">
    <ele>1644.65</ele>
   </trkpt>
   <trkpt lat="45.98949" lon="6.9200800000000005">
    <ele>1644.65</ele>
   </trkpt>
   <trkpt lat="45.989430000000006" lon="6.92004">
    <ele>1644.65</ele>
   </trkpt>
   <trkpt lat="45.989380000000004" lon="6.920030000000001">
    <ele>1648.3200000000002</ele>
   </trkpt>
   <trkpt lat="45.98937" lon="6.92001">
    <ele>1648.3200000000002</ele>
   </trkpt>
   <trkpt lat="45.9894" lon="6.919980000000001">
    <ele>1648.3200000000002</ele>
   </trkpt>
   <trkpt lat="45.9894" lon="6.919950000000001">
    <ele>1650.95</ele>
   </trkpt>
   <trkpt lat="45.98937" lon="6.91992">
    <ele>1650.95</ele>
   </trkpt>
   <trkpt lat="45.98931" lon="6.919910000000001">
    <ele>1650.95</ele>
   </trkpt>
   <trkpt lat="45.989320000000006" lon="6.91987">
    <ele>1650.95</ele>
   </trkpt>
   <trkpt lat="45.98930000000001" lon="6.91985">
    <ele>1656.5800000000002</ele>
   </trkpt>
   <trkpt lat="45.98926" lon="6.91985">
    <ele>1656.5800000000002</ele>
   </trkpt>
   <trkpt lat="45.989230000000006" lon="6.9198200000000005">
    <ele>1656.5800000000002</ele>
   </trkpt>
   <trkpt lat="45.989140000000006" lon="6.919810000000001">
    <ele>1659.0300000000002</ele>
   </trkpt>
   <trkpt lat="45.98904" lon="6.919740000000001">
    <ele>1662.2400000000002</ele>
   </trkpt>
   <trkpt lat="45.989050000000006" lon="6.919690000000001">
    <ele>1662.2400000000002</ele>
   </trkpt>
   <trkpt lat="45.98904" lon="6.919670000000001">
    <ele>1662.2400000000002</ele>
   </trkpt>
   <trkpt lat="45.988910000000004" lon="6.9196100000000005">
    <ele>1666.71</ele>
   </trkpt>
   <trkpt lat="45.98886" lon="6.9195">
    <ele>1668.4500000000003</ele>
   </trkpt>
   <trkpt lat="45.98877" lon="6.919410000000001">
    <ele>1669.69</ele>
   </trkpt>
   <trkpt lat="45.98865000000001" lon="6.91926">
    <ele>1671.6200000000001</ele>
   </trkpt>
   <trkpt lat="45.988620000000004" lon="6.919200000000001">
    <ele>1672.1200000000001</ele>
   </trkpt>
   <trkpt lat="45.988550000000004" lon="6.919160000000001">
    <ele>1673.22</ele>
   </trkpt>
   <trkpt lat="45.9885" lon="6.919090000000001">
    <ele>1673.8500000000001</ele>
   </trkpt>
   <trkpt lat="45.98841" lon="6.919020000000001">
    <ele>1675.28</ele>
   </trkpt>
   <trkpt lat="45.98827000000001" lon="6.91865">
    <ele>1680.6000000000001</ele>
   </trkpt>
   <trkpt lat="45.98823" lon="6.91863">
    <ele>1683.7900000000002</ele>
   </trkpt>
   <trkpt lat="45.988040000000005" lon="6.918620000000001">
    <ele>1687.37</ele>
   </trkpt>
   <trkpt lat="45.988040000000005" lon="6.91858">
    <ele>1687.37</ele>
   </trkpt>
   <trkpt lat="45.988060000000004" lon="6.918550000000001">
    <ele>1688.2700000000002</ele>
   </trkpt>
   <trkpt lat="45.988040000000005" lon="6.918480000000001">
    <ele>1688.2700000000002</ele>
   </trkpt>
   <trkpt lat="45.987930000000006" lon="6.918400000000001">
    <ele>1692.15</ele>
   </trkpt>
   <trkpt lat="45.98783" lon="6.918290000000001">
    <ele>1694.7</ele>
   </trkpt>
   <trkpt lat="45.98767" lon="6.918200000000001">
    <ele>1696.71</ele>
   </trkpt>
   <trkpt lat="45.98767" lon="6.91816">
    <ele>1696.71</ele>
   </trkpt>
   <trkpt lat="45.987730000000006" lon="6.918080000000001">
    <ele>1703.75</ele>
   </trkpt>
   <trkpt lat="45.987700000000004" lon="6.918010000000001">
    <ele>1703.75</ele>
   </trkpt>
   <trkpt lat="45.98765" lon="6.917790000000001">
    <ele>1706.22</ele>
   </trkpt>
   <trkpt lat="45.987590000000004" lon="6.917800000000001">
    <ele>1708.8400000000001</ele>
   </trkpt>
   <trkpt lat="45.98751" lon="6.917750000000001">
    <ele>1710.0400000000002</ele>
   </trkpt>
   <trkpt lat="45.98738" lon="6.917560000000001">
    <ele>1712.42</ele>
   </trkpt>
   <trkpt lat="45.987210000000005" lon="6.917440000000001">
    <ele>1713.1000000000001</ele>
   </trkpt>
   <trkpt lat="45.987080000000006" lon="6.917470000000001">
    <ele>1713.99</ele>
   </trkpt>
   <trkpt lat="45.986880000000006" lon="6.91767">
    <ele>1715.8000000000002</ele>
   </trkpt>
   <trkpt lat="45.98677000000001" lon="6.917700000000001">
    <ele>1715.88</ele>
   </trkpt>
   <trkpt lat="45.98669" lon="6.9176">
    <ele>1715.17</ele>
   </trkpt>
   <trkpt lat="45.986470000000004" lon="6.91748">
    <ele>1709.0900000000001</ele>
   </trkpt>
   <trkpt lat="45.98628" lon="6.917300000000001">
    <ele>1705.2800000000002</ele>
   </trkpt>
   <trkpt lat="45.986090000000004" lon="6.917210000000001">
    <ele>1702.4800000000002</ele>
   </trkpt>
   <trkpt lat="45.98604" lon="6.9173100000000005">
    <ele>1700.97</ele>
   </trkpt>
   <trkpt lat="45.9859" lon="6.917280000000001">
    <ele>1697.5000000000002</ele>
   </trkpt>
   <trkpt lat="45.985870000000006" lon="6.917190000000001">
    <ele>1696.71</ele>
   </trkpt>
   <trkpt lat="45.98575" lon="6.917210000000001">
    <ele>1694.93</ele>
   </trkpt>
   <trkpt lat="45.985530000000004" lon="6.91713">
    <ele>1693.4900000000002</ele>
   </trkpt>
   <trkpt lat="45.98545000000001" lon="6.91713">
    <ele>1693.3300000000002</ele>
   </trkpt>
   <trkpt lat="45.98536000000001" lon="6.91706">
    <ele>1693.24</ele>
   </trkpt>
   <trkpt lat="45.985170000000004" lon="6.917140000000001">
    <ele>1694.17</ele>
   </trkpt>
   <trkpt lat="45.98508" lon="6.917050000000001">
    <ele>1694.53</ele>
   </trkpt>
   <trkpt lat="45.984970000000004" lon="6.916980000000001">
    <ele>1694.3300000000002</ele>
   </trkpt>
   <trkpt lat="45.984680000000004" lon="6.917050000000001">
    <ele>1690.4500000000003</ele>
   </trkpt>
   <trkpt lat="45.98458" lon="6.917090000000001">
    <ele>1685.8300000000002</ele>
   </trkpt>
   <trkpt lat="45.984480000000005" lon="6.917180000000001">
    <ele>1683.27</ele>
   </trkpt>
   <trkpt lat="45.984410000000004" lon="6.917160000000001">
    <ele>1679.22</ele>
   </trkpt>
   <trkpt lat="45.984190000000005" lon="6.91654">
    <ele>1668.0000000000002</ele>
   </trkpt>
   <trkpt lat="45.98411" lon="6.916430000000001">
    <ele>1665.5700000000002</ele>
   </trkpt>
   <trkpt lat="45.98406000000001" lon="6.916620000000001">
    <ele>1662.53</ele>
   </trkpt>
   <trkpt lat="45.983990000000006" lon="6.916790000000001">
    <ele>1654.0100000000002</ele>
   </trkpt>
   <trkpt lat="45.98398" lon="6.91692">
    <ele>1650.68</ele>
   </trkpt>
   <trkpt lat="45.98393" lon="6.917050000000001">
    <ele>1649.1100000000001</ele>
   </trkpt>
   <trkpt lat="45.98393" lon="6.917180000000001">
    <ele>1644.67</ele>
   </trkpt>
   <trkpt lat="45.983900000000006" lon="6.917180000000001">
    <ele>1644.67</ele>
   </trkpt>
   <trkpt lat="45.98384" lon="6.917110000000001">
    <ele>1641.51</ele>
   </trkpt>
   <trkpt lat="45.983720000000005" lon="6.917180000000001">
    <ele>1636.46</ele>
   </trkpt>
   <trkpt lat="45.983630000000005" lon="6.917180000000001">
    <ele>1634.8300000000002</ele>
   </trkpt>
   <trkpt lat="45.983470000000004" lon="6.9173100000000005">
    <ele>1627.58</ele>
   </trkpt>
   <trkpt lat="45.983290000000004" lon="6.91736">
    <ele>1622.7900000000002</ele>
   </trkpt>
   <trkpt lat="45.983160000000005" lon="6.917330000000001">
    <ele>1614.13</ele>
   </trkpt>
   <trkpt lat="45.983070000000005" lon="6.917230000000001">
    <ele>1612.4900000000002</ele>
   </trkpt>
   <trkpt lat="45.9829" lon="6.91722">
    <ele>1606.8300000000002</ele>
   </trkpt>
   <trkpt lat="45.98279" lon="6.917180000000001">
    <ele>1603.82</ele>
   </trkpt>
   <trkpt lat="45.982730000000004" lon="6.917090000000001">
    <ele>1602.6</ele>
   </trkpt>
   <trkpt lat="45.98255" lon="6.917050000000001">
    <ele>1600.47</ele>
   </trkpt>
   <trkpt lat="45.982440000000004" lon="6.916880000000001">
    <ele>1597.35</ele>
   </trkpt>
   <trkpt lat="45.98228" lon="6.91678">
    <ele>1588.9700000000003</ele>
   </trkpt>
   <trkpt lat="45.982040000000005" lon="6.91673">
    <ele>1583.7800000000002</ele>
   </trkpt>
   <trkpt lat="45.98192" lon="6.91678">
    <ele>1581.5500000000002</ele>
   </trkpt>
   <trkpt lat="45.981840000000005" lon="6.91689">
    <ele>1578.95</ele>
   </trkpt>
   <trkpt lat="45.98174" lon="6.916930000000001">
    <ele>1576.7300000000002</ele>
   </trkpt>
   <trkpt lat="45.981570000000005" lon="6.91687">
    <ele>1573.5800000000002</ele>
   </trkpt>
   <trkpt lat="45.981480000000005" lon="6.916860000000001">
    <ele>1570.64</ele>
   </trkpt>
   <trkpt lat="45.981440000000006" lon="6.9168">
    <ele>1567.38</ele>
   </trkpt>
   <trkpt lat="45.981410000000004" lon="6.916950000000001">
    <ele>1564.3700000000001</ele>
   </trkpt>
   <trkpt lat="45.981300000000005" lon="6.916910000000001">
    <ele>1560.43</ele>
   </trkpt>
   <trkpt lat="45.98124000000001" lon="6.9167700000000005">
    <ele>1559.0600000000002</ele>
   </trkpt>
   <trkpt lat="45.98104000000001" lon="6.916740000000001">
    <ele>1549.9600000000003</ele>
   </trkpt>
   <trkpt lat="45.98095000000001" lon="6.91661">
    <ele>1543.1200000000001</ele>
   </trkpt>
   <trkpt lat="45.98066" lon="6.9165600000000005">
    <ele>1535.92</ele>
   </trkpt>
   <trkpt lat="45.980520000000006" lon="6.9166300000000005">
    <ele>1532.63</ele>
   </trkpt>
   <trkpt lat="45.980430000000005" lon="6.91661">
    <ele>1530.0800000000002</ele>
   </trkpt>
   <trkpt lat="45.980380000000004" lon="6.916480000000001">
    <ele>1527.05</ele>
   </trkpt>
   <trkpt lat="45.98037" lon="6.91633">
    <ele>1519.7900000000002</ele>
   </trkpt>
   <trkpt lat="45.980320000000006" lon="6.91626">
    <ele>1519.7900000000002</ele>
   </trkpt>
   <trkpt lat="45.98012000000001" lon="6.91617">
    <ele>1512.2000000000003</ele>
   </trkpt>
   <trkpt lat="45.98008" lon="6.91619">
    <ele>1512.2000000000003</ele>
   </trkpt>
   <trkpt lat="45.980000000000004" lon="6.916130000000001">
    <ele>1508.9</ele>
   </trkpt>
   <trkpt lat="45.9799" lon="6.91614">
    <ele>1505.9900000000002</ele>
   </trkpt>
   <trkpt lat="45.97979" lon="6.9160200000000005">
    <ele>1498.1200000000001</ele>
   </trkpt>
   <trkpt lat="45.97972" lon="6.915970000000001">
    <ele>1496.18</ele>
   </trkpt>
   <trkpt lat="45.979600000000005" lon="6.9160200000000005">
    <ele>1491.2500000000002</ele>
   </trkpt>
   <trkpt lat="45.979440000000004" lon="6.915900000000001">
    <ele>1488.46</ele>
   </trkpt>
   <trkpt lat="45.97923" lon="6.915820000000001">
    <ele>1479.15</ele>
   </trkpt>
   <trkpt lat="45.979110000000006" lon="6.915850000000001">
    <ele>1477.06</ele>
   </trkpt>
   <trkpt lat="45.97901" lon="6.91591">
    <ele>1474.93</ele>
   </trkpt>
   <trkpt lat="45.97889000000001" lon="6.91593">
    <ele>1473.84</ele>
   </trkpt>
   <trkpt lat="45.978770000000004" lon="6.91586">
    <ele>1472.29</ele>
   </trkpt>
   <trkpt lat="45.97867" lon="6.91586">
    <ele>1470.17</ele>
   </trkpt>
   <trkpt lat="45.97854" lon="6.91593">
    <ele>1465.5500000000002</ele>
   </trkpt>
   <trkpt lat="45.97852" lon="6.91593">
    <ele>1465.5500000000002</ele>
   </trkpt>
   <trkpt lat="45.97849" lon="6.9158800000000005">
    <ele>1464.7700000000002</ele>
   </trkpt>
   <trkpt lat="45.97851000000001" lon="6.915690000000001">
    <ele>1462.5800000000002</ele>
   </trkpt>
   <trkpt lat="45.978460000000005" lon="6.91551">
    <ele>1461.21</ele>
   </trkpt>
   <trkpt lat="45.97829" lon="6.9153">
    <ele>1459.2200000000003</ele>
   </trkpt>
   <trkpt lat="45.978080000000006" lon="6.91492">
    <ele>1457.15</ele>
   </trkpt>
   <trkpt lat="45.978010000000005" lon="6.914680000000001">
    <ele>1460.97</ele>
   </trkpt>
   <trkpt lat="45.9778" lon="6.9141200000000005">
    <ele>1467.0</ele>
   </trkpt>
   <trkpt lat="45.97755" lon="6.91359">
    <ele>1471.5800000000002</ele>
   </trkpt>
   <trkpt lat="45.97742" lon="6.91321">
    <ele>1474.79</ele>
   </trkpt>
   <trkpt lat="45.97724" lon="6.913010000000001">
    <ele>1477.7600000000002</ele>
   </trkpt>
   <trkpt lat="45.97710000000001" lon="6.9127600000000005">
    <ele>1481.38</ele>
   </trkpt>
   <trkpt lat="45.976940000000006" lon="6.912420000000001">
    <ele>1486.65</ele>
   </trkpt>
   <trkpt lat="45.976850000000006" lon="6.912310000000001">
    <ele>1489.99</ele>
   </trkpt>
   <trkpt lat="45.976760000000006" lon="6.91197">
    <ele>1495.06</ele>
   </trkpt>
   <trkpt lat="45.976490000000005" lon="6.91152">
    <ele>1501.7600000000002</ele>
   </trkpt>
   <trkpt lat="45.97634" lon="6.91152">
    <ele>1505.5900000000001</ele>
   </trkpt>
   <trkpt lat="45.97626" lon="6.911480000000001">
    <ele>1510.58</ele>
   </trkpt>
   <trkpt lat="45.97621" lon="6.911420000000001">
    <ele>1510.58</ele>
   </trkpt>
   <trkpt lat="45.976150000000004" lon="6.91138">
    <ele>1512.7700000000002</ele>
   </trkpt>
   <trkpt lat="45.97608" lon="6.91129">
    <ele>1513.9600000000003</ele>
   </trkpt>
   <trkpt lat="45.97607000000001" lon="6.910990000000001">
    <ele>1515.18</ele>
   </trkpt>
   <trkpt lat="45.97601" lon="6.9107400000000005">
    <ele>1519.94</ele>
   </trkpt>
   <trkpt lat="45.9759" lon="6.91061">
    <ele>1520.55</ele>
   </trkpt>
   <trkpt lat="45.97571000000001" lon="6.91054">
    <ele>1521.9300000000003</ele>
   </trkpt>
   <trkpt lat="45.975570000000005" lon="6.910310000000001">
    <ele>1521.77</ele>
   </trkpt>
   <trkpt lat="45.975390000000004" lon="6.910150000000001">
    <ele>1521.68</ele>
   </trkpt>
   <trkpt lat="45.97525" lon="6.9101300000000005">
    <ele>1521.23</ele>
   </trkpt>
   <trkpt lat="45.974920000000004" lon="6.909680000000001">
    <ele>1521.3200000000002</ele>
   </trkpt>
   <trkpt lat="45.97457000000001" lon="6.909630000000001">
    <ele>1519.09</ele>
   </trkpt>
   <trkpt lat="45.974450000000004" lon="6.909540000000001">
    <ele>1518.67</ele>
   </trkpt>
   <trkpt lat="45.97433" lon="6.90927">
    <ele>1518.55</ele>
   </trkpt>
   <trkpt lat="45.9742" lon="6.90908">
    <ele>1518.0200000000002</ele>
   </trkpt>
   <trkpt lat="45.97404" lon="6.909070000000001">
    <ele>1518.49</ele>
   </trkpt>
   <trkpt lat="45.973960000000005" lon="6.909040000000001">
    <ele>1518.6200000000001</ele>
   </trkpt>
   <trkpt lat="45.97393" lon="6.9089100000000006">
    <ele>1518.89</ele>
   </trkpt>
   <trkpt lat="45.973650000000006" lon="6.908580000000001">
    <ele>1522.3000000000002</ele>
   </trkpt>
   <trkpt lat="45.97359" lon="6.9084">
    <ele>1523.2800000000002</ele>
   </trkpt>
   <trkpt lat="45.973220000000005" lon="6.907960000000001">
    <ele>1520.8700000000001</ele>
   </trkpt>
   <trkpt lat="45.973110000000005" lon="6.90779">
    <ele>1520.5600000000002</ele>
   </trkpt>
   <trkpt lat="45.97299" lon="6.907710000000001">
    <ele>1521.65</ele>
   </trkpt>
   <trkpt lat="45.972770000000004" lon="6.90749">
    <ele>1525.29</ele>
   </trkpt>
   <trkpt lat="45.972620000000006" lon="6.907470000000001">
    <ele>1525.8200000000002</ele>
   </trkpt>
   <trkpt lat="45.97249" lon="6.907220000000001">
    <ele>1525.3500000000001</ele>
   </trkpt>
   <trkpt lat="45.972390000000004" lon="6.907150000000001">
    <ele>1525.3400000000001</ele>
   </trkpt>
   <trkpt lat="45.972210000000004" lon="6.90706">
    <ele>1525.71</ele>
   </trkpt>
   <trkpt lat="45.97214" lon="6.906930000000001">
    <ele>1526.15</ele>
   </trkpt>
   <trkpt lat="45.97213000000001" lon="6.906630000000001">
    <ele>1528.31</ele>
   </trkpt>
   <trkpt lat="45.97205" lon="6.90624">
    <ele>1526.25</ele>
   </trkpt>
   <trkpt lat="45.971900000000005" lon="6.90615">
    <ele>1527.16</ele>
   </trkpt>
   <trkpt lat="45.97182" lon="6.906160000000001">
    <ele>1529.41</ele>
   </trkpt>
   <trkpt lat="45.97175000000001" lon="6.906230000000001">
    <ele>1530.34</ele>
   </trkpt>
   <trkpt lat="45.971680000000006" lon="6.906200000000001">
    <ele>1531.46</ele>
   </trkpt>
   <trkpt lat="45.971520000000005" lon="6.906300000000001">
    <ele>1532.07</ele>
   </trkpt>
   <trkpt lat="45.97139000000001" lon="6.9061900000000005">
    <ele>1534.0300000000002</ele>
   </trkpt>
   <trkpt lat="45.97124" lon="6.90589">
    <ele>1539.0100000000002</ele>
   </trkpt>
   <trkpt lat="45.9712" lon="6.9057">
    <ele>1540.96</ele>
   </trkpt>
   <trkpt lat="45.9709" lon="6.9053">
    <ele>1549.53</ele>
   </trkpt>
   <trkpt lat="45.970600000000005" lon="6.9048300000000005">
    <ele>1555.2700000000002</ele>
   </trkpt>
   <trkpt lat="45.97048" lon="6.904800000000001">
    <ele>1555.94</ele>
   </trkpt>
   <trkpt lat="45.970420000000004" lon="6.904660000000001">
    <ele>1557.7800000000002</ele>
   </trkpt>
   <trkpt lat="45.970330000000004" lon="6.90462">
    <ele>1558.24</ele>
   </trkpt>
   <trkpt lat="45.969950000000004" lon="6.904170000000001">
    <ele>1560.72</ele>
   </trkpt>
   <trkpt lat="45.9699" lon="6.903880000000001">
    <ele>1562.5300000000002</ele>
   </trkpt>
   <trkpt lat="45.96978000000001" lon="6.903880000000001">
    <ele>1564.25</ele>
   </trkpt>
   <trkpt lat="45.96938" lon="6.90329">
    <ele>1570.2800000000002</ele>
   </trkpt>
   <trkpt lat="45.968970000000006" lon="6.902870000000001">
    <ele>1575.95</ele>
   </trkpt>
   <trkpt lat="45.968650000000004" lon="6.90261">
    <ele>1580.3600000000001</ele>
   </trkpt>
   <trkpt lat="45.9682650007476" lon="6.9021999971657655">
    <ele>1582.5000000000002</ele>
   </trkpt>
   <trkpt lat="45.96788" lon="6.901790000000001">
    <ele>1584.23</ele>
   </trkpt>
   <trkpt lat="45.967650000000006" lon="6.901610000000001">
    <ele>1582.8000000000002</ele>
   </trkpt>
   <trkpt lat="45.96734000000001" lon="6.90148">
    <ele>1581.7</ele>
   </trkpt>
   <trkpt lat="45.96726" lon="6.901370000000001">
    <ele>1580.47</ele>
   </trkpt>
   <trkpt lat="45.967150000000004" lon="6.90129">
    <ele>1580.4300000000003</ele>
   </trkpt>
   <trkpt lat="45.96705" lon="6.901180000000001">
    <ele>1581.97</ele>
   </trkpt>
   <trkpt lat="45.96681" lon="6.901120000000001">
    <ele>1584.3300000000002</ele>
   </trkpt>
   <trkpt lat="45.96669000000001" lon="6.901050000000001">
    <ele>1584.4</ele>
   </trkpt>
   <trkpt lat="45.966460000000005" lon="6.90085">
    <ele>1583.5400000000002</ele>
   </trkpt>
   <trkpt lat="45.966370000000005" lon="6.900760000000001">
    <ele>1584.9</ele>
   </trkpt>
   <trkpt lat="45.96636" lon="6.90075">
    <ele>1585.39</ele>
   </trkpt>
   <trkpt lat="45.96632" lon="6.90059">
    <ele>1587.8500000000001</ele>
   </trkpt>
   <trkpt lat="45.96627" lon="6.900530000000001">
    <ele>1588.98</ele>
   </trkpt>
   <trkpt lat="45.96627" lon="6.90045">
    <ele>1588.98</ele>
   </trkpt>
   <trkpt lat="45.96631000000001" lon="6.9004">
    <ele>1594.8200000000002</ele>
   </trkpt>
   <trkpt lat="45.96643" lon="6.900370000000001">
    <ele>1594.8200000000002</ele>
   </trkpt>
   <trkpt lat="45.96636" lon="6.900200000000001">
    <ele>1602.0500000000002</ele>
   </trkpt>
   <trkpt lat="45.966280000000005" lon="6.9000900000000005">
    <ele>1602.0500000000002</ele>
   </trkpt>
   <trkpt lat="45.966280000000005" lon="6.899830000000001">
    <ele>1608.41</ele>
   </trkpt>
   <trkpt lat="45.966080000000005" lon="6.89932">
    <ele>1618.39</ele>
   </trkpt>
   <trkpt lat="45.96575000000001" lon="6.8986600000000005">
    <ele>1628.6200000000001</ele>
   </trkpt>
   <trkpt lat="45.96567" lon="6.898460000000001">
    <ele>1630.9</ele>
   </trkpt>
   <trkpt lat="45.96566000000001" lon="6.898390000000001">
    <ele>1637.0000000000002</ele>
   </trkpt>
   <trkpt lat="45.96571" lon="6.898370000000001">
    <ele>1637.0000000000002</ele>
   </trkpt>
   <trkpt lat="45.965770000000006" lon="6.898420000000001">
    <ele>1638.2500000000002</ele>
   </trkpt>
   <trkpt lat="45.96582" lon="6.89843">
    <ele>1639.5700000000002</ele>
   </trkpt>
   <trkpt lat="45.965860000000006" lon="6.898390000000001">
    <ele>1640.98</ele>
   </trkpt>
   <trkpt lat="45.96587" lon="6.898280000000001">
    <ele>1643.96</ele>
   </trkpt>
   <trkpt lat="45.96585" lon="6.898130000000001">
    <ele>1646.5800000000002</ele>
   </trkpt>
   <trkpt lat="45.96555" lon="6.897880000000001">
    <ele>1652.8400000000001</ele>
   </trkpt>
   <trkpt lat="45.965450000000004" lon="6.897760000000001">
    <ele>1654.95</ele>
   </trkpt>
   <trkpt lat="45.96546000000001" lon="6.897690000000001">
    <ele>1654.95</ele>
   </trkpt>
   <trkpt lat="45.96558" lon="6.89766">
    <ele>1659.6200000000001</ele>
   </trkpt>
   <trkpt lat="45.965590000000006" lon="6.897620000000001">
    <ele>1659.6200000000001</ele>
   </trkpt>
   <trkpt lat="45.96551" lon="6.897450000000001">
    <ele>1664.03</ele>
   </trkpt>
   <trkpt lat="45.965520000000005" lon="6.8974">
    <ele>1664.03</ele>
   </trkpt>
   <trkpt lat="45.965610000000005" lon="6.897380000000001">
    <ele>1668.67</ele>
   </trkpt>
   <trkpt lat="45.965630000000004" lon="6.89735">
    <ele>1668.67</ele>
   </trkpt>
   <trkpt lat="45.96578" lon="6.897410000000001">
    <ele>1671.58</ele>
   </trkpt>
   <trkpt lat="45.96604000000001" lon="6.897360000000001">
    <ele>1678.8200000000002</ele>
   </trkpt>
   <trkpt lat="45.966120000000004" lon="6.897410000000001">
    <ele>1683.92</ele>
   </trkpt>
   <trkpt lat="45.96613000000001" lon="6.89733">
    <ele>1688.8100000000002</ele>
   </trkpt>
   <trkpt lat="45.96622000000001" lon="6.8973700000000004">
    <ele>1688.8100000000002</ele>
   </trkpt>
   <trkpt lat="45.96622000000001" lon="6.89728">
    <ele>1693.92</ele>
   </trkpt>
   <trkpt lat="45.96632" lon="6.8971100000000005">
    <ele>1698.52</ele>
   </trkpt>
   <trkpt lat="45.96631000000001" lon="6.897030000000001">
    <ele>1698.52</ele>
   </trkpt>
   <trkpt lat="45.96618" lon="6.896920000000001">
    <ele>1703.9</ele>
   </trkpt>
   <trkpt lat="45.96607" lon="6.89662">
    <ele>1707.7600000000002</ele>
   </trkpt>
   <trkpt lat="45.96598" lon="6.896310000000001">
    <ele>1708.8700000000001</ele>
   </trkpt>
   <trkpt lat="45.96587" lon="6.89608">
    <ele>1709.8500000000001</ele>
   </trkpt>
   <trkpt lat="45.9658" lon="6.895880000000001">
    <ele>1711.47</ele>
   </trkpt>
   <trkpt lat="45.96566000000001" lon="6.8958">
    <ele>1715.21</ele>
   </trkpt>
   <trkpt lat="45.96544" lon="6.895510000000001">
    <ele>1719.39</ele>
   </trkpt>
   <trkpt lat="45.96529" lon="6.89517">
    <ele>1724.67</ele>
   </trkpt>
   <trkpt lat="45.965250000000005" lon="6.89498">
    <ele>1727.63</ele>
   </trkpt>
   <trkpt lat="45.965160000000004" lon="6.894900000000001">
    <ele>1730.9</ele>
   </trkpt>
   <trkpt lat="45.96508" lon="6.894880000000001">
    <ele>1730.9</ele>
   </trkpt>
   <trkpt lat="45.965070000000004" lon="6.89477">
    <ele>1737.17</ele>
   </trkpt>
   <trkpt lat="45.96501000000001" lon="6.894760000000001">
    <ele>1737.17</ele>
   </trkpt>
   <trkpt lat="45.96499" lon="6.89472">
    <ele>1737.17</ele>
   </trkpt>
   <trkpt lat="45.965050000000005" lon="6.89463">
    <ele>1737.17</ele>
   </trkpt>
   <trkpt lat="45.965" lon="6.89456">
    <ele>1741.5500000000002</ele>
   </trkpt>
   <trkpt lat="45.964920000000006" lon="6.894520000000001">
    <ele>1742.5800000000002</ele>
   </trkpt>
   <trkpt lat="45.964890000000004" lon="6.894400000000001">
    <ele>1744.5600000000002</ele>
   </trkpt>
   <trkpt lat="45.964830000000006" lon="6.894270000000001">
    <ele>1747.6100000000001</ele>
   </trkpt>
   <trkpt lat="45.96482" lon="6.89416">
    <ele>1748.5700000000002</ele>
   </trkpt>
   <trkpt lat="45.9647" lon="6.89383">
    <ele>1753.1900000000003</ele>
   </trkpt>
   <trkpt lat="45.96445000000001" lon="6.893420000000001">
    <ele>1756.3500000000001</ele>
   </trkpt>
   <trkpt lat="45.96441" lon="6.8933800000000005">
    <ele>1756.3600000000001</ele>
   </trkpt>
   <trkpt lat="45.96435" lon="6.893000000000001">
    <ele>1761.8400000000001</ele>
   </trkpt>
   <trkpt lat="45.9643" lon="6.892130000000001">
    <ele>1776.0500000000002</ele>
   </trkpt>
   <trkpt lat="45.96405" lon="6.89099">
    <ele>1789.4200000000003</ele>
   </trkpt>
   <trkpt lat="45.96403" lon="6.8904700000000005">
    <ele>1797.68</ele>
   </trkpt>
   <trkpt lat="45.963910000000006" lon="6.890370000000001">
    <ele>1803.1200000000001</ele>
   </trkpt>
   <trkpt lat="45.963680000000004" lon="6.88987">
    <ele>1808.21</ele>
   </trkpt>
   <trkpt lat="45.96356" lon="6.889460000000001">
    <ele>1818.15</ele>
   </trkpt>
   <trkpt lat="45.96343" lon="6.88919">
    <ele>1824.45</ele>
   </trkpt>
   <trkpt lat="45.96332" lon="6.88876">
    <ele>1830.3500000000001</ele>
   </trkpt>
   <trkpt lat="45.962830000000004" lon="6.887790000000001">
    <ele>1845.0400000000002</ele>
   </trkpt>
   <trkpt lat="45.962770000000006" lon="6.8877500000000005">
    <ele>1845.79</ele>
   </trkpt>
   <trkpt lat="45.962720000000004" lon="6.887740000000001">
    <ele>1847.38</ele>
   </trkpt>
   <trkpt lat="45.962590000000006" lon="6.88778">
    <ele>1847.79</ele>
   </trkpt>
   <trkpt lat="45.9624" lon="6.8878200000000005">
    <ele>1848.8300000000002</ele>
   </trkpt>
   <trkpt lat="45.96224" lon="6.887760000000001">
    <ele>1851.0300000000002</ele>
   </trkpt>
   <trkpt lat="45.96215" lon="6.887700000000001">
    <ele>1852.5600000000002</ele>
   </trkpt>
   <trkpt lat="45.962070000000004" lon="6.8876100000000005">
    <ele>1854.18</ele>
   </trkpt>
   <trkpt lat="45.96193" lon="6.887020000000001">
    <ele>1864.8500000000001</ele>
   </trkpt>
   <trkpt lat="45.96191" lon="6.88668">
    <ele>1867.01</ele>
   </trkpt>
   <trkpt lat="45.96193" lon="6.88637">
    <ele>1872.3</ele>
   </trkpt>
   <trkpt lat="45.961960000000005" lon="6.8863">
    <ele>1876.84</ele>
   </trkpt>
   <trkpt lat="45.961940000000006" lon="6.886260000000001">
    <ele>1876.84</ele>
   </trkpt>
   <trkpt lat="45.96191" lon="6.88625">
    <ele>1876.84</ele>
   </trkpt>
   <trkpt lat="45.961830000000006" lon="6.886290000000001">
    <ele>1878.98</ele>
   </trkpt>
   <trkpt lat="45.96143000000001" lon="6.8867400000000005">
    <ele>1886.54</ele>
   </trkpt>
   <trkpt lat="45.96123" lon="6.88684">
    <ele>1888.42</ele>
   </trkpt>
   <trkpt lat="45.96079" lon="6.8868100000000005">
    <ele>1894.21</ele>
   </trkpt>
   <trkpt lat="45.96074" lon="6.88679">
    <ele>1894.21</ele>
   </trkpt>
   <trkpt lat="45.9607" lon="6.886800000000001">
    <ele>1894.57</ele>
   </trkpt>
   <trkpt lat="45.96054" lon="6.8865300000000005">
    <ele>1895.16</ele>
   </trkpt>
   <trkpt lat="45.960530000000006" lon="6.88642">
    <ele>1894.7500000000002</ele>
   </trkpt>
   <trkpt lat="45.960440000000006" lon="6.88611">
    <ele>1891.4700000000003</ele>
   </trkpt>
   <trkpt lat="45.96036" lon="6.8859900000000005">
    <ele>1890.91</ele>
   </trkpt>
   <trkpt lat="45.96022000000001" lon="6.88588">
    <ele>1889.8400000000001</ele>
   </trkpt>
   <trkpt lat="45.95998" lon="6.885770000000001">
    <ele>1889.4</ele>
   </trkpt>
   <trkpt lat="45.95987" lon="6.885770000000001">
    <ele>1887.8600000000001</ele>
   </trkpt>
   <trkpt lat="45.959770000000006" lon="6.88555">
    <ele>1883.49</ele>
   </trkpt>
   <trkpt lat="45.959770000000006" lon="6.8855">
    <ele>1882.47</ele>
   </trkpt>
   <trkpt lat="45.95973" lon="6.8853800000000005">
    <ele>1881.3700000000001</ele>
   </trkpt>
   <trkpt lat="45.95962" lon="6.88529">
    <ele>1875.3200000000002</ele>
   </trkpt>
   <trkpt lat="45.95938" lon="6.885190000000001">
    <ele>1870.64</ele>
   </trkpt>
   <trkpt lat="45.959270000000004" lon="6.885070000000001">
    <ele>1868.98</ele>
   </trkpt>
   <trkpt lat="45.959160000000004" lon="6.885020000000001">
    <ele>1865.5400000000002</ele>
   </trkpt>
   <trkpt lat="45.959140000000005" lon="6.88494">
    <ele>1864.47</ele>
   </trkpt>
   <trkpt lat="45.959010000000006" lon="6.88475">
    <ele>1863.7</ele>
   </trkpt>
   <trkpt lat="45.958960000000005" lon="6.88461">
    <ele>1864.06</ele>
   </trkpt>
   <trkpt lat="45.95893" lon="6.88447">
    <ele>1864.91</ele>
   </trkpt>
   <trkpt lat="45.958940000000005" lon="6.884320000000001">
    <ele>1865.08</ele>
   </trkpt>
   <trkpt lat="45.95891" lon="6.884130000000001">
    <ele>1865.8400000000001</ele>
   </trkpt>
   <trkpt lat="45.958850000000005" lon="6.88393">
    <ele>1867.05</ele>
   </trkpt>
   <trkpt lat="45.95891" lon="6.88372">
    <ele>1869.22</ele>
   </trkpt>
   <trkpt lat="45.95871" lon="6.883260000000001">
    <ele>1871.46</ele>
   </trkpt>
   <trkpt lat="45.9587" lon="6.883100000000001">
    <ele>1871.2600000000002</ele>
   </trkpt>
   <trkpt lat="45.95857" lon="6.882650000000001">
    <ele>1870.15</ele>
   </trkpt>
   <trkpt lat="45.958470000000005" lon="6.8825">
    <ele>1870.38</ele>
   </trkpt>
   <trkpt lat="45.958380000000005" lon="6.882130000000001">
    <ele>1871.14</ele>
   </trkpt>
   <trkpt lat="45.95832" lon="6.881780000000001">
    <ele>1869.8200000000002</ele>
   </trkpt>
   <trkpt lat="45.958270000000006" lon="6.8812500000000005">
    <ele>1867.9500000000003</ele>
   </trkpt>
   <trkpt lat="45.958360000000006" lon="6.88093">
    <ele>1863.3100000000002</ele>
   </trkpt>
   <trkpt lat="45.95837" lon="6.880750000000001">
    <ele>1856.1200000000001</ele>
   </trkpt>
   <trkpt lat="45.9583" lon="6.880730000000001">
    <ele>1854.7600000000002</ele>
   </trkpt>
   <trkpt lat="45.95843000000001" lon="6.880630000000001">
    <ele>1852.5000000000002</ele>
   </trkpt>
   <trkpt lat="45.95872000000001" lon="6.88025">
    <ele>1859.25</ele>
   </trkpt>
   <trkpt lat="45.95882" lon="6.879860000000001">
    <ele>1864.5</ele>
   </trkpt>
   <trkpt lat="45.95904" lon="6.879670000000001">
    <ele>1866.5600000000002</ele>
   </trkpt>
   <trkpt lat="45.9592" lon="6.8792100000000005">
    <ele>1870.15</ele>
   </trkpt>
   <trkpt lat="45.959250000000004" lon="6.878940000000001">
    <ele>1871.64</ele>
   </trkpt>
   <trkpt lat="45.95922" lon="6.878610000000001">
    <ele>1871.99</ele>
   </trkpt>
   <trkpt lat="45.95926" lon="6.878340000000001">
    <ele>1872.75</ele>
   </trkpt>
   <trkpt lat="45.959230000000005" lon="6.87823">
    <ele>1872.95</ele>
   </trkpt>
   <trkpt lat="45.959140000000005" lon="6.878050000000001">
    <ele>1873.5300000000002</ele>
   </trkpt>
   <trkpt lat="45.95902" lon="6.878000000000001">
    <ele>1873.72</ele>
   </trkpt>
   <trkpt lat="45.95895" lon="6.877800000000001">
    <ele>1873.96</ele>
   </trkpt>
   <trkpt lat="45.958870000000005" lon="6.877730000000001">
    <ele>1873.96</ele>
   </trkpt>
   <trkpt lat="45.958600000000004" lon="6.877560000000001">
    <ele>1874.39</ele>
   </trkpt>
   <trkpt lat="45.958400000000005" lon="6.87736">
    <ele>1876.03</ele>
   </trkpt>
   <trkpt lat="45.958380000000005" lon="6.8773100000000005">
    <ele>1876.0500000000002</ele>
   </trkpt>
   <trkpt lat="45.958490000000005" lon="6.87699">
    <ele>1875.63</ele>
   </trkpt>
   <trkpt lat="45.95864" lon="6.876640000000001">
    <ele>1875.8000000000002</ele>
   </trkpt>
   <trkpt lat="45.958670000000005" lon="6.876430000000001">
    <ele>1876.44</ele>
   </trkpt>
   <trkpt lat="45.95875" lon="6.87624">
    <ele>1877.2000000000003</ele>
   </trkpt>
   <trkpt lat="45.958780000000004" lon="6.876100000000001">
    <ele>1877.2000000000003</ele>
   </trkpt>
   <trkpt lat="45.958760000000005" lon="6.876">
    <ele>1877.5600000000002</ele>
   </trkpt>
   <trkpt lat="45.95877" lon="6.87588">
    <ele>1878.0</ele>
   </trkpt>
   <trkpt lat="45.958740000000006" lon="6.8757">
    <ele>1879.13</ele>
   </trkpt>
   <trkpt lat="45.9587" lon="6.8756">
    <ele>1879.38</ele>
   </trkpt>
   <trkpt lat="45.95868" lon="6.875470000000001">
    <ele>1879.6000000000001</ele>
   </trkpt>
   <trkpt lat="45.95866" lon="6.87539">
    <ele>1879.2400000000002</ele>
   </trkpt>
   <trkpt lat="45.958560000000006" lon="6.875210000000001">
    <ele>1879.0800000000002</ele>
   </trkpt>
   <trkpt lat="45.95852000000001" lon="6.87518">
    <ele>1879.18</ele>
   </trkpt>
   <trkpt lat="45.958400000000005" lon="6.874950000000001">
    <ele>1880.1100000000001</ele>
   </trkpt>
   <trkpt lat="45.958310000000004" lon="6.874950000000001">
    <ele>1879.7100000000003</ele>
   </trkpt>
   <trkpt lat="45.9579" lon="6.87483">
    <ele>1876.2500000000002</ele>
   </trkpt>
   <trkpt lat="45.95774" lon="6.87469">
    <ele>1876.2600000000002</ele>
   </trkpt>
   <trkpt lat="45.957600000000006" lon="6.87445">
    <ele>1876.8600000000001</ele>
   </trkpt>
   <trkpt lat="45.95722000000001" lon="6.874280000000001">
    <ele>1879.5700000000002</ele>
   </trkpt>
   <trkpt lat="45.95707" lon="6.8741">
    <ele>1880.4</ele>
   </trkpt>
   <trkpt lat="45.95685" lon="6.873760000000001">
    <ele>1880.03</ele>
   </trkpt>
   <trkpt lat="45.95673" lon="6.873690000000001">
    <ele>1880.0500000000002</ele>
   </trkpt>
   <trkpt lat="45.95662" lon="6.873690000000001">
    <ele>1879.79</ele>
   </trkpt>
   <trkpt lat="45.956410000000005" lon="6.873760000000001">
    <ele>1878.18</ele>
   </trkpt>
   <trkpt lat="45.95619000000001" lon="6.8737">
    <ele>1877.9200000000003</ele>
   </trkpt>
   <trkpt lat="45.95602" lon="6.873710000000001">
    <ele>1878.2200000000003</ele>
   </trkpt>
   <trkpt lat="45.95564" lon="6.873570000000001">
    <ele>1876.4600000000003</ele>
   </trkpt>
   <trkpt lat="45.9555" lon="6.87349">
    <ele>1875.5000000000002</ele>
   </trkpt>
   <trkpt lat="45.95544" lon="6.87342">
    <ele>1875.5000000000002</ele>
   </trkpt>
   <trkpt lat="45.955310000000004" lon="6.87347">
    <ele>1875.1200000000001</ele>
   </trkpt>
   <trkpt lat="45.955000000000005" lon="6.873360000000001">
    <ele>1873.8000000000002</ele>
   </trkpt>
   <trkpt lat="45.95479" lon="6.8733200000000005">
    <ele>1873.42</ele>
   </trkpt>
   <trkpt lat="45.95463" lon="6.873360000000001">
    <ele>1872.67</ele>
   </trkpt>
   <trkpt lat="45.95458000000001" lon="6.8731800000000005">
    <ele>1870.9</ele>
   </trkpt>
   <trkpt lat="45.95452" lon="6.8730400000000005">
    <ele>1868.2200000000003</ele>
   </trkpt>
   <trkpt lat="45.95432" lon="6.87276">
    <ele>1864.7000000000003</ele>
   </trkpt>
   <trkpt lat="45.954280000000004" lon="6.87265">
    <ele>1863.02</ele>
   </trkpt>
   <trkpt lat="45.95418" lon="6.8725700000000005">
    <ele>1861.2700000000002</ele>
   </trkpt>
   <trkpt lat="45.954190000000004" lon="6.8724300000000005">
    <ele>1860.24</ele>
   </trkpt>
   <trkpt lat="45.954100000000004" lon="6.87227">
    <ele>1859.35</ele>
   </trkpt>
   <trkpt lat="45.954060000000005" lon="6.87208">
    <ele>1859.05</ele>
   </trkpt>
   <trkpt lat="45.953970000000005" lon="6.87192">
    <ele>1858.75</ele>
   </trkpt>
   <trkpt lat="45.95385" lon="6.8718900000000005">
    <ele>1858.8700000000001</ele>
   </trkpt>
   <trkpt lat="45.95367" lon="6.87194">
    <ele>1860.66</ele>
   </trkpt>
   <trkpt lat="45.953570000000006" lon="6.871840000000001">
    <ele>1861.69</ele>
   </trkpt>
   <trkpt lat="45.95344" lon="6.8718200000000005">
    <ele>1861.94</ele>
   </trkpt>
   <trkpt lat="45.95328000000001" lon="6.871980000000001">
    <ele>1862.2600000000002</ele>
   </trkpt>
   <trkpt lat="45.953160000000004" lon="6.87178">
    <ele>1862.17</ele>
   </trkpt>
   <trkpt lat="45.953010000000006" lon="6.87147">
    <ele>1863.94</ele>
   </trkpt>
   <trkpt lat="45.953010000000006" lon="6.8712100000000005">
    <ele>1864.2800000000002</ele>
   </trkpt>
   <trkpt lat="45.95295" lon="6.8711">
    <ele>1864.44</ele>
   </trkpt>
   <trkpt lat="45.952870000000004" lon="6.871060000000001">
    <ele>1864.66</ele>
   </trkpt>
   <trkpt lat="45.95279" lon="6.871060000000001">
    <ele>1864.68</ele>
   </trkpt>
   <trkpt lat="45.95271" lon="6.8708800000000005">
    <ele>1864.2900000000002</ele>
   </trkpt>
   <trkpt lat="45.952650000000006" lon="6.87084">
    <ele>1863.7400000000002</ele>
   </trkpt>
   <trkpt lat="45.952560000000005" lon="6.87084">
    <ele>1862.75</ele>
   </trkpt>
   <trkpt lat="45.95246" lon="6.870900000000001">
    <ele>1862.44</ele>
   </trkpt>
   <trkpt lat="45.95237" lon="6.87086">
    <ele>1861.9500000000003</ele>
   </trkpt>
   <trkpt lat="45.95232" lon="6.87093">
    <ele>1861.39</ele>
   </trkpt>
   <trkpt lat="45.95228" lon="6.870940000000001">
    <ele>1861.39</ele>
   </trkpt>
   <trkpt lat="45.95214000000001" lon="6.870800000000001">
    <ele>1860.5500000000002</ele>
   </trkpt>
   <trkpt lat="45.95188" lon="6.87089">
    <ele>1858.7900000000002</ele>
   </trkpt>
   <trkpt lat="45.95172" lon="6.8708800000000005">
    <ele>1860.13</ele>
   </trkpt>
   <trkpt lat="45.95158000000001" lon="6.870780000000001">
    <ele>1862.39</ele>
   </trkpt>
   <trkpt lat="45.951510000000006" lon="6.87082">
    <ele>1862.64</ele>
   </trkpt>
   <trkpt lat="45.95139" lon="6.87093">
    <ele>1861.6000000000001</ele>
   </trkpt>
   <trkpt lat="45.951420000000006" lon="6.870500000000001">
    <ele>1852.39</ele>
   </trkpt>
   <trkpt lat="45.95138" lon="6.870520000000001">
    <ele>1852.39</ele>
   </trkpt>
   <trkpt lat="45.95131000000001" lon="6.870640000000001">
    <ele>1850.64</ele>
   </trkpt>
   <trkpt lat="45.951350000000005" lon="6.870100000000001">
    <ele>1842.95</ele>
   </trkpt>
   <trkpt lat="45.95131000000001" lon="6.86983">
    <ele>1839.5500000000002</ele>
   </trkpt>
   <trkpt lat="45.95121" lon="6.869930000000001">
    <ele>1835.7</ele>
   </trkpt>
   <trkpt lat="45.951170000000005" lon="6.869840000000001">
    <ele>1835.7</ele>
   </trkpt>
   <trkpt lat="45.95120000000001" lon="6.869390000000001">
    <ele>1830.0</ele>
   </trkpt>
   <trkpt lat="45.95112" lon="6.869300000000001">
    <ele>1828.18</ele>
   </trkpt>
   <trkpt lat="45.95087" lon="6.86929">
    <ele>1825.6100000000001</ele>
   </trkpt>
   <trkpt lat="45.950750000000006" lon="6.869260000000001">
    <ele>1819.5400000000002</ele>
   </trkpt>
   <trkpt lat="45.9506" lon="6.86934">
    <ele>1818.0</ele>
   </trkpt>
   <trkpt lat="45.950450000000004" lon="6.869330000000001">
    <ele>1816.5800000000002</ele>
   </trkpt>
   <trkpt lat="45.950410000000005" lon="6.869230000000001">
    <ele>1816.22</ele>
   </trkpt>
   <trkpt lat="45.950210000000006" lon="6.86896">
    <ele>1815.5100000000002</ele>
   </trkpt>
   <trkpt lat="45.950190000000006" lon="6.8688400000000005">
    <ele>1814.6200000000001</ele>
   </trkpt>
   <trkpt lat="45.94973" lon="6.868430000000001">
    <ele>1814.63</ele>
   </trkpt>
   <trkpt lat="45.949600000000004" lon="6.868360000000001">
    <ele>1816.7900000000002</ele>
   </trkpt>
   <trkpt lat="45.949580000000005" lon="6.8683000000000005">
    <ele>1816.7900000000002</ele>
   </trkpt>
   <trkpt lat="45.949510000000004" lon="6.868290000000001">
    <ele>1817.39</ele>
   </trkpt>
   <trkpt lat="45.94942" lon="6.86819">
    <ele>1819.8500000000001</ele>
   </trkpt>
   <trkpt lat="45.949270000000006" lon="6.868150000000001">
    <ele>1821.4500000000003</ele>
   </trkpt>
   <trkpt lat="45.949220000000004" lon="6.868110000000001">
    <ele>1822.41</ele>
   </trkpt>
   <trkpt lat="45.949180000000005" lon="6.867990000000001">
    <ele>1825.7500000000002</ele>
   </trkpt>
   <trkpt lat="45.94905000000001" lon="6.86793">
    <ele>1825.7500000000002</ele>
   </trkpt>
   <trkpt lat="45.949070000000006" lon="6.867870000000001">
    <ele>1828.41</ele>
   </trkpt>
   <trkpt lat="45.94905000000001" lon="6.8678300000000005">
    <ele>1828.41</ele>
   </trkpt>
   <trkpt lat="45.948910000000005" lon="6.86779">
    <ele>1831.59</ele>
   </trkpt>
   <trkpt lat="45.94883" lon="6.8676900000000005">
    <ele>1832.42</ele>
   </trkpt>
   <trkpt lat="45.948750000000004" lon="6.86763">
    <ele>1835.08</ele>
   </trkpt>
   <trkpt lat="45.948660000000004" lon="6.867400000000001">
    <ele>1838.5800000000002</ele>
   </trkpt>
   <trkpt lat="45.94845" lon="6.86709">
    <ele>1842.6000000000001</ele>
   </trkpt>
   <trkpt lat="45.94834" lon="6.8667300000000004">
    <ele>1845.05</ele>
   </trkpt>
   <trkpt lat="45.94809" lon="6.86662">
    <ele>1848.41</ele>
   </trkpt>
   <trkpt lat="45.94791" lon="6.86669">
    <ele>1850.64</ele>
   </trkpt>
   <trkpt lat="45.947860000000006" lon="6.8666100000000005">
    <ele>1850.42</ele>
   </trkpt>
   <trkpt lat="45.94765" lon="6.86648">
    <ele>1849.7200000000003</ele>
   </trkpt>
   <trkpt lat="45.947570000000006" lon="6.8664700000000005">
    <ele>1850.2600000000002</ele>
   </trkpt>
   <trkpt lat="45.94746000000001" lon="6.866420000000001">
    <ele>1851.02</ele>
   </trkpt>
   <trkpt lat="45.94737000000001" lon="6.866250000000001">
    <ele>1852.3700000000001</ele>
   </trkpt>
   <trkpt lat="45.94724" lon="6.8661900000000005">
    <ele>1853.38</ele>
   </trkpt>
   <trkpt lat="45.94717000000001" lon="6.866200000000001">
    <ele>1854.5900000000001</ele>
   </trkpt>
   <trkpt lat="45.94697" lon="6.865970000000001">
    <ele>1858.3</ele>
   </trkpt>
   <trkpt lat="45.94693" lon="6.865590000000001">
    <ele>1860.93</ele>
   </trkpt>
   <trkpt lat="45.94693" lon="6.86535">
    <ele>1861.76</ele>
   </trkpt>
   <trkpt lat="45.94679000000001" lon="6.865080000000001">
    <ele>1863.73</ele>
   </trkpt>
   <trkpt lat="45.94664" lon="6.864960000000001">
    <ele>1866.7000000000003</ele>
   </trkpt>
   <trkpt lat="45.946600000000004" lon="6.864700000000001">
    <ele>1868.13</ele>
   </trkpt>
   <trkpt lat="45.94651" lon="6.86462">
    <ele>1868.06</ele>
   </trkpt>
   <trkpt lat="45.94633" lon="6.86432">
    <ele>1870.51</ele>
   </trkpt>
   <trkpt lat="45.94606" lon="6.86425">
    <ele>1873.3600000000001</ele>
   </trkpt>
   <trkpt lat="45.94597" lon="6.864070000000001">
    <ele>1876.9</ele>
   </trkpt>
   <trkpt lat="45.94603" lon="6.8638900000000005">
    <ele>1878.4</ele>
   </trkpt>
   <trkpt lat="45.94619" lon="6.863700000000001">
    <ele>1882.92</ele>
   </trkpt>
   <trkpt lat="45.94626" lon="6.863530000000001">
    <ele>1883.6000000000001</ele>
   </trkpt>
   <trkpt lat="45.94623000000001" lon="6.86296">
    <ele>1892.68</ele>
   </trkpt>
   <trkpt lat="45.946270000000005" lon="6.86282">
    <ele>1893.45</ele>
   </trkpt>
   <trkpt lat="45.946400000000004" lon="6.8627400000000005">
    <ele>1896.8600000000001</ele>
   </trkpt>
   <trkpt lat="45.9465" lon="6.86244">
    <ele>1896.2200000000003</ele>
   </trkpt>
   <trkpt lat="45.94662" lon="6.861680000000001">
    <ele>1898.3500000000001</ele>
   </trkpt>
   <trkpt lat="45.94677" lon="6.861090000000001">
    <ele>1900.3400000000001</ele>
   </trkpt>
   <trkpt lat="45.946780000000004" lon="6.85986">
    <ele>1897.5700000000002</ele>
   </trkpt>
   <trkpt lat="45.946690000000004" lon="6.859450000000001">
    <ele>1899.3700000000001</ele>
   </trkpt>
   <trkpt lat="45.946600000000004" lon="6.858790000000001">
    <ele>1907.2900000000002</ele>
   </trkpt>
   <trkpt lat="45.946540000000006" lon="6.858530000000001">
    <ele>1910.02</ele>
   </trkpt>
   <trkpt lat="45.946540000000006" lon="6.85836">
    <ele>1912.46</ele>
   </trkpt>
   <trkpt lat="45.94648" lon="6.85817">
    <ele>1914.53</ele>
   </trkpt>
   <trkpt lat="45.946490000000004" lon="6.85782">
    <ele>1916.68</ele>
   </trkpt>
   <trkpt lat="45.94643000000001" lon="6.857480000000001">
    <ele>1917.93</ele>
   </trkpt>
   <trkpt lat="45.94632000000001" lon="6.857220000000001">
    <ele>1920.14</ele>
   </trkpt>
   <trkpt lat="45.94617" lon="6.8570400000000005">
    <ele>1922.5700000000002</ele>
   </trkpt>
   <trkpt lat="45.946110000000004" lon="6.8569">
    <ele>1924.14</ele>
   </trkpt>
   <trkpt lat="45.94597" lon="6.85634">
    <ele>1930.8400000000001</ele>
   </trkpt>
   <trkpt lat="45.9459" lon="6.85599">
    <ele>1932.8200000000002</ele>
   </trkpt>
   <trkpt lat="45.94577" lon="6.855790000000001">
    <ele>1935.49</ele>
   </trkpt>
   <trkpt lat="45.94565" lon="6.8555600000000005">
    <ele>1938.8200000000002</ele>
   </trkpt>
   <trkpt lat="45.94540500141821" lon="6.854959996976678">
    <ele>1946.2500000000002</ele>
   </trkpt>
   <trkpt lat="45.94516" lon="6.854360000000001">
    <ele>1951.8500000000001</ele>
   </trkpt>
   <trkpt lat="45.945" lon="6.853790000000001">
    <ele>1956.22</ele>
   </trkpt>
   <trkpt lat="45.94493000000001" lon="6.85329">
    <ele>1958.4800000000002</ele>
   </trkpt>
   <trkpt lat="45.94483" lon="6.853000000000001">
    <ele>1958.16</ele>
   </trkpt>
   <trkpt lat="45.944790000000005" lon="6.85292">
    <ele>1959.1000000000001</ele>
   </trkpt>
   <trkpt lat="45.944720000000004" lon="6.8528400000000005">
    <ele>1960.3100000000002</ele>
   </trkpt>
   <trkpt lat="45.94464000000001" lon="6.8528">
    <ele>1961.8300000000002</ele>
   </trkpt>
   <trkpt lat="45.94431" lon="6.85273">
    <ele>1969.2</ele>
   </trkpt>
   <trkpt lat="45.944230000000005" lon="6.852690000000001">
    <ele>1975.75</ele>
   </trkpt>
   <trkpt lat="45.944210000000005" lon="6.852580000000001">
    <ele>1975.75</ele>
   </trkpt>
   <trkpt lat="45.94429" lon="6.852410000000001">
    <ele>1981.64</ele>
   </trkpt>
   <trkpt lat="45.94442" lon="6.852290000000001">
    <ele>1985.5500000000002</ele>
   </trkpt>
   <trkpt lat="45.944430000000004" lon="6.852250000000001">
    <ele>1985.5500000000002</ele>
   </trkpt>
   <trkpt lat="45.944370000000006" lon="6.852170000000001">
    <ele>1988.73</ele>
   </trkpt>
   <trkpt lat="45.9442" lon="6.852080000000001">
    <ele>1992.2</ele>
   </trkpt>
   <trkpt lat="45.944010000000006" lon="6.85193">
    <ele>1998.49</ele>
   </trkpt>
   <trkpt lat="45.944" lon="6.851890000000001">
    <ele>1999.64</ele>
   </trkpt>
   <trkpt lat="45.94402" lon="6.85177">
    <ele>1999.64</ele>
   </trkpt>
   <trkpt lat="45.94408000000001" lon="6.851710000000001">
    <ele>2005.2500000000002</ele>
   </trkpt>
   <trkpt lat="45.94409" lon="6.851680000000001">
    <ele>2005.2500000000002</ele>
   </trkpt>
   <trkpt lat="45.94395" lon="6.851490000000001">
    <ele>2009.9900000000002</ele>
   </trkpt>
   <trkpt lat="45.943850000000005" lon="6.85137">
    <ele>2012.0</ele>
   </trkpt>
   <trkpt lat="45.943810000000006" lon="6.85127">
    <ele>2013.0600000000002</ele>
   </trkpt>
   <trkpt lat="45.94377" lon="6.85109">
    <ele>2012.8400000000001</ele>
   </trkpt>
   <trkpt lat="45.943780000000004" lon="6.850890000000001">
    <ele>2012.1900000000003</ele>
   </trkpt>
   <trkpt lat="45.94375" lon="6.85062">
    <ele>2013.02</ele>
   </trkpt>
   <trkpt lat="45.94368" lon="6.8505">
    <ele>2014.3300000000002</ele>
   </trkpt>
   <trkpt lat="45.943580000000004" lon="6.850370000000001">
    <ele>2015.67</ele>
   </trkpt>
   <trkpt lat="45.943430000000006" lon="6.850250000000001">
    <ele>2017.3200000000002</ele>
   </trkpt>
   <trkpt lat="45.943220000000004" lon="6.849970000000001">
    <ele>2019.27</ele>
   </trkpt>
   <trkpt lat="45.94294000000001" lon="6.849800000000001">
    <ele>2022.46</ele>
   </trkpt>
   <trkpt lat="45.94267000000001" lon="6.8497">
    <ele>2025.8700000000003</ele>
   </trkpt>
   <trkpt lat="45.942400000000006" lon="6.8496500000000005">
    <ele>2031.59</ele>
   </trkpt>
   <trkpt lat="45.94220000000001" lon="6.849590000000001">
    <ele>2034.79</ele>
   </trkpt>
   <trkpt lat="45.94211000000001" lon="6.84954">
    <ele>2037.17</ele>
   </trkpt>
   <trkpt lat="45.94202000000001" lon="6.849450000000001">
    <ele>2038.8200000000002</ele>
   </trkpt>
   <trkpt lat="45.941700000000004" lon="6.849220000000001">
    <ele>2045.17</ele>
   </trkpt>
   <trkpt lat="45.94162" lon="6.849190000000001">
    <ele>2045.17</ele>
   </trkpt>
   <trkpt lat="45.94154" lon="6.849200000000001">
    <ele>2046.99</ele>
   </trkpt>
   <trkpt lat="45.9414" lon="6.84926">
    <ele>2049.42</ele>
   </trkpt>
   <trkpt lat="45.941340000000004" lon="6.849270000000001">
    <ele>2049.42</ele>
   </trkpt>
   <trkpt lat="45.94098" lon="6.84921">
    <ele>2055.61</ele>
   </trkpt>
   <trkpt lat="45.940850000000005" lon="6.849220000000001">
    <ele>2056.9300000000003</ele>
   </trkpt>
   <trkpt lat="45.94042" lon="6.84935">
    <ele>2059.86</ele>
   </trkpt>
   <trkpt lat="45.940220000000004" lon="6.849270000000001">
    <ele>2060.9900000000002</ele>
   </trkpt>
   <trkpt lat="45.940020000000004" lon="6.84916">
    <ele>2063.69</ele>
   </trkpt>
   <trkpt lat="45.939840000000004" lon="6.849130000000001">
    <ele>2064.47</ele>
   </trkpt>
   <trkpt lat="45.939460000000004" lon="6.84916">
    <ele>2064.44</ele>
   </trkpt>
   <trkpt lat="45.93938000000001" lon="6.849190000000001">
    <ele>2064.39</ele>
   </trkpt>
   <trkpt lat="45.9393" lon="6.849270000000001">
    <ele>2064.35</ele>
   </trkpt>
   <trkpt lat="45.938990000000004" lon="6.84933">
    <ele>2065.65</ele>
   </trkpt>
   <trkpt lat="45.93874" lon="6.849530000000001">
    <ele>2067.21</ele>
   </trkpt>
   <trkpt lat="45.938660000000006" lon="6.849570000000001">
    <ele>2068.47</ele>
   </trkpt>
   <trkpt lat="45.93862" lon="6.849570000000001">
    <ele>2068.47</ele>
   </trkpt>
   <trkpt lat="45.93804" lon="6.849270000000001">
    <ele>2070.44</ele>
   </trkpt>
   <trkpt lat="45.93795" lon="6.84926">
    <ele>2069.03</ele>
   </trkpt>
   <trkpt lat="45.93789" lon="6.84928">
    <ele>2066.85</ele>
   </trkpt>
   <trkpt lat="45.937810000000006" lon="6.84935">
    <ele>2066.85</ele>
   </trkpt>
   <trkpt lat="45.937560000000005" lon="6.850160000000001">
    <ele>2057.63</ele>
   </trkpt>
   <trkpt lat="45.93750000000001" lon="6.8505400000000005">
    <ele>2052.36</ele>
   </trkpt>
   <trkpt lat="45.937430000000006" lon="6.850770000000001">
    <ele>2052.36</ele>
   </trkpt>
   <trkpt lat="45.93737" lon="6.850910000000001">
    <ele>2052.36</ele>
   </trkpt>
   <trkpt lat="45.93721" lon="6.851120000000001">
    <ele>2045.62</ele>
   </trkpt>
   <trkpt lat="45.937070000000006" lon="6.851260000000001">
    <ele>2043.7000000000003</ele>
   </trkpt>
   <trkpt lat="45.93723000000001" lon="6.851400000000001">
    <ele>2045.0000000000002</ele>
   </trkpt>
   <trkpt lat="45.937020000000004" lon="6.852100000000001">
    <ele>2048.54</ele>
   </trkpt>
   <trkpt lat="45.93692" lon="6.85228">
    <ele>2048.7200000000003</ele>
   </trkpt>
  </trkseg>
 </trk>
</gpx>
