<?xml version="1.0" encoding="UTF-8"?>
 <gpx creator="Garmin Connect" version="1.1"
	 xsi:schemaLocation="http://www.topografix.com/GPX/1/1 http://www.topografix.com/GPX/11.xsd"
	 xmlns:ns3="http://www.garmin.com/xmlschemas/TrackPointExtension/v1"
	 xmlns="http://www.topografix.com/GPX/1/1"
	 xmlns:xsi="http://www.w3.org/2001/XMLSchema-instance" xmlns:ns2="http://www.garmin.com/xmlschemas/GpxExtensions/v3">
	 <metadata>
		<name>Mainova Frankfurt Marathon 2024 - 42.195 km</name>
		 <link href="https://www.goandrace.com">
		 <text>Garmin Connect</text>
		 </link>
	 <time>2026-08-23T23:17:05</time>
	 </metadata>
	 <trk>
		 <name>Mainova Frankfurt Marathon 2024 - 42.195 km</name>
		 <trkseg>
			 <trkpt lat="50.112274" lon="8.654043">
				 <ele>97.2</ele>
			 </trkpt>
			 <trkpt lat="50.11161" lon="8.65553">
				 <ele>97.1</ele>
			 </trkpt>
			 <trkpt lat="50.11117" lon="8.65654">
				 <ele>97.3</ele>
			 </trkpt>
			 <trkpt lat="50.11031" lon="8.65849">
				 <ele>97.3</ele>
			 </trkpt>
			 <trkpt lat="50.11003" lon="8.6592">
				 <ele>97.4</ele>
			 </trkpt>
			 <trkpt lat="50.10975" lon="8.65985">
				 <ele>97.5</ele>
			 </trkpt>
			 <trkpt lat="50.1094" lon="8.66049">
				 <ele>97.5</ele>
			 </trkpt>
			 <trkpt lat="50.10937" lon="8.66057">
				 <ele>97.5</ele>
			 </trkpt>
			 <trkpt lat="50.1094" lon="8.66063">
				 <ele>97.6</ele>
			 </trkpt>
			 <trkpt lat="50.10945" lon="8.66073">
				 <ele>97.7</ele>
			 </trkpt>
			 <trkpt lat="50.10976" lon="8.66143">
				 <ele>97.8</ele>
			 </trkpt>
			 <trkpt lat="50.11053" lon="8.66339">
				 <ele>98</ele>
			 </trkpt>
			 <trkpt lat="50.11082" lon="8.66414">
				 <ele>98.2</ele>
			 </trkpt>
			 <trkpt lat="50.11173" lon="8.66645">
				 <ele>98.3</ele>
			 </trkpt>
			 <trkpt lat="50.11225" lon="8.6672">
				 <ele>98.4</ele>
			 </trkpt>
			 <trkpt lat="50.11291" lon="8.66816">
				 <ele>98.5</ele>
			 </trkpt>
			 <trkpt lat="50.11301" lon="8.6683">
				 <ele>98.5</ele>
			 </trkpt>
			 <trkpt lat="50.11304" lon="8.66843">
				 <ele>98.6</ele>
			 </trkpt>
			 <trkpt lat="50.11306" lon="8.66855">
				 <ele>98.7</ele>
			 </trkpt>
			 <trkpt lat="50.11303" lon="8.66867">
				 <ele>98.8</ele>
			 </trkpt>
			 <trkpt lat="50.11296" lon="8.66876">
				 <ele>98.9</ele>
			 </trkpt>
			 <trkpt lat="50.11278" lon="8.6689">
				 <ele>99</ele>
			 </trkpt>
			 <trkpt lat="50.11271" lon="8.66894">
				 <ele>98.9</ele>
			 </trkpt>
			 <trkpt lat="50.11249" lon="8.66909">
				 <ele>98.8</ele>
			 </trkpt>
			 <trkpt lat="50.11183" lon="8.66966">
				 <ele>98.7</ele>
			 </trkpt>
			 <trkpt lat="50.11092" lon="8.67045">
				 <ele>98.7</ele>
			 </trkpt>
			 <trkpt lat="50.11075" lon="8.67059">
				 <ele>98.7</ele>
			 </trkpt>
			 <trkpt lat="50.11035" lon="8.67094">
				 <ele>98.7</ele>
			 </trkpt>
			 <trkpt lat="50.10959" lon="8.67163">
				 <ele>98.8</ele>
			 </trkpt>
			 <trkpt lat="50.1094" lon="8.6718">
				 <ele>99</ele>
			 </trkpt>
			 <trkpt lat="50.1093" lon="8.67188">
				 <ele>99.2</ele>
			 </trkpt>
			 <trkpt lat="50.10932" lon="8.67194">
				 <ele>99.5</ele>
			 </trkpt>
			 <trkpt lat="50.1095" lon="8.67246">
				 <ele>99.7</ele>
			 </trkpt>
			 <trkpt lat="50.10974" lon="8.67311">
				 <ele>100.2</ele>
			 </trkpt>
			 <trkpt lat="50.11007" lon="8.674">
				 <ele>100.6</ele>
			 </trkpt>
			 <trkpt lat="50.11079" lon="8.67334">
				 <ele>101.1</ele>
			 </trkpt>
			 <trkpt lat="50.11164" lon="8.67256">
				 <ele>101.5</ele>
			 </trkpt>
			 <trkpt lat="50.11205" lon="8.67216">
				 <ele>101.8</ele>
			 </trkpt>
			 <trkpt lat="50.11254" lon="8.6717">
				 <ele>102.2</ele>
			 </trkpt>
			 <trkpt lat="50.11295" lon="8.67135">
				 <ele>102.5</ele>
			 </trkpt>
			 <trkpt lat="50.11304" lon="8.67134">
				 <ele>102.5</ele>
			 </trkpt>
			 <trkpt lat="50.11311" lon="8.67137">
				 <ele>102.5</ele>
			 </trkpt>
			 <trkpt lat="50.1133" lon="8.67165">
				 <ele>102.5</ele>
			 </trkpt>
			 <trkpt lat="50.11341" lon="8.67177">
				 <ele>102.4</ele>
			 </trkpt>
			 <trkpt lat="50.11353" lon="8.67118">
				 <ele>102.1</ele>
			 </trkpt>
			 <trkpt lat="50.1136" lon="8.67079">
				 <ele>101.8</ele>
			 </trkpt>
			 <trkpt lat="50.11382" lon="8.67013">
				 <ele>101.5</ele>
			 </trkpt>
			 <trkpt lat="50.11385" lon="8.67008">
				 <ele>101.1</ele>
			 </trkpt>
			 <trkpt lat="50.11396" lon="8.66986">
				 <ele>100.7</ele>
			 </trkpt>
			 <trkpt lat="50.11407" lon="8.66969">
				 <ele>100.3</ele>
			 </trkpt>
			 <trkpt lat="50.11341" lon="8.66878">
				 <ele>99.8</ele>
			 </trkpt>
			 <trkpt lat="50.11328" lon="8.66858">
				 <ele>99.5</ele>
			 </trkpt>
			 <trkpt lat="50.11258" lon="8.6675">
				 <ele>99.2</ele>
			 </trkpt>
			 <trkpt lat="50.11213" lon="8.66684">
				 <ele>98.9</ele>
			 </trkpt>
			 <trkpt lat="50.11181" lon="8.66635">
				 <ele>98.6</ele>
			 </trkpt>
			 <trkpt lat="50.11172" lon="8.66616">
				 <ele>98.5</ele>
			 </trkpt>
			 <trkpt lat="50.11147" lon="8.66554">
				 <ele>98.3</ele>
			 </trkpt>
			 <trkpt lat="50.11112" lon="8.66468">
				 <ele>98.2</ele>
			 </trkpt>
			 <trkpt lat="50.11071" lon="8.66365">
				 <ele>98.1</ele>
			 </trkpt>
			 <trkpt lat="50.11061" lon="8.66333">
				 <ele>98</ele>
			 </trkpt>
			 <trkpt lat="50.1105" lon="8.66304">
				 <ele>98</ele>
			 </trkpt>
			 <trkpt lat="50.10979" lon="8.66128">
				 <ele>98</ele>
			 </trkpt>
			 <trkpt lat="50.10974" lon="8.66084">
				 <ele>98</ele>
			 </trkpt>
			 <trkpt lat="50.10973" lon="8.66055">
				 <ele>98</ele>
			 </trkpt>
			 <trkpt lat="50.10975" lon="8.66038">
				 <ele>98</ele>
			 </trkpt>
			 <trkpt lat="50.10977" lon="8.66029">
				 <ele>98.1</ele>
			 </trkpt>
			 <trkpt lat="50.10997" lon="8.65983">
				 <ele>98.2</ele>
			 </trkpt>
			 <trkpt lat="50.11032" lon="8.65904">
				 <ele>98.3</ele>
			 </trkpt>
			 <trkpt lat="50.11052" lon="8.65866">
				 <ele>98.4</ele>
			 </trkpt>
			 <trkpt lat="50.11098" lon="8.65789">
				 <ele>98.5</ele>
			 </trkpt>
			 <trkpt lat="50.11126" lon="8.65739">
				 <ele>98.7</ele>
			 </trkpt>
			 <trkpt lat="50.11239" lon="8.65545">
				 <ele>98.9</ele>
			 </trkpt>
			 <trkpt lat="50.11268" lon="8.65493">
				 <ele>99.1</ele>
			 </trkpt>
			 <trkpt lat="50.11277" lon="8.65475">
				 <ele>99.3</ele>
			 </trkpt>
			 <trkpt lat="50.1134" lon="8.65374">
				 <ele>99.5</ele>
			 </trkpt>
			 <trkpt lat="50.11376" lon="8.65326">
				 <ele>99.6</ele>
			 </trkpt>
			 <trkpt lat="50.11391" lon="8.65312">
				 <ele>99.8</ele>
			 </trkpt>
			 <trkpt lat="50.11415" lon="8.65295">
				 <ele>100</ele>
			 </trkpt>
			 <trkpt lat="50.11437" lon="8.65282">
				 <ele>100.2</ele>
			 </trkpt>
			 <trkpt lat="50.11468" lon="8.65266">
				 <ele>100.4</ele>
			 </trkpt>
			 <trkpt lat="50.11488" lon="8.65259">
				 <ele>100.5</ele>
			 </trkpt>
			 <trkpt lat="50.11516" lon="8.65254">
				 <ele>100.7</ele>
			 </trkpt>
			 <trkpt lat="50.1153" lon="8.65252">
				 <ele>100.9</ele>
			 </trkpt>
			 <trkpt lat="50.11562" lon="8.65253">
				 <ele>101.1</ele>
			 </trkpt>
			 <trkpt lat="50.11596" lon="8.6526">
				 <ele>101.3</ele>
			 </trkpt>
			 <trkpt lat="50.11616" lon="8.65267">
				 <ele>101.5</ele>
			 </trkpt>
			 <trkpt lat="50.11736" lon="8.65322">
				 <ele>101.7</ele>
			 </trkpt>
			 <trkpt lat="50.11768" lon="8.65334">
				 <ele>101.8</ele>
			 </trkpt>
			 <trkpt lat="50.11789" lon="8.6534">
				 <ele>101.9</ele>
			 </trkpt>
			 <trkpt lat="50.11812" lon="8.65346">
				 <ele>102</ele>
			 </trkpt>
			 <trkpt lat="50.11825" lon="8.65347">
				 <ele>102.1</ele>
			 </trkpt>
			 <trkpt lat="50.11873" lon="8.65363">
				 <ele>102.1</ele>
			 </trkpt>
			 <trkpt lat="50.11943" lon="8.65395">
				 <ele>102.1</ele>
			 </trkpt>
			 <trkpt lat="50.11976" lon="8.65407">
				 <ele>102.1</ele>
			 </trkpt>
			 <trkpt lat="50.11989" lon="8.6541">
				 <ele>102.1</ele>
			 </trkpt>
			 <trkpt lat="50.11986" lon="8.65446">
				 <ele>102.1</ele>
			 </trkpt>
			 <trkpt lat="50.11986" lon="8.65502">
				 <ele>102</ele>
			 </trkpt>
			 <trkpt lat="50.11989" lon="8.65526">
				 <ele>102</ele>
			 </trkpt>
			 <trkpt lat="50.11987" lon="8.65589">
				 <ele>102</ele>
			 </trkpt>
			 <trkpt lat="50.11985" lon="8.65618">
				 <ele>102</ele>
			 </trkpt>
			 <trkpt lat="50.11979" lon="8.65668">
				 <ele>102</ele>
			 </trkpt>
			 <trkpt lat="50.1196" lon="8.65743">
				 <ele>102.1</ele>
			 </trkpt>
			 <trkpt lat="50.11937" lon="8.65845">
				 <ele>102.2</ele>
			 </trkpt>
			 <trkpt lat="50.11889" lon="8.66054">
				 <ele>102.3</ele>
			 </trkpt>
			 <trkpt lat="50.11849" lon="8.66184">
				 <ele>102.4</ele>
			 </trkpt>
			 <trkpt lat="50.11813" lon="8.66299">
				 <ele>102.5</ele>
			 </trkpt>
			 <trkpt lat="50.1179" lon="8.66359">
				 <ele>102.5</ele>
			 </trkpt>
			 <trkpt lat="50.11595" lon="8.6686">
				 <ele>102.6</ele>
			 </trkpt>
			 <trkpt lat="50.11584" lon="8.66898">
				 <ele>102.8</ele>
			 </trkpt>
			 <trkpt lat="50.11583" lon="8.66904">
				 <ele>103</ele>
			 </trkpt>
			 <trkpt lat="50.115416" lon="8.670825">
				 <ele>103.2</ele>
			 </trkpt>
			 <trkpt lat="50.115169" lon="8.671383">
				 <ele>103.3</ele>
			 </trkpt>
			 <trkpt lat="50.114997" lon="8.672005">
				 <ele>103.3</ele>
			 </trkpt>
			 <trkpt lat="50.114804" lon="8.672606">
				 <ele>103.3</ele>
			 </trkpt>
			 <trkpt lat="50.113427" lon="8.671876">
				 <ele>103.3</ele>
			 </trkpt>
			 <trkpt lat="50.113365" lon="8.671941">
				 <ele>103.2</ele>
			 </trkpt>
			 <trkpt lat="50.11307" lon="8.67344">
				 <ele>103.1</ele>
			 </trkpt>
			 <trkpt lat="50.11294" lon="8.67414">
				 <ele>103</ele>
			 </trkpt>
			 <trkpt lat="50.11283" lon="8.67472">
				 <ele>102.8</ele>
			 </trkpt>
			 <trkpt lat="50.11279" lon="8.67524">
				 <ele>102.5</ele>
			 </trkpt>
			 <trkpt lat="50.11262" lon="8.67609">
				 <ele>102.1</ele>
			 </trkpt>
			 <trkpt lat="50.11256" lon="8.67607">
				 <ele>101.7</ele>
			 </trkpt>
			 <trkpt lat="50.11229" lon="8.67597">
				 <ele>101.5</ele>
			 </trkpt>
			 <trkpt lat="50.11219" lon="8.67591">
				 <ele>101.2</ele>
			 </trkpt>
			 <trkpt lat="50.11218" lon="8.67585">
				 <ele>100.9</ele>
			 </trkpt>
			 <trkpt lat="50.11211" lon="8.67576">
				 <ele>100.6</ele>
			 </trkpt>
			 <trkpt lat="50.11199" lon="8.67548">
				 <ele>100.5</ele>
			 </trkpt>
			 <trkpt lat="50.11163" lon="8.6743">
				 <ele>100.4</ele>
			 </trkpt>
			 <trkpt lat="50.1115" lon="8.67398">
				 <ele>100.3</ele>
			 </trkpt>
			 <trkpt lat="50.11126" lon="8.67334">
				 <ele>100.3</ele>
			 </trkpt>
			 <trkpt lat="50.111131" lon="8.673071">
				 <ele>100.4</ele>
			 </trkpt>
			 <trkpt lat="50.110092" lon="8.674036">
				 <ele>100.5</ele>
			 </trkpt>
			 <trkpt lat="50.110388" lon="8.674852">
				 <ele>100.7</ele>
			 </trkpt>
			 <trkpt lat="50.11039" lon="8.67499">
				 <ele>100.9</ele>
			 </trkpt>
			 <trkpt lat="50.11036" lon="8.67513">
				 <ele>101.1</ele>
			 </trkpt>
			 <trkpt lat="50.11035" lon="8.67529">
				 <ele>101.3</ele>
			 </trkpt>
			 <trkpt lat="50.11067" lon="8.67552">
				 <ele>101.5</ele>
			 </trkpt>
			 <trkpt lat="50.11125" lon="8.6762">
				 <ele>101.6</ele>
			 </trkpt>
			 <trkpt lat="50.11177" lon="8.67681">
				 <ele>101.7</ele>
			 </trkpt>
			 <trkpt lat="50.1122" lon="8.67728">
				 <ele>101.8</ele>
			 </trkpt>
			 <trkpt lat="50.11239" lon="8.67754">
				 <ele>101.9</ele>
			 </trkpt>
			 <trkpt lat="50.11271" lon="8.67809">
				 <ele>102.1</ele>
			 </trkpt>
			 <trkpt lat="50.1129" lon="8.67845">
				 <ele>102.2</ele>
			 </trkpt>
			 <trkpt lat="50.113202" lon="8.678927">
				 <ele>102.3</ele>
			 </trkpt>
			 <trkpt lat="50.113601" lon="8.679206">
				 <ele>102.4</ele>
			 </trkpt>
			 <trkpt lat="50.114041" lon="8.679367">
				 <ele>102.5</ele>
			 </trkpt>
			 <trkpt lat="50.11517" lon="8.67949">
				 <ele>102.5</ele>
			 </trkpt>
			 <trkpt lat="50.11563" lon="8.67959">
				 <ele>102.6</ele>
			 </trkpt>
			 <trkpt lat="50.11625" lon="8.67976">
				 <ele>102.7</ele>
			 </trkpt>
			 <trkpt lat="50.11666" lon="8.67989">
				 <ele>102.9</ele>
			 </trkpt>
			 <trkpt lat="50.11686" lon="8.67993">
				 <ele>103.1</ele>
			 </trkpt>
			 <trkpt lat="50.11694" lon="8.67991">
				 <ele>103.3</ele>
			 </trkpt>
			 <trkpt lat="50.117081" lon="8.679748">
				 <ele>103.4</ele>
			 </trkpt>
			 <trkpt lat="50.116964" lon="8.679169">
				 <ele>103.5</ele>
			 </trkpt>
			 <trkpt lat="50.11682" lon="8.67909">
				 <ele>103.5</ele>
			 </trkpt>
			 <trkpt lat="50.11672" lon="8.67896">
				 <ele>103.6</ele>
			 </trkpt>
			 <trkpt lat="50.11667" lon="8.67881">
				 <ele>103.7</ele>
			 </trkpt>
			 <trkpt lat="50.11657" lon="8.67838">
				 <ele>103.8</ele>
			 </trkpt>
			 <trkpt lat="50.11644" lon="8.67796">
				 <ele>103.9</ele>
			 </trkpt>
			 <trkpt lat="50.11642" lon="8.67791">
				 <ele>104</ele>
			 </trkpt>
			 <trkpt lat="50.11635" lon="8.67771">
				 <ele>104</ele>
			 </trkpt>
			 <trkpt lat="50.11624" lon="8.67749">
				 <ele>104</ele>
			 </trkpt>
			 <trkpt lat="50.1161" lon="8.67727">
				 <ele>104</ele>
			 </trkpt>
			 <trkpt lat="50.11589" lon="8.67702">
				 <ele>104</ele>
			 </trkpt>
			 <trkpt lat="50.1157" lon="8.67693">
				 <ele>104</ele>
			 </trkpt>
			 <trkpt lat="50.11546" lon="8.67687">
				 <ele>104</ele>
			 </trkpt>
			 <trkpt lat="50.11515" lon="8.67683">
				 <ele>104</ele>
			 </trkpt>
			 <trkpt lat="50.1151" lon="8.67683">
				 <ele>104</ele>
			 </trkpt>
			 <trkpt lat="50.11434" lon="8.67663">
				 <ele>103.9</ele>
			 </trkpt>
			 <trkpt lat="50.11425" lon="8.67661">
				 <ele>103.9</ele>
			 </trkpt>
			 <trkpt lat="50.114381" lon="8.675656">
				 <ele>103.9</ele>
			 </trkpt>
			 <trkpt lat="50.114594" lon="8.674594">
				 <ele>103.9</ele>
			 </trkpt>
			 <trkpt lat="50.114938" lon="8.672931">
				 <ele>103.9</ele>
			 </trkpt>
			 <trkpt lat="50.115432" lon="8.671061">
				 <ele>104</ele>
			 </trkpt>
			 <trkpt lat="50.11543" lon="8.67101">
				 <ele>104.2</ele>
			 </trkpt>
			 <trkpt lat="50.11636" lon="8.67107">
				 <ele>104.4</ele>
			 </trkpt>
			 <trkpt lat="50.11677" lon="8.67104">
				 <ele>104.6</ele>
			 </trkpt>
			 <trkpt lat="50.118553" lon="8.670973">
				 <ele>105.2</ele>
			 </trkpt>
			 <trkpt lat="50.119751" lon="8.670824">
				 <ele>105.8</ele>
			 </trkpt>
			 <trkpt lat="50.121321" lon="8.670491">
				 <ele>106.6</ele>
			 </trkpt>
			 <trkpt lat="50.123411" lon="8.669922">
				 <ele>107.5</ele>
			 </trkpt>
			 <trkpt lat="50.124025" lon="8.669956">
				 <ele>108.6</ele>
			 </trkpt>
			 <trkpt lat="50.12428" lon="8.67001">
				 <ele>109.8</ele>
			 </trkpt>
			 <trkpt lat="50.12468" lon="8.6702">
				 <ele>111</ele>
			 </trkpt>
			 <trkpt lat="50.12513" lon="8.67043">
				 <ele>112.2</ele>
			 </trkpt>
			 <trkpt lat="50.12647" lon="8.67113">
				 <ele>113.3</ele>
			 </trkpt>
			 <trkpt lat="50.12687" lon="8.67143">
				 <ele>114.4</ele>
			 </trkpt>
			 <trkpt lat="50.12705" lon="8.67156">
				 <ele>115.4</ele>
			 </trkpt>
			 <trkpt lat="50.12732" lon="8.67188">
				 <ele>116.1</ele>
			 </trkpt>
			 <trkpt lat="50.12754" lon="8.67214">
				 <ele>116.7</ele>
			 </trkpt>
			 <trkpt lat="50.12766" lon="8.67222">
				 <ele>117.3</ele>
			 </trkpt>
			 <trkpt lat="50.12779" lon="8.67239">
				 <ele>117.6</ele>
			 </trkpt>
			 <trkpt lat="50.12798" lon="8.67264">
				 <ele>117.7</ele>
			 </trkpt>
			 <trkpt lat="50.12808" lon="8.67287">
				 <ele>117.7</ele>
			 </trkpt>
			 <trkpt lat="50.1281" lon="8.67291">
				 <ele>117.6</ele>
			 </trkpt>
			 <trkpt lat="50.12793" lon="8.67298">
				 <ele>117.5</ele>
			 </trkpt>
			 <trkpt lat="50.1279" lon="8.67299">
				 <ele>117.2</ele>
			 </trkpt>
			 <trkpt lat="50.12777" lon="8.67306">
				 <ele>116.8</ele>
			 </trkpt>
			 <trkpt lat="50.12758" lon="8.67315">
				 <ele>116.4</ele>
			 </trkpt>
			 <trkpt lat="50.12745" lon="8.67323">
				 <ele>115.9</ele>
			 </trkpt>
			 <trkpt lat="50.1274" lon="8.6733">
				 <ele>115.4</ele>
			 </trkpt>
			 <trkpt lat="50.12721" lon="8.67341">
				 <ele>114.7</ele>
			 </trkpt>
			 <trkpt lat="50.12669" lon="8.67378">
				 <ele>114</ele>
			 </trkpt>
			 <trkpt lat="50.12601" lon="8.67443">
				 <ele>113.3</ele>
			 </trkpt>
			 <trkpt lat="50.12581" lon="8.67455">
				 <ele>112.5</ele>
			 </trkpt>
			 <trkpt lat="50.12557" lon="8.67469">
				 <ele>111.8</ele>
			 </trkpt>
			 <trkpt lat="50.125" lon="8.67489">
				 <ele>111.1</ele>
			 </trkpt>
			 <trkpt lat="50.1247" lon="8.67502">
				 <ele>110.5</ele>
			 </trkpt>
			 <trkpt lat="50.12399" lon="8.67532">
				 <ele>109.8</ele>
			 </trkpt>
			 <trkpt lat="50.12346" lon="8.67559">
				 <ele>109.3</ele>
			 </trkpt>
			 <trkpt lat="50.1234" lon="8.67556">
				 <ele>108.7</ele>
			 </trkpt>
			 <trkpt lat="50.1233" lon="8.67559">
				 <ele>108.3</ele>
			 </trkpt>
			 <trkpt lat="50.12303" lon="8.67568">
				 <ele>107.8</ele>
			 </trkpt>
			 <trkpt lat="50.12285" lon="8.6757">
				 <ele>107.5</ele>
			 </trkpt>
			 <trkpt lat="50.12278" lon="8.67571">
				 <ele>107.1</ele>
			 </trkpt>
			 <trkpt lat="50.12272" lon="8.67576">
				 <ele>106.7</ele>
			 </trkpt>
			 <trkpt lat="50.12256" lon="8.67577">
				 <ele>106.4</ele>
			 </trkpt>
			 <trkpt lat="50.12154" lon="8.67567">
				 <ele>106</ele>
			 </trkpt>
			 <trkpt lat="50.12124" lon="8.67566">
				 <ele>105.6</ele>
			 </trkpt>
			 <trkpt lat="50.12102" lon="8.67572">
				 <ele>105.4</ele>
			 </trkpt>
			 <trkpt lat="50.12081" lon="8.67584">
				 <ele>105.1</ele>
			 </trkpt>
			 <trkpt lat="50.12064" lon="8.67601">
				 <ele>104.8</ele>
			 </trkpt>
			 <trkpt lat="50.1203" lon="8.67655">
				 <ele>104.5</ele>
			 </trkpt>
			 <trkpt lat="50.12019" lon="8.67679">
				 <ele>104.4</ele>
			 </trkpt>
			 <trkpt lat="50.12" lon="8.67728">
				 <ele>104.2</ele>
			 </trkpt>
			 <trkpt lat="50.11988" lon="8.67756">
				 <ele>104.1</ele>
			 </trkpt>
			 <trkpt lat="50.11981" lon="8.67768">
				 <ele>104</ele>
			 </trkpt>
			 <trkpt lat="50.11965" lon="8.67786">
				 <ele>104</ele>
			 </trkpt>
			 <trkpt lat="50.11912" lon="8.67821">
				 <ele>104</ele>
			 </trkpt>
			 <trkpt lat="50.1188" lon="8.67845">
				 <ele>104</ele>
			 </trkpt>
			 <trkpt lat="50.11838" lon="8.67872">
				 <ele>104</ele>
			 </trkpt>
			 <trkpt lat="50.11823" lon="8.67883">
				 <ele>104</ele>
			 </trkpt>
			 <trkpt lat="50.11812" lon="8.67883">
				 <ele>104</ele>
			 </trkpt>
			 <trkpt lat="50.11785" lon="8.67898">
				 <ele>104</ele>
			 </trkpt>
			 <trkpt lat="50.11756" lon="8.67912">
				 <ele>104.1</ele>
			 </trkpt>
			 <trkpt lat="50.11748" lon="8.67913">
				 <ele>104.2</ele>
			 </trkpt>
			 <trkpt lat="50.1174" lon="8.67914">
				 <ele>104.3</ele>
			 </trkpt>
			 <trkpt lat="50.11713" lon="8.67929">
				 <ele>104.5</ele>
			 </trkpt>
			 <trkpt lat="50.11707" lon="8.67937">
				 <ele>104.6</ele>
			 </trkpt>
			 <trkpt lat="50.11706" lon="8.67942">
				 <ele>104.8</ele>
			 </trkpt>
			 <trkpt lat="50.11711" lon="8.67982">
				 <ele>105.1</ele>
			 </trkpt>
			 <trkpt lat="50.11717" lon="8.6804">
				 <ele>105.3</ele>
			 </trkpt>
			 <trkpt lat="50.11727" lon="8.68087">
				 <ele>105.5</ele>
			 </trkpt>
			 <trkpt lat="50.11767" lon="8.68275">
				 <ele>105.6</ele>
			 </trkpt>
			 <trkpt lat="50.11794" lon="8.68387">
				 <ele>105.8</ele>
			 </trkpt>
			 <trkpt lat="50.11811" lon="8.6846">
				 <ele>105.9</ele>
			 </trkpt>
			 <trkpt lat="50.11833" lon="8.68564">
				 <ele>105.9</ele>
			 </trkpt>
			 <trkpt lat="50.11844" lon="8.68622">
				 <ele>105.9</ele>
			 </trkpt>
			 <trkpt lat="50.11844" lon="8.68646">
				 <ele>105.8</ele>
			 </trkpt>
			 <trkpt lat="50.11841" lon="8.68662">
				 <ele>105.7</ele>
			 </trkpt>
			 <trkpt lat="50.11833" lon="8.68686">
				 <ele>105.6</ele>
			 </trkpt>
			 <trkpt lat="50.11811" lon="8.68733">
				 <ele>105.5</ele>
			 </trkpt>
			 <trkpt lat="50.11799" lon="8.6876">
				 <ele>105.3</ele>
			 </trkpt>
			 <trkpt lat="50.11789" lon="8.68772">
				 <ele>105.1</ele>
			 </trkpt>
			 <trkpt lat="50.11767" lon="8.68805">
				 <ele>104.8</ele>
			 </trkpt>
			 <trkpt lat="50.11725" lon="8.68755">
				 <ele>104.5</ele>
			 </trkpt>
			 <trkpt lat="50.11711" lon="8.68749">
				 <ele>104.2</ele>
			 </trkpt>
			 <trkpt lat="50.11703" lon="8.68747">
				 <ele>103.9</ele>
			 </trkpt>
			 <trkpt lat="50.11672" lon="8.6875">
				 <ele>103.5</ele>
			 </trkpt>
			 <trkpt lat="50.11619" lon="8.68756">
				 <ele>103.2</ele>
			 </trkpt>
			 <trkpt lat="50.11523" lon="8.68764">
				 <ele>102.8</ele>
			 </trkpt>
			 <trkpt lat="50.1146" lon="8.68772">
				 <ele>102.5</ele>
			 </trkpt>
			 <trkpt lat="50.11399" lon="8.68775">
				 <ele>102</ele>
			 </trkpt>
			 <trkpt lat="50.11291" lon="8.68783">
				 <ele>101.6</ele>
			 </trkpt>
			 <trkpt lat="50.11243" lon="8.68791">
				 <ele>101.2</ele>
			 </trkpt>
			 <trkpt lat="50.11199" lon="8.68799">
				 <ele>100.7</ele>
			 </trkpt>
			 <trkpt lat="50.11144" lon="8.68802">
				 <ele>100.3</ele>
			 </trkpt>
			 <trkpt lat="50.11121" lon="8.68803">
				 <ele>99.9</ele>
			 </trkpt>
			 <trkpt lat="50.11051" lon="8.68799">
				 <ele>99.5</ele>
			 </trkpt>
			 <trkpt lat="50.11024" lon="8.68795">
				 <ele>99.3</ele>
			 </trkpt>
			 <trkpt lat="50.10975" lon="8.68772">
				 <ele>98.9</ele>
			 </trkpt>
			 <trkpt lat="50.10962" lon="8.68766">
				 <ele>98.5</ele>
			 </trkpt>
			 <trkpt lat="50.10954" lon="8.68766">
				 <ele>98.2</ele>
			 </trkpt>
			 <trkpt lat="50.10937" lon="8.68767">
				 <ele>97.9</ele>
			 </trkpt>
			 <trkpt lat="50.10845" lon="8.68769">
				 <ele>97.7</ele>
			 </trkpt>
			 <trkpt lat="50.10805" lon="8.6877">
				 <ele>97.6</ele>
			 </trkpt>
			 <trkpt lat="50.1074" lon="8.68772">
				 <ele>97.6</ele>
			 </trkpt>
			 <trkpt lat="50.10724" lon="8.68772">
				 <ele>97.6</ele>
			 </trkpt>
			 <trkpt lat="50.10724" lon="8.68736">
				 <ele>97.6</ele>
			 </trkpt>
			 <trkpt lat="50.10722" lon="8.68721">
				 <ele>97.6</ele>
			 </trkpt>
			 <trkpt lat="50.10727" lon="8.68692">
				 <ele>97.6</ele>
			 </trkpt>
			 <trkpt lat="50.10735" lon="8.68652">
				 <ele>97.6</ele>
			 </trkpt>
			 <trkpt lat="50.10741" lon="8.68601">
				 <ele>97.6</ele>
			 </trkpt>
			 <trkpt lat="50.10745" lon="8.68537">
				 <ele>97.6</ele>
			 </trkpt>
			 <trkpt lat="50.10744" lon="8.68456">
				 <ele>97.6</ele>
			 </trkpt>
			 <trkpt lat="50.1074" lon="8.68428">
				 <ele>97.5</ele>
			 </trkpt>
			 <trkpt lat="50.10726" lon="8.6834">
				 <ele>97.5</ele>
			 </trkpt>
			 <trkpt lat="50.10697" lon="8.68197">
				 <ele>97.5</ele>
			 </trkpt>
			 <trkpt lat="50.1068" lon="8.68128">
				 <ele>97.5</ele>
			 </trkpt>
			 <trkpt lat="50.10668" lon="8.68093">
				 <ele>97.5</ele>
			 </trkpt>
			 <trkpt lat="50.10631" lon="8.68001">
				 <ele>97.6</ele>
			 </trkpt>
			 <trkpt lat="50.10544" lon="8.67783">
				 <ele>97.7</ele>
			 </trkpt>
			 <trkpt lat="50.104405" lon="8.678714">
				 <ele>97.9</ele>
			 </trkpt>
			 <trkpt lat="50.10431" lon="8.67877">
				 <ele>98.1</ele>
			 </trkpt>
			 <trkpt lat="50.10414" lon="8.67863">
				 <ele>98.3</ele>
			 </trkpt>
			 <trkpt lat="50.10264" lon="8.67688">
				 <ele>98.5</ele>
			 </trkpt>
			 <trkpt lat="50.10224" lon="8.67643">
				 <ele>98.6</ele>
			 </trkpt>
			 <trkpt lat="50.10209" lon="8.67602">
				 <ele>98.7</ele>
			 </trkpt>
			 <trkpt lat="50.10174" lon="8.67511">
				 <ele>98.8</ele>
			 </trkpt>
			 <trkpt lat="50.10169" lon="8.67503">
				 <ele>98.9</ele>
			 </trkpt>
			 <trkpt lat="50.10159" lon="8.67495">
				 <ele>99</ele>
			 </trkpt>
			 <trkpt lat="50.1013" lon="8.67482">
				 <ele>99</ele>
			 </trkpt>
			 <trkpt lat="50.10068" lon="8.67416">
				 <ele>99</ele>
			 </trkpt>
			 <trkpt lat="50.09939" lon="8.67277">
				 <ele>99</ele>
			 </trkpt>
			 <trkpt lat="50.09885" lon="8.67218">
				 <ele>99</ele>
			 </trkpt>
			 <trkpt lat="50.09842" lon="8.67169">
				 <ele>99</ele>
			 </trkpt>
			 <trkpt lat="50.09813" lon="8.67132">
				 <ele>99</ele>
			 </trkpt>
			 <trkpt lat="50.09757" lon="8.67058">
				 <ele>99</ele>
			 </trkpt>
			 <trkpt lat="50.09695" lon="8.66987">
				 <ele>99</ele>
			 </trkpt>
			 <trkpt lat="50.09665" lon="8.66954">
				 <ele>99.1</ele>
			 </trkpt>
			 <trkpt lat="50.09576" lon="8.66851">
				 <ele>99.2</ele>
			 </trkpt>
			 <trkpt lat="50.09427" lon="8.66671">
				 <ele>99.3</ele>
			 </trkpt>
			 <trkpt lat="50.09304" lon="8.66524">
				 <ele>99.4</ele>
			 </trkpt>
			 <trkpt lat="50.09286" lon="8.66504">
				 <ele>99.5</ele>
			 </trkpt>
			 <trkpt lat="50.0928" lon="8.66501">
				 <ele>99.7</ele>
			 </trkpt>
			 <trkpt lat="50.09262" lon="8.6648">
				 <ele>99.9</ele>
			 </trkpt>
			 <trkpt lat="50.09228" lon="8.66438">
				 <ele>100</ele>
			 </trkpt>
			 <trkpt lat="50.09182" lon="8.66383">
				 <ele>100.2</ele>
			 </trkpt>
			 <trkpt lat="50.09124" lon="8.66313">
				 <ele>100.3</ele>
			 </trkpt>
			 <trkpt lat="50.08901" lon="8.66046">
				 <ele>100.4</ele>
			 </trkpt>
			 <trkpt lat="50.08873" lon="8.66016">
				 <ele>100.4</ele>
			 </trkpt>
			 <trkpt lat="50.08846" lon="8.65994">
				 <ele>100.3</ele>
			 </trkpt>
			 <trkpt lat="50.08809" lon="8.65971">
				 <ele>100.2</ele>
			 </trkpt>
			 <trkpt lat="50.08813" lon="8.65874">
				 <ele>100.1</ele>
			 </trkpt>
			 <trkpt lat="50.08817" lon="8.65806">
				 <ele>99.9</ele>
			 </trkpt>
			 <trkpt lat="50.08842" lon="8.65265">
				 <ele>99.7</ele>
			 </trkpt>
			 <trkpt lat="50.08845" lon="8.6524">
				 <ele>99.5</ele>
			 </trkpt>
			 <trkpt lat="50.08853" lon="8.65158">
				 <ele>99.5</ele>
			 </trkpt>
			 <trkpt lat="50.08853" lon="8.65146">
				 <ele>99.3</ele>
			 </trkpt>
			 <trkpt lat="50.08836" lon="8.65126">
				 <ele>99.2</ele>
			 </trkpt>
			 <trkpt lat="50.08789" lon="8.65088">
				 <ele>99.1</ele>
			 </trkpt>
			 <trkpt lat="50.08754" lon="8.65023">
				 <ele>99</ele>
			 </trkpt>
			 <trkpt lat="50.08735" lon="8.64982">
				 <ele>98.9</ele>
			 </trkpt>
			 <trkpt lat="50.08717" lon="8.64932">
				 <ele>98.8</ele>
			 </trkpt>
			 <trkpt lat="50.0871" lon="8.64902">
				 <ele>98.7</ele>
			 </trkpt>
			 <trkpt lat="50.08702" lon="8.64842">
				 <ele>98.6</ele>
			 </trkpt>
			 <trkpt lat="50.08697" lon="8.64809">
				 <ele>98.5</ele>
			 </trkpt>
			 <trkpt lat="50.08683" lon="8.64702">
				 <ele>98.5</ele>
			 </trkpt>
			 <trkpt lat="50.08676" lon="8.64641">
				 <ele>98.4</ele>
			 </trkpt>
			 <trkpt lat="50.08669" lon="8.64519">
				 <ele>98.3</ele>
			 </trkpt>
			 <trkpt lat="50.08647" lon="8.64194">
				 <ele>98.2</ele>
			 </trkpt>
			 <trkpt lat="50.08631" lon="8.63865">
				 <ele>98.1</ele>
			 </trkpt>
			 <trkpt lat="50.08622" lon="8.63694">
				 <ele>98</ele>
			 </trkpt>
			 <trkpt lat="50.0862" lon="8.63672">
				 <ele>98</ele>
			 </trkpt>
			 <trkpt lat="50.08615" lon="8.63645">
				 <ele>98</ele>
			 </trkpt>
			 <trkpt lat="50.08608" lon="8.63626">
				 <ele>98</ele>
			 </trkpt>
			 <trkpt lat="50.086" lon="8.63616">
				 <ele>98</ele>
			 </trkpt>
			 <trkpt lat="50.08547" lon="8.63555">
				 <ele>98</ele>
			 </trkpt>
			 <trkpt lat="50.08506" lon="8.635">
				 <ele>98</ele>
			 </trkpt>
			 <trkpt lat="50.08499" lon="8.63494">
				 <ele>98</ele>
			 </trkpt>
			 <trkpt lat="50.08477" lon="8.63479">
				 <ele>97.9</ele>
			 </trkpt>
			 <trkpt lat="50.08472" lon="8.63383">
				 <ele>97.8</ele>
			 </trkpt>
			 <trkpt lat="50.08459" lon="8.63062">
				 <ele>97.7</ele>
			 </trkpt>
			 <trkpt lat="50.08455" lon="8.62963">
				 <ele>97.7</ele>
			 </trkpt>
			 <trkpt lat="50.08455" lon="8.62913">
				 <ele>97.7</ele>
			 </trkpt>
			 <trkpt lat="50.08452" lon="8.62868">
				 <ele>97.6</ele>
			 </trkpt>
			 <trkpt lat="50.08449" lon="8.62791">
				 <ele>97.5</ele>
			 </trkpt>
			 <trkpt lat="50.08444" lon="8.62678">
				 <ele>97.5</ele>
			 </trkpt>
			 <trkpt lat="50.08421" lon="8.62143">
				 <ele>97.4</ele>
			 </trkpt>
			 <trkpt lat="50.08417" lon="8.6202">
				 <ele>97.3</ele>
			 </trkpt>
			 <trkpt lat="50.08411" lon="8.61931">
				 <ele>97.2</ele>
			 </trkpt>
			 <trkpt lat="50.08409" lon="8.61879">
				 <ele>97.2</ele>
			 </trkpt>
			 <trkpt lat="50.08405" lon="8.61823">
				 <ele>97.2</ele>
			 </trkpt>
			 <trkpt lat="50.08403" lon="8.61794">
				 <ele>97.2</ele>
			 </trkpt>
			 <trkpt lat="50.08405" lon="8.61785">
				 <ele>97.1</ele>
			 </trkpt>
			 <trkpt lat="50.0841" lon="8.61781">
				 <ele>97</ele>
			 </trkpt>
			 <trkpt lat="50.0845" lon="8.6177">
				 <ele>96.9</ele>
			 </trkpt>
			 <trkpt lat="50.08489" lon="8.61756">
				 <ele>96.8</ele>
			 </trkpt>
			 <trkpt lat="50.08609" lon="8.61722">
				 <ele>96.7</ele>
			 </trkpt>
			 <trkpt lat="50.08659" lon="8.61707">
				 <ele>96.6</ele>
			 </trkpt>
			 <trkpt lat="50.08691" lon="8.61698">
				 <ele>96.5</ele>
			 </trkpt>
			 <trkpt lat="50.08708" lon="8.61693">
				 <ele>96.5</ele>
			 </trkpt>
			 <trkpt lat="50.08712" lon="8.61684">
				 <ele>96.3</ele>
			 </trkpt>
			 <trkpt lat="50.08712" lon="8.61668">
				 <ele>96.1</ele>
			 </trkpt>
			 <trkpt lat="50.08685" lon="8.61378">
				 <ele>95.9</ele>
			 </trkpt>
			 <trkpt lat="50.0867" lon="8.61258">
				 <ele>95.7</ele>
			 </trkpt>
			 <trkpt lat="50.08667" lon="8.61206">
				 <ele>95.5</ele>
			 </trkpt>
			 <trkpt lat="50.08662" lon="8.61163">
				 <ele>95.5</ele>
			 </trkpt>
			 <trkpt lat="50.08638" lon="8.60955">
				 <ele>95.4</ele>
			 </trkpt>
			 <trkpt lat="50.08614" lon="8.6074">
				 <ele>95.3</ele>
			 </trkpt>
			 <trkpt lat="50.08614" lon="8.60568">
				 <ele>95.2</ele>
			 </trkpt>
			 <trkpt lat="50.08613" lon="8.60457">
				 <ele>95.1</ele>
			 </trkpt>
			 <trkpt lat="50.08617" lon="8.6038">
				 <ele>95</ele>
			 </trkpt>
			 <trkpt lat="50.08637" lon="8.60225">
				 <ele>95</ele>
			 </trkpt>
			 <trkpt lat="50.08648" lon="8.60155">
				 <ele>95</ele>
			 </trkpt>
			 <trkpt lat="50.08657" lon="8.60079">
				 <ele>94.9</ele>
			 </trkpt>
			 <trkpt lat="50.08658" lon="8.60063">
				 <ele>94.8</ele>
			 </trkpt>
			 <trkpt lat="50.08662" lon="8.59679">
				 <ele>94.7</ele>
			 </trkpt>
			 <trkpt lat="50.08663" lon="8.59661">
				 <ele>94.6</ele>
			 </trkpt>
			 <trkpt lat="50.0868" lon="8.59481">
				 <ele>94.5</ele>
			 </trkpt>
			 <trkpt lat="50.0868" lon="8.59446">
				 <ele>94.5</ele>
			 </trkpt>
			 <trkpt lat="50.08673" lon="8.59404">
				 <ele>94.4</ele>
			 </trkpt>
			 <trkpt lat="50.08665" lon="8.59374">
				 <ele>94.3</ele>
			 </trkpt>
			 <trkpt lat="50.08651" lon="8.59341">
				 <ele>94.2</ele>
			 </trkpt>
			 <trkpt lat="50.08635" lon="8.59312">
				 <ele>94.1</ele>
			 </trkpt>
			 <trkpt lat="50.0863" lon="8.59302">
				 <ele>94</ele>
			 </trkpt>
			 <trkpt lat="50.08627" lon="8.59289">
				 <ele>94</ele>
			 </trkpt>
			 <trkpt lat="50.08626" lon="8.5927">
				 <ele>94</ele>
			 </trkpt>
			 <trkpt lat="50.08627" lon="8.59237">
				 <ele>94</ele>
			 </trkpt>
			 <trkpt lat="50.08628" lon="8.59225">
				 <ele>94</ele>
			 </trkpt>
			 <trkpt lat="50.08638" lon="8.59195">
				 <ele>94</ele>
			 </trkpt>
			 <trkpt lat="50.08629" lon="8.59175">
				 <ele>94</ele>
			 </trkpt>
			 <trkpt lat="50.0862" lon="8.59147">
				 <ele>94</ele>
			 </trkpt>
			 <trkpt lat="50.08591" lon="8.59002">
				 <ele>94</ele>
			 </trkpt>
			 <trkpt lat="50.08591" lon="8.58978">
				 <ele>94</ele>
			 </trkpt>
			 <trkpt lat="50.08594" lon="8.58973">
				 <ele>94.1</ele>
			 </trkpt>
			 <trkpt lat="50.08594" lon="8.58962">
				 <ele>94.2</ele>
			 </trkpt>
			 <trkpt lat="50.08593" lon="8.58958">
				 <ele>94.3</ele>
			 </trkpt>
			 <trkpt lat="50.08598" lon="8.58948">
				 <ele>94.4</ele>
			 </trkpt>
			 <trkpt lat="50.08601" lon="8.58932">
				 <ele>94.5</ele>
			 </trkpt>
			 <trkpt lat="50.08602" lon="8.58916">
				 <ele>94.7</ele>
			 </trkpt>
			 <trkpt lat="50.08605" lon="8.58898">
				 <ele>94.9</ele>
			 </trkpt>
			 <trkpt lat="50.08611" lon="8.58868">
				 <ele>95.1</ele>
			 </trkpt>
			 <trkpt lat="50.0867" lon="8.58571">
				 <ele>95.3</ele>
			 </trkpt>
			 <trkpt lat="50.08687" lon="8.58476">
				 <ele>95.5</ele>
			 </trkpt>
			 <trkpt lat="50.08709" lon="8.5838">
				 <ele>95.7</ele>
			 </trkpt>
			 <trkpt lat="50.08712" lon="8.5836">
				 <ele>95.9</ele>
			 </trkpt>
			 <trkpt lat="50.0872" lon="8.58267">
				 <ele>96.1</ele>
			 </trkpt>
			 <trkpt lat="50.0873" lon="8.58157">
				 <ele>96.3</ele>
			 </trkpt>
			 <trkpt lat="50.08744" lon="8.58068">
				 <ele>96.4</ele>
			 </trkpt>
			 <trkpt lat="50.08754" lon="8.58012">
				 <ele>96.4</ele>
			 </trkpt>
			 <trkpt lat="50.08769" lon="8.57975">
				 <ele>96.4</ele>
			 </trkpt>
			 <trkpt lat="50.08783" lon="8.57934">
				 <ele>96.4</ele>
			 </trkpt>
			 <trkpt lat="50.08895" lon="8.57633">
				 <ele>96.4</ele>
			 </trkpt>
			 <trkpt lat="50.08914" lon="8.57585">
				 <ele>96.4</ele>
			 </trkpt>
			 <trkpt lat="50.089345" lon="8.57601">
				 <ele>96.3</ele>
			 </trkpt>
			 <trkpt lat="50.089469" lon="8.57609">
				 <ele>96.1</ele>
			 </trkpt>
			 <trkpt lat="50.089569" lon="8.576106">
				 <ele>95.9</ele>
			 </trkpt>
			 <trkpt lat="50.089665" lon="8.575977">
				 <ele>95.7</ele>
			 </trkpt>
			 <trkpt lat="50.08971" lon="8.575779">
				 <ele>95.5</ele>
			 </trkpt>
			 <trkpt lat="50.089731" lon="8.575511">
				 <ele>95.5</ele>
			 </trkpt>
			 <trkpt lat="50.089745" lon="8.574603">
				 <ele>95.4</ele>
			 </trkpt>
			 <trkpt lat="50.089772" lon="8.574324">
				 <ele>95.3</ele>
			 </trkpt>
			 <trkpt lat="50.089851" lon="8.573959">
				 <ele>95.3</ele>
			 </trkpt>
			 <trkpt lat="50.090096" lon="8.573138">
				 <ele>95.3</ele>
			 </trkpt>
			 <trkpt lat="50.09076" lon="8.570992">
				 <ele>95.3</ele>
			 </trkpt>
			 <trkpt lat="50.090808" lon="8.570585">
				 <ele>95.4</ele>
			 </trkpt>
			 <trkpt lat="50.090814" lon="8.570296">
				 <ele>95.5</ele>
			 </trkpt>
			 <trkpt lat="50.090728" lon="8.57006">
				 <ele>95.7</ele>
			 </trkpt>
			 <trkpt lat="50.090659" lon="8.569953">
				 <ele>95.9</ele>
			 </trkpt>
			 <trkpt lat="50.089974" lon="8.569567">
				 <ele>96.1</ele>
			 </trkpt>
			 <trkpt lat="50.089698" lon="8.569384">
				 <ele>96.3</ele>
			 </trkpt>
			 <trkpt lat="50.089629" lon="8.569378">
				 <ele>96.5</ele>
			 </trkpt>
			 <trkpt lat="50.089501" lon="8.56941">
				 <ele>96.6</ele>
			 </trkpt>
			 <trkpt lat="50.089426" lon="8.569486">
				 <ele>96.7</ele>
			 </trkpt>
			 <trkpt lat="50.089323" lon="8.569609">
				 <ele>96.8</ele>
			 </trkpt>
			 <trkpt lat="50.089264" lon="8.569856">
				 <ele>96.9</ele>
			 </trkpt>
			 <trkpt lat="50.089274" lon="8.570043">
				 <ele>97</ele>
			 </trkpt>
			 <trkpt lat="50.089295" lon="8.570215">
				 <ele>97</ele>
			 </trkpt>
			 <trkpt lat="50.089398" lon="8.570456">
				 <ele>97</ele>
			 </trkpt>
			 <trkpt lat="50.089532" lon="8.570725">
				 <ele>97</ele>
			 </trkpt>
			 <trkpt lat="50.090403" lon="8.571854">
				 <ele>96.9</ele>
			 </trkpt>
			 <trkpt lat="50.091398" lon="8.573012">
				 <ele>96.8</ele>
			 </trkpt>
			 <trkpt lat="50.094275" lon="8.576622">
				 <ele>96.7</ele>
			 </trkpt>
			 <trkpt lat="50.095044" lon="8.577567">
				 <ele>96.6</ele>
			 </trkpt>
			 <trkpt lat="50.09536" lon="8.577717">
				 <ele>96.5</ele>
			 </trkpt>
			 <trkpt lat="50.095629" lon="8.577771">
				 <ele>96.4</ele>
			 </trkpt>
			 <trkpt lat="50.095794" lon="8.577535">
				 <ele>96.2</ele>
			 </trkpt>
			 <trkpt lat="50.09589" lon="8.577224">
				 <ele>96</ele>
			 </trkpt>
			 <trkpt lat="50.095863" lon="8.576945">
				 <ele>95.8</ele>
			 </trkpt>
			 <trkpt lat="50.095715" lon="8.576559">
				 <ele>95.6</ele>
			 </trkpt>
			 <trkpt lat="50.095522" lon="8.576269">
				 <ele>95.5</ele>
			 </trkpt>
			 <trkpt lat="50.094535" lon="8.575143">
				 <ele>95.4</ele>
			 </trkpt>
			 <trkpt lat="50.094426" lon="8.574947">
				 <ele>95.3</ele>
			 </trkpt>
			 <trkpt lat="50.094392" lon="8.574759">
				 <ele>95.2</ele>
			 </trkpt>
			 <trkpt lat="50.094419" lon="8.574684">
				 <ele>95.1</ele>
			 </trkpt>
			 <trkpt lat="50.09486" lon="8.57388">
				 <ele>95</ele>
			 </trkpt>
			 <trkpt lat="50.09543" lon="8.573">
				 <ele>95</ele>
			 </trkpt>
			 <trkpt lat="50.0959" lon="8.57211">
				 <ele>95</ele>
			 </trkpt>
			 <trkpt lat="50.09617" lon="8.57155">
				 <ele>95</ele>
			 </trkpt>
			 <trkpt lat="50.09638" lon="8.57111">
				 <ele>95</ele>
			 </trkpt>
			 <trkpt lat="50.09656" lon="8.57072">
				 <ele>95</ele>
			 </trkpt>
			 <trkpt lat="50.09689" lon="8.56996">
				 <ele>94.9</ele>
			 </trkpt>
			 <trkpt lat="50.09708" lon="8.56953">
				 <ele>94.8</ele>
			 </trkpt>
			 <trkpt lat="50.09756" lon="8.56854">
				 <ele>94.7</ele>
			 </trkpt>
			 <trkpt lat="50.09784" lon="8.56804">
				 <ele>94.6</ele>
			 </trkpt>
			 <trkpt lat="50.09805" lon="8.56766">
				 <ele>94.5</ele>
			 </trkpt>
			 <trkpt lat="50.09827" lon="8.56729">
				 <ele>94.5</ele>
			 </trkpt>
			 <trkpt lat="50.09812" lon="8.56659">
				 <ele>94.4</ele>
			 </trkpt>
			 <trkpt lat="50.09803" lon="8.56617">
				 <ele>94.3</ele>
			 </trkpt>
			 <trkpt lat="50.098" lon="8.56594">
				 <ele>94.2</ele>
			 </trkpt>
			 <trkpt lat="50.09799" lon="8.56557">
				 <ele>94.1</ele>
			 </trkpt>
			 <trkpt lat="50.09803" lon="8.56528">
				 <ele>94</ele>
			 </trkpt>
			 <trkpt lat="50.09812" lon="8.565">
				 <ele>94</ele>
			 </trkpt>
			 <trkpt lat="50.09846" lon="8.56431">
				 <ele>94</ele>
			 </trkpt>
			 <trkpt lat="50.09857" lon="8.5641">
				 <ele>94.1</ele>
			 </trkpt>
			 <trkpt lat="50.09942" lon="8.5624">
				 <ele>94.3</ele>
			 </trkpt>
			 <trkpt lat="50.09958" lon="8.56213">
				 <ele>94.5</ele>
			 </trkpt>
			 <trkpt lat="50.09974" lon="8.56189">
				 <ele>94.6</ele>
			 </trkpt>
			 <trkpt lat="50.100314" lon="8.561183">
				 <ele>94.8</ele>
			 </trkpt>
			 <trkpt lat="50.101747" lon="8.559815">
				 <ele>95</ele>
			 </trkpt>
			 <trkpt lat="50.101912" lon="8.559279">
				 <ele>95.2</ele>
			 </trkpt>
			 <trkpt lat="50.10249" lon="8.557079">
				 <ele>95.4</ele>
			 </trkpt>
			 <trkpt lat="50.102511" lon="8.55636">
				 <ele>95.5</ele>
			 </trkpt>
			 <trkpt lat="50.102433" lon="8.555896">
				 <ele>95.8</ele>
			 </trkpt>
			 <trkpt lat="50.101473" lon="8.553075">
				 <ele>96.1</ele>
			 </trkpt>
			 <trkpt lat="50.102969" lon="8.551884">
				 <ele>96.2</ele>
			 </trkpt>
			 <trkpt lat="50.103214" lon="8.552635">
				 <ele>96.2</ele>
			 </trkpt>
			 <trkpt lat="50.10329" lon="8.553075">
				 <ele>96.1</ele>
			 </trkpt>
			 <trkpt lat="50.103187" lon="8.555832">
				 <ele>96</ele>
			 </trkpt>
			 <trkpt lat="50.103108" lon="8.556118">
				 <ele>95.9</ele>
			 </trkpt>
			 <trkpt lat="50.102709" lon="8.556815">
				 <ele>95.8</ele>
			 </trkpt>
			 <trkpt lat="50.102523" lon="8.557491">
				 <ele>95.7</ele>
			 </trkpt>
			 <trkpt lat="50.101873" lon="8.559948">
				 <ele>95.6</ele>
			 </trkpt>
			 <trkpt lat="50.101717" lon="8.560345">
				 <ele>95.5</ele>
			 </trkpt>
			 <trkpt lat="50.100927" lon="8.563271">
				 <ele>95.4</ele>
			 </trkpt>
			 <trkpt lat="50.100264" lon="8.564244">
				 <ele>95.2</ele>
			 </trkpt>
			 <trkpt lat="50.100826" lon="8.565357">
				 <ele>95.1</ele>
			 </trkpt>
			 <trkpt lat="50.102257" lon="8.568865">
				 <ele>95</ele>
			 </trkpt>
			 <trkpt lat="50.103447" lon="8.571558">
				 <ele>94.9</ele>
			 </trkpt>
			 <trkpt lat="50.103752" lon="8.572358">
				 <ele>94.9</ele>
			 </trkpt>
			 <trkpt lat="50.104523" lon="8.574933">
				 <ele>94.9</ele>
			 </trkpt>
			 <trkpt lat="50.104489" lon="8.575126">
				 <ele>94.9</ele>
			 </trkpt>
			 <trkpt lat="50.10397" lon="8.5758">
				 <ele>94.9</ele>
			 </trkpt>
			 <trkpt lat="50.10305" lon="8.57697">
				 <ele>94.9</ele>
			 </trkpt>
			 <trkpt lat="50.10287" lon="8.57721">
				 <ele>94.9</ele>
			 </trkpt>
			 <trkpt lat="50.10227" lon="8.57794">
				 <ele>94.9</ele>
			 </trkpt>
			 <trkpt lat="50.10211" lon="8.57813">
				 <ele>94.9</ele>
			 </trkpt>
			 <trkpt lat="50.1014" lon="8.57892">
				 <ele>95</ele>
			 </trkpt>
			 <trkpt lat="50.1007" lon="8.57969">
				 <ele>95.1</ele>
			 </trkpt>
			 <trkpt lat="50.10046" lon="8.58001">
				 <ele>95.3</ele>
			 </trkpt>
			 <trkpt lat="50.10034" lon="8.58009">
				 <ele>95.4</ele>
			 </trkpt>
			 <trkpt lat="50.10017" lon="8.58029">
				 <ele>95.5</ele>
			 </trkpt>
			 <trkpt lat="50.10008" lon="8.58036">
				 <ele>95.5</ele>
			 </trkpt>
			 <trkpt lat="50.10003" lon="8.58049">
				 <ele>95.6</ele>
			 </trkpt>
			 <trkpt lat="50.1" lon="8.58063">
				 <ele>95.7</ele>
			 </trkpt>
			 <trkpt lat="50.1" lon="8.58105">
				 <ele>95.8</ele>
			 </trkpt>
			 <trkpt lat="50.09997" lon="8.58227">
				 <ele>95.9</ele>
			 </trkpt>
			 <trkpt lat="50.0999" lon="8.58289">
				 <ele>96</ele>
			 </trkpt>
			 <trkpt lat="50.09984" lon="8.58322">
				 <ele>96</ele>
			 </trkpt>
			 <trkpt lat="50.0997" lon="8.58392">
				 <ele>96</ele>
			 </trkpt>
			 <trkpt lat="50.09966" lon="8.58432">
				 <ele>96</ele>
			 </trkpt>
			 <trkpt lat="50.09969" lon="8.58477">
				 <ele>95.9</ele>
			 </trkpt>
			 <trkpt lat="50.09982" lon="8.58544">
				 <ele>95.8</ele>
			 </trkpt>
			 <trkpt lat="50.0999" lon="8.58586">
				 <ele>95.7</ele>
			 </trkpt>
			 <trkpt lat="50.09994" lon="8.58629">
				 <ele>95.7</ele>
			 </trkpt>
			 <trkpt lat="50.09996" lon="8.58652">
				 <ele>95.7</ele>
			 </trkpt>
			 <trkpt lat="50.100003" lon="8.58969">
				 <ele>95.7</ele>
			 </trkpt>
			 <trkpt lat="50.100052" lon="8.592143">
				 <ele>95.7</ele>
			 </trkpt>
			 <trkpt lat="50.10008" lon="8.596981">
				 <ele>95.7</ele>
			 </trkpt>
			 <trkpt lat="50.100155" lon="8.599574">
				 <ele>95.7</ele>
			 </trkpt>
			 <trkpt lat="50.100185" lon="8.60202">
				 <ele>95.7</ele>
			 </trkpt>
			 <trkpt lat="50.100155" lon="8.603655">
				 <ele>95.7</ele>
			 </trkpt>
			 <trkpt lat="50.10014" lon="8.60473">
				 <ele>95.8</ele>
			 </trkpt>
			 <trkpt lat="50.10014" lon="8.60566">
				 <ele>95.9</ele>
			 </trkpt>
			 <trkpt lat="50.10017" lon="8.60643">
				 <ele>96</ele>
			 </trkpt>
			 <trkpt lat="50.10018" lon="8.60721">
				 <ele>96</ele>
			 </trkpt>
			 <trkpt lat="50.10013" lon="8.61013">
				 <ele>96</ele>
			 </trkpt>
			 <trkpt lat="50.10011" lon="8.61188">
				 <ele>96</ele>
			 </trkpt>
			 <trkpt lat="50.10013" lon="8.61323">
				 <ele>96</ele>
			 </trkpt>
			 <trkpt lat="50.10026" lon="8.61662">
				 <ele>96</ele>
			 </trkpt>
			 <trkpt lat="50.10031" lon="8.61721">
				 <ele>96.1</ele>
			 </trkpt>
			 <trkpt lat="50.10048" lon="8.61834">
				 <ele>96.2</ele>
			 </trkpt>
			 <trkpt lat="50.10059" lon="8.61915">
				 <ele>96.3</ele>
			 </trkpt>
			 <trkpt lat="50.10114" lon="8.62498">
				 <ele>96.4</ele>
			 </trkpt>
			 <trkpt lat="50.10128" lon="8.6263">
				 <ele>96.5</ele>
			 </trkpt>
			 <trkpt lat="50.1014" lon="8.62736">
				 <ele>96.6</ele>
			 </trkpt>
			 <trkpt lat="50.10149" lon="8.62824">
				 <ele>96.8</ele>
			 </trkpt>
			 <trkpt lat="50.10153" lon="8.62869">
				 <ele>97</ele>
			 </trkpt>
			 <trkpt lat="50.10158" lon="8.62897">
				 <ele>97.2</ele>
			 </trkpt>
			 <trkpt lat="50.10167" lon="8.62994">
				 <ele>97.4</ele>
			 </trkpt>
			 <trkpt lat="50.10188" lon="8.63243">
				 <ele>97.5</ele>
			 </trkpt>
			 <trkpt lat="50.10215" lon="8.63527">
				 <ele>97.6</ele>
			 </trkpt>
			 <trkpt lat="50.10221" lon="8.6359">
				 <ele>97.7</ele>
			 </trkpt>
			 <trkpt lat="50.102476" lon="8.638742">
				 <ele>97.8</ele>
			 </trkpt>
			 <trkpt lat="50.102531" lon="8.639251">
				 <ele>97.8</ele>
			 </trkpt>
			 <trkpt lat="50.103671" lon="8.639026">
				 <ele>97.8</ele>
			 </trkpt>
			 <trkpt lat="50.104501" lon="8.638851">
				 <ele>97.7</ele>
			 </trkpt>
			 <trkpt lat="50.106005" lon="8.639652">
				 <ele>97.7</ele>
			 </trkpt>
			 <trkpt lat="50.10606" lon="8.640382">
				 <ele>97.6</ele>
			 </trkpt>
			 <trkpt lat="50.107638" lon="8.640193">
				 <ele>97.5</ele>
			 </trkpt>
			 <trkpt lat="50.108424" lon="8.640129">
				 <ele>97.5</ele>
			 </trkpt>
			 <trkpt lat="50.108555" lon="8.64206">
				 <ele>97.5</ele>
			 </trkpt>
			 <trkpt lat="50.10861" lon="8.642704">
				 <ele>97.5</ele>
			 </trkpt>
			 <trkpt lat="50.108631" lon="8.643755">
				 <ele>97.5</ele>
			 </trkpt>
			 <trkpt lat="50.108697" lon="8.64455">
				 <ele>97.5</ele>
			 </trkpt>
			 <trkpt lat="50.108759" lon="8.645483">
				 <ele>97.5</ele>
			 </trkpt>
			 <trkpt lat="50.108912" lon="8.649317">
				 <ele>97.6</ele>
			 </trkpt>
			 <trkpt lat="50.10887" lon="8.649736">
				 <ele>97.7</ele>
			 </trkpt>
			 <trkpt lat="50.108908" lon="8.650716">
				 <ele>97.7</ele>
			 </trkpt>
			 <trkpt lat="50.108936" lon="8.651327">
				 <ele>97.8</ele>
			 </trkpt>
			 <trkpt lat="50.109025" lon="8.651563">
				 <ele>97.9</ele>
			 </trkpt>
			 <trkpt lat="50.11018" lon="8.65127">
				 <ele>98</ele>
			 </trkpt>
			 <trkpt lat="50.11027" lon="8.65129">
				 <ele>98</ele>
			 </trkpt>
			 <trkpt lat="50.11044" lon="8.65125">
				 <ele>98</ele>
			 </trkpt>
			 <trkpt lat="50.11046" lon="8.65129">
				 <ele>98</ele>
			 </trkpt>
			 <trkpt lat="50.11049" lon="8.65132">
				 <ele>98</ele>
			 </trkpt>
			 <trkpt lat="50.1106" lon="8.65204">
				 <ele>98</ele>
			 </trkpt>
			 <trkpt lat="50.11075" lon="8.65334">
				 <ele>98.1</ele>
			 </trkpt>
			 <trkpt lat="50.11077" lon="8.65378">
				 <ele>98.2</ele>
			 </trkpt>
			 <trkpt lat="50.11075" lon="8.65393">
				 <ele>98.3</ele>
			 </trkpt>
			 <trkpt lat="50.11061" lon="8.65432">
				 <ele>98.4</ele>
			 </trkpt>
			 <trkpt lat="50.11051" lon="8.65442">
				 <ele>98.5</ele>
			 </trkpt>
			 <trkpt lat="50.11034" lon="8.65449">
				 <ele>98.5</ele>
			 </trkpt>
			 <trkpt lat="50.11002" lon="8.65455">
				 <ele>98.5</ele>
			 </trkpt>
			 <trkpt lat="50.10976" lon="8.65464">
				 <ele>98.5</ele>
			 </trkpt>
			 <trkpt lat="50.10956" lon="8.65473">
				 <ele>98.5</ele>
			 </trkpt>
			 <trkpt lat="50.10934" lon="8.65479">
				 <ele>98.5</ele>
			 </trkpt>
			 <trkpt lat="50.10916" lon="8.65483">
				 <ele>98.5</ele>
			 </trkpt>
			 <trkpt lat="50.10859" lon="8.65487">
				 <ele>98.5</ele>
			 </trkpt>
			 <trkpt lat="50.10847" lon="8.65488">
				 <ele>98.3</ele>
			 </trkpt>
			 <trkpt lat="50.1084" lon="8.65494">
				 <ele>98.1</ele>
			 </trkpt>
			 <trkpt lat="50.10832" lon="8.65505">
				 <ele>97.9</ele>
			 </trkpt>
			 <trkpt lat="50.10821" lon="8.65527">
				 <ele>97.7</ele>
			 </trkpt>
			 <trkpt lat="50.10813" lon="8.65533">
				 <ele>97.5</ele>
			 </trkpt>
			 <trkpt lat="50.10805" lon="8.65536">
				 <ele>97.5</ele>
			 </trkpt>
			 <trkpt lat="50.10789" lon="8.6554">
				 <ele>97.4</ele>
			 </trkpt>
			 <trkpt lat="50.10779" lon="8.65545">
				 <ele>97.3</ele>
			 </trkpt>
			 <trkpt lat="50.10767" lon="8.65554">
				 <ele>97.3</ele>
			 </trkpt>
			 <trkpt lat="50.107477" lon="8.655804">
				 <ele>97.3</ele>
			 </trkpt>
			 <trkpt lat="50.10751" lon="8.65582">
				 <ele>97.3</ele>
			 </trkpt>
			 <trkpt lat="50.10807" lon="8.65728">
				 <ele>97.4</ele>
			 </trkpt>
			 <trkpt lat="50.10867" lon="8.65873">
				 <ele>97.5</ele>
			 </trkpt>
			 <trkpt lat="50.10902" lon="8.65958">
				 <ele>97.5</ele>
			 </trkpt>
			 <trkpt lat="50.10937" lon="8.66057">
				 <ele>97.6</ele>
			 </trkpt>
			 <trkpt lat="50.10943" lon="8.66068">
				 <ele>97.7</ele>
			 </trkpt>
			 <trkpt lat="50.1095" lon="8.66083">
				 <ele>97.8</ele>
			 </trkpt>
			 <trkpt lat="50.1099" lon="8.66179">
				 <ele>97.9</ele>
			 </trkpt>
			 <trkpt lat="50.10993" lon="8.66185">
				 <ele>98</ele>
			 </trkpt>
			 <trkpt lat="50.11107" lon="8.66478">
				 <ele>98</ele>
			 </trkpt>
			 <trkpt lat="50.11151" lon="8.66592">
				 <ele>98.1</ele>
			 </trkpt>
			 <trkpt lat="50.11173" lon="8.66645">
				 <ele>98.2</ele>
			 </trkpt>
			 <trkpt lat="50.11196" lon="8.66679">
				 <ele>98.3</ele>
			 </trkpt>
			 <trkpt lat="50.1122" lon="8.66712">
				 <ele>98.4</ele>
			 </trkpt>
			 <trkpt lat="50.1123" lon="8.66728">
				 <ele>98.5</ele>
			 </trkpt>
			 <trkpt lat="50.11279" lon="8.66799">
				 <ele>98.7</ele>
			 </trkpt>
			 <trkpt lat="50.11301" lon="8.6683">
				 <ele>99</ele>
			 </trkpt>
			 <trkpt lat="50.11319" lon="8.66859">
				 <ele>99.3</ele>
			 </trkpt>
			 <trkpt lat="50.11341" lon="8.66903">
				 <ele>99.6</ele>
			 </trkpt>
			 <trkpt lat="50.11357" lon="8.66928">
				 <ele>100</ele>
			 </trkpt>
			 <trkpt lat="50.11372" lon="8.66951">
				 <ele>100.4</ele>
			 </trkpt>
			 <trkpt lat="50.11396" lon="8.66986">
				 <ele>100.7</ele>
			 </trkpt>
			 <trkpt lat="50.11436" lon="8.67039">
				 <ele>101.1</ele>
			 </trkpt>
			 <trkpt lat="50.11463" lon="8.67065">
				 <ele>101.5</ele>
			 </trkpt>
			 <trkpt lat="50.115256" lon="8.671079">
				 <ele>101.8</ele>
			 </trkpt>
			 <trkpt lat="50.114788" lon="8.67257">
				 <ele>102.1</ele>
			 </trkpt>
			 <trkpt lat="50.113364" lon="8.671915">
				 <ele>102.3</ele>
			 </trkpt>
			 <trkpt lat="50.11335" lon="8.672087">
				 <ele>102.4</ele>
			 </trkpt>
			 <trkpt lat="50.11304" lon="8.67361">
				 <ele>102.4</ele>
			 </trkpt>
			 <trkpt lat="50.11283" lon="8.67472">
				 <ele>102.3</ele>
			 </trkpt>
			 <trkpt lat="50.11279" lon="8.67524">
				 <ele>102.1</ele>
			 </trkpt>
			 <trkpt lat="50.11274" lon="8.67546">
				 <ele>101.9</ele>
			 </trkpt>
			 <trkpt lat="50.11262" lon="8.67609">
				 <ele>101.6</ele>
			 </trkpt>
			 <trkpt lat="50.11256" lon="8.67607">
				 <ele>101.4</ele>
			 </trkpt>
			 <trkpt lat="50.11229" lon="8.67597">
				 <ele>101.1</ele>
			 </trkpt>
			 <trkpt lat="50.11219" lon="8.67591">
				 <ele>100.8</ele>
			 </trkpt>
			 <trkpt lat="50.11218" lon="8.67585">
				 <ele>100.5</ele>
			 </trkpt>
			 <trkpt lat="50.11202" lon="8.67557">
				 <ele>100.4</ele>
			 </trkpt>
			 <trkpt lat="50.11184" lon="8.67496">
				 <ele>100.2</ele>
			 </trkpt>
			 <trkpt lat="50.11166" lon="8.6744">
				 <ele>100.2</ele>
			 </trkpt>
			 <trkpt lat="50.111116" lon="8.673085">
				 <ele>100.2</ele>
			 </trkpt>
			 <trkpt lat="50.110091" lon="8.674061">
				 <ele>100.4</ele>
			 </trkpt>
			 <trkpt lat="50.110359" lon="8.674876">
				 <ele>100.5</ele>
			 </trkpt>
			 <trkpt lat="50.110338" lon="8.675306">
				 <ele>100.7</ele>
			 </trkpt>
			 <trkpt lat="50.110662" lon="8.675574">
				 <ele>100.9</ele>
			 </trkpt>
			 <trkpt lat="50.11221" lon="8.677301">
				 <ele>101.2</ele>
			 </trkpt>
			 <trkpt lat="50.112887" lon="8.678482">
				 <ele>101.5</ele>
			 </trkpt>
			 <trkpt lat="50.113162" lon="8.678911">
				 <ele>101.7</ele>
			 </trkpt>
			 <trkpt lat="50.113575" lon="8.679244">
				 <ele>102</ele>
			 </trkpt>
			 <trkpt lat="50.114042" lon="8.679394">
				 <ele>102.3</ele>
			 </trkpt>
			 <trkpt lat="50.115218" lon="8.67951">
				 <ele>102.5</ele>
			 </trkpt>
			 <trkpt lat="50.11544" lon="8.67954">
				 <ele>102.6</ele>
			 </trkpt>
			 <trkpt lat="50.11603" lon="8.67969">
				 <ele>102.8</ele>
			 </trkpt>
			 <trkpt lat="50.11666" lon="8.67989">
				 <ele>103</ele>
			 </trkpt>
			 <trkpt lat="50.11687" lon="8.67993">
				 <ele>103.2</ele>
			 </trkpt>
			 <trkpt lat="50.117064" lon="8.679815">
				 <ele>103.4</ele>
			 </trkpt>
			 <trkpt lat="50.11694" lon="8.679139">
				 <ele>103.5</ele>
			 </trkpt>
			 <trkpt lat="50.11682" lon="8.67909">
				 <ele>103.5</ele>
			 </trkpt>
			 <trkpt lat="50.11672" lon="8.67896">
				 <ele>103.6</ele>
			 </trkpt>
			 <trkpt lat="50.11667" lon="8.67881">
				 <ele>103.7</ele>
			 </trkpt>
			 <trkpt lat="50.11657" lon="8.67838">
				 <ele>103.8</ele>
			 </trkpt>
			 <trkpt lat="50.11644" lon="8.67796">
				 <ele>103.9</ele>
			 </trkpt>
			 <trkpt lat="50.1163" lon="8.67759">
				 <ele>104</ele>
			 </trkpt>
			 <trkpt lat="50.11611" lon="8.67728">
				 <ele>104</ele>
			 </trkpt>
			 <trkpt lat="50.11601" lon="8.67714">
				 <ele>104</ele>
			 </trkpt>
			 <trkpt lat="50.11589" lon="8.67702">
				 <ele>103.9</ele>
			 </trkpt>
			 <trkpt lat="50.1157" lon="8.67693">
				 <ele>103.8</ele>
			 </trkpt>
			 <trkpt lat="50.11546" lon="8.67687">
				 <ele>103.7</ele>
			 </trkpt>
			 <trkpt lat="50.11531" lon="8.67686">
				 <ele>103.6</ele>
			 </trkpt>
			 <trkpt lat="50.11513" lon="8.67683">
				 <ele>103.5</ele>
			 </trkpt>
			 <trkpt lat="50.11501" lon="8.67682">
				 <ele>103.3</ele>
			 </trkpt>
			 <trkpt lat="50.11422" lon="8.6766">
				 <ele>103.1</ele>
			 </trkpt>
			 <trkpt lat="50.114408" lon="8.67545">
				 <ele>102.9</ele>
			 </trkpt>
			 <trkpt lat="50.114924" lon="8.67296">
				 <ele>102.6</ele>
			 </trkpt>
			 <trkpt lat="50.115306" lon="8.671179">
				 <ele>102.4</ele>
			 </trkpt>
			 <trkpt lat="50.115253" lon="8.67081">
				 <ele>102</ele>
			 </trkpt>
			 <trkpt lat="50.11501" lon="8.670727">
				 <ele>101.7</ele>
			 </trkpt>
			 <trkpt lat="50.11502" lon="8.67068">
				 <ele>101.5</ele>
			 </trkpt>
			 <trkpt lat="50.11466" lon="8.67042">
				 <ele>101.1</ele>
			 </trkpt>
			 <trkpt lat="50.11451" lon="8.67026">
				 <ele>100.7</ele>
			 </trkpt>
			 <trkpt lat="50.11427" lon="8.66997">
				 <ele>100.5</ele>
			 </trkpt>
			 <trkpt lat="50.11407" lon="8.66969">
				 <ele>100.1</ele>
			 </trkpt>
			 <trkpt lat="50.11376" lon="8.66926">
				 <ele>99.7</ele>
			 </trkpt>
			 <trkpt lat="50.11309" lon="8.66828">
				 <ele>99.4</ele>
			 </trkpt>
			 <trkpt lat="50.11253" lon="8.66744">
				 <ele>99.1</ele>
			 </trkpt>
			 <trkpt lat="50.11213" lon="8.66684">
				 <ele>98.8</ele>
			 </trkpt>
			 <trkpt lat="50.11181" lon="8.66635">
				 <ele>98.6</ele>
			 </trkpt>
			 <trkpt lat="50.11172" lon="8.66616">
				 <ele>98.5</ele>
			 </trkpt>
			 <trkpt lat="50.11164" lon="8.66597">
				 <ele>98.3</ele>
			 </trkpt>
			 <trkpt lat="50.1113" lon="8.66512">
				 <ele>98.2</ele>
			 </trkpt>
			 <trkpt lat="50.11071" lon="8.66365">
				 <ele>98.1</ele>
			 </trkpt>
			 <trkpt lat="50.11041" lon="8.6628">
				 <ele>98</ele>
			 </trkpt>
			 <trkpt lat="50.109631" lon="8.660709">
				 <ele>98</ele>
			 </trkpt>
			 <trkpt lat="50.109611" lon="8.660216">
				 <ele>98</ele>
			 </trkpt>
			 <trkpt lat="50.110092" lon="8.6591">
				 <ele>98</ele>
			 </trkpt>
			 <trkpt lat="50.111035" lon="8.656858">
				 <ele>98</ele>
			 </trkpt>
			 <trkpt lat="50.112439" lon="8.653703">
				 <ele>98</ele>
			 </trkpt>
			 <trkpt lat="50.112748" lon="8.652748">
				 <ele>98</ele>
			 </trkpt>
			 <trkpt lat="50.112624" lon="8.652266">
				 <ele>98</ele>
			 </trkpt>
		 </trkseg>
	 </trk>
</gpx>