<?xml version="1.0" encoding="UTF-8"?>
 <gpx creator="Garmin Connect" version="1.1"
	 xsi:schemaLocation="http://www.topografix.com/GPX/1/1 http://www.topografix.com/GPX/11.xsd"
	 xmlns:ns3="http://www.garmin.com/xmlschemas/TrackPointExtension/v1"
	 xmlns="http://www.topografix.com/GPX/1/1"
	 xmlns:xsi="http://www.w3.org/2001/XMLSchema-instance" xmlns:ns2="http://www.garmin.com/xmlschemas/GpxExtensions/v3">
	 <metadata>
		<name>Rimi Riga Marathon - 42.195 km</name>
		 <link href="https://www.goandrace.com">
		 <text>Garmin Connect</text>
		 </link>
	 <time>2026-08-23T23:27:55</time>
	 </metadata>
	 <trk>
		 <name>Rimi Riga Marathon - 42.195 km</name>
		 <trkseg>
			 <trkpt lat="56.946602" lon="24.104744">
				 <ele>6</ele>
			 </trkpt>
			 <trkpt lat="56.946314" lon="24.104293">
				 <ele>2</ele>
			 </trkpt>
			 <trkpt lat="56.945816" lon="24.103342">
				 <ele>0</ele>
			 </trkpt>
			 <trkpt lat="56.940483" lon="24.092561">
				 <ele>6</ele>
			 </trkpt>
			 <trkpt lat="56.940396" lon="24.092339">
				 <ele>6</ele>
			 </trkpt>
			 <trkpt lat="56.940357" lon="24.092218">
				 <ele>6</ele>
			 </trkpt>
			 <trkpt lat="56.940339" lon="24.092114">
				 <ele>6</ele>
			 </trkpt>
			 <trkpt lat="56.940316" lon="24.0919">
				 <ele>5</ele>
			 </trkpt>
			 <trkpt lat="56.940341" lon="24.09168">
				 <ele>4</ele>
			 </trkpt>
			 <trkpt lat="56.94232" lon="24.087926">
				 <ele>6</ele>
			 </trkpt>
			 <trkpt lat="56.943488" lon="24.085744">
				 <ele>2</ele>
			 </trkpt>
			 <trkpt lat="56.94392" lon="24.085101">
				 <ele>3</ele>
			 </trkpt>
			 <trkpt lat="56.944375" lon="24.084662">
				 <ele>3</ele>
			 </trkpt>
			 <trkpt lat="56.946496" lon="24.082682">
				 <ele>4</ele>
			 </trkpt>
			 <trkpt lat="56.946833" lon="24.082232">
				 <ele>3</ele>
			 </trkpt>
			 <trkpt lat="56.947038" lon="24.081923">
				 <ele>4</ele>
			 </trkpt>
			 <trkpt lat="56.947888" lon="24.080664">
				 <ele>3</ele>
			 </trkpt>
			 <trkpt lat="56.948395" lon="24.079925">
				 <ele>5</ele>
			 </trkpt>
			 <trkpt lat="56.948742" lon="24.079237">
				 <ele>6</ele>
			 </trkpt>
			 <trkpt lat="56.948925" lon="24.078832">
				 <ele>6</ele>
			 </trkpt>
			 <trkpt lat="56.949242" lon="24.077788">
				 <ele>4</ele>
			 </trkpt>
			 <trkpt lat="56.949528" lon="24.076794">
				 <ele>5</ele>
			 </trkpt>
			 <trkpt lat="56.949816" lon="24.075918">
				 <ele>8</ele>
			 </trkpt>
			 <trkpt lat="56.950663" lon="24.073615">
				 <ele>11</ele>
			 </trkpt>
			 <trkpt lat="56.950842" lon="24.073189">
				 <ele>10</ele>
			 </trkpt>
			 <trkpt lat="56.951" lon="24.07287">
				 <ele>10</ele>
			 </trkpt>
			 <trkpt lat="56.951218" lon="24.07248">
				 <ele>10</ele>
			 </trkpt>
			 <trkpt lat="56.951546" lon="24.072022">
				 <ele>10</ele>
			 </trkpt>
			 <trkpt lat="56.951921" lon="24.071531">
				 <ele>9</ele>
			 </trkpt>
			 <trkpt lat="56.952891" lon="24.070673">
				 <ele>10</ele>
			 </trkpt>
			 <trkpt lat="56.953835" lon="24.06995">
				 <ele>8</ele>
			 </trkpt>
			 <trkpt lat="56.953908" lon="24.069909">
				 <ele>8</ele>
			 </trkpt>
			 <trkpt lat="56.954041" lon="24.069868">
				 <ele>7</ele>
			 </trkpt>
			 <trkpt lat="56.954151" lon="24.069842">
				 <ele>7</ele>
			 </trkpt>
			 <trkpt lat="56.954182" lon="24.06984">
				 <ele>7</ele>
			 </trkpt>
			 <trkpt lat="56.957629" lon="24.070579">
				 <ele>8</ele>
			 </trkpt>
			 <trkpt lat="56.957718" lon="24.0706">
				 <ele>8</ele>
			 </trkpt>
			 <trkpt lat="56.957931" lon="24.070509">
				 <ele>9</ele>
			 </trkpt>
			 <trkpt lat="56.958034" lon="24.070443">
				 <ele>9</ele>
			 </trkpt>
			 <trkpt lat="56.958208" lon="24.070292">
				 <ele>10</ele>
			 </trkpt>
			 <trkpt lat="56.958793" lon="24.069678">
				 <ele>9</ele>
			 </trkpt>
			 <trkpt lat="56.958876" lon="24.069576">
				 <ele>9</ele>
			 </trkpt>
			 <trkpt lat="56.959706" lon="24.068388">
				 <ele>12</ele>
			 </trkpt>
			 <trkpt lat="56.961372" lon="24.066027">
				 <ele>12</ele>
			 </trkpt>
			 <trkpt lat="56.961383" lon="24.06597">
				 <ele>12</ele>
			 </trkpt>
			 <trkpt lat="56.961385" lon="24.065918">
				 <ele>12</ele>
			 </trkpt>
			 <trkpt lat="56.961366" lon="24.065868">
				 <ele>12</ele>
			 </trkpt>
			 <trkpt lat="56.961331" lon="24.06581">
				 <ele>12</ele>
			 </trkpt>
			 <trkpt lat="56.959198" lon="24.062826">
				 <ele>17</ele>
			 </trkpt>
			 <trkpt lat="56.95916" lon="24.062742">
				 <ele>17</ele>
			 </trkpt>
			 <trkpt lat="56.959127" lon="24.062611">
				 <ele>16</ele>
			 </trkpt>
			 <trkpt lat="56.958686" lon="24.060915">
				 <ele>12</ele>
			 </trkpt>
			 <trkpt lat="56.958635" lon="24.06087">
				 <ele>12</ele>
			 </trkpt>
			 <trkpt lat="56.958566" lon="24.060907">
				 <ele>12</ele>
			 </trkpt>
			 <trkpt lat="56.956834" lon="24.06241">
				 <ele>10</ele>
			 </trkpt>
			 <trkpt lat="56.95663" lon="24.062575">
				 <ele>11</ele>
			 </trkpt>
			 <trkpt lat="56.956392" lon="24.062726">
				 <ele>11</ele>
			 </trkpt>
			 <trkpt lat="56.956015" lon="24.062837">
				 <ele>11</ele>
			 </trkpt>
			 <trkpt lat="56.955431" lon="24.062994">
				 <ele>10</ele>
			 </trkpt>
			 <trkpt lat="56.955058" lon="24.063012">
				 <ele>11</ele>
			 </trkpt>
			 <trkpt lat="56.95447" lon="24.063053">
				 <ele>11</ele>
			 </trkpt>
			 <trkpt lat="56.953098" lon="24.062887">
				 <ele>14</ele>
			 </trkpt>
			 <trkpt lat="56.952884" lon="24.062916">
				 <ele>13</ele>
			 </trkpt>
			 <trkpt lat="56.952711" lon="24.06297">
				 <ele>13</ele>
			 </trkpt>
			 <trkpt lat="56.952447" lon="24.063023">
				 <ele>12</ele>
			 </trkpt>
			 <trkpt lat="56.952082" lon="24.06326">
				 <ele>12</ele>
			 </trkpt>
			 <trkpt lat="56.95183" lon="24.063526">
				 <ele>12</ele>
			 </trkpt>
			 <trkpt lat="56.951521" lon="24.063877">
				 <ele>12</ele>
			 </trkpt>
			 <trkpt lat="56.951064" lon="24.064467">
				 <ele>12</ele>
			 </trkpt>
			 <trkpt lat="56.950945" lon="24.064703">
				 <ele>11</ele>
			 </trkpt>
			 <trkpt lat="56.950876" lon="24.064874">
				 <ele>11</ele>
			 </trkpt>
			 <trkpt lat="56.950828" lon="24.065098">
				 <ele>10</ele>
			 </trkpt>
			 <trkpt lat="56.950635" lon="24.067021">
				 <ele>13</ele>
			 </trkpt>
			 <trkpt lat="56.950543" lon="24.067481">
				 <ele>14</ele>
			 </trkpt>
			 <trkpt lat="56.950284" lon="24.068542">
				 <ele>15</ele>
			 </trkpt>
			 <trkpt lat="56.949974" lon="24.069677">
				 <ele>18</ele>
			 </trkpt>
			 <trkpt lat="56.949721" lon="24.070381">
				 <ele>16</ele>
			 </trkpt>
			 <trkpt lat="56.94948" lon="24.070988">
				 <ele>16</ele>
			 </trkpt>
			 <trkpt lat="56.9493" lon="24.07135">
				 <ele>17</ele>
			 </trkpt>
			 <trkpt lat="56.94917" lon="24.071564">
				 <ele>17</ele>
			 </trkpt>
			 <trkpt lat="56.949046" lon="24.071739">
				 <ele>17</ele>
			 </trkpt>
			 <trkpt lat="56.948863" lon="24.071925">
				 <ele>17</ele>
			 </trkpt>
			 <trkpt lat="56.948535" lon="24.072183">
				 <ele>15</ele>
			 </trkpt>
			 <trkpt lat="56.94588" lon="24.074223">
				 <ele>14</ele>
			 </trkpt>
			 <trkpt lat="56.945867" lon="24.074272">
				 <ele>14</ele>
			 </trkpt>
			 <trkpt lat="56.946052" lon="24.074764">
				 <ele>13</ele>
			 </trkpt>
			 <trkpt lat="56.946519" lon="24.07593">
				 <ele>11</ele>
			 </trkpt>
			 <trkpt lat="56.946887" lon="24.076792">
				 <ele>12</ele>
			 </trkpt>
			 <trkpt lat="56.947204" lon="24.077548">
				 <ele>12</ele>
			 </trkpt>
			 <trkpt lat="56.947428" lon="24.078125">
				 <ele>11</ele>
			 </trkpt>
			 <trkpt lat="56.947702" lon="24.078793">
				 <ele>8</ele>
			 </trkpt>
			 <trkpt lat="56.947956" lon="24.079561">
				 <ele>6</ele>
			 </trkpt>
			 <trkpt lat="56.948174" lon="24.080269">
				 <ele>4</ele>
			 </trkpt>
			 <trkpt lat="56.94845" lon="24.081352">
				 <ele>4</ele>
			 </trkpt>
			 <trkpt lat="56.948667" lon="24.082316">
				 <ele>6</ele>
			 </trkpt>
			 <trkpt lat="56.948966" lon="24.083877">
				 <ele>5</ele>
			 </trkpt>
			 <trkpt lat="56.94909" lon="24.084637">
				 <ele>6</ele>
			 </trkpt>
			 <trkpt lat="56.949391" lon="24.086303">
				 <ele>5</ele>
			 </trkpt>
			 <trkpt lat="56.95122" lon="24.09583">
				 <ele>0</ele>
			 </trkpt>
			 <trkpt lat="56.952804" lon="24.104029">
				 <ele>9</ele>
			 </trkpt>
			 <trkpt lat="56.952917" lon="24.10453">
				 <ele>9</ele>
			 </trkpt>
			 <trkpt lat="56.952961" lon="24.104675">
				 <ele>10</ele>
			 </trkpt>
			 <trkpt lat="56.953192" lon="24.10545">
				 <ele>11</ele>
			 </trkpt>
			 <trkpt lat="56.953197" lon="24.105523">
				 <ele>11</ele>
			 </trkpt>
			 <trkpt lat="56.953185" lon="24.105592">
				 <ele>11</ele>
			 </trkpt>
			 <trkpt lat="56.953152" lon="24.105669">
				 <ele>11</ele>
			 </trkpt>
			 <trkpt lat="56.952896" lon="24.106017">
				 <ele>11</ele>
			 </trkpt>
			 <trkpt lat="56.952395" lon="24.106704">
				 <ele>11</ele>
			 </trkpt>
			 <trkpt lat="56.952291" lon="24.106935">
				 <ele>9</ele>
			 </trkpt>
			 <trkpt lat="56.95224" lon="24.107085">
				 <ele>8</ele>
			 </trkpt>
			 <trkpt lat="56.952205" lon="24.107193">
				 <ele>8</ele>
			 </trkpt>
			 <trkpt lat="56.952135" lon="24.107398">
				 <ele>8</ele>
			 </trkpt>
			 <trkpt lat="56.952057" lon="24.107825">
				 <ele>7</ele>
			 </trkpt>
			 <trkpt lat="56.951914" lon="24.108882">
				 <ele>8</ele>
			 </trkpt>
			 <trkpt lat="56.951846" lon="24.109131">
				 <ele>9</ele>
			 </trkpt>
			 <trkpt lat="56.951764" lon="24.109357">
				 <ele>10</ele>
			 </trkpt>
			 <trkpt lat="56.95163" lon="24.109635">
				 <ele>11</ele>
			 </trkpt>
			 <trkpt lat="56.950568" lon="24.111433">
				 <ele>11</ele>
			 </trkpt>
			 <trkpt lat="56.950524" lon="24.111755">
				 <ele>10</ele>
			 </trkpt>
			 <trkpt lat="56.951037" lon="24.112748">
				 <ele>6</ele>
			 </trkpt>
			 <trkpt lat="56.951469" lon="24.113563">
				 <ele>10</ele>
			 </trkpt>
			 <trkpt lat="56.952439" lon="24.115138">
				 <ele>12</ele>
			 </trkpt>
			 <trkpt lat="56.954414" lon="24.118213">
				 <ele>24</ele>
			 </trkpt>
			 <trkpt lat="56.955165" lon="24.119493">
				 <ele>15</ele>
			 </trkpt>
			 <trkpt lat="56.956343" lon="24.121466">
				 <ele>21</ele>
			 </trkpt>
			 <trkpt lat="56.957301" lon="24.123241">
				 <ele>25</ele>
			 </trkpt>
			 <trkpt lat="56.958147" lon="24.124729">
				 <ele>23</ele>
			 </trkpt>
			 <trkpt lat="56.958645" lon="24.125671">
				 <ele>16</ele>
			 </trkpt>
			 <trkpt lat="56.958751" lon="24.12591">
				 <ele>16</ele>
			 </trkpt>
			 <trkpt lat="56.95886" lon="24.126218">
				 <ele>16</ele>
			 </trkpt>
			 <trkpt lat="56.960113" lon="24.129989">
				 <ele>13</ele>
			 </trkpt>
			 <trkpt lat="56.960512" lon="24.131095">
				 <ele>14</ele>
			 </trkpt>
			 <trkpt lat="56.960965" lon="24.132328">
				 <ele>15</ele>
			 </trkpt>
			 <trkpt lat="56.967037" lon="24.146921">
				 <ele>11</ele>
			 </trkpt>
			 <trkpt lat="56.967074" lon="24.146977">
				 <ele>11</ele>
			 </trkpt>
			 <trkpt lat="56.967097" lon="24.147005">
				 <ele>11</ele>
			 </trkpt>
			 <trkpt lat="56.967148" lon="24.147028">
				 <ele>10</ele>
			 </trkpt>
			 <trkpt lat="56.967195" lon="24.147009">
				 <ele>10</ele>
			 </trkpt>
			 <trkpt lat="56.967242" lon="24.146939">
				 <ele>10</ele>
			 </trkpt>
			 <trkpt lat="56.967296" lon="24.14682">
				 <ele>10</ele>
			 </trkpt>
			 <trkpt lat="56.968502" lon="24.143233">
				 <ele>11</ele>
			 </trkpt>
			 <trkpt lat="56.968551" lon="24.143088">
				 <ele>11</ele>
			 </trkpt>
			 <trkpt lat="56.96862" lon="24.142912">
				 <ele>11</ele>
			 </trkpt>
			 <trkpt lat="56.968684" lon="24.142762">
				 <ele>12</ele>
			 </trkpt>
			 <trkpt lat="56.9706" lon="24.138273">
				 <ele>12</ele>
			 </trkpt>
			 <trkpt lat="56.97077" lon="24.137886">
				 <ele>12</ele>
			 </trkpt>
			 <trkpt lat="56.970795" lon="24.13781">
				 <ele>13</ele>
			 </trkpt>
			 <trkpt lat="56.970878" lon="24.137579">
				 <ele>13</ele>
			 </trkpt>
			 <trkpt lat="56.970953" lon="24.137352">
				 <ele>14</ele>
			 </trkpt>
			 <trkpt lat="56.971024" lon="24.137096">
				 <ele>14</ele>
			 </trkpt>
			 <trkpt lat="56.971057" lon="24.136973">
				 <ele>13</ele>
			 </trkpt>
			 <trkpt lat="56.971582" lon="24.134224">
				 <ele>11</ele>
			 </trkpt>
			 <trkpt lat="56.972539" lon="24.129964">
				 <ele>4</ele>
			 </trkpt>
			 <trkpt lat="56.972542" lon="24.129878">
				 <ele>4</ele>
			 </trkpt>
			 <trkpt lat="56.972505" lon="24.129814">
				 <ele>3</ele>
			 </trkpt>
			 <trkpt lat="56.972285" lon="24.129576">
				 <ele>2</ele>
			 </trkpt>
			 <trkpt lat="56.971449" lon="24.128947">
				 <ele>5</ele>
			 </trkpt>
			 <trkpt lat="56.970812" lon="24.128698">
				 <ele>7</ele>
			 </trkpt>
			 <trkpt lat="56.97054" lon="24.128567">
				 <ele>4</ele>
			 </trkpt>
			 <trkpt lat="56.969832" lon="24.128043">
				 <ele>1</ele>
			 </trkpt>
			 <trkpt lat="56.96845" lon="24.126887">
				 <ele>2</ele>
			 </trkpt>
			 <trkpt lat="56.968391" lon="24.126834">
				 <ele>2</ele>
			 </trkpt>
			 <trkpt lat="56.968369" lon="24.126784">
				 <ele>3</ele>
			 </trkpt>
			 <trkpt lat="56.968356" lon="24.126728">
				 <ele>3</ele>
			 </trkpt>
			 <trkpt lat="56.968358" lon="24.12664">
				 <ele>3</ele>
			 </trkpt>
			 <trkpt lat="56.969049" lon="24.123563">
				 <ele>1</ele>
			 </trkpt>
			 <trkpt lat="56.969987" lon="24.119969">
				 <ele>1</ele>
			 </trkpt>
			 <trkpt lat="56.969985" lon="24.119863">
				 <ele>2</ele>
			 </trkpt>
			 <trkpt lat="56.969967" lon="24.119778">
				 <ele>2</ele>
			 </trkpt>
			 <trkpt lat="56.969921" lon="24.119664">
				 <ele>2</ele>
			 </trkpt>
			 <trkpt lat="56.967486" lon="24.117621">
				 <ele>4</ele>
			 </trkpt>
			 <trkpt lat="56.9654" lon="24.116018">
				 <ele>3</ele>
			 </trkpt>
			 <trkpt lat="56.963518" lon="24.114313">
				 <ele>3</ele>
			 </trkpt>
			 <trkpt lat="56.963106" lon="24.113893">
				 <ele>3</ele>
			 </trkpt>
			 <trkpt lat="56.962984" lon="24.11376">
				 <ele>3</ele>
			 </trkpt>
			 <trkpt lat="56.962828" lon="24.113552">
				 <ele>2</ele>
			 </trkpt>
			 <trkpt lat="56.962704" lon="24.113305">
				 <ele>3</ele>
			 </trkpt>
			 <trkpt lat="56.962624" lon="24.113069">
				 <ele>4</ele>
			 </trkpt>
			 <trkpt lat="56.962575" lon="24.112782">
				 <ele>4</ele>
			 </trkpt>
			 <trkpt lat="56.962555" lon="24.11261">
				 <ele>4</ele>
			 </trkpt>
			 <trkpt lat="56.962542" lon="24.11227">
				 <ele>5</ele>
			 </trkpt>
			 <trkpt lat="56.96255" lon="24.111423">
				 <ele>4</ele>
			 </trkpt>
			 <trkpt lat="56.962689" lon="24.106386">
				 <ele>4</ele>
			 </trkpt>
			 <trkpt lat="56.962719" lon="24.103706">
				 <ele>6</ele>
			 </trkpt>
			 <trkpt lat="56.962717" lon="24.103628">
				 <ele>5</ele>
			 </trkpt>
			 <trkpt lat="56.962668" lon="24.103575">
				 <ele>5</ele>
			 </trkpt>
			 <trkpt lat="56.95893" lon="24.102861">
				 <ele>9</ele>
			 </trkpt>
			 <trkpt lat="56.95888" lon="24.102884">
				 <ele>9</ele>
			 </trkpt>
			 <trkpt lat="56.958822" lon="24.103015">
				 <ele>9</ele>
			 </trkpt>
			 <trkpt lat="56.95855" lon="24.105323">
				 <ele>9</ele>
			 </trkpt>
			 <trkpt lat="56.958509" lon="24.105514">
				 <ele>8</ele>
			 </trkpt>
			 <trkpt lat="56.958479" lon="24.105619">
				 <ele>8</ele>
			 </trkpt>
			 <trkpt lat="56.958451" lon="24.105706">
				 <ele>8</ele>
			 </trkpt>
			 <trkpt lat="56.958301" lon="24.105944">
				 <ele>8</ele>
			 </trkpt>
			 <trkpt lat="56.95528" lon="24.109525">
				 <ele>11</ele>
			 </trkpt>
			 <trkpt lat="56.955219" lon="24.109634">
				 <ele>12</ele>
			 </trkpt>
			 <trkpt lat="56.955228" lon="24.109717">
				 <ele>12</ele>
			 </trkpt>
			 <trkpt lat="56.955252" lon="24.109845">
				 <ele>12</ele>
			 </trkpt>
			 <trkpt lat="56.956484" lon="24.113618">
				 <ele>15</ele>
			 </trkpt>
			 <trkpt lat="56.956563" lon="24.113773">
				 <ele>16</ele>
			 </trkpt>
			 <trkpt lat="56.95838" lon="24.117251">
				 <ele>14</ele>
			 </trkpt>
			 <trkpt lat="56.958387" lon="24.117299">
				 <ele>14</ele>
			 </trkpt>
			 <trkpt lat="56.958369" lon="24.11736">
				 <ele>14</ele>
			 </trkpt>
			 <trkpt lat="56.958042" lon="24.117984">
				 <ele>17</ele>
			 </trkpt>
			 <trkpt lat="56.956396" lon="24.121125">
				 <ele>20</ele>
			 </trkpt>
			 <trkpt lat="56.956371" lon="24.121159">
				 <ele>20</ele>
			 </trkpt>
			 <trkpt lat="56.956326" lon="24.121149">
				 <ele>20</ele>
			 </trkpt>
			 <trkpt lat="56.955304" lon="24.119405">
				 <ele>14</ele>
			 </trkpt>
			 <trkpt lat="56.954508" lon="24.117978">
				 <ele>26</ele>
			 </trkpt>
			 <trkpt lat="56.954401" lon="24.11776">
				 <ele>23</ele>
			 </trkpt>
			 <trkpt lat="56.954097" lon="24.11719">
				 <ele>12</ele>
			 </trkpt>
			 <trkpt lat="56.951617" lon="24.113182">
				 <ele>10</ele>
			 </trkpt>
			 <trkpt lat="56.951155" lon="24.11253">
				 <ele>6</ele>
			 </trkpt>
			 <trkpt lat="56.950656" lon="24.111705">
				 <ele>9</ele>
			 </trkpt>
			 <trkpt lat="56.950631" lon="24.111659">
				 <ele>9</ele>
			 </trkpt>
			 <trkpt lat="56.950627" lon="24.111604">
				 <ele>10</ele>
			 </trkpt>
			 <trkpt lat="56.950785" lon="24.111282">
				 <ele>11</ele>
			 </trkpt>
			 <trkpt lat="56.951793" lon="24.10951">
				 <ele>10</ele>
			 </trkpt>
			 <trkpt lat="56.951875" lon="24.109353">
				 <ele>9</ele>
			 </trkpt>
			 <trkpt lat="56.951929" lon="24.109205">
				 <ele>8</ele>
			 </trkpt>
			 <trkpt lat="56.951971" lon="24.109073">
				 <ele>8</ele>
			 </trkpt>
			 <trkpt lat="56.952018" lon="24.108718">
				 <ele>8</ele>
			 </trkpt>
			 <trkpt lat="56.952176" lon="24.107481">
				 <ele>7</ele>
			 </trkpt>
			 <trkpt lat="56.952403" lon="24.106872">
				 <ele>10</ele>
			 </trkpt>
			 <trkpt lat="56.952595" lon="24.106539">
				 <ele>12</ele>
			 </trkpt>
			 <trkpt lat="56.953215" lon="24.105709">
				 <ele>10</ele>
			 </trkpt>
			 <trkpt lat="56.953246" lon="24.105623">
				 <ele>10</ele>
			 </trkpt>
			 <trkpt lat="56.953252" lon="24.10555">
				 <ele>10</ele>
			 </trkpt>
			 <trkpt lat="56.952945" lon="24.104476">
				 <ele>9</ele>
			 </trkpt>
			 <trkpt lat="56.951756" lon="24.098289">
				 <ele>0</ele>
			 </trkpt>
			 <trkpt lat="56.950319" lon="24.090558">
				 <ele>0</ele>
			 </trkpt>
			 <trkpt lat="56.950296" lon="24.090381">
				 <ele>0</ele>
			 </trkpt>
			 <trkpt lat="56.950074" lon="24.088384">
				 <ele>1</ele>
			 </trkpt>
			 <trkpt lat="56.949737" lon="24.08619">
				 <ele>6</ele>
			 </trkpt>
			 <trkpt lat="56.949752" lon="24.08609">
				 <ele>6</ele>
			 </trkpt>
			 <trkpt lat="56.949802" lon="24.086011">
				 <ele>6</ele>
			 </trkpt>
			 <trkpt lat="56.950641" lon="24.085354">
				 <ele>8</ele>
			 </trkpt>
			 <trkpt lat="56.95371" lon="24.082742">
				 <ele>6</ele>
			 </trkpt>
			 <trkpt lat="56.955263" lon="24.081395">
				 <ele>3</ele>
			 </trkpt>
			 <trkpt lat="56.955586" lon="24.081137">
				 <ele>2</ele>
			 </trkpt>
			 <trkpt lat="56.955742" lon="24.081053">
				 <ele>2</ele>
			 </trkpt>
			 <trkpt lat="56.955903" lon="24.080989">
				 <ele>2</ele>
			 </trkpt>
			 <trkpt lat="56.956076" lon="24.080952">
				 <ele>2</ele>
			 </trkpt>
			 <trkpt lat="56.956181" lon="24.080948">
				 <ele>3</ele>
			 </trkpt>
			 <trkpt lat="56.957207" lon="24.08104">
				 <ele>5</ele>
			 </trkpt>
			 <trkpt lat="56.958003" lon="24.080993">
				 <ele>4</ele>
			 </trkpt>
			 <trkpt lat="56.958017" lon="24.081159">
				 <ele>5</ele>
			 </trkpt>
			 <trkpt lat="56.957977" lon="24.083756">
				 <ele>6</ele>
			 </trkpt>
			 <trkpt lat="56.958" lon="24.083818">
				 <ele>6</ele>
			 </trkpt>
			 <trkpt lat="56.958035" lon="24.083818">
				 <ele>6</ele>
			 </trkpt>
			 <trkpt lat="56.95824" lon="24.08373">
				 <ele>7</ele>
			 </trkpt>
			 <trkpt lat="56.958344" lon="24.083656">
				 <ele>6</ele>
			 </trkpt>
			 <trkpt lat="56.959039" lon="24.082824">
				 <ele>6</ele>
			 </trkpt>
			 <trkpt lat="56.959175" lon="24.082683">
				 <ele>6</ele>
			 </trkpt>
			 <trkpt lat="56.959182" lon="24.082602">
				 <ele>5</ele>
			 </trkpt>
			 <trkpt lat="56.959111" lon="24.082092">
				 <ele>5</ele>
			 </trkpt>
			 <trkpt lat="56.958961" lon="24.081085">
				 <ele>5</ele>
			 </trkpt>
			 <trkpt lat="56.958943" lon="24.080946">
				 <ele>5</ele>
			 </trkpt>
			 <trkpt lat="56.95885" lon="24.080851">
				 <ele>5</ele>
			 </trkpt>
			 <trkpt lat="56.958483" lon="24.080847">
				 <ele>5</ele>
			 </trkpt>
			 <trkpt lat="56.957802" lon="24.080948">
				 <ele>4</ele>
			 </trkpt>
			 <trkpt lat="56.9574" lon="24.080979">
				 <ele>5</ele>
			 </trkpt>
			 <trkpt lat="56.95625" lon="24.080852">
				 <ele>3</ele>
			 </trkpt>
			 <trkpt lat="56.956099" lon="24.080856">
				 <ele>3</ele>
			 </trkpt>
			 <trkpt lat="56.955881" lon="24.080878">
				 <ele>3</ele>
			 </trkpt>
			 <trkpt lat="56.955666" lon="24.080979">
				 <ele>3</ele>
			 </trkpt>
			 <trkpt lat="56.955445" lon="24.081144">
				 <ele>3</ele>
			 </trkpt>
			 <trkpt lat="56.955133" lon="24.081344">
				 <ele>3</ele>
			 </trkpt>
			 <trkpt lat="56.955003" lon="24.08129">
				 <ele>4</ele>
			 </trkpt>
			 <trkpt lat="56.954329" lon="24.081033">
				 <ele>3</ele>
			 </trkpt>
			 <trkpt lat="56.953752" lon="24.077524">
				 <ele>5</ele>
			 </trkpt>
			 <trkpt lat="56.953726" lon="24.077462">
				 <ele>5</ele>
			 </trkpt>
			 <trkpt lat="56.95369" lon="24.077451">
				 <ele>5</ele>
			 </trkpt>
			 <trkpt lat="56.953619" lon="24.077467">
				 <ele>5</ele>
			 </trkpt>
			 <trkpt lat="56.953125" lon="24.077581">
				 <ele>4</ele>
			 </trkpt>
			 <trkpt lat="56.952492" lon="24.077983">
				 <ele>4</ele>
			 </trkpt>
			 <trkpt lat="56.952008" lon="24.078257">
				 <ele>4</ele>
			 </trkpt>
			 <trkpt lat="56.951156" lon="24.07878">
				 <ele>5</ele>
			 </trkpt>
			 <trkpt lat="56.950703" lon="24.079076">
				 <ele>2</ele>
			 </trkpt>
			 <trkpt lat="56.950609" lon="24.07917">
				 <ele>2</ele>
			 </trkpt>
			 <trkpt lat="56.950551" lon="24.079227">
				 <ele>3</ele>
			 </trkpt>
			 <trkpt lat="56.950524" lon="24.079297">
				 <ele>3</ele>
			 </trkpt>
			 <trkpt lat="56.950531" lon="24.079408">
				 <ele>3</ele>
			 </trkpt>
			 <trkpt lat="56.950627" lon="24.0807">
				 <ele>6</ele>
			 </trkpt>
			 <trkpt lat="56.950585" lon="24.081125">
				 <ele>6</ele>
			 </trkpt>
			 <trkpt lat="56.950505" lon="24.081852">
				 <ele>8</ele>
			 </trkpt>
			 <trkpt lat="56.950524" lon="24.083291">
				 <ele>12</ele>
			 </trkpt>
			 <trkpt lat="56.95055" lon="24.085274">
				 <ele>8</ele>
			 </trkpt>
			 <trkpt lat="56.950542" lon="24.085335">
				 <ele>8</ele>
			 </trkpt>
			 <trkpt lat="56.950467" lon="24.085398">
				 <ele>8</ele>
			 </trkpt>
			 <trkpt lat="56.94982" lon="24.08587">
				 <ele>6</ele>
			 </trkpt>
			 <trkpt lat="56.949743" lon="24.085871">
				 <ele>6</ele>
			 </trkpt>
			 <trkpt lat="56.94969" lon="24.085803">
				 <ele>6</ele>
			 </trkpt>
			 <trkpt lat="56.949658" lon="24.085671">
				 <ele>6</ele>
			 </trkpt>
			 <trkpt lat="56.948663" lon="24.079958">
				 <ele>4</ele>
			 </trkpt>
			 <trkpt lat="56.948669" lon="24.079876">
				 <ele>4</ele>
			 </trkpt>
			 <trkpt lat="56.949084" lon="24.078716">
				 <ele>5</ele>
			 </trkpt>
			 <trkpt lat="56.949182" lon="24.078352">
				 <ele>5</ele>
			 </trkpt>
			 <trkpt lat="56.949608" lon="24.076612">
				 <ele>5</ele>
			 </trkpt>
			 <trkpt lat="56.949803" lon="24.075962">
				 <ele>8</ele>
			 </trkpt>
			 <trkpt lat="56.950601" lon="24.07379">
				 <ele>11</ele>
			 </trkpt>
			 <trkpt lat="56.950815" lon="24.073251">
				 <ele>10</ele>
			 </trkpt>
			 <trkpt lat="56.950981" lon="24.072907">
				 <ele>10</ele>
			 </trkpt>
			 <trkpt lat="56.951194" lon="24.072538">
				 <ele>10</ele>
			 </trkpt>
			 <trkpt lat="56.951479" lon="24.072105">
				 <ele>11</ele>
			 </trkpt>
			 <trkpt lat="56.951874" lon="24.071598">
				 <ele>9</ele>
			 </trkpt>
			 <trkpt lat="56.952244" lon="24.071258">
				 <ele>9</ele>
			 </trkpt>
			 <trkpt lat="56.952835" lon="24.070751">
				 <ele>10</ele>
			 </trkpt>
			 <trkpt lat="56.953808" lon="24.069963">
				 <ele>8</ele>
			 </trkpt>
			 <trkpt lat="56.953885" lon="24.069913">
				 <ele>8</ele>
			 </trkpt>
			 <trkpt lat="56.954012" lon="24.069875">
				 <ele>8</ele>
			 </trkpt>
			 <trkpt lat="56.954125" lon="24.069839">
				 <ele>7</ele>
			 </trkpt>
			 <trkpt lat="56.954388" lon="24.069886">
				 <ele>7</ele>
			 </trkpt>
			 <trkpt lat="56.957705" lon="24.070604">
				 <ele>8</ele>
			 </trkpt>
			 <trkpt lat="56.957737" lon="24.0706">
				 <ele>8</ele>
			 </trkpt>
			 <trkpt lat="56.957905" lon="24.070528">
				 <ele>9</ele>
			 </trkpt>
			 <trkpt lat="56.95796" lon="24.070498">
				 <ele>9</ele>
			 </trkpt>
			 <trkpt lat="56.95805" lon="24.070428">
				 <ele>9</ele>
			 </trkpt>
			 <trkpt lat="56.958199" lon="24.070299">
				 <ele>10</ele>
			 </trkpt>
			 <trkpt lat="56.958802" lon="24.069668">
				 <ele>9</ele>
			 </trkpt>
			 <trkpt lat="56.958888" lon="24.069561">
				 <ele>9</ele>
			 </trkpt>
			 <trkpt lat="56.959684" lon="24.068432">
				 <ele>12</ele>
			 </trkpt>
			 <trkpt lat="56.961362" lon="24.066044">
				 <ele>13</ele>
			 </trkpt>
			 <trkpt lat="56.961381" lon="24.065988">
				 <ele>12</ele>
			 </trkpt>
			 <trkpt lat="56.961377" lon="24.065892">
				 <ele>12</ele>
			 </trkpt>
			 <trkpt lat="56.961345" lon="24.065834">
				 <ele>12</ele>
			 </trkpt>
			 <trkpt lat="56.959219" lon="24.062854">
				 <ele>17</ele>
			 </trkpt>
			 <trkpt lat="56.959169" lon="24.062761">
				 <ele>17</ele>
			 </trkpt>
			 <trkpt lat="56.959132" lon="24.062631">
				 <ele>16</ele>
			 </trkpt>
			 <trkpt lat="56.95869" lon="24.06093">
				 <ele>12</ele>
			 </trkpt>
			 <trkpt lat="56.958671" lon="24.06089">
				 <ele>12</ele>
			 </trkpt>
			 <trkpt lat="56.95864" lon="24.060873">
				 <ele>12</ele>
			 </trkpt>
			 <trkpt lat="56.958571" lon="24.0609">
				 <ele>12</ele>
			 </trkpt>
			 <trkpt lat="56.956825" lon="24.062416">
				 <ele>10</ele>
			 </trkpt>
			 <trkpt lat="56.956691" lon="24.06253">
				 <ele>11</ele>
			 </trkpt>
			 <trkpt lat="56.956497" lon="24.06266">
				 <ele>11</ele>
			 </trkpt>
			 <trkpt lat="56.956368" lon="24.062739">
				 <ele>11</ele>
			 </trkpt>
			 <trkpt lat="56.955978" lon="24.062853">
				 <ele>11</ele>
			 </trkpt>
			 <trkpt lat="56.955446" lon="24.062996">
				 <ele>10</ele>
			 </trkpt>
			 <trkpt lat="56.955317" lon="24.063007">
				 <ele>10</ele>
			 </trkpt>
			 <trkpt lat="56.954478" lon="24.063052">
				 <ele>11</ele>
			 </trkpt>
			 <trkpt lat="56.953121" lon="24.062892">
				 <ele>14</ele>
			 </trkpt>
			 <trkpt lat="56.952916" lon="24.062906">
				 <ele>13</ele>
			 </trkpt>
			 <trkpt lat="56.95273" lon="24.062946">
				 <ele>13</ele>
			 </trkpt>
			 <trkpt lat="56.952462" lon="24.063016">
				 <ele>12</ele>
			 </trkpt>
			 <trkpt lat="56.952259" lon="24.063141">
				 <ele>12</ele>
			 </trkpt>
			 <trkpt lat="56.952069" lon="24.063266">
				 <ele>12</ele>
			 </trkpt>
			 <trkpt lat="56.95181" lon="24.063545">
				 <ele>12</ele>
			 </trkpt>
			 <trkpt lat="56.951509" lon="24.063901">
				 <ele>12</ele>
			 </trkpt>
			 <trkpt lat="56.951084" lon="24.064453">
				 <ele>12</ele>
			 </trkpt>
			 <trkpt lat="56.950957" lon="24.064694">
				 <ele>11</ele>
			 </trkpt>
			 <trkpt lat="56.950886" lon="24.064868">
				 <ele>11</ele>
			 </trkpt>
			 <trkpt lat="56.950843" lon="24.065037">
				 <ele>10</ele>
			 </trkpt>
			 <trkpt lat="56.950781" lon="24.065575">
				 <ele>10</ele>
			 </trkpt>
			 <trkpt lat="56.950725" lon="24.066213">
				 <ele>12</ele>
			 </trkpt>
			 <trkpt lat="56.95069" lon="24.066597">
				 <ele>13</ele>
			 </trkpt>
			 <trkpt lat="56.95065" lon="24.066928">
				 <ele>13</ele>
			 </trkpt>
			 <trkpt lat="56.950502" lon="24.067675">
				 <ele>14</ele>
			 </trkpt>
			 <trkpt lat="56.950317" lon="24.06845">
				 <ele>15</ele>
			 </trkpt>
			 <trkpt lat="56.950094" lon="24.069288">
				 <ele>18</ele>
			 </trkpt>
			 <trkpt lat="56.949988" lon="24.06963">
				 <ele>18</ele>
			 </trkpt>
			 <trkpt lat="56.949743" lon="24.070333">
				 <ele>16</ele>
			 </trkpt>
			 <trkpt lat="56.949499" lon="24.070946">
				 <ele>16</ele>
			 </trkpt>
			 <trkpt lat="56.94928" lon="24.071397">
				 <ele>17</ele>
			 </trkpt>
			 <trkpt lat="56.949075" lon="24.071701">
				 <ele>17</ele>
			 </trkpt>
			 <trkpt lat="56.948895" lon="24.071898">
				 <ele>17</ele>
			 </trkpt>
			 <trkpt lat="56.948559" lon="24.072165">
				 <ele>15</ele>
			 </trkpt>
			 <trkpt lat="56.945885" lon="24.074219">
				 <ele>14</ele>
			 </trkpt>
			 <trkpt lat="56.945868" lon="24.074283">
				 <ele>14</ele>
			 </trkpt>
			 <trkpt lat="56.946528" lon="24.075953">
				 <ele>11</ele>
			 </trkpt>
			 <trkpt lat="56.946915" lon="24.076856">
				 <ele>12</ele>
			 </trkpt>
			 <trkpt lat="56.947226" lon="24.077607">
				 <ele>11</ele>
			 </trkpt>
			 <trkpt lat="56.94748" lon="24.07825">
				 <ele>10</ele>
			 </trkpt>
			 <trkpt lat="56.947716" lon="24.078821">
				 <ele>8</ele>
			 </trkpt>
			 <trkpt lat="56.948151" lon="24.080197">
				 <ele>5</ele>
			 </trkpt>
			 <trkpt lat="56.94844" lon="24.081326">
				 <ele>4</ele>
			 </trkpt>
			 <trkpt lat="56.948656" lon="24.082266">
				 <ele>6</ele>
			 </trkpt>
			 <trkpt lat="56.948949" lon="24.083802">
				 <ele>5</ele>
			 </trkpt>
			 <trkpt lat="56.949107" lon="24.084726">
				 <ele>6</ele>
			 </trkpt>
			 <trkpt lat="56.951647" lon="24.09803">
				 <ele>0</ele>
			 </trkpt>
			 <trkpt lat="56.952664" lon="24.103287">
				 <ele>10</ele>
			 </trkpt>
			 <trkpt lat="56.952815" lon="24.104072">
				 <ele>9</ele>
			 </trkpt>
			 <trkpt lat="56.952911" lon="24.104485">
				 <ele>9</ele>
			 </trkpt>
			 <trkpt lat="56.953186" lon="24.105425">
				 <ele>11</ele>
			 </trkpt>
			 <trkpt lat="56.953195" lon="24.105505">
				 <ele>11</ele>
			 </trkpt>
			 <trkpt lat="56.953187" lon="24.105572">
				 <ele>11</ele>
			 </trkpt>
			 <trkpt lat="56.953158" lon="24.105657">
				 <ele>11</ele>
			 </trkpt>
			 <trkpt lat="56.952907" lon="24.106011">
				 <ele>11</ele>
			 </trkpt>
			 <trkpt lat="56.952403" lon="24.106701">
				 <ele>12</ele>
			 </trkpt>
			 <trkpt lat="56.952299" lon="24.106922">
				 <ele>10</ele>
			 </trkpt>
			 <trkpt lat="56.952228" lon="24.107127">
				 <ele>8</ele>
			 </trkpt>
			 <trkpt lat="56.952172" lon="24.107293">
				 <ele>8</ele>
			 </trkpt>
			 <trkpt lat="56.952119" lon="24.107487">
				 <ele>7</ele>
			 </trkpt>
			 <trkpt lat="56.952064" lon="24.107806">
				 <ele>7</ele>
			 </trkpt>
			 <trkpt lat="56.95192" lon="24.10885">
				 <ele>8</ele>
			 </trkpt>
			 <trkpt lat="56.951872" lon="24.109033">
				 <ele>9</ele>
			 </trkpt>
			 <trkpt lat="56.951827" lon="24.109189">
				 <ele>9</ele>
			 </trkpt>
			 <trkpt lat="56.951749" lon="24.109396">
				 <ele>10</ele>
			 </trkpt>
			 <trkpt lat="56.951588" lon="24.109713">
				 <ele>11</ele>
			 </trkpt>
			 <trkpt lat="56.95058" lon="24.111427">
				 <ele>11</ele>
			 </trkpt>
			 <trkpt lat="56.950519" lon="24.111628">
				 <ele>11</ele>
			 </trkpt>
			 <trkpt lat="56.95052" lon="24.11174">
				 <ele>10</ele>
			 </trkpt>
			 <trkpt lat="56.951048" lon="24.112764">
				 <ele>6</ele>
			 </trkpt>
			 <trkpt lat="56.951503" lon="24.113627">
				 <ele>10</ele>
			 </trkpt>
			 <trkpt lat="56.952426" lon="24.115096">
				 <ele>12</ele>
			 </trkpt>
			 <trkpt lat="56.954399" lon="24.11819">
				 <ele>24</ele>
			 </trkpt>
			 <trkpt lat="56.954811" lon="24.118897">
				 <ele>20</ele>
			 </trkpt>
			 <trkpt lat="56.956321" lon="24.121444">
				 <ele>21</ele>
			 </trkpt>
			 <trkpt lat="56.957802" lon="24.124119">
				 <ele>26</ele>
			 </trkpt>
			 <trkpt lat="56.958631" lon="24.125649">
				 <ele>16</ele>
			 </trkpt>
			 <trkpt lat="56.958743" lon="24.125882">
				 <ele>16</ele>
			 </trkpt>
			 <trkpt lat="56.958873" lon="24.126258">
				 <ele>16</ele>
			 </trkpt>
			 <trkpt lat="56.960108" lon="24.129977">
				 <ele>13</ele>
			 </trkpt>
			 <trkpt lat="56.960503" lon="24.131063">
				 <ele>14</ele>
			 </trkpt>
			 <trkpt lat="56.960957" lon="24.132306">
				 <ele>15</ele>
			 </trkpt>
			 <trkpt lat="56.961151" lon="24.13278">
				 <ele>17</ele>
			 </trkpt>
			 <trkpt lat="56.961361" lon="24.133275">
				 <ele>19</ele>
			 </trkpt>
			 <trkpt lat="56.962666" lon="24.136405">
				 <ele>14</ele>
			 </trkpt>
			 <trkpt lat="56.963331" lon="24.138009">
				 <ele>16</ele>
			 </trkpt>
			 <trkpt lat="56.9653" lon="24.142733">
				 <ele>20</ele>
			 </trkpt>
			 <trkpt lat="56.967022" lon="24.146893">
				 <ele>11</ele>
			 </trkpt>
			 <trkpt lat="56.96706" lon="24.146965">
				 <ele>11</ele>
			 </trkpt>
			 <trkpt lat="56.96709" lon="24.147003">
				 <ele>11</ele>
			 </trkpt>
			 <trkpt lat="56.967123" lon="24.147023">
				 <ele>11</ele>
			 </trkpt>
			 <trkpt lat="56.967163" lon="24.147028">
				 <ele>10</ele>
			 </trkpt>
			 <trkpt lat="56.967203" lon="24.146998">
				 <ele>10</ele>
			 </trkpt>
			 <trkpt lat="56.967249" lon="24.146928">
				 <ele>10</ele>
			 </trkpt>
			 <trkpt lat="56.967304" lon="24.1468">
				 <ele>10</ele>
			 </trkpt>
			 <trkpt lat="56.968495" lon="24.143255">
				 <ele>11</ele>
			 </trkpt>
			 <trkpt lat="56.968544" lon="24.143115">
				 <ele>11</ele>
			 </trkpt>
			 <trkpt lat="56.968613" lon="24.142932">
				 <ele>11</ele>
			 </trkpt>
			 <trkpt lat="56.968678" lon="24.142784">
				 <ele>12</ele>
			 </trkpt>
			 <trkpt lat="56.970594" lon="24.13829">
				 <ele>12</ele>
			 </trkpt>
			 <trkpt lat="56.97076" lon="24.137907">
				 <ele>12</ele>
			 </trkpt>
			 <trkpt lat="56.970789" lon="24.13783">
				 <ele>13</ele>
			 </trkpt>
			 <trkpt lat="56.970873" lon="24.137601">
				 <ele>13</ele>
			 </trkpt>
			 <trkpt lat="56.97095" lon="24.13737">
				 <ele>14</ele>
			 </trkpt>
			 <trkpt lat="56.971021" lon="24.137107">
				 <ele>14</ele>
			 </trkpt>
			 <trkpt lat="56.971054" lon="24.136987">
				 <ele>13</ele>
			 </trkpt>
			 <trkpt lat="56.971576" lon="24.134262">
				 <ele>11</ele>
			 </trkpt>
			 <trkpt lat="56.972537" lon="24.129986">
				 <ele>4</ele>
			 </trkpt>
			 <trkpt lat="56.972543" lon="24.129901">
				 <ele>4</ele>
			 </trkpt>
			 <trkpt lat="56.972512" lon="24.129823">
				 <ele>3</ele>
			 </trkpt>
			 <trkpt lat="56.972293" lon="24.129588">
				 <ele>2</ele>
			 </trkpt>
			 <trkpt lat="56.971455" lon="24.128957">
				 <ele>5</ele>
			 </trkpt>
			 <trkpt lat="56.970823" lon="24.128704">
				 <ele>7</ele>
			 </trkpt>
			 <trkpt lat="56.970531" lon="24.128544">
				 <ele>4</ele>
			 </trkpt>
			 <trkpt lat="56.969856" lon="24.128051">
				 <ele>2</ele>
			 </trkpt>
			 <trkpt lat="56.968461" lon="24.126905">
				 <ele>2</ele>
			 </trkpt>
			 <trkpt lat="56.968398" lon="24.126848">
				 <ele>2</ele>
			 </trkpt>
			 <trkpt lat="56.968373" lon="24.126799">
				 <ele>3</ele>
			 </trkpt>
			 <trkpt lat="56.968353" lon="24.126731">
				 <ele>3</ele>
			 </trkpt>
			 <trkpt lat="56.968362" lon="24.126623">
				 <ele>3</ele>
			 </trkpt>
			 <trkpt lat="56.96904" lon="24.123605">
				 <ele>1</ele>
			 </trkpt>
			 <trkpt lat="56.969981" lon="24.11999">
				 <ele>1</ele>
			 </trkpt>
			 <trkpt lat="56.969987" lon="24.119936">
				 <ele>1</ele>
			 </trkpt>
			 <trkpt lat="56.969985" lon="24.119879">
				 <ele>1</ele>
			 </trkpt>
			 <trkpt lat="56.969971" lon="24.1198">
				 <ele>2</ele>
			 </trkpt>
			 <trkpt lat="56.969952" lon="24.119731">
				 <ele>2</ele>
			 </trkpt>
			 <trkpt lat="56.96993" lon="24.119678">
				 <ele>2</ele>
			 </trkpt>
			 <trkpt lat="56.965413" lon="24.116026">
				 <ele>3</ele>
			 </trkpt>
			 <trkpt lat="56.96353" lon="24.11433">
				 <ele>3</ele>
			 </trkpt>
			 <trkpt lat="56.963115" lon="24.113908">
				 <ele>3</ele>
			 </trkpt>
			 <trkpt lat="56.962993" lon="24.113773">
				 <ele>3</ele>
			 </trkpt>
			 <trkpt lat="56.962836" lon="24.113563">
				 <ele>2</ele>
			 </trkpt>
			 <trkpt lat="56.962709" lon="24.113315">
				 <ele>3</ele>
			 </trkpt>
			 <trkpt lat="56.962628" lon="24.113083">
				 <ele>4</ele>
			 </trkpt>
			 <trkpt lat="56.962576" lon="24.112792">
				 <ele>4</ele>
			 </trkpt>
			 <trkpt lat="56.962554" lon="24.112622">
				 <ele>4</ele>
			 </trkpt>
			 <trkpt lat="56.962542" lon="24.112283">
				 <ele>5</ele>
			 </trkpt>
			 <trkpt lat="56.962549" lon="24.111447">
				 <ele>4</ele>
			 </trkpt>
			 <trkpt lat="56.962685" lon="24.106506">
				 <ele>4</ele>
			 </trkpt>
			 <trkpt lat="56.962719" lon="24.103748">
				 <ele>6</ele>
			 </trkpt>
			 <trkpt lat="56.962718" lon="24.103653">
				 <ele>5</ele>
			 </trkpt>
			 <trkpt lat="56.962685" lon="24.103578">
				 <ele>5</ele>
			 </trkpt>
			 <trkpt lat="56.962657" lon="24.103573">
				 <ele>5</ele>
			 </trkpt>
			 <trkpt lat="56.958939" lon="24.102862">
				 <ele>9</ele>
			 </trkpt>
			 <trkpt lat="56.958896" lon="24.102873">
				 <ele>9</ele>
			 </trkpt>
			 <trkpt lat="56.958869" lon="24.102901">
				 <ele>9</ele>
			 </trkpt>
			 <trkpt lat="56.958838" lon="24.10297">
				 <ele>9</ele>
			 </trkpt>
			 <trkpt lat="56.958818" lon="24.103043">
				 <ele>9</ele>
			 </trkpt>
			 <trkpt lat="56.958552" lon="24.105292">
				 <ele>9</ele>
			 </trkpt>
			 <trkpt lat="56.958518" lon="24.105471">
				 <ele>8</ele>
			 </trkpt>
			 <trkpt lat="56.958486" lon="24.105596">
				 <ele>8</ele>
			 </trkpt>
			 <trkpt lat="56.958457" lon="24.105682">
				 <ele>8</ele>
			 </trkpt>
			 <trkpt lat="56.958314" lon="24.105921">
				 <ele>8</ele>
			 </trkpt>
			 <trkpt lat="56.955275" lon="24.109532">
				 <ele>11</ele>
			 </trkpt>
			 <trkpt lat="56.955224" lon="24.109612">
				 <ele>12</ele>
			 </trkpt>
			 <trkpt lat="56.955221" lon="24.109669">
				 <ele>12</ele>
			 </trkpt>
			 <trkpt lat="56.955255" lon="24.109837">
				 <ele>12</ele>
			 </trkpt>
			 <trkpt lat="56.956477" lon="24.113601">
				 <ele>15</ele>
			 </trkpt>
			 <trkpt lat="56.956553" lon="24.113762">
				 <ele>16</ele>
			 </trkpt>
			 <trkpt lat="56.958376" lon="24.117244">
				 <ele>14</ele>
			 </trkpt>
			 <trkpt lat="56.958388" lon="24.117303">
				 <ele>14</ele>
			 </trkpt>
			 <trkpt lat="56.958349" lon="24.117394">
				 <ele>15</ele>
			 </trkpt>
			 <trkpt lat="56.958034" lon="24.117996">
				 <ele>17</ele>
			 </trkpt>
			 <trkpt lat="56.956399" lon="24.121119">
				 <ele>20</ele>
			 </trkpt>
			 <trkpt lat="56.956377" lon="24.12115">
				 <ele>20</ele>
			 </trkpt>
			 <trkpt lat="56.956345" lon="24.121166">
				 <ele>20</ele>
			 </trkpt>
			 <trkpt lat="56.956307" lon="24.121117">
				 <ele>19</ele>
			 </trkpt>
			 <trkpt lat="56.954519" lon="24.118004">
				 <ele>26</ele>
			 </trkpt>
			 <trkpt lat="56.95441" lon="24.117787">
				 <ele>24</ele>
			 </trkpt>
			 <trkpt lat="56.954271" lon="24.117498">
				 <ele>17</ele>
			 </trkpt>
			 <trkpt lat="56.954112" lon="24.117215">
				 <ele>12</ele>
			 </trkpt>
			 <trkpt lat="56.951636" lon="24.11321">
				 <ele>10</ele>
			 </trkpt>
			 <trkpt lat="56.951173" lon="24.112557">
				 <ele>6</ele>
			 </trkpt>
			 <trkpt lat="56.950665" lon="24.111718">
				 <ele>9</ele>
			 </trkpt>
			 <trkpt lat="56.950634" lon="24.111666">
				 <ele>9</ele>
			 </trkpt>
			 <trkpt lat="56.950631" lon="24.111584">
				 <ele>10</ele>
			 </trkpt>
			 <trkpt lat="56.950795" lon="24.111264">
				 <ele>12</ele>
			 </trkpt>
			 <trkpt lat="56.951787" lon="24.109519">
				 <ele>10</ele>
			 </trkpt>
			 <trkpt lat="56.951865" lon="24.109368">
				 <ele>9</ele>
			 </trkpt>
			 <trkpt lat="56.951923" lon="24.109216">
				 <ele>8</ele>
			 </trkpt>
			 <trkpt lat="56.951963" lon="24.109081">
				 <ele>8</ele>
			 </trkpt>
			 <trkpt lat="56.95201" lon="24.108795">
				 <ele>8</ele>
			 </trkpt>
			 <trkpt lat="56.952174" lon="24.107499">
				 <ele>7</ele>
			 </trkpt>
			 <trkpt lat="56.95228" lon="24.1072">
				 <ele>8</ele>
			 </trkpt>
			 <trkpt lat="56.952402" lon="24.106895">
				 <ele>10</ele>
			 </trkpt>
			 <trkpt lat="56.952499" lon="24.10672">
				 <ele>11</ele>
			 </trkpt>
			 <trkpt lat="56.952691" lon="24.106431">
				 <ele>12</ele>
			 </trkpt>
			 <trkpt lat="56.953188" lon="24.1058">
				 <ele>10</ele>
			 </trkpt>
			 <trkpt lat="56.953221" lon="24.105767">
				 <ele>10</ele>
			 </trkpt>
			 <trkpt lat="56.953275" lon="24.105788">
				 <ele>9</ele>
			 </trkpt>
			 <trkpt lat="56.953351" lon="24.105873">
				 <ele>9</ele>
			 </trkpt>
			 <trkpt lat="56.953396" lon="24.10592">
				 <ele>8</ele>
			 </trkpt>
			 <trkpt lat="56.955111" lon="24.109293">
				 <ele>12</ele>
			 </trkpt>
			 <trkpt lat="56.955141" lon="24.109321">
				 <ele>12</ele>
			 </trkpt>
			 <trkpt lat="56.95517" lon="24.109327">
				 <ele>11</ele>
			 </trkpt>
			 <trkpt lat="56.95521" lon="24.109307">
				 <ele>11</ele>
			 </trkpt>
			 <trkpt lat="56.955267" lon="24.109261">
				 <ele>11</ele>
			 </trkpt>
			 <trkpt lat="56.955395" lon="24.109138">
				 <ele>10</ele>
			 </trkpt>
			 <trkpt lat="56.958336" lon="24.105735">
				 <ele>8</ele>
			 </trkpt>
			 <trkpt lat="56.958403" lon="24.10564">
				 <ele>8</ele>
			 </trkpt>
			 <trkpt lat="56.958427" lon="24.105609">
				 <ele>8</ele>
			 </trkpt>
			 <trkpt lat="56.958451" lon="24.105535">
				 <ele>8</ele>
			 </trkpt>
			 <trkpt lat="56.958469" lon="24.105464">
				 <ele>8</ele>
			 </trkpt>
			 <trkpt lat="56.958489" lon="24.105389">
				 <ele>8</ele>
			 </trkpt>
			 <trkpt lat="56.958515" lon="24.105268">
				 <ele>8</ele>
			 </trkpt>
			 <trkpt lat="56.958596" lon="24.104608">
				 <ele>9</ele>
			 </trkpt>
			 <trkpt lat="56.959267" lon="24.098543">
				 <ele>7</ele>
			 </trkpt>
			 <trkpt lat="56.95928" lon="24.098411">
				 <ele>7</ele>
			 </trkpt>
			 <trkpt lat="56.95929" lon="24.098356">
				 <ele>6</ele>
			 </trkpt>
			 <trkpt lat="56.959282" lon="24.098289">
				 <ele>6</ele>
			 </trkpt>
			 <trkpt lat="56.959247" lon="24.098232">
				 <ele>6</ele>
			 </trkpt>
			 <trkpt lat="56.959195" lon="24.098208">
				 <ele>5</ele>
			 </trkpt>
			 <trkpt lat="56.958071" lon="24.098161">
				 <ele>6</ele>
			 </trkpt>
			 <trkpt lat="56.957988" lon="24.098141">
				 <ele>6</ele>
			 </trkpt>
			 <trkpt lat="56.9579" lon="24.098103">
				 <ele>5</ele>
			 </trkpt>
			 <trkpt lat="56.956633" lon="24.097404">
				 <ele>3</ele>
			 </trkpt>
			 <trkpt lat="56.956335" lon="24.097208">
				 <ele>1</ele>
			 </trkpt>
			 <trkpt lat="56.956045" lon="24.097064">
				 <ele>1</ele>
			 </trkpt>
			 <trkpt lat="56.955882" lon="24.097005">
				 <ele>1</ele>
			 </trkpt>
			 <trkpt lat="56.955669" lon="24.096967">
				 <ele>2</ele>
			 </trkpt>
			 <trkpt lat="56.955464" lon="24.096937">
				 <ele>2</ele>
			 </trkpt>
			 <trkpt lat="56.955263" lon="24.096972">
				 <ele>2</ele>
			 </trkpt>
			 <trkpt lat="56.955017" lon="24.097071">
				 <ele>2</ele>
			 </trkpt>
			 <trkpt lat="56.954452" lon="24.097363">
				 <ele>1</ele>
			 </trkpt>
			 <trkpt lat="56.95111" lon="24.099342">
				 <ele>8</ele>
			 </trkpt>
			 <trkpt lat="56.950904" lon="24.099491">
				 <ele>8</ele>
			 </trkpt>
			 <trkpt lat="56.950637" lon="24.099713">
				 <ele>9</ele>
			 </trkpt>
			 <trkpt lat="56.950405" lon="24.099945">
				 <ele>9</ele>
			 </trkpt>
			 <trkpt lat="56.948557" lon="24.101736">
				 <ele>5</ele>
			 </trkpt>
		 </trkseg>
	 </trk>
</gpx>