<?xml version="1.0" encoding="UTF-8"?>
 <gpx creator="Garmin Connect" version="1.1"
	 xsi:schemaLocation="http://www.topografix.com/GPX/1/1 http://www.topografix.com/GPX/11.xsd"
	 xmlns:ns3="http://www.garmin.com/xmlschemas/TrackPointExtension/v1"
	 xmlns="http://www.topografix.com/GPX/1/1"
	 xmlns:xsi="http://www.w3.org/2001/XMLSchema-instance" xmlns:ns2="http://www.garmin.com/xmlschemas/GpxExtensions/v3">
	 <metadata>
		<name>Athens Marathon 2025 - 42.195 km</name>
		 <link href="https://www.goandrace.com">
		 <text>Garmin Connect</text>
		 </link>
	 <time>2026-08-23T23:49:27</time>
	 </metadata>
	 <trk>
		 <name>Athens Marathon 2025 - 42.195 km</name>
		 <trkseg>
			 <trkpt lat="38.15114" lon="23.96208">
				 <ele>38.5</ele>
			 </trkpt>
			 <trkpt lat="38.15061" lon="23.96243">
				 <ele>37.7</ele>
			 </trkpt>
			 <trkpt lat="38.15008" lon="23.96278">
				 <ele>37.1</ele>
			 </trkpt>
			 <trkpt lat="38.14972" lon="23.96316">
				 <ele>36.4</ele>
			 </trkpt>
			 <trkpt lat="38.14936" lon="23.96354">
				 <ele>35.8</ele>
			 </trkpt>
			 <trkpt lat="38.14923" lon="23.96361">
				 <ele>35.3</ele>
			 </trkpt>
			 <trkpt lat="38.14888" lon="23.96394">
				 <ele>34.7</ele>
			 </trkpt>
			 <trkpt lat="38.14869" lon="23.96411">
				 <ele>33.8</ele>
			 </trkpt>
			 <trkpt lat="38.14831" lon="23.96437">
				 <ele>32.8</ele>
			 </trkpt>
			 <trkpt lat="38.14799" lon="23.9645">
				 <ele>31.9</ele>
			 </trkpt>
			 <trkpt lat="38.147772" lon="23.964576">
				 <ele>31.4</ele>
			 </trkpt>
			 <trkpt lat="38.147509" lon="23.96464">
				 <ele>30.8</ele>
			 </trkpt>
			 <trkpt lat="38.146001" lon="23.964933">
				 <ele>30.5</ele>
			 </trkpt>
			 <trkpt lat="38.145892" lon="23.964955">
				 <ele>30.2</ele>
			 </trkpt>
			 <trkpt lat="38.144485" lon="23.965238">
				 <ele>29.9</ele>
			 </trkpt>
			 <trkpt lat="38.144312" lon="23.965275">
				 <ele>29.5</ele>
			 </trkpt>
			 <trkpt lat="38.144215" lon="23.965295">
				 <ele>29.2</ele>
			 </trkpt>
			 <trkpt lat="38.143065" lon="23.965589">
				 <ele>28.7</ele>
			 </trkpt>
			 <trkpt lat="38.142441" lon="23.965752">
				 <ele>28.1</ele>
			 </trkpt>
			 <trkpt lat="38.142085" lon="23.965825">
				 <ele>27.4</ele>
			 </trkpt>
			 <trkpt lat="38.141639" lon="23.965944">
				 <ele>26.6</ele>
			 </trkpt>
			 <trkpt lat="38.141419" lon="23.966004">
				 <ele>25.8</ele>
			 </trkpt>
			 <trkpt lat="38.14108" lon="23.96608">
				 <ele>25</ele>
			 </trkpt>
			 <trkpt lat="38.140739" lon="23.966136">
				 <ele>24.1</ele>
			 </trkpt>
			 <trkpt lat="38.140298" lon="23.966193">
				 <ele>23.2</ele>
			 </trkpt>
			 <trkpt lat="38.139192" lon="23.966318">
				 <ele>22.4</ele>
			 </trkpt>
			 <trkpt lat="38.13869" lon="23.966402">
				 <ele>21.6</ele>
			 </trkpt>
			 <trkpt lat="38.138395" lon="23.966467">
				 <ele>20.9</ele>
			 </trkpt>
			 <trkpt lat="38.138126" lon="23.966527">
				 <ele>20.2</ele>
			 </trkpt>
			 <trkpt lat="38.136756" lon="23.966881">
				 <ele>19.5</ele>
			 </trkpt>
			 <trkpt lat="38.136398" lon="23.966979">
				 <ele>18.8</ele>
			 </trkpt>
			 <trkpt lat="38.134338" lon="23.967549">
				 <ele>18.3</ele>
			 </trkpt>
			 <trkpt lat="38.13387" lon="23.967635">
				 <ele>17.7</ele>
			 </trkpt>
			 <trkpt lat="38.13341" lon="23.96773">
				 <ele>17.1</ele>
			 </trkpt>
			 <trkpt lat="38.132612" lon="23.96788">
				 <ele>16.7</ele>
			 </trkpt>
			 <trkpt lat="38.131814" lon="23.96803">
				 <ele>16.5</ele>
			 </trkpt>
			 <trkpt lat="38.131016" lon="23.96818">
				 <ele>16.3</ele>
			 </trkpt>
			 <trkpt lat="38.130218" lon="23.96833">
				 <ele>16.1</ele>
			 </trkpt>
			 <trkpt lat="38.12942" lon="23.96848">
				 <ele>15.9</ele>
			 </trkpt>
			 <trkpt lat="38.12864" lon="23.968613">
				 <ele>15.7</ele>
			 </trkpt>
			 <trkpt lat="38.12786" lon="23.968745">
				 <ele>15.7</ele>
			 </trkpt>
			 <trkpt lat="38.12708" lon="23.968878">
				 <ele>15.7</ele>
			 </trkpt>
			 <trkpt lat="38.1263" lon="23.96901">
				 <ele>15.7</ele>
			 </trkpt>
			 <trkpt lat="38.12552" lon="23.969143">
				 <ele>15.9</ele>
			 </trkpt>
			 <trkpt lat="38.12474" lon="23.969275">
				 <ele>16.1</ele>
			 </trkpt>
			 <trkpt lat="38.12396" lon="23.969408">
				 <ele>16</ele>
			 </trkpt>
			 <trkpt lat="38.12318" lon="23.96954">
				 <ele>15.6</ele>
			 </trkpt>
			 <trkpt lat="38.12245" lon="23.96963">
				 <ele>15.4</ele>
			 </trkpt>
			 <trkpt lat="38.12174" lon="23.969655">
				 <ele>15.1</ele>
			 </trkpt>
			 <trkpt lat="38.12103" lon="23.96968">
				 <ele>14.9</ele>
			 </trkpt>
			 <trkpt lat="38.1202" lon="23.969683">
				 <ele>14.7</ele>
			 </trkpt>
			 <trkpt lat="38.11937" lon="23.969687">
				 <ele>14.4</ele>
			 </trkpt>
			 <trkpt lat="38.11854" lon="23.96969">
				 <ele>14</ele>
			 </trkpt>
			 <trkpt lat="38.11799" lon="23.96968">
				 <ele>13.5</ele>
			 </trkpt>
			 <trkpt lat="38.11744" lon="23.96967">
				 <ele>13</ele>
			 </trkpt>
			 <trkpt lat="38.116795" lon="23.96968">
				 <ele>12.5</ele>
			 </trkpt>
			 <trkpt lat="38.11615" lon="23.96969">
				 <ele>12.1</ele>
			 </trkpt>
			 <trkpt lat="38.11615" lon="23.96982">
				 <ele>11.9</ele>
			 </trkpt>
			 <trkpt lat="38.11627" lon="23.97053">
				 <ele>11.7</ele>
			 </trkpt>
			 <trkpt lat="38.11649" lon="23.97156">
				 <ele>11.5</ele>
			 </trkpt>
			 <trkpt lat="38.11671" lon="23.97259">
				 <ele>11.2</ele>
			 </trkpt>
			 <trkpt lat="38.11686" lon="23.97316">
				 <ele>10.9</ele>
			 </trkpt>
			 <trkpt lat="38.11697" lon="23.97392">
				 <ele>10.7</ele>
			 </trkpt>
			 <trkpt lat="38.11711" lon="23.97466">
				 <ele>10.5</ele>
			 </trkpt>
			 <trkpt lat="38.11725" lon="23.9754">
				 <ele>10.3</ele>
			 </trkpt>
			 <trkpt lat="38.11743" lon="23.97594">
				 <ele>10.1</ele>
			 </trkpt>
			 <trkpt lat="38.11753" lon="23.97616">
				 <ele>9.9</ele>
			 </trkpt>
			 <trkpt lat="38.11765" lon="23.97632">
				 <ele>9.8</ele>
			 </trkpt>
			 <trkpt lat="38.11826" lon="23.97681">
				 <ele>9.6</ele>
			 </trkpt>
			 <trkpt lat="38.11843" lon="23.97697">
				 <ele>9.5</ele>
			 </trkpt>
			 <trkpt lat="38.11879" lon="23.97748">
				 <ele>9.3</ele>
			 </trkpt>
			 <trkpt lat="38.11915" lon="23.97799">
				 <ele>9.2</ele>
			 </trkpt>
			 <trkpt lat="38.1192" lon="23.97811">
				 <ele>9.1</ele>
			 </trkpt>
			 <trkpt lat="38.11923" lon="23.97838">
				 <ele>9</ele>
			 </trkpt>
			 <trkpt lat="38.11909" lon="23.97895">
				 <ele>8.9</ele>
			 </trkpt>
			 <trkpt lat="38.11908" lon="23.9791">
				 <ele>8.8</ele>
			 </trkpt>
			 <trkpt lat="38.11911" lon="23.97939">
				 <ele>8.7</ele>
			 </trkpt>
			 <trkpt lat="38.11905" lon="23.97968">
				 <ele>8.6</ele>
			 </trkpt>
			 <trkpt lat="38.119" lon="23.97977">
				 <ele>8.5</ele>
			 </trkpt>
			 <trkpt lat="38.11855" lon="23.98033">
				 <ele>8.5</ele>
			 </trkpt>
			 <trkpt lat="38.11785" lon="23.98101">
				 <ele>8.4</ele>
			 </trkpt>
			 <trkpt lat="38.11771" lon="23.98107">
				 <ele>8.3</ele>
			 </trkpt>
			 <trkpt lat="38.11762" lon="23.98108">
				 <ele>8.2</ele>
			 </trkpt>
			 <trkpt lat="38.11754" lon="23.98106">
				 <ele>8.1</ele>
			 </trkpt>
			 <trkpt lat="38.1174" lon="23.98096">
				 <ele>8</ele>
			 </trkpt>
			 <trkpt lat="38.1173" lon="23.98081">
				 <ele>8</ele>
			 </trkpt>
			 <trkpt lat="38.1172" lon="23.98011">
				 <ele>8</ele>
			 </trkpt>
			 <trkpt lat="38.11708" lon="23.97982">
				 <ele>8</ele>
			 </trkpt>
			 <trkpt lat="38.11693" lon="23.97957">
				 <ele>8</ele>
			 </trkpt>
			 <trkpt lat="38.1168" lon="23.97945">
				 <ele>8.1</ele>
			 </trkpt>
			 <trkpt lat="38.11668" lon="23.97928">
				 <ele>8.2</ele>
			 </trkpt>
			 <trkpt lat="38.11662" lon="23.9791">
				 <ele>8.4</ele>
			 </trkpt>
			 <trkpt lat="38.116505" lon="23.97827">
				 <ele>8.5</ele>
			 </trkpt>
			 <trkpt lat="38.11639" lon="23.97744">
				 <ele>8.7</ele>
			 </trkpt>
			 <trkpt lat="38.11641" lon="23.97713">
				 <ele>9</ele>
			 </trkpt>
			 <trkpt lat="38.11646" lon="23.977">
				 <ele>9.3</ele>
			 </trkpt>
			 <trkpt lat="38.11694" lon="23.97638">
				 <ele>9.5</ele>
			 </trkpt>
			 <trkpt lat="38.11712" lon="23.97607">
				 <ele>9.7</ele>
			 </trkpt>
			 <trkpt lat="38.11719" lon="23.97589">
				 <ele>10</ele>
			 </trkpt>
			 <trkpt lat="38.11725" lon="23.9754">
				 <ele>10.3</ele>
			 </trkpt>
			 <trkpt lat="38.11711" lon="23.97466">
				 <ele>10.5</ele>
			 </trkpt>
			 <trkpt lat="38.11697" lon="23.97392">
				 <ele>10.7</ele>
			 </trkpt>
			 <trkpt lat="38.11686" lon="23.97316">
				 <ele>10.9</ele>
			 </trkpt>
			 <trkpt lat="38.11671" lon="23.97259">
				 <ele>11.1</ele>
			 </trkpt>
			 <trkpt lat="38.11649" lon="23.97156">
				 <ele>11.2</ele>
			 </trkpt>
			 <trkpt lat="38.11627" lon="23.97053">
				 <ele>11.2</ele>
			 </trkpt>
			 <trkpt lat="38.11616" lon="23.97016">
				 <ele>11.2</ele>
			 </trkpt>
			 <trkpt lat="38.11609" lon="23.96982">
				 <ele>11</ele>
			 </trkpt>
			 <trkpt lat="38.11609" lon="23.96969">
				 <ele>10.8</ele>
			 </trkpt>
			 <trkpt lat="38.115465" lon="23.9697">
				 <ele>10.5</ele>
			 </trkpt>
			 <trkpt lat="38.11484" lon="23.96971">
				 <ele>10.3</ele>
			 </trkpt>
			 <trkpt lat="38.114003" lon="23.969713">
				 <ele>10</ele>
			 </trkpt>
			 <trkpt lat="38.113166" lon="23.969716">
				 <ele>9.5</ele>
			 </trkpt>
			 <trkpt lat="38.112329" lon="23.969719">
				 <ele>9.1</ele>
			 </trkpt>
			 <trkpt lat="38.111492" lon="23.969722">
				 <ele>8.7</ele>
			 </trkpt>
			 <trkpt lat="38.110655" lon="23.969725">
				 <ele>8.4</ele>
			 </trkpt>
			 <trkpt lat="38.109818" lon="23.969728">
				 <ele>8</ele>
			 </trkpt>
			 <trkpt lat="38.108981" lon="23.969731">
				 <ele>7.6</ele>
			 </trkpt>
			 <trkpt lat="38.108144" lon="23.969734">
				 <ele>7.5</ele>
			 </trkpt>
			 <trkpt lat="38.107307" lon="23.969737">
				 <ele>7.5</ele>
			 </trkpt>
			 <trkpt lat="38.10647" lon="23.96974">
				 <ele>7.8</ele>
			 </trkpt>
			 <trkpt lat="38.105865" lon="23.969745">
				 <ele>8.1</ele>
			 </trkpt>
			 <trkpt lat="38.10526" lon="23.96975">
				 <ele>8.4</ele>
			 </trkpt>
			 <trkpt lat="38.10484" lon="23.96973">
				 <ele>8.8</ele>
			 </trkpt>
			 <trkpt lat="38.1043" lon="23.96975">
				 <ele>9.3</ele>
			 </trkpt>
			 <trkpt lat="38.10376" lon="23.96977">
				 <ele>9.6</ele>
			 </trkpt>
			 <trkpt lat="38.103423" lon="23.969826">
				 <ele>10</ele>
			 </trkpt>
			 <trkpt lat="38.103301" lon="23.96985">
				 <ele>10.2</ele>
			 </trkpt>
			 <trkpt lat="38.103233" lon="23.969866">
				 <ele>10.4</ele>
			 </trkpt>
			 <trkpt lat="38.103147" lon="23.969888">
				 <ele>10.6</ele>
			 </trkpt>
			 <trkpt lat="38.103048" lon="23.969924">
				 <ele>10.7</ele>
			 </trkpt>
			 <trkpt lat="38.102731" lon="23.970036">
				 <ele>10.7</ele>
			 </trkpt>
			 <trkpt lat="38.10175" lon="23.970383">
				 <ele>10.7</ele>
			 </trkpt>
			 <trkpt lat="38.101351" lon="23.970525">
				 <ele>10.7</ele>
			 </trkpt>
			 <trkpt lat="38.101108" lon="23.970614">
				 <ele>10.5</ele>
			 </trkpt>
			 <trkpt lat="38.100635" lon="23.970787">
				 <ele>10.4</ele>
			 </trkpt>
			 <trkpt lat="38.100545" lon="23.970821">
				 <ele>10.2</ele>
			 </trkpt>
			 <trkpt lat="38.100367" lon="23.970885">
				 <ele>10.1</ele>
			 </trkpt>
			 <trkpt lat="38.099514" lon="23.971197">
				 <ele>10.4</ele>
			 </trkpt>
			 <trkpt lat="38.099165" lon="23.971327">
				 <ele>10.7</ele>
			 </trkpt>
			 <trkpt lat="38.09911" lon="23.971346">
				 <ele>11.1</ele>
			 </trkpt>
			 <trkpt lat="38.099028" lon="23.971377">
				 <ele>11.5</ele>
			 </trkpt>
			 <trkpt lat="38.098929" lon="23.971415">
				 <ele>12</ele>
			 </trkpt>
			 <trkpt lat="38.097613" lon="23.971885">
				 <ele>12.5</ele>
			 </trkpt>
			 <trkpt lat="38.097396" lon="23.971968">
				 <ele>12.9</ele>
			 </trkpt>
			 <trkpt lat="38.096676" lon="23.97225">
				 <ele>13.5</ele>
			 </trkpt>
			 <trkpt lat="38.09631" lon="23.972403">
				 <ele>14</ele>
			 </trkpt>
			 <trkpt lat="38.096198" lon="23.97245">
				 <ele>14.4</ele>
			 </trkpt>
			 <trkpt lat="38.096123" lon="23.972481">
				 <ele>14.7</ele>
			 </trkpt>
			 <trkpt lat="38.096024" lon="23.97252">
				 <ele>15</ele>
			 </trkpt>
			 <trkpt lat="38.095141" lon="23.972868">
				 <ele>15.3</ele>
			 </trkpt>
			 <trkpt lat="38.094833" lon="23.972989">
				 <ele>15.5</ele>
			 </trkpt>
			 <trkpt lat="38.092971" lon="23.973723">
				 <ele>15.5</ele>
			 </trkpt>
			 <trkpt lat="38.092943" lon="23.973734">
				 <ele>15.5</ele>
			 </trkpt>
			 <trkpt lat="38.092593" lon="23.973872">
				 <ele>15.5</ele>
			 </trkpt>
			 <trkpt lat="38.09196" lon="23.974121">
				 <ele>15.5</ele>
			 </trkpt>
			 <trkpt lat="38.091294" lon="23.974435">
				 <ele>15.6</ele>
			 </trkpt>
			 <trkpt lat="38.090778" lon="23.974676">
				 <ele>15.7</ele>
			 </trkpt>
			 <trkpt lat="38.089954" lon="23.975049">
				 <ele>16</ele>
			 </trkpt>
			 <trkpt lat="38.089898" lon="23.975074">
				 <ele>16.3</ele>
			 </trkpt>
			 <trkpt lat="38.089774" lon="23.97513">
				 <ele>16.5</ele>
			 </trkpt>
			 <trkpt lat="38.089122" lon="23.975424">
				 <ele>16.5</ele>
			 </trkpt>
			 <trkpt lat="38.088702" lon="23.975623">
				 <ele>16.5</ele>
			 </trkpt>
			 <trkpt lat="38.088017" lon="23.975946">
				 <ele>16.5</ele>
			 </trkpt>
			 <trkpt lat="38.087972" lon="23.975968">
				 <ele>16.5</ele>
			 </trkpt>
			 <trkpt lat="38.087898" lon="23.976005">
				 <ele>16.5</ele>
			 </trkpt>
			 <trkpt lat="38.087844" lon="23.97603">
				 <ele>16.5</ele>
			 </trkpt>
			 <trkpt lat="38.087784" lon="23.976058">
				 <ele>16.4</ele>
			 </trkpt>
			 <trkpt lat="38.087631" lon="23.976136">
				 <ele>16.5</ele>
			 </trkpt>
			 <trkpt lat="38.087208" lon="23.976363">
				 <ele>16.5</ele>
			 </trkpt>
			 <trkpt lat="38.087151" lon="23.976395">
				 <ele>16.5</ele>
			 </trkpt>
			 <trkpt lat="38.087111" lon="23.976417">
				 <ele>16.5</ele>
			 </trkpt>
			 <trkpt lat="38.086882" lon="23.976545">
				 <ele>16.6</ele>
			 </trkpt>
			 <trkpt lat="38.086315" lon="23.976879">
				 <ele>16.8</ele>
			 </trkpt>
			 <trkpt lat="38.085887" lon="23.977114">
				 <ele>17</ele>
			 </trkpt>
			 <trkpt lat="38.085727" lon="23.977199">
				 <ele>17.3</ele>
			 </trkpt>
			 <trkpt lat="38.085356" lon="23.977394">
				 <ele>17.5</ele>
			 </trkpt>
			 <trkpt lat="38.085033" lon="23.977574">
				 <ele>17.9</ele>
			 </trkpt>
			 <trkpt lat="38.084919" lon="23.977633">
				 <ele>18.4</ele>
			 </trkpt>
			 <trkpt lat="38.084785" lon="23.977711">
				 <ele>18.7</ele>
			 </trkpt>
			 <trkpt lat="38.084471" lon="23.977878">
				 <ele>19.1</ele>
			 </trkpt>
			 <trkpt lat="38.084151" lon="23.978052">
				 <ele>19.4</ele>
			 </trkpt>
			 <trkpt lat="38.083814" lon="23.978234">
				 <ele>19.6</ele>
			 </trkpt>
			 <trkpt lat="38.083423" lon="23.978446">
				 <ele>19.8</ele>
			 </trkpt>
			 <trkpt lat="38.082496" lon="23.978952">
				 <ele>20</ele>
			 </trkpt>
			 <trkpt lat="38.081991" lon="23.979233">
				 <ele>20.2</ele>
			 </trkpt>
			 <trkpt lat="38.081676" lon="23.97941">
				 <ele>20.3</ele>
			 </trkpt>
			 <trkpt lat="38.081607" lon="23.979448">
				 <ele>20.5</ele>
			 </trkpt>
			 <trkpt lat="38.081511" lon="23.979502">
				 <ele>20.8</ele>
			 </trkpt>
			 <trkpt lat="38.081469" lon="23.979526">
				 <ele>21</ele>
			 </trkpt>
			 <trkpt lat="38.081347" lon="23.979591">
				 <ele>21.2</ele>
			 </trkpt>
			 <trkpt lat="38.08107" lon="23.979739">
				 <ele>21.5</ele>
			 </trkpt>
			 <trkpt lat="38.080308" lon="23.980146">
				 <ele>21.9</ele>
			 </trkpt>
			 <trkpt lat="38.080021" lon="23.980299">
				 <ele>22.4</ele>
			 </trkpt>
			 <trkpt lat="38.079895" lon="23.980366">
				 <ele>22.9</ele>
			 </trkpt>
			 <trkpt lat="38.079308" lon="23.980676">
				 <ele>23.5</ele>
			 </trkpt>
			 <trkpt lat="38.079031" lon="23.980825">
				 <ele>24.3</ele>
			 </trkpt>
			 <trkpt lat="38.078713" lon="23.980996">
				 <ele>25</ele>
			 </trkpt>
			 <trkpt lat="38.078445" lon="23.981139">
				 <ele>25.7</ele>
			 </trkpt>
			 <trkpt lat="38.078005" lon="23.981377">
				 <ele>26.5</ele>
			 </trkpt>
			 <trkpt lat="38.077464" lon="23.981667">
				 <ele>27.2</ele>
			 </trkpt>
			 <trkpt lat="38.077175" lon="23.981819">
				 <ele>27.8</ele>
			 </trkpt>
			 <trkpt lat="38.076837" lon="23.981976">
				 <ele>28.5</ele>
			 </trkpt>
			 <trkpt lat="38.076337" lon="23.982269">
				 <ele>29</ele>
			 </trkpt>
			 <trkpt lat="38.076079" lon="23.982421">
				 <ele>29.6</ele>
			 </trkpt>
			 <trkpt lat="38.076026" lon="23.98245">
				 <ele>30.2</ele>
			 </trkpt>
			 <trkpt lat="38.075857" lon="23.982547">
				 <ele>30.6</ele>
			 </trkpt>
			 <trkpt lat="38.075757" lon="23.982602">
				 <ele>31</ele>
			 </trkpt>
			 <trkpt lat="38.07568" lon="23.98264">
				 <ele>31.4</ele>
			 </trkpt>
			 <trkpt lat="38.075546" lon="23.982704">
				 <ele>31.6</ele>
			 </trkpt>
			 <trkpt lat="38.075373" lon="23.982774">
				 <ele>32</ele>
			 </trkpt>
			 <trkpt lat="38.075258" lon="23.982802">
				 <ele>32.5</ele>
			 </trkpt>
			 <trkpt lat="38.075112" lon="23.982838">
				 <ele>33.5</ele>
			 </trkpt>
			 <trkpt lat="38.074949" lon="23.982856">
				 <ele>34.5</ele>
			 </trkpt>
			 <trkpt lat="38.07469" lon="23.982846">
				 <ele>35.6</ele>
			 </trkpt>
			 <trkpt lat="38.07423" lon="23.982795">
				 <ele>36.6</ele>
			 </trkpt>
			 <trkpt lat="38.074009" lon="23.982758">
				 <ele>37.5</ele>
			 </trkpt>
			 <trkpt lat="38.072763" lon="23.982553">
				 <ele>38.5</ele>
			 </trkpt>
			 <trkpt lat="38.072451" lon="23.982512">
				 <ele>39.5</ele>
			 </trkpt>
			 <trkpt lat="38.072214" lon="23.982484">
				 <ele>40.5</ele>
			 </trkpt>
			 <trkpt lat="38.072179" lon="23.982481">
				 <ele>41.7</ele>
			 </trkpt>
			 <trkpt lat="38.071885" lon="23.982453">
				 <ele>42.9</ele>
			 </trkpt>
			 <trkpt lat="38.071402" lon="23.982411">
				 <ele>44.1</ele>
			 </trkpt>
			 <trkpt lat="38.070212" lon="23.982309">
				 <ele>44.7</ele>
			 </trkpt>
			 <trkpt lat="38.069548" lon="23.982252">
				 <ele>45.4</ele>
			 </trkpt>
			 <trkpt lat="38.068556" lon="23.982166">
				 <ele>46</ele>
			 </trkpt>
			 <trkpt lat="38.06786" lon="23.982106">
				 <ele>46.7</ele>
			 </trkpt>
			 <trkpt lat="38.06761" lon="23.982074">
				 <ele>47.5</ele>
			 </trkpt>
			 <trkpt lat="38.067494" lon="23.982054">
				 <ele>48.4</ele>
			 </trkpt>
			 <trkpt lat="38.066346" lon="23.98195">
				 <ele>49.2</ele>
			 </trkpt>
			 <trkpt lat="38.06627" lon="23.981946">
				 <ele>50</ele>
			 </trkpt>
			 <trkpt lat="38.066212" lon="23.981943">
				 <ele>50.5</ele>
			 </trkpt>
			 <trkpt lat="38.06615" lon="23.981937">
				 <ele>50.8</ele>
			 </trkpt>
			 <trkpt lat="38.065967" lon="23.981919">
				 <ele>51</ele>
			 </trkpt>
			 <trkpt lat="38.065069" lon="23.98186">
				 <ele>51.2</ele>
			 </trkpt>
			 <trkpt lat="38.064797" lon="23.981857">
				 <ele>51.3</ele>
			 </trkpt>
			 <trkpt lat="38.064551" lon="23.981853">
				 <ele>51.4</ele>
			 </trkpt>
			 <trkpt lat="38.063849" lon="23.981812">
				 <ele>51.4</ele>
			 </trkpt>
			 <trkpt lat="38.062966" lon="23.981744">
				 <ele>51.5</ele>
			 </trkpt>
			 <trkpt lat="38.062378" lon="23.98167">
				 <ele>51.5</ele>
			 </trkpt>
			 <trkpt lat="38.062206" lon="23.981649">
				 <ele>51.5</ele>
			 </trkpt>
			 <trkpt lat="38.061973" lon="23.981645">
				 <ele>51.6</ele>
			 </trkpt>
			 <trkpt lat="38.061743" lon="23.981638">
				 <ele>51.8</ele>
			 </trkpt>
			 <trkpt lat="38.06168" lon="23.981641">
				 <ele>52.1</ele>
			 </trkpt>
			 <trkpt lat="38.061628" lon="23.981644">
				 <ele>52.6</ele>
			 </trkpt>
			 <trkpt lat="38.061458" lon="23.981678">
				 <ele>53.5</ele>
			 </trkpt>
			 <trkpt lat="38.06126" lon="23.98174">
				 <ele>54.3</ele>
			 </trkpt>
			 <trkpt lat="38.060755" lon="23.981985">
				 <ele>55.4</ele>
			 </trkpt>
			 <trkpt lat="38.06025" lon="23.98223">
				 <ele>56.5</ele>
			 </trkpt>
			 <trkpt lat="38.0599" lon="23.98239">
				 <ele>57.6</ele>
			 </trkpt>
			 <trkpt lat="38.059096" lon="23.982702">
				 <ele>58.7</ele>
			 </trkpt>
			 <trkpt lat="38.058292" lon="23.983014">
				 <ele>59.9</ele>
			 </trkpt>
			 <trkpt lat="38.057488" lon="23.983326">
				 <ele>61</ele>
			 </trkpt>
			 <trkpt lat="38.056684" lon="23.983638">
				 <ele>62</ele>
			 </trkpt>
			 <trkpt lat="38.05588" lon="23.98395">
				 <ele>62.9</ele>
			 </trkpt>
			 <trkpt lat="38.055165" lon="23.98418">
				 <ele>63.4</ele>
			 </trkpt>
			 <trkpt lat="38.05445" lon="23.98441">
				 <ele>63.6</ele>
			 </trkpt>
			 <trkpt lat="38.05394" lon="23.98466">
				 <ele>64.1</ele>
			 </trkpt>
			 <trkpt lat="38.05344" lon="23.98493">
				 <ele>64.4</ele>
			 </trkpt>
			 <trkpt lat="38.052783" lon="23.985383">
				 <ele>64.3</ele>
			 </trkpt>
			 <trkpt lat="38.052127" lon="23.985837">
				 <ele>63.8</ele>
			 </trkpt>
			 <trkpt lat="38.05147" lon="23.98629">
				 <ele>63.4</ele>
			 </trkpt>
			 <trkpt lat="38.051" lon="23.98659">
				 <ele>63.2</ele>
			 </trkpt>
			 <trkpt lat="38.05053" lon="23.98689">
				 <ele>63.1</ele>
			 </trkpt>
			 <trkpt lat="38.04972" lon="23.98724">
				 <ele>63.3</ele>
			 </trkpt>
			 <trkpt lat="38.049123" lon="23.987417">
				 <ele>63.7</ele>
			 </trkpt>
			 <trkpt lat="38.048527" lon="23.987593">
				 <ele>64.5</ele>
			 </trkpt>
			 <trkpt lat="38.04793" lon="23.98777">
				 <ele>65.2</ele>
			 </trkpt>
			 <trkpt lat="38.04733" lon="23.98792">
				 <ele>65.6</ele>
			 </trkpt>
			 <trkpt lat="38.04673" lon="23.98807">
				 <ele>65.8</ele>
			 </trkpt>
			 <trkpt lat="38.04597" lon="23.98822">
				 <ele>65.9</ele>
			 </trkpt>
			 <trkpt lat="38.045145" lon="23.98848">
				 <ele>66.4</ele>
			 </trkpt>
			 <trkpt lat="38.04432" lon="23.98874">
				 <ele>66.9</ele>
			 </trkpt>
			 <trkpt lat="38.04404" lon="23.98888">
				 <ele>67.2</ele>
			 </trkpt>
			 <trkpt lat="38.04339" lon="23.98914">
				 <ele>67.5</ele>
			 </trkpt>
			 <trkpt lat="38.04275" lon="23.98933">
				 <ele>67.5</ele>
			 </trkpt>
			 <trkpt lat="38.04228" lon="23.98944">
				 <ele>67.2</ele>
			 </trkpt>
			 <trkpt lat="38.04201" lon="23.98952">
				 <ele>67.1</ele>
			 </trkpt>
			 <trkpt lat="38.04175" lon="23.98963">
				 <ele>66.9</ele>
			 </trkpt>
			 <trkpt lat="38.04099" lon="23.99007">
				 <ele>66.8</ele>
			 </trkpt>
			 <trkpt lat="38.04074" lon="23.99017">
				 <ele>67</ele>
			 </trkpt>
			 <trkpt lat="38.04048" lon="23.99022">
				 <ele>67.6</ele>
			 </trkpt>
			 <trkpt lat="38.03965" lon="23.9903">
				 <ele>68.2</ele>
			 </trkpt>
			 <trkpt lat="38.03927" lon="23.99031">
				 <ele>68.5</ele>
			 </trkpt>
			 <trkpt lat="38.03905" lon="23.99025">
				 <ele>68.5</ele>
			 </trkpt>
			 <trkpt lat="38.03884" lon="23.99016">
				 <ele>68.5</ele>
			 </trkpt>
			 <trkpt lat="38.03806" lon="23.98972">
				 <ele>68.4</ele>
			 </trkpt>
			 <trkpt lat="38.03734" lon="23.98951">
				 <ele>68.3</ele>
			 </trkpt>
			 <trkpt lat="38.03696" lon="23.98936">
				 <ele>68.5</ele>
			 </trkpt>
			 <trkpt lat="38.03679" lon="23.98926">
				 <ele>69.2</ele>
			 </trkpt>
			 <trkpt lat="38.03655" lon="23.98905">
				 <ele>70.5</ele>
			 </trkpt>
			 <trkpt lat="38.03637" lon="23.98883">
				 <ele>72.1</ele>
			 </trkpt>
			 <trkpt lat="38.03625" lon="23.98863">
				 <ele>73.6</ele>
			 </trkpt>
			 <trkpt lat="38.03577" lon="23.9877">
				 <ele>75.4</ele>
			 </trkpt>
			 <trkpt lat="38.0355" lon="23.98728">
				 <ele>77.3</ele>
			 </trkpt>
			 <trkpt lat="38.03503" lon="23.98667">
				 <ele>79.3</ele>
			 </trkpt>
			 <trkpt lat="38.03474" lon="23.98624">
				 <ele>81.5</ele>
			 </trkpt>
			 <trkpt lat="38.03423" lon="23.98539">
				 <ele>83.6</ele>
			 </trkpt>
			 <trkpt lat="38.03409" lon="23.98519">
				 <ele>85.9</ele>
			 </trkpt>
			 <trkpt lat="38.03386" lon="23.98492">
				 <ele>87.7</ele>
			 </trkpt>
			 <trkpt lat="38.03375" lon="23.98483">
				 <ele>89.1</ele>
			 </trkpt>
			 <trkpt lat="38.03353" lon="23.98469">
				 <ele>89.8</ele>
			 </trkpt>
			 <trkpt lat="38.03316" lon="23.98454">
				 <ele>90.1</ele>
			 </trkpt>
			 <trkpt lat="38.032555" lon="23.984395">
				 <ele>90.1</ele>
			 </trkpt>
			 <trkpt lat="38.03195" lon="23.98425">
				 <ele>89.8</ele>
			 </trkpt>
			 <trkpt lat="38.03154" lon="23.9841">
				 <ele>89.4</ele>
			 </trkpt>
			 <trkpt lat="38.03102" lon="23.98386">
				 <ele>88.8</ele>
			 </trkpt>
			 <trkpt lat="38.030398" lon="23.983482">
				 <ele>88</ele>
			 </trkpt>
			 <trkpt lat="38.029775" lon="23.983105">
				 <ele>87.1</ele>
			 </trkpt>
			 <trkpt lat="38.029153" lon="23.982727">
				 <ele>85.8</ele>
			 </trkpt>
			 <trkpt lat="38.02853" lon="23.98235">
				 <ele>84.3</ele>
			 </trkpt>
			 <trkpt lat="38.0283" lon="23.98224">
				 <ele>82.4</ele>
			 </trkpt>
			 <trkpt lat="38.02808" lon="23.98216">
				 <ele>80</ele>
			 </trkpt>
			 <trkpt lat="38.02787" lon="23.98211">
				 <ele>77.5</ele>
			 </trkpt>
			 <trkpt lat="38.02754" lon="23.9821">
				 <ele>74.9</ele>
			 </trkpt>
			 <trkpt lat="38.02714" lon="23.98219">
				 <ele>72.5</ele>
			 </trkpt>
			 <trkpt lat="38.02679" lon="23.98235">
				 <ele>70.1</ele>
			 </trkpt>
			 <trkpt lat="38.02628" lon="23.982635">
				 <ele>67.7</ele>
			 </trkpt>
			 <trkpt lat="38.02577" lon="23.98292">
				 <ele>65.2</ele>
			 </trkpt>
			 <trkpt lat="38.02544" lon="23.98306">
				 <ele>62.3</ele>
			 </trkpt>
			 <trkpt lat="38.02509" lon="23.98315">
				 <ele>59.4</ele>
			 </trkpt>
			 <trkpt lat="38.02481" lon="23.98317">
				 <ele>56.6</ele>
			 </trkpt>
			 <trkpt lat="38.02459" lon="23.98315">
				 <ele>54.1</ele>
			 </trkpt>
			 <trkpt lat="38.02402" lon="23.98305">
				 <ele>52</ele>
			 </trkpt>
			 <trkpt lat="38.023393" lon="23.982903">
				 <ele>50.2</ele>
			 </trkpt>
			 <trkpt lat="38.022767" lon="23.982757">
				 <ele>48.4</ele>
			 </trkpt>
			 <trkpt lat="38.02214" lon="23.98261">
				 <ele>46.4</ele>
			 </trkpt>
			 <trkpt lat="38.02183" lon="23.98251">
				 <ele>44.5</ele>
			 </trkpt>
			 <trkpt lat="38.02139" lon="23.98229">
				 <ele>42.5</ele>
			 </trkpt>
			 <trkpt lat="38.02082" lon="23.98194">
				 <ele>40.8</ele>
			 </trkpt>
			 <trkpt lat="38.02025" lon="23.98159">
				 <ele>39.5</ele>
			 </trkpt>
			 <trkpt lat="38.01964" lon="23.98119">
				 <ele>38.5</ele>
			 </trkpt>
			 <trkpt lat="38.01932" lon="23.98094">
				 <ele>37.8</ele>
			 </trkpt>
			 <trkpt lat="38.0189" lon="23.98065">
				 <ele>37.5</ele>
			 </trkpt>
			 <trkpt lat="38.0187" lon="23.9805">
				 <ele>37.4</ele>
			 </trkpt>
			 <trkpt lat="38.01837" lon="23.98018">
				 <ele>37.5</ele>
			 </trkpt>
			 <trkpt lat="38.01824" lon="23.97999">
				 <ele>38.1</ele>
			 </trkpt>
			 <trkpt lat="38.01793" lon="23.979455">
				 <ele>39</ele>
			 </trkpt>
			 <trkpt lat="38.01762" lon="23.97892">
				 <ele>40</ele>
			 </trkpt>
			 <trkpt lat="38.01741" lon="23.97862">
				 <ele>41.2</ele>
			 </trkpt>
			 <trkpt lat="38.01721" lon="23.9784">
				 <ele>42.3</ele>
			 </trkpt>
			 <trkpt lat="38.01706" lon="23.97827">
				 <ele>43.5</ele>
			 </trkpt>
			 <trkpt lat="38.01673" lon="23.97807">
				 <ele>44.7</ele>
			 </trkpt>
			 <trkpt lat="38.01603" lon="23.977755">
				 <ele>45.8</ele>
			 </trkpt>
			 <trkpt lat="38.01533" lon="23.97744">
				 <ele>46.5</ele>
			 </trkpt>
			 <trkpt lat="38.01494" lon="23.97721">
				 <ele>46.5</ele>
			 </trkpt>
			 <trkpt lat="38.01466" lon="23.977">
				 <ele>46.4</ele>
			 </trkpt>
			 <trkpt lat="38.0144" lon="23.97676">
				 <ele>45.9</ele>
			 </trkpt>
			 <trkpt lat="38.01406" lon="23.97638">
				 <ele>45.4</ele>
			 </trkpt>
			 <trkpt lat="38.013537" lon="23.975727">
				 <ele>44.7</ele>
			 </trkpt>
			 <trkpt lat="38.013013" lon="23.975073">
				 <ele>44.1</ele>
			 </trkpt>
			 <trkpt lat="38.01249" lon="23.97442">
				 <ele>43.5</ele>
			 </trkpt>
			 <trkpt lat="38.012115" lon="23.973915">
				 <ele>43.4</ele>
			 </trkpt>
			 <trkpt lat="38.01174" lon="23.97341">
				 <ele>43.2</ele>
			 </trkpt>
			 <trkpt lat="38.01145" lon="23.97294">
				 <ele>43</ele>
			 </trkpt>
			 <trkpt lat="38.01125" lon="23.97251">
				 <ele>42.9</ele>
			 </trkpt>
			 <trkpt lat="38.01114" lon="23.97222">
				 <ele>43.1</ele>
			 </trkpt>
			 <trkpt lat="38.010913" lon="23.971407">
				 <ele>43.5</ele>
			 </trkpt>
			 <trkpt lat="38.010687" lon="23.970593">
				 <ele>44.1</ele>
			 </trkpt>
			 <trkpt lat="38.01046" lon="23.96978">
				 <ele>44.9</ele>
			 </trkpt>
			 <trkpt lat="38.01029" lon="23.969205">
				 <ele>46</ele>
			 </trkpt>
			 <trkpt lat="38.01012" lon="23.96863">
				 <ele>47.3</ele>
			 </trkpt>
			 <trkpt lat="38.00986" lon="23.968">
				 <ele>48.6</ele>
			 </trkpt>
			 <trkpt lat="38.00962" lon="23.96751">
				 <ele>49.6</ele>
			 </trkpt>
			 <trkpt lat="38.009217" lon="23.96675">
				 <ele>50.7</ele>
			 </trkpt>
			 <trkpt lat="38.008813" lon="23.96599">
				 <ele>52.1</ele>
			 </trkpt>
			 <trkpt lat="38.00841" lon="23.96523">
				 <ele>53.6</ele>
			 </trkpt>
			 <trkpt lat="38.00822" lon="23.96486">
				 <ele>55.2</ele>
			 </trkpt>
			 <trkpt lat="38.0081" lon="23.96454">
				 <ele>56.8</ele>
			 </trkpt>
			 <trkpt lat="38.00798" lon="23.96408">
				 <ele>58.4</ele>
			 </trkpt>
			 <trkpt lat="38.0079" lon="23.9636">
				 <ele>59.7</ele>
			 </trkpt>
			 <trkpt lat="38.00789" lon="23.96319">
				 <ele>60.9</ele>
			 </trkpt>
			 <trkpt lat="38.0079" lon="23.96292">
				 <ele>62</ele>
			 </trkpt>
			 <trkpt lat="38.00797" lon="23.96235">
				 <ele>63</ele>
			 </trkpt>
			 <trkpt lat="38.00804" lon="23.96178">
				 <ele>64.2</ele>
			 </trkpt>
			 <trkpt lat="38.00806" lon="23.96146">
				 <ele>65.2</ele>
			 </trkpt>
			 <trkpt lat="38.00806" lon="23.96104">
				 <ele>66.1</ele>
			 </trkpt>
			 <trkpt lat="38.00799" lon="23.96039">
				 <ele>67</ele>
			 </trkpt>
			 <trkpt lat="38.00794" lon="23.9602">
				 <ele>68</ele>
			 </trkpt>
			 <trkpt lat="38.00777" lon="23.95969">
				 <ele>68.9</ele>
			 </trkpt>
			 <trkpt lat="38.007485" lon="23.95913">
				 <ele>70</ele>
			 </trkpt>
			 <trkpt lat="38.0072" lon="23.95857">
				 <ele>71.3</ele>
			 </trkpt>
			 <trkpt lat="38.00702" lon="23.95811">
				 <ele>72.6</ele>
			 </trkpt>
			 <trkpt lat="38.00687" lon="23.95762">
				 <ele>74.2</ele>
			 </trkpt>
			 <trkpt lat="38.00674" lon="23.95691">
				 <ele>75.7</ele>
			 </trkpt>
			 <trkpt lat="38.00661" lon="23.9562">
				 <ele>77.1</ele>
			 </trkpt>
			 <trkpt lat="38.00652" lon="23.95584">
				 <ele>78.5</ele>
			 </trkpt>
			 <trkpt lat="38.00638" lon="23.95544">
				 <ele>80</ele>
			 </trkpt>
			 <trkpt lat="38.006135" lon="23.95494">
				 <ele>81.5</ele>
			 </trkpt>
			 <trkpt lat="38.00589" lon="23.95444">
				 <ele>83</ele>
			 </trkpt>
			 <trkpt lat="38.00575" lon="23.95411">
				 <ele>84.7</ele>
			 </trkpt>
			 <trkpt lat="38.00555" lon="23.95331">
				 <ele>86.5</ele>
			 </trkpt>
			 <trkpt lat="38.00541" lon="23.95224">
				 <ele>88.1</ele>
			 </trkpt>
			 <trkpt lat="38.00533" lon="23.95178">
				 <ele>89.7</ele>
			 </trkpt>
			 <trkpt lat="38.00514" lon="23.95106">
				 <ele>91.5</ele>
			 </trkpt>
			 <trkpt lat="38.004854" lon="23.950124">
				 <ele>93.3</ele>
			 </trkpt>
			 <trkpt lat="38.004568" lon="23.949187">
				 <ele>95</ele>
			 </trkpt>
			 <trkpt lat="38.004281" lon="23.948251">
				 <ele>96.7</ele>
			 </trkpt>
			 <trkpt lat="38.003995" lon="23.947315">
				 <ele>98.2</ele>
			 </trkpt>
			 <trkpt lat="38.003709" lon="23.946379">
				 <ele>99.6</ele>
			 </trkpt>
			 <trkpt lat="38.003423" lon="23.945442">
				 <ele>101.1</ele>
			 </trkpt>
			 <trkpt lat="38.003136" lon="23.944506">
				 <ele>102.4</ele>
			 </trkpt>
			 <trkpt lat="38.00285" lon="23.94357">
				 <ele>103.5</ele>
			 </trkpt>
			 <trkpt lat="38.00259" lon="23.942765">
				 <ele>104.7</ele>
			 </trkpt>
			 <trkpt lat="38.00233" lon="23.94196">
				 <ele>105.9</ele>
			 </trkpt>
			 <trkpt lat="38.002065" lon="23.941005">
				 <ele>106.7</ele>
			 </trkpt>
			 <trkpt lat="38.0018" lon="23.94005">
				 <ele>107.6</ele>
			 </trkpt>
			 <trkpt lat="38.00147" lon="23.93901">
				 <ele>108.6</ele>
			 </trkpt>
			 <trkpt lat="38.00127" lon="23.93844">
				 <ele>109.5</ele>
			 </trkpt>
			 <trkpt lat="38.00109" lon="23.93801">
				 <ele>110.5</ele>
			 </trkpt>
			 <trkpt lat="38.00079" lon="23.93737">
				 <ele>111.4</ele>
			 </trkpt>
			 <trkpt lat="38.00043" lon="23.936637">
				 <ele>112.2</ele>
			 </trkpt>
			 <trkpt lat="38.00007" lon="23.935903">
				 <ele>113</ele>
			 </trkpt>
			 <trkpt lat="37.99971" lon="23.93517">
				 <ele>113.7</ele>
			 </trkpt>
			 <trkpt lat="37.99942" lon="23.93448">
				 <ele>114.3</ele>
			 </trkpt>
			 <trkpt lat="37.99912" lon="23.933527">
				 <ele>114.6</ele>
			 </trkpt>
			 <trkpt lat="37.99882" lon="23.932575">
				 <ele>114.9</ele>
			 </trkpt>
			 <trkpt lat="37.99852" lon="23.931622">
				 <ele>115.4</ele>
			 </trkpt>
			 <trkpt lat="37.99822" lon="23.93067">
				 <ele>115.7</ele>
			 </trkpt>
			 <trkpt lat="37.99811" lon="23.93023">
				 <ele>116.2</ele>
			 </trkpt>
			 <trkpt lat="37.99804" lon="23.92986">
				 <ele>116.7</ele>
			 </trkpt>
			 <trkpt lat="37.99798" lon="23.92937">
				 <ele>117.5</ele>
			 </trkpt>
			 <trkpt lat="37.997913" lon="23.92848">
				 <ele>118.2</ele>
			 </trkpt>
			 <trkpt lat="37.997845" lon="23.92759">
				 <ele>118.6</ele>
			 </trkpt>
			 <trkpt lat="37.997778" lon="23.9267">
				 <ele>119.2</ele>
			 </trkpt>
			 <trkpt lat="37.99771" lon="23.92581">
				 <ele>120</ele>
			 </trkpt>
			 <trkpt lat="37.997695" lon="23.92508">
				 <ele>120.9</ele>
			 </trkpt>
			 <trkpt lat="37.99768" lon="23.92435">
				 <ele>121.9</ele>
			 </trkpt>
			 <trkpt lat="37.99769" lon="23.92381">
				 <ele>122.8</ele>
			 </trkpt>
			 <trkpt lat="37.99772" lon="23.92316">
				 <ele>123.8</ele>
			 </trkpt>
			 <trkpt lat="37.997765" lon="23.92255">
				 <ele>124.6</ele>
			 </trkpt>
			 <trkpt lat="37.99781" lon="23.92194">
				 <ele>125.4</ele>
			 </trkpt>
			 <trkpt lat="37.99788" lon="23.92142">
				 <ele>126.1</ele>
			 </trkpt>
			 <trkpt lat="37.99809" lon="23.92041">
				 <ele>127.1</ele>
			 </trkpt>
			 <trkpt lat="37.998367" lon="23.919347">
				 <ele>128.4</ele>
			 </trkpt>
			 <trkpt lat="37.998643" lon="23.918283">
				 <ele>129.6</ele>
			 </trkpt>
			 <trkpt lat="37.99892" lon="23.91722">
				 <ele>130.8</ele>
			 </trkpt>
			 <trkpt lat="37.999155" lon="23.916285">
				 <ele>132</ele>
			 </trkpt>
			 <trkpt lat="37.99939" lon="23.91535">
				 <ele>133.1</ele>
			 </trkpt>
			 <trkpt lat="37.999595" lon="23.9146">
				 <ele>134.2</ele>
			 </trkpt>
			 <trkpt lat="37.9998" lon="23.91385">
				 <ele>135.4</ele>
			 </trkpt>
			 <trkpt lat="37.99992" lon="23.91357">
				 <ele>137.2</ele>
			 </trkpt>
			 <trkpt lat="38.00005" lon="23.91331">
				 <ele>139.3</ele>
			 </trkpt>
			 <trkpt lat="38.00015" lon="23.91315">
				 <ele>141.2</ele>
			 </trkpt>
			 <trkpt lat="38.00027" lon="23.91301">
				 <ele>142.9</ele>
			 </trkpt>
			 <trkpt lat="38.0006" lon="23.91272">
				 <ele>144.5</ele>
			 </trkpt>
			 <trkpt lat="38.001065" lon="23.912465">
				 <ele>146.1</ele>
			 </trkpt>
			 <trkpt lat="38.00153" lon="23.91221">
				 <ele>147.5</ele>
			 </trkpt>
			 <trkpt lat="38.00175" lon="23.91206">
				 <ele>149</ele>
			 </trkpt>
			 <trkpt lat="38.00193" lon="23.91191">
				 <ele>150.5</ele>
			 </trkpt>
			 <trkpt lat="38.0021" lon="23.91171">
				 <ele>152.4</ele>
			 </trkpt>
			 <trkpt lat="38.00237" lon="23.91123">
				 <ele>153.9</ele>
			 </trkpt>
			 <trkpt lat="38.0025" lon="23.91084">
				 <ele>154.9</ele>
			 </trkpt>
			 <trkpt lat="38.00257" lon="23.91044">
				 <ele>156</ele>
			 </trkpt>
			 <trkpt lat="38.00259" lon="23.91001">
				 <ele>157.5</ele>
			 </trkpt>
			 <trkpt lat="38.00257" lon="23.909185">
				 <ele>159</ele>
			 </trkpt>
			 <trkpt lat="38.00255" lon="23.90836">
				 <ele>160.5</ele>
			 </trkpt>
			 <trkpt lat="38.00256" lon="23.907363">
				 <ele>161.8</ele>
			 </trkpt>
			 <trkpt lat="38.00257" lon="23.906367">
				 <ele>163.2</ele>
			 </trkpt>
			 <trkpt lat="38.00258" lon="23.90537">
				 <ele>164.5</ele>
			 </trkpt>
			 <trkpt lat="38.00262" lon="23.90459">
				 <ele>166.1</ele>
			 </trkpt>
			 <trkpt lat="38.002749" lon="23.90361">
				 <ele>167.5</ele>
			 </trkpt>
			 <trkpt lat="38.002877" lon="23.90263">
				 <ele>169</ele>
			 </trkpt>
			 <trkpt lat="38.003006" lon="23.90165">
				 <ele>170.6</ele>
			 </trkpt>
			 <trkpt lat="38.003134" lon="23.90067">
				 <ele>172</ele>
			 </trkpt>
			 <trkpt lat="38.003263" lon="23.89969">
				 <ele>173.3</ele>
			 </trkpt>
			 <trkpt lat="38.003391" lon="23.89871">
				 <ele>174.2</ele>
			 </trkpt>
			 <trkpt lat="38.00352" lon="23.89773">
				 <ele>175.5</ele>
			 </trkpt>
			 <trkpt lat="38.003615" lon="23.897125">
				 <ele>177.1</ele>
			 </trkpt>
			 <trkpt lat="38.00371" lon="23.89652">
				 <ele>178.8</ele>
			 </trkpt>
			 <trkpt lat="38.003895" lon="23.895473">
				 <ele>180.5</ele>
			 </trkpt>
			 <trkpt lat="38.00408" lon="23.894425">
				 <ele>181.8</ele>
			 </trkpt>
			 <trkpt lat="38.004265" lon="23.893378">
				 <ele>183</ele>
			 </trkpt>
			 <trkpt lat="38.00445" lon="23.89233">
				 <ele>184.1</ele>
			 </trkpt>
			 <trkpt lat="38.00453" lon="23.89166">
				 <ele>184.9</ele>
			 </trkpt>
			 <trkpt lat="38.00456" lon="23.89126">
				 <ele>185.8</ele>
			 </trkpt>
			 <trkpt lat="38.00453" lon="23.89065">
				 <ele>186.6</ele>
			 </trkpt>
			 <trkpt lat="38.00448" lon="23.89029">
				 <ele>187.7</ele>
			 </trkpt>
			 <trkpt lat="38.00435" lon="23.88952">
				 <ele>188.5</ele>
			 </trkpt>
			 <trkpt lat="38.00422" lon="23.88875">
				 <ele>188.9</ele>
			 </trkpt>
			 <trkpt lat="38.00409" lon="23.88798">
				 <ele>189.2</ele>
			 </trkpt>
			 <trkpt lat="38.003923" lon="23.886913">
				 <ele>189.5</ele>
			 </trkpt>
			 <trkpt lat="38.003757" lon="23.885847">
				 <ele>189.7</ele>
			 </trkpt>
			 <trkpt lat="38.00359" lon="23.88478">
				 <ele>190.1</ele>
			 </trkpt>
			 <trkpt lat="38.00352" lon="23.88416">
				 <ele>190.5</ele>
			 </trkpt>
			 <trkpt lat="38.00353" lon="23.8836">
				 <ele>191.4</ele>
			 </trkpt>
			 <trkpt lat="38.00357" lon="23.88335">
				 <ele>192.2</ele>
			 </trkpt>
			 <trkpt lat="38.00369" lon="23.88284">
				 <ele>193</ele>
			 </trkpt>
			 <trkpt lat="38.00376" lon="23.88247">
				 <ele>193.7</ele>
			 </trkpt>
			 <trkpt lat="38.00379" lon="23.88203">
				 <ele>194.5</ele>
			 </trkpt>
			 <trkpt lat="38.003793" lon="23.880918">
				 <ele>195.5</ele>
			 </trkpt>
			 <trkpt lat="38.003795" lon="23.879805">
				 <ele>196.8</ele>
			 </trkpt>
			 <trkpt lat="38.003798" lon="23.878693">
				 <ele>198.6</ele>
			 </trkpt>
			 <trkpt lat="38.0038" lon="23.87758">
				 <ele>200.7</ele>
			 </trkpt>
			 <trkpt lat="38.00383" lon="23.87698">
				 <ele>202.5</ele>
			 </trkpt>
			 <trkpt lat="38.004017" lon="23.87622">
				 <ele>203.9</ele>
			 </trkpt>
			 <trkpt lat="38.004203" lon="23.87546">
				 <ele>204.7</ele>
			 </trkpt>
			 <trkpt lat="38.00439" lon="23.8747">
				 <ele>205.4</ele>
			 </trkpt>
			 <trkpt lat="38.004605" lon="23.874065">
				 <ele>205.8</ele>
			 </trkpt>
			 <trkpt lat="38.00482" lon="23.87343">
				 <ele>206.5</ele>
			 </trkpt>
			 <trkpt lat="38.00495" lon="23.87294">
				 <ele>207.1</ele>
			 </trkpt>
			 <trkpt lat="38.00508" lon="23.872325">
				 <ele>207.3</ele>
			 </trkpt>
			 <trkpt lat="38.00521" lon="23.87171">
				 <ele>206.7</ele>
			 </trkpt>
			 <trkpt lat="38.005363" lon="23.870838">
				 <ele>205.7</ele>
			 </trkpt>
			 <trkpt lat="38.005515" lon="23.869965">
				 <ele>204.6</ele>
			 </trkpt>
			 <trkpt lat="38.005668" lon="23.869093">
				 <ele>204.1</ele>
			 </trkpt>
			 <trkpt lat="38.00582" lon="23.86822">
				 <ele>203.9</ele>
			 </trkpt>
			 <trkpt lat="38.006025" lon="23.867125">
				 <ele>204</ele>
			 </trkpt>
			 <trkpt lat="38.00623" lon="23.86603">
				 <ele>204.4</ele>
			 </trkpt>
			 <trkpt lat="38.00646" lon="23.86493">
				 <ele>204.6</ele>
			 </trkpt>
			 <trkpt lat="38.00669" lon="23.86383">
				 <ele>204.5</ele>
			 </trkpt>
			 <trkpt lat="38.00692" lon="23.86273">
				 <ele>204.5</ele>
			 </trkpt>
			 <trkpt lat="38.007105" lon="23.861655">
				 <ele>204.6</ele>
			 </trkpt>
			 <trkpt lat="38.00729" lon="23.86058">
				 <ele>205.2</ele>
			 </trkpt>
			 <trkpt lat="38.00742" lon="23.85963">
				 <ele>205.9</ele>
			 </trkpt>
			 <trkpt lat="38.007545" lon="23.85884">
				 <ele>206.5</ele>
			 </trkpt>
			 <trkpt lat="38.00767" lon="23.85805">
				 <ele>206.8</ele>
			 </trkpt>
			 <trkpt lat="38.00781" lon="23.85753">
				 <ele>207.1</ele>
			 </trkpt>
			 <trkpt lat="38.0081" lon="23.85667">
				 <ele>207.6</ele>
			 </trkpt>
			 <trkpt lat="38.008285" lon="23.85609">
				 <ele>208.1</ele>
			 </trkpt>
			 <trkpt lat="38.00847" lon="23.85551">
				 <ele>208.9</ele>
			 </trkpt>
			 <trkpt lat="38.008755" lon="23.85445">
				 <ele>210</ele>
			 </trkpt>
			 <trkpt lat="38.00904" lon="23.85339">
				 <ele>211.2</ele>
			 </trkpt>
			 <trkpt lat="38.0092" lon="23.85249">
				 <ele>212.5</ele>
			 </trkpt>
			 <trkpt lat="38.00936" lon="23.85159">
				 <ele>214.2</ele>
			 </trkpt>
			 <trkpt lat="38.00952" lon="23.85069">
				 <ele>216</ele>
			 </trkpt>
			 <trkpt lat="38.009688" lon="23.849662">
				 <ele>217.9</ele>
			 </trkpt>
			 <trkpt lat="38.009856" lon="23.848634">
				 <ele>220</ele>
			 </trkpt>
			 <trkpt lat="38.010024" lon="23.847606">
				 <ele>222.5</ele>
			 </trkpt>
			 <trkpt lat="38.010192" lon="23.846578">
				 <ele>225.4</ele>
			 </trkpt>
			 <trkpt lat="38.01036" lon="23.84555">
				 <ele>228.4</ele>
			 </trkpt>
			 <trkpt lat="38.01045" lon="23.844895">
				 <ele>231.2</ele>
			 </trkpt>
			 <trkpt lat="38.01054" lon="23.84424">
				 <ele>234.1</ele>
			 </trkpt>
			 <trkpt lat="38.010653" lon="23.84314">
				 <ele>236.9</ele>
			 </trkpt>
			 <trkpt lat="38.010767" lon="23.84204">
				 <ele>239.7</ele>
			 </trkpt>
			 <trkpt lat="38.01088" lon="23.84094">
				 <ele>241.9</ele>
			 </trkpt>
			 <trkpt lat="38.01095" lon="23.84041">
				 <ele>243.5</ele>
			 </trkpt>
			 <trkpt lat="38.01108" lon="23.83988">
				 <ele>244.7</ele>
			 </trkpt>
			 <trkpt lat="38.01132" lon="23.83927">
				 <ele>245.5</ele>
			 </trkpt>
			 <trkpt lat="38.01176" lon="23.838335">
				 <ele>245.5</ele>
			 </trkpt>
			 <trkpt lat="38.0122" lon="23.8374">
				 <ele>245.1</ele>
			 </trkpt>
			 <trkpt lat="38.01253" lon="23.83674">
				 <ele>244</ele>
			 </trkpt>
			 <trkpt lat="38.01261" lon="23.83654">
				 <ele>242.5</ele>
			 </trkpt>
			 <trkpt lat="38.01278" lon="23.83595">
				 <ele>240.8</ele>
			 </trkpt>
			 <trkpt lat="38.012953" lon="23.83509">
				 <ele>238.9</ele>
			 </trkpt>
			 <trkpt lat="38.013127" lon="23.83423">
				 <ele>236.7</ele>
			 </trkpt>
			 <trkpt lat="38.0133" lon="23.83337">
				 <ele>234.7</ele>
			 </trkpt>
			 <trkpt lat="38.013483" lon="23.832517">
				 <ele>233</ele>
			 </trkpt>
			 <trkpt lat="38.013667" lon="23.831663">
				 <ele>231.2</ele>
			 </trkpt>
			 <trkpt lat="38.01385" lon="23.83081">
				 <ele>229.5</ele>
			 </trkpt>
			 <trkpt lat="38.01388" lon="23.8306">
				 <ele>228</ele>
			 </trkpt>
			 <trkpt lat="38.01393" lon="23.8299">
				 <ele>226.5</ele>
			 </trkpt>
			 <trkpt lat="38.013937" lon="23.82893">
				 <ele>225</ele>
			 </trkpt>
			 <trkpt lat="38.013943" lon="23.82796">
				 <ele>223.9</ele>
			 </trkpt>
			 <trkpt lat="38.01395" lon="23.82699">
				 <ele>222.5</ele>
			 </trkpt>
			 <trkpt lat="38.01391" lon="23.82595">
				 <ele>220.9</ele>
			 </trkpt>
			 <trkpt lat="38.01387" lon="23.825315">
				 <ele>219.4</ele>
			 </trkpt>
			 <trkpt lat="38.01383" lon="23.82468">
				 <ele>218.1</ele>
			 </trkpt>
			 <trkpt lat="38.013793" lon="23.823653">
				 <ele>216.8</ele>
			 </trkpt>
			 <trkpt lat="38.013757" lon="23.822627">
				 <ele>215.5</ele>
			 </trkpt>
			 <trkpt lat="38.01372" lon="23.8216">
				 <ele>213.5</ele>
			 </trkpt>
			 <trkpt lat="38.013665" lon="23.820945">
				 <ele>212.4</ele>
			 </trkpt>
			 <trkpt lat="38.01361" lon="23.82029">
				 <ele>211.3</ele>
			 </trkpt>
			 <trkpt lat="38.01343" lon="23.81958">
				 <ele>210.1</ele>
			 </trkpt>
			 <trkpt lat="38.013155" lon="23.81865">
				 <ele>208.7</ele>
			 </trkpt>
			 <trkpt lat="38.01288" lon="23.81772">
				 <ele>207.7</ele>
			 </trkpt>
			 <trkpt lat="38.01265" lon="23.81686">
				 <ele>206.9</ele>
			 </trkpt>
			 <trkpt lat="38.01242" lon="23.816">
				 <ele>206.1</ele>
			 </trkpt>
			 <trkpt lat="38.012223" lon="23.815173">
				 <ele>205.3</ele>
			 </trkpt>
			 <trkpt lat="38.012027" lon="23.814347">
				 <ele>204.3</ele>
			 </trkpt>
			 <trkpt lat="38.01183" lon="23.81352">
				 <ele>203.5</ele>
			 </trkpt>
			 <trkpt lat="38.011633" lon="23.812607">
				 <ele>203.5</ele>
			 </trkpt>
			 <trkpt lat="38.011437" lon="23.811693">
				 <ele>202.5</ele>
			 </trkpt>
			 <trkpt lat="38.01124" lon="23.81078">
				 <ele>201.8</ele>
			 </trkpt>
			 <trkpt lat="38.01101" lon="23.80988">
				 <ele>201.3</ele>
			 </trkpt>
			 <trkpt lat="38.01094" lon="23.80967">
				 <ele>200.7</ele>
			 </trkpt>
			 <trkpt lat="38.01063" lon="23.8089">
				 <ele>200.5</ele>
			 </trkpt>
			 <trkpt lat="38.01036" lon="23.808305">
				 <ele>200.5</ele>
			 </trkpt>
			 <trkpt lat="38.01009" lon="23.80771">
				 <ele>200.5</ele>
			 </trkpt>
			 <trkpt lat="38.00968" lon="23.80689">
				 <ele>200.3</ele>
			 </trkpt>
			 <trkpt lat="38.009405" lon="23.8063">
				 <ele>199.9</ele>
			 </trkpt>
			 <trkpt lat="38.00913" lon="23.80571">
				 <ele>199.5</ele>
			 </trkpt>
			 <trkpt lat="38.008865" lon="23.80512">
				 <ele>199.3</ele>
			 </trkpt>
			 <trkpt lat="38.0086" lon="23.80453">
				 <ele>199.3</ele>
			 </trkpt>
			 <trkpt lat="38.00827" lon="23.80367">
				 <ele>199.2</ele>
			 </trkpt>
			 <trkpt lat="38.00794" lon="23.80281">
				 <ele>199</ele>
			 </trkpt>
			 <trkpt lat="38.007715" lon="23.802215">
				 <ele>198.7</ele>
			 </trkpt>
			 <trkpt lat="38.00749" lon="23.80162">
				 <ele>198.2</ele>
			 </trkpt>
			 <trkpt lat="38.00725" lon="23.80086">
				 <ele>197.3</ele>
			 </trkpt>
			 <trkpt lat="38.00711" lon="23.800115">
				 <ele>196.3</ele>
			 </trkpt>
			 <trkpt lat="38.00697" lon="23.79937">
				 <ele>195.5</ele>
			 </trkpt>
			 <trkpt lat="38.00683" lon="23.79881">
				 <ele>195</ele>
			 </trkpt>
			 <trkpt lat="38.0065" lon="23.79788">
				 <ele>194.8</ele>
			 </trkpt>
			 <trkpt lat="38.00617" lon="23.79695">
				 <ele>194.5</ele>
			 </trkpt>
			 <trkpt lat="38.00584" lon="23.79607">
				 <ele>194</ele>
			 </trkpt>
			 <trkpt lat="38.0057" lon="23.79575">
				 <ele>193.5</ele>
			 </trkpt>
			 <trkpt lat="38.00541" lon="23.79525">
				 <ele>193.2</ele>
			 </trkpt>
			 <trkpt lat="38.00501" lon="23.7947">
				 <ele>193</ele>
			 </trkpt>
			 <trkpt lat="38.0044" lon="23.793897">
				 <ele>192.8</ele>
			 </trkpt>
			 <trkpt lat="38.00379" lon="23.793093">
				 <ele>192.7</ele>
			 </trkpt>
			 <trkpt lat="38.00318" lon="23.79229">
				 <ele>192.6</ele>
			 </trkpt>
			 <trkpt lat="38.00275" lon="23.79168">
				 <ele>192.5</ele>
			 </trkpt>
			 <trkpt lat="38.00254" lon="23.79131">
				 <ele>192.1</ele>
			 </trkpt>
			 <trkpt lat="38.00234" lon="23.79092">
				 <ele>191.4</ele>
			 </trkpt>
			 <trkpt lat="38.00214" lon="23.79038">
				 <ele>190.5</ele>
			 </trkpt>
			 <trkpt lat="38.001833" lon="23.789467">
				 <ele>189.7</ele>
			 </trkpt>
			 <trkpt lat="38.001527" lon="23.788553">
				 <ele>188.7</ele>
			 </trkpt>
			 <trkpt lat="38.00122" lon="23.78764">
				 <ele>187.8</ele>
			 </trkpt>
			 <trkpt lat="38.00098" lon="23.78714">
				 <ele>186.6</ele>
			 </trkpt>
			 <trkpt lat="38.000603" lon="23.786503">
				 <ele>185.4</ele>
			 </trkpt>
			 <trkpt lat="38.000227" lon="23.785867">
				 <ele>184.1</ele>
			 </trkpt>
			 <trkpt lat="37.99985" lon="23.78523">
				 <ele>183</ele>
			 </trkpt>
			 <trkpt lat="37.999485" lon="23.78475">
				 <ele>182</ele>
			 </trkpt>
			 <trkpt lat="37.99912" lon="23.78427">
				 <ele>180.9</ele>
			 </trkpt>
			 <trkpt lat="37.99866" lon="23.783713">
				 <ele>179.7</ele>
			 </trkpt>
			 <trkpt lat="37.9982" lon="23.783157">
				 <ele>178.5</ele>
			 </trkpt>
			 <trkpt lat="37.99774" lon="23.7826">
				 <ele>177.2</ele>
			 </trkpt>
			 <trkpt lat="37.99735" lon="23.78208">
				 <ele>175.9</ele>
			 </trkpt>
			 <trkpt lat="37.99695" lon="23.781515">
				 <ele>174.5</ele>
			 </trkpt>
			 <trkpt lat="37.99655" lon="23.78095">
				 <ele>173.2</ele>
			 </trkpt>
			 <trkpt lat="37.9961" lon="23.780193">
				 <ele>171.8</ele>
			 </trkpt>
			 <trkpt lat="37.99565" lon="23.779437">
				 <ele>170.4</ele>
			 </trkpt>
			 <trkpt lat="37.9952" lon="23.77868">
				 <ele>168.7</ele>
			 </trkpt>
			 <trkpt lat="37.99497" lon="23.77832">
				 <ele>167.2</ele>
			 </trkpt>
			 <trkpt lat="37.994475" lon="23.777645">
				 <ele>165.9</ele>
			 </trkpt>
			 <trkpt lat="37.99398" lon="23.77697">
				 <ele>165</ele>
			 </trkpt>
			 <trkpt lat="37.993485" lon="23.776295">
				 <ele>164.4</ele>
			 </trkpt>
			 <trkpt lat="37.99299" lon="23.77562">
				 <ele>163.8</ele>
			 </trkpt>
			 <trkpt lat="37.99287" lon="23.77544">
				 <ele>163.2</ele>
			 </trkpt>
			 <trkpt lat="37.99262" lon="23.774965">
				 <ele>162.6</ele>
			 </trkpt>
			 <trkpt lat="37.99237" lon="23.77449">
				 <ele>162.3</ele>
			 </trkpt>
			 <trkpt lat="37.9921" lon="23.773735">
				 <ele>162</ele>
			 </trkpt>
			 <trkpt lat="37.99183" lon="23.77298">
				 <ele>161.7</ele>
			 </trkpt>
			 <trkpt lat="37.9914" lon="23.77204">
				 <ele>161.5</ele>
			 </trkpt>
			 <trkpt lat="37.99122" lon="23.77168">
				 <ele>161.1</ele>
			 </trkpt>
			 <trkpt lat="37.99103" lon="23.77133">
				 <ele>160.4</ele>
			 </trkpt>
			 <trkpt lat="37.9909" lon="23.77115">
				 <ele>159.3</ele>
			 </trkpt>
			 <trkpt lat="37.990477" lon="23.770607">
				 <ele>158.5</ele>
			 </trkpt>
			 <trkpt lat="37.990053" lon="23.770063">
				 <ele>157.7</ele>
			 </trkpt>
			 <trkpt lat="37.98963" lon="23.76952">
				 <ele>157.2</ele>
			 </trkpt>
			 <trkpt lat="37.98938" lon="23.76915">
				 <ele>156.5</ele>
			 </trkpt>
			 <trkpt lat="37.98888" lon="23.768235">
				 <ele>155.9</ele>
			 </trkpt>
			 <trkpt lat="37.98838" lon="23.76732">
				 <ele>155.1</ele>
			 </trkpt>
			 <trkpt lat="37.98816" lon="23.76699">
				 <ele>154.3</ele>
			 </trkpt>
			 <trkpt lat="37.98811" lon="23.76679">
				 <ele>153.4</ele>
			 </trkpt>
			 <trkpt lat="37.98789" lon="23.76649">
				 <ele>152.5</ele>
			 </trkpt>
			 <trkpt lat="37.987505" lon="23.766075">
				 <ele>151.8</ele>
			 </trkpt>
			 <trkpt lat="37.98712" lon="23.76566">
				 <ele>151.5</ele>
			 </trkpt>
			 <trkpt lat="37.98682" lon="23.76523">
				 <ele>151</ele>
			 </trkpt>
			 <trkpt lat="37.98656" lon="23.764615">
				 <ele>150.5</ele>
			 </trkpt>
			 <trkpt lat="37.9863" lon="23.764">
				 <ele>149.8</ele>
			 </trkpt>
			 <trkpt lat="37.9861" lon="23.76344">
				 <ele>148.9</ele>
			 </trkpt>
			 <trkpt lat="37.98609" lon="23.76313">
				 <ele>148.1</ele>
			 </trkpt>
			 <trkpt lat="37.98612" lon="23.763">
				 <ele>147.2</ele>
			 </trkpt>
			 <trkpt lat="37.98612" lon="23.76277">
				 <ele>146.2</ele>
			 </trkpt>
			 <trkpt lat="37.986245" lon="23.762125">
				 <ele>145.4</ele>
			 </trkpt>
			 <trkpt lat="37.98637" lon="23.76148">
				 <ele>144.7</ele>
			 </trkpt>
			 <trkpt lat="37.98643" lon="23.76127">
				 <ele>143.9</ele>
			 </trkpt>
			 <trkpt lat="37.98574" lon="23.76077">
				 <ele>143.2</ele>
			 </trkpt>
			 <trkpt lat="37.98508" lon="23.76018">
				 <ele>142.3</ele>
			 </trkpt>
			 <trkpt lat="37.984665" lon="23.75972">
				 <ele>141</ele>
			 </trkpt>
			 <trkpt lat="37.98425" lon="23.75926">
				 <ele>139.6</ele>
			 </trkpt>
			 <trkpt lat="37.98383" lon="23.758765">
				 <ele>138.4</ele>
			 </trkpt>
			 <trkpt lat="37.98341" lon="23.75827">
				 <ele>136.7</ele>
			 </trkpt>
			 <trkpt lat="37.983055" lon="23.75759">
				 <ele>135.2</ele>
			 </trkpt>
			 <trkpt lat="37.9827" lon="23.75691">
				 <ele>133.8</ele>
			 </trkpt>
			 <trkpt lat="37.98246" lon="23.75653">
				 <ele>132.3</ele>
			 </trkpt>
			 <trkpt lat="37.98219" lon="23.75618">
				 <ele>130.7</ele>
			 </trkpt>
			 <trkpt lat="37.98164" lon="23.755615">
				 <ele>129.5</ele>
			 </trkpt>
			 <trkpt lat="37.98109" lon="23.75505">
				 <ele>128.3</ele>
			 </trkpt>
			 <trkpt lat="37.980655" lon="23.75466">
				 <ele>127</ele>
			 </trkpt>
			 <trkpt lat="37.98022" lon="23.75427">
				 <ele>125.5</ele>
			 </trkpt>
			 <trkpt lat="37.97989" lon="23.75391">
				 <ele>123.6</ele>
			 </trkpt>
			 <trkpt lat="37.97927" lon="23.75321">
				 <ele>121.6</ele>
			 </trkpt>
			 <trkpt lat="37.97865" lon="23.75251">
				 <ele>120</ele>
			 </trkpt>
			 <trkpt lat="37.97803" lon="23.75181">
				 <ele>118.8</ele>
			 </trkpt>
			 <trkpt lat="37.97758" lon="23.751185">
				 <ele>118</ele>
			 </trkpt>
			 <trkpt lat="37.97713" lon="23.75056">
				 <ele>117.4</ele>
			 </trkpt>
			 <trkpt lat="37.976957" lon="23.749803">
				 <ele>116.7</ele>
			 </trkpt>
			 <trkpt lat="37.976783" lon="23.749047">
				 <ele>115.7</ele>
			 </trkpt>
			 <trkpt lat="37.97661" lon="23.74829">
				 <ele>114.5</ele>
			 </trkpt>
			 <trkpt lat="37.976407" lon="23.747453">
				 <ele>113.3</ele>
			 </trkpt>
			 <trkpt lat="37.976203" lon="23.746617">
				 <ele>112.9</ele>
			 </trkpt>
			 <trkpt lat="37.976" lon="23.74578">
				 <ele>113.2</ele>
			 </trkpt>
			 <trkpt lat="37.97591" lon="23.74563">
				 <ele>113.7</ele>
			 </trkpt>
			 <trkpt lat="37.97571" lon="23.7448">
				 <ele>114.5</ele>
			 </trkpt>
			 <trkpt lat="37.97551" lon="23.74397">
				 <ele>114.7</ele>
			 </trkpt>
			 <trkpt lat="37.97531" lon="23.74314">
				 <ele>114.4</ele>
			 </trkpt>
			 <trkpt lat="37.9753" lon="23.74285">
				 <ele>113.5</ele>
			 </trkpt>
			 <trkpt lat="37.9754" lon="23.742083">
				 <ele>112.4</ele>
			 </trkpt>
			 <trkpt lat="37.9755" lon="23.741317">
				 <ele>111.1</ele>
			 </trkpt>
			 <trkpt lat="37.9756" lon="23.74055">
				 <ele>109.5</ele>
			 </trkpt>
			 <trkpt lat="37.974831" lon="23.740423">
				 <ele>107.7</ele>
			 </trkpt>
			 <trkpt lat="37.974063" lon="23.740296">
				 <ele>105.3</ele>
			 </trkpt>
			 <trkpt lat="37.973294" lon="23.740169">
				 <ele>102.8</ele>
			 </trkpt>
			 <trkpt lat="37.972526" lon="23.740041">
				 <ele>100.5</ele>
			 </trkpt>
			 <trkpt lat="37.971757" lon="23.739914">
				 <ele>98.5</ele>
			 </trkpt>
			 <trkpt lat="37.970989" lon="23.739787">
				 <ele>97.5</ele>
			 </trkpt>
			 <trkpt lat="37.97022" lon="23.73966">
				 <ele>97.4</ele>
			 </trkpt>
			 <trkpt lat="37.97005" lon="23.74009">
				 <ele>96.6</ele>
			 </trkpt>
			 <trkpt lat="37.96993" lon="23.73984">
				 <ele>95.9</ele>
			 </trkpt>
			 <trkpt lat="37.969343" lon="23.740277">
				 <ele>95.4</ele>
			 </trkpt>
			 <trkpt lat="37.968757" lon="23.740713">
				 <ele>95.4</ele>
			 </trkpt>
			 <trkpt lat="37.96817" lon="23.74115">
				 <ele>96</ele>
			 </trkpt>
		 </trkseg>
	 </trk>
</gpx>