<?xml version="1.0" encoding="UTF-8"?>
<gpx creator="StravaGPX" version="1.1" xmlns="http://www.topografix.com/GPX/1/1" xmlns:xsi="http://www.w3.org/2001/XMLSchema-instance" xsi:schemaLocation="http://www.topografix.com/GPX/1/1 http://www.topografix.com/GPX/1/1/gpx.xsd">
 <metadata>
  <name>Melbourne Marathon Full 2025</name>
  <author>
   <name>Strava Athlete</name>
   <link href="https://www.strava.com/athletes/0"/>
  </author>
  <copyright author="OpenStreetMap contributors">
   <year>2020</year>
   <license>https://www.openstreetmap.org/copyright</license>
  </copyright>
  <link href="https://www.strava.com/routes/3365959848872374256"/>
 </metadata>
 <trk>
  <name>Melbourne Marathon Full 2025</name>
  <link href="https://www.strava.com/routes/3365959848872374256"/>
  <type>running</type>
  <trkseg>
   <trkpt lat="-37.820130000000006" lon="144.97614000000002">
    <ele>10.92</ele>
   </trkpt>
   <trkpt lat="-37.81991" lon="144.97616000000002">
    <ele>10.92</ele>
   </trkpt>
   <trkpt lat="-37.81962" lon="144.97614000000002">
    <ele>11.430000000000001</ele>
   </trkpt>
   <trkpt lat="-37.81935" lon="144.97608000000002">
    <ele>11.74</ele>
   </trkpt>
   <trkpt lat="-37.81915" lon="144.976">
    <ele>11.780000000000001</ele>
   </trkpt>
   <trkpt lat="-37.81886" lon="144.97584">
    <ele>11.7</ele>
   </trkpt>
   <trkpt lat="-37.81859" lon="144.97561000000002">
    <ele>11.500000000000002</ele>
   </trkpt>
   <trkpt lat="-37.818360000000006" lon="144.97538">
    <ele>11.160000000000002</ele>
   </trkpt>
   <trkpt lat="-37.81785" lon="144.9746">
    <ele>12.780000000000001</ele>
   </trkpt>
   <trkpt lat="-37.81758500103876" lon="144.9740799979288">
    <ele>16.0</ele>
   </trkpt>
   <trkpt lat="-37.81732" lon="144.97356000000002">
    <ele>18.410000000000004</ele>
   </trkpt>
   <trkpt lat="-37.8172" lon="144.97335">
    <ele>19.270000000000003</ele>
   </trkpt>
   <trkpt lat="-37.81674" lon="144.9728">
    <ele>20.0</ele>
   </trkpt>
   <trkpt lat="-37.8164" lon="144.97251">
    <ele>20.53</ele>
   </trkpt>
   <trkpt lat="-37.81615" lon="144.97236">
    <ele>20.64</ele>
   </trkpt>
   <trkpt lat="-37.81638333851127" lon="144.97157667165">
    <ele>19.6</ele>
   </trkpt>
   <trkpt lat="-37.81661667183525" lon="144.9707933383481">
    <ele>19.22</ele>
   </trkpt>
   <trkpt lat="-37.81685" lon="144.97001">
    <ele>18.82</ele>
   </trkpt>
   <trkpt lat="-37.8168" lon="144.96995">
    <ele>18.56</ele>
   </trkpt>
   <trkpt lat="-37.81696" lon="144.96936000000002">
    <ele>17.910000000000004</ele>
   </trkpt>
   <trkpt lat="-37.81726000408075" lon="144.9683800039133">
    <ele>16.85</ele>
   </trkpt>
   <trkpt lat="-37.81756" lon="144.9674">
    <ele>15.48</ele>
   </trkpt>
   <trkpt lat="-37.81837" lon="144.96772">
    <ele>16.82</ele>
   </trkpt>
   <trkpt lat="-37.81882" lon="144.96800000000002">
    <ele>16.78</ele>
   </trkpt>
   <trkpt lat="-37.819455000403856" lon="144.9682899975273">
    <ele>16.540000000000003</ele>
   </trkpt>
   <trkpt lat="-37.82009" lon="144.96858">
    <ele>16.53</ele>
   </trkpt>
   <trkpt lat="-37.820190000000004" lon="144.96861">
    <ele>16.200000000000003</ele>
   </trkpt>
   <trkpt lat="-37.82027" lon="144.96856000000002">
    <ele>15.99</ele>
   </trkpt>
   <trkpt lat="-37.820510000000006" lon="144.9686">
    <ele>15.860000000000003</ele>
   </trkpt>
   <trkpt lat="-37.82124" lon="144.96893">
    <ele>15.070000000000002</ele>
   </trkpt>
   <trkpt lat="-37.821450000000006" lon="144.96905">
    <ele>15.030000000000001</ele>
   </trkpt>
   <trkpt lat="-37.822050000000004" lon="144.96932">
    <ele>14.780000000000001</ele>
   </trkpt>
   <trkpt lat="-37.822790001441255" lon="144.96965998976157">
    <ele>14.38</ele>
   </trkpt>
   <trkpt lat="-37.823530001905254" lon="144.96999998634098">
    <ele>14.780000000000001</ele>
   </trkpt>
   <trkpt lat="-37.82427000139192" lon="144.97033998973856">
    <ele>15.01</ele>
   </trkpt>
   <trkpt lat="-37.825010000000006" lon="144.97068000000002">
    <ele>15.76</ele>
   </trkpt>
   <trkpt lat="-37.82573" lon="144.97096000000002">
    <ele>16.28</ele>
   </trkpt>
   <trkpt lat="-37.826130000000006" lon="144.97106000000002">
    <ele>16.57</ele>
   </trkpt>
   <trkpt lat="-37.82677" lon="144.97119">
    <ele>17.07</ele>
   </trkpt>
   <trkpt lat="-37.82732" lon="144.97121">
    <ele>17.42</ele>
   </trkpt>
   <trkpt lat="-37.827980000070504" lon="144.97116000044267">
    <ele>17.66</ele>
   </trkpt>
   <trkpt lat="-37.82864" lon="144.97111">
    <ele>17.910000000000004</ele>
   </trkpt>
   <trkpt lat="-37.82923499994203" lon="144.97110000008163">
    <ele>18.02</ele>
   </trkpt>
   <trkpt lat="-37.82983" lon="144.97109">
    <ele>18.230000000000004</ele>
   </trkpt>
   <trkpt lat="-37.83046" lon="144.97111">
    <ele>17.97</ele>
   </trkpt>
   <trkpt lat="-37.8312" lon="144.97117">
    <ele>17.130000000000003</ele>
   </trkpt>
   <trkpt lat="-37.83146" lon="144.97123000000002">
    <ele>16.700000000000003</ele>
   </trkpt>
   <trkpt lat="-37.83196" lon="144.97140000000002">
    <ele>16.130000000000003</ele>
   </trkpt>
   <trkpt lat="-37.83229" lon="144.97158000000002">
    <ele>15.97</ele>
   </trkpt>
   <trkpt lat="-37.832910000000005" lon="144.97184000000001">
    <ele>15.520000000000001</ele>
   </trkpt>
   <trkpt lat="-37.83323" lon="144.97213000000002">
    <ele>16.03</ele>
   </trkpt>
   <trkpt lat="-37.83339" lon="144.97235">
    <ele>15.9</ele>
   </trkpt>
   <trkpt lat="-37.83367500160262" lon="144.9729599977068">
    <ele>15.490000000000002</ele>
   </trkpt>
   <trkpt lat="-37.833960000000005" lon="144.97357000000002">
    <ele>15.55</ele>
   </trkpt>
   <trkpt lat="-37.83417" lon="144.97387">
    <ele>15.9</ele>
   </trkpt>
   <trkpt lat="-37.83429" lon="144.97399000000001">
    <ele>16.27</ele>
   </trkpt>
   <trkpt lat="-37.83476" lon="144.97441">
    <ele>17.0</ele>
   </trkpt>
   <trkpt lat="-37.835240000000006" lon="144.97477">
    <ele>17.26</ele>
   </trkpt>
   <trkpt lat="-37.83592" lon="144.97518000000002">
    <ele>16.92</ele>
   </trkpt>
   <trkpt lat="-37.836310000000005" lon="144.9754">
    <ele>16.28</ele>
   </trkpt>
   <trkpt lat="-37.836960000000005" lon="144.97566">
    <ele>15.850000000000003</ele>
   </trkpt>
   <trkpt lat="-37.83704" lon="144.97562000000002">
    <ele>15.850000000000003</ele>
   </trkpt>
   <trkpt lat="-37.83719" lon="144.97567">
    <ele>15.600000000000001</ele>
   </trkpt>
   <trkpt lat="-37.838046001650184" lon="144.97598198551867">
    <ele>21.27</ele>
   </trkpt>
   <trkpt lat="-37.838902002477354" lon="144.97629397827842">
    <ele>21.27</ele>
   </trkpt>
   <trkpt lat="-37.83975800248145" lon="144.97660597827948">
    <ele>25.35</ele>
   </trkpt>
   <trkpt lat="-37.84061400166244" lon="144.97691798552236">
    <ele>25.35</ele>
   </trkpt>
   <trkpt lat="-37.84147" lon="144.97723000000002">
    <ele>25.35</ele>
   </trkpt>
   <trkpt lat="-37.84229800154817" lon="144.97753198644006">
    <ele>25.35</ele>
   </trkpt>
   <trkpt lat="-37.84312600232521" lon="144.97783397966077">
    <ele>25.35</ele>
   </trkpt>
   <trkpt lat="-37.84395400233107" lon="144.97813597966254">
    <ele>14.39</ele>
   </trkpt>
   <trkpt lat="-37.8447820015657" lon="144.97843798644573">
    <ele>14.39</ele>
   </trkpt>
   <trkpt lat="-37.84561" lon="144.97874000000002">
    <ele>14.39</ele>
   </trkpt>
   <trkpt lat="-37.846351430446354" lon="144.97901141219896">
    <ele>14.39</ele>
   </trkpt>
   <trkpt lat="-37.847092860269804" lon="144.9792828298557">
    <ele>14.39</ele>
   </trkpt>
   <trkpt lat="-37.84783428947031" lon="144.9795542529705">
    <ele>14.39</ele>
   </trkpt>
   <trkpt lat="-37.84857571804782" lon="144.97982568154367">
    <ele>24.94</ele>
   </trkpt>
   <trkpt lat="-37.84931714600234" lon="144.98009711557538">
    <ele>24.94</ele>
   </trkpt>
   <trkpt lat="-37.85005857333382" lon="144.9803685550659">
    <ele>24.94</ele>
   </trkpt>
   <trkpt lat="-37.8508" lon="144.98064000000002">
    <ele>24.94</ele>
   </trkpt>
   <trkpt lat="-37.85155800124128" lon="144.9809119888105">
    <ele>14.180000000000001</ele>
   </trkpt>
   <trkpt lat="-37.85231600185695" lon="144.9811839832137">
    <ele>14.010000000000002</ele>
   </trkpt>
   <trkpt lat="-37.853074001847" lon="144.98145598320986">
    <ele>14.07</ele>
   </trkpt>
   <trkpt lat="-37.85383200121138" lon="144.9817279887992">
    <ele>14.23</ele>
   </trkpt>
   <trkpt lat="-37.85459" lon="144.982">
    <ele>15.280000000000001</ele>
   </trkpt>
   <trkpt lat="-37.8547" lon="144.9821">
    <ele>15.370000000000001</ele>
   </trkpt>
   <trkpt lat="-37.8553" lon="144.98231">
    <ele>16.560000000000002</ele>
   </trkpt>
   <trkpt lat="-37.856080000000006" lon="144.98252000000002">
    <ele>18.03</ele>
   </trkpt>
   <trkpt lat="-37.85629" lon="144.98255">
    <ele>18.35</ele>
   </trkpt>
   <trkpt lat="-37.85661" lon="144.98254">
    <ele>19.05</ele>
   </trkpt>
   <trkpt lat="-37.85714" lon="144.98167">
    <ele>18.98</ele>
   </trkpt>
   <trkpt lat="-37.8575000016238" lon="144.98105000303076">
    <ele>19.090000000000003</ele>
   </trkpt>
   <trkpt lat="-37.85786" lon="144.98043">
    <ele>19.290000000000003</ele>
   </trkpt>
   <trkpt lat="-37.857780000000005" lon="144.98036000000002">
    <ele>19.39</ele>
   </trkpt>
   <trkpt lat="-37.857820000000004" lon="144.9803">
    <ele>19.360000000000003</ele>
   </trkpt>
   <trkpt lat="-37.85734" lon="144.97981000000001">
    <ele>17.85</ele>
   </trkpt>
   <trkpt lat="-37.85681" lon="144.97935">
    <ele>16.580000000000002</ele>
   </trkpt>
   <trkpt lat="-37.85647" lon="144.97913">
    <ele>16.330000000000002</ele>
   </trkpt>
   <trkpt lat="-37.855990000000006" lon="144.97892000000002">
    <ele>15.080000000000002</ele>
   </trkpt>
   <trkpt lat="-37.85557" lon="144.9788">
    <ele>14.430000000000001</ele>
   </trkpt>
   <trkpt lat="-37.854850000000006" lon="144.97871">
    <ele>12.08</ele>
   </trkpt>
   <trkpt lat="-37.854385000024735" lon="144.97871500003126">
    <ele>11.120000000000001</ele>
   </trkpt>
   <trkpt lat="-37.85392" lon="144.97872">
    <ele>10.14</ele>
   </trkpt>
   <trkpt lat="-37.85356" lon="144.97869">
    <ele>10.540000000000001</ele>
   </trkpt>
   <trkpt lat="-37.85291" lon="144.97855">
    <ele>10.34</ele>
   </trkpt>
   <trkpt lat="-37.85262" lon="144.97846">
    <ele>10.43</ele>
   </trkpt>
   <trkpt lat="-37.85228" lon="144.97835">
    <ele>10.23</ele>
   </trkpt>
   <trkpt lat="-37.851703333699" lon="144.97813332993223">
    <ele>10.4</ele>
   </trkpt>
   <trkpt lat="-37.851126667001026" lon="144.97791666325386">
    <ele>10.68</ele>
   </trkpt>
   <trkpt lat="-37.850550000000005" lon="144.9777">
    <ele>10.900000000000002</ele>
   </trkpt>
   <trkpt lat="-37.850120000000004" lon="144.97750000000002">
    <ele>10.88</ele>
   </trkpt>
   <trkpt lat="-37.84976" lon="144.97723000000002">
    <ele>10.74</ele>
   </trkpt>
   <trkpt lat="-37.849520000000005" lon="144.97697000000002">
    <ele>10.530000000000001</ele>
   </trkpt>
   <trkpt lat="-37.849180000000004" lon="144.97651000000002">
    <ele>10.17</ele>
   </trkpt>
   <trkpt lat="-37.84872500202912" lon="144.97582499584112">
    <ele>10.110000000000001</ele>
   </trkpt>
   <trkpt lat="-37.84827000000001" lon="144.97514">
    <ele>10.22</ele>
   </trkpt>
   <trkpt lat="-37.84814" lon="144.97488">
    <ele>9.959999999999999</ele>
   </trkpt>
   <trkpt lat="-37.8481" lon="144.97472000000002">
    <ele>9.91</ele>
   </trkpt>
   <trkpt lat="-37.84810000159916" lon="144.97410499996744">
    <ele>10.06</ele>
   </trkpt>
   <trkpt lat="-37.8481" lon="144.97349">
    <ele>10.110000000000001</ele>
   </trkpt>
   <trkpt lat="-37.84803" lon="144.97331">
    <ele>10.180000000000001</ele>
   </trkpt>
   <trkpt lat="-37.847910000000006" lon="144.97302000000002">
    <ele>10.280000000000001</ele>
   </trkpt>
   <trkpt lat="-37.84752000133762" lon="144.9724499969326">
    <ele>10.270000000000001</ele>
   </trkpt>
   <trkpt lat="-37.84713" lon="144.97188">
    <ele>10.040000000000001</ele>
   </trkpt>
   <trkpt lat="-37.84689" lon="144.97157">
    <ele>10.020000000000001</ele>
   </trkpt>
   <trkpt lat="-37.84657" lon="144.97129">
    <ele>10.31</ele>
   </trkpt>
   <trkpt lat="-37.8464" lon="144.97115000000002">
    <ele>10.31</ele>
   </trkpt>
   <trkpt lat="-37.84604" lon="144.97094">
    <ele>10.360000000000001</ele>
   </trkpt>
   <trkpt lat="-37.84568" lon="144.97077000000002">
    <ele>10.21</ele>
   </trkpt>
   <trkpt lat="-37.84539" lon="144.97068000000002">
    <ele>10.16</ele>
   </trkpt>
   <trkpt lat="-37.8451" lon="144.97062000000003">
    <ele>10.13</ele>
   </trkpt>
   <trkpt lat="-37.844730000000006" lon="144.97060000000002">
    <ele>10.21</ele>
   </trkpt>
   <trkpt lat="-37.84454" lon="144.97061000000002">
    <ele>10.21</ele>
   </trkpt>
   <trkpt lat="-37.84418" lon="144.97067">
    <ele>10.100000000000001</ele>
   </trkpt>
   <trkpt lat="-37.84387" lon="144.97077000000002">
    <ele>9.959999999999999</ele>
   </trkpt>
   <trkpt lat="-37.84366" lon="144.97085">
    <ele>9.930000000000001</ele>
   </trkpt>
   <trkpt lat="-37.842990000376986" lon="144.9711850030921">
    <ele>9.92</ele>
   </trkpt>
   <trkpt lat="-37.84232" lon="144.97152">
    <ele>10.08</ele>
   </trkpt>
   <trkpt lat="-37.84196" lon="144.97167000000002">
    <ele>10.07</ele>
   </trkpt>
   <trkpt lat="-37.84165" lon="144.97175000000001">
    <ele>10.030000000000001</ele>
   </trkpt>
   <trkpt lat="-37.8414" lon="144.97177000000002">
    <ele>10.120000000000001</ele>
   </trkpt>
   <trkpt lat="-37.84104" lon="144.97174">
    <ele>10.120000000000001</ele>
   </trkpt>
   <trkpt lat="-37.8404050001114" lon="144.97157999862333">
    <ele>9.840000000000002</ele>
   </trkpt>
   <trkpt lat="-37.83977" lon="144.97142000000002">
    <ele>9.64</ele>
   </trkpt>
   <trkpt lat="-37.83943" lon="144.97124000000002">
    <ele>9.590000000000002</ele>
   </trkpt>
   <trkpt lat="-37.83925" lon="144.97108">
    <ele>9.670000000000002</ele>
   </trkpt>
   <trkpt lat="-37.83901" lon="144.97080000000003">
    <ele>9.850000000000001</ele>
   </trkpt>
   <trkpt lat="-37.83887" lon="144.97061000000002">
    <ele>9.840000000000002</ele>
   </trkpt>
   <trkpt lat="-37.83874" lon="144.97034000000002">
    <ele>9.88</ele>
   </trkpt>
   <trkpt lat="-37.83858" lon="144.96984">
    <ele>9.850000000000001</ele>
   </trkpt>
   <trkpt lat="-37.83851000000001" lon="144.96896">
    <ele>9.930000000000001</ele>
   </trkpt>
   <trkpt lat="-37.83845" lon="144.96865000000003">
    <ele>9.959999999999999</ele>
   </trkpt>
   <trkpt lat="-37.83831" lon="144.96839">
    <ele>9.91</ele>
   </trkpt>
   <trkpt lat="-37.83807" lon="144.96807">
    <ele>10.040000000000001</ele>
   </trkpt>
   <trkpt lat="-37.837920000000004" lon="144.96795">
    <ele>10.16</ele>
   </trkpt>
   <trkpt lat="-37.83834" lon="144.96704000000003">
    <ele>9.98</ele>
   </trkpt>
   <trkpt lat="-37.838680000000004" lon="144.966">
    <ele>10.24</ele>
   </trkpt>
   <trkpt lat="-37.838750000000005" lon="144.96586000000002">
    <ele>10.23</ele>
   </trkpt>
   <trkpt lat="-37.83876" lon="144.96576000000002">
    <ele>10.23</ele>
   </trkpt>
   <trkpt lat="-37.83883" lon="144.96553">
    <ele>10.23</ele>
   </trkpt>
   <trkpt lat="-37.83901" lon="144.96512">
    <ele>10.3</ele>
   </trkpt>
   <trkpt lat="-37.83933500142407" lon="144.96454000255224">
    <ele>10.540000000000001</ele>
   </trkpt>
   <trkpt lat="-37.83966" lon="144.96396000000001">
    <ele>10.55</ele>
   </trkpt>
   <trkpt lat="-37.83975" lon="144.96383">
    <ele>10.55</ele>
   </trkpt>
   <trkpt lat="-37.8399" lon="144.96366">
    <ele>10.520000000000001</ele>
   </trkpt>
   <trkpt lat="-37.84026" lon="144.96369">
    <ele>10.350000000000001</ele>
   </trkpt>
   <trkpt lat="-37.84035" lon="144.96369">
    <ele>10.350000000000001</ele>
   </trkpt>
   <trkpt lat="-37.84046" lon="144.96365">
    <ele>10.26</ele>
   </trkpt>
   <trkpt lat="-37.84057" lon="144.9636">
    <ele>10.32</ele>
   </trkpt>
   <trkpt lat="-37.84078" lon="144.96346">
    <ele>10.15</ele>
   </trkpt>
   <trkpt lat="-37.840990000000005" lon="144.96336000000002">
    <ele>9.840000000000002</ele>
   </trkpt>
   <trkpt lat="-37.84102" lon="144.96333">
    <ele>9.840000000000002</ele>
   </trkpt>
   <trkpt lat="-37.841150000000006" lon="144.96331">
    <ele>9.780000000000001</ele>
   </trkpt>
   <trkpt lat="-37.84118" lon="144.96333">
    <ele>9.780000000000001</ele>
   </trkpt>
   <trkpt lat="-37.84122" lon="144.96328000000003">
    <ele>9.690000000000001</ele>
   </trkpt>
   <trkpt lat="-37.84134" lon="144.96319000000003">
    <ele>9.49</ele>
   </trkpt>
   <trkpt lat="-37.84185" lon="144.96295">
    <ele>9.23</ele>
   </trkpt>
   <trkpt lat="-37.84192" lon="144.96290000000002">
    <ele>9.36</ele>
   </trkpt>
   <trkpt lat="-37.84201" lon="144.96278">
    <ele>9.4</ele>
   </trkpt>
   <trkpt lat="-37.84205" lon="144.96268">
    <ele>9.4</ele>
   </trkpt>
   <trkpt lat="-37.84207" lon="144.9624">
    <ele>9.45</ele>
   </trkpt>
   <trkpt lat="-37.84212" lon="144.96221">
    <ele>9.590000000000002</ele>
   </trkpt>
   <trkpt lat="-37.84223" lon="144.96213">
    <ele>9.65</ele>
   </trkpt>
   <trkpt lat="-37.842330000000004" lon="144.96214">
    <ele>9.64</ele>
   </trkpt>
   <trkpt lat="-37.842950000783574" lon="144.9625749963316">
    <ele>9.47</ele>
   </trkpt>
   <trkpt lat="-37.84357" lon="144.96301000000003">
    <ele>9.500000000000002</ele>
   </trkpt>
   <trkpt lat="-37.84385" lon="144.96324">
    <ele>9.500000000000002</ele>
   </trkpt>
   <trkpt lat="-37.84404" lon="144.96342">
    <ele>9.540000000000001</ele>
   </trkpt>
   <trkpt lat="-37.84474" lon="144.96411">
    <ele>9.840000000000002</ele>
   </trkpt>
   <trkpt lat="-37.84508500068243" lon="144.964529997958">
    <ele>9.940000000000001</ele>
   </trkpt>
   <trkpt lat="-37.84543" lon="144.96495000000002">
    <ele>9.8</ele>
   </trkpt>
   <trkpt lat="-37.84602" lon="144.96574">
    <ele>9.62</ele>
   </trkpt>
   <trkpt lat="-37.84626" lon="144.96601">
    <ele>9.44</ele>
   </trkpt>
   <trkpt lat="-37.84649" lon="144.96617">
    <ele>9.39</ele>
   </trkpt>
   <trkpt lat="-37.84644" lon="144.96635">
    <ele>9.080000000000002</ele>
   </trkpt>
   <trkpt lat="-37.84653" lon="144.96655">
    <ele>8.860000000000001</ele>
   </trkpt>
   <trkpt lat="-37.846500000000006" lon="144.96661">
    <ele>8.860000000000001</ele>
   </trkpt>
   <trkpt lat="-37.84664" lon="144.96674000000002">
    <ele>8.83</ele>
   </trkpt>
   <trkpt lat="-37.8468" lon="144.96699">
    <ele>8.8</ele>
   </trkpt>
   <trkpt lat="-37.84707" lon="144.96758">
    <ele>8.820000000000002</ele>
   </trkpt>
   <trkpt lat="-37.84731" lon="144.96804">
    <ele>8.63</ele>
   </trkpt>
   <trkpt lat="-37.84751" lon="144.96849">
    <ele>8.68</ele>
   </trkpt>
   <trkpt lat="-37.84789" lon="144.96919000000003">
    <ele>8.820000000000002</ele>
   </trkpt>
   <trkpt lat="-37.848040000000005" lon="144.96945000000002">
    <ele>8.9</ele>
   </trkpt>
   <trkpt lat="-37.84834000093085" lon="144.9699199980829">
    <ele>8.950000000000001</ele>
   </trkpt>
   <trkpt lat="-37.84864" lon="144.97039">
    <ele>9.13</ele>
   </trkpt>
   <trkpt lat="-37.84924000275231" lon="144.97119499346607">
    <ele>9.200000000000001</ele>
   </trkpt>
   <trkpt lat="-37.84984" lon="144.972">
    <ele>9.18</ele>
   </trkpt>
   <trkpt lat="-37.85032" lon="144.97253">
    <ele>8.860000000000001</ele>
   </trkpt>
   <trkpt lat="-37.85083" lon="144.97306">
    <ele>8.700000000000001</ele>
   </trkpt>
   <trkpt lat="-37.8513200009168" lon="144.9735149970146">
    <ele>8.51</ele>
   </trkpt>
   <trkpt lat="-37.85181" lon="144.97397">
    <ele>9.040000000000001</ele>
   </trkpt>
   <trkpt lat="-37.851870000000005" lon="144.97406">
    <ele>9.040000000000001</ele>
   </trkpt>
   <trkpt lat="-37.852070000000005" lon="144.97410000000002">
    <ele>9.14</ele>
   </trkpt>
   <trkpt lat="-37.85208" lon="144.97402000000002">
    <ele>9.14</ele>
   </trkpt>
   <trkpt lat="-37.8524" lon="144.97364000000002">
    <ele>8.950000000000001</ele>
   </trkpt>
   <trkpt lat="-37.85271" lon="144.97320000000002">
    <ele>8.74</ele>
   </trkpt>
   <trkpt lat="-37.85275" lon="144.97301000000002">
    <ele>8.74</ele>
   </trkpt>
   <trkpt lat="-37.85277" lon="144.97284000000002">
    <ele>8.74</ele>
   </trkpt>
   <trkpt lat="-37.85271" lon="144.97253">
    <ele>8.81</ele>
   </trkpt>
   <trkpt lat="-37.85266" lon="144.97244">
    <ele>8.860000000000001</ele>
   </trkpt>
   <trkpt lat="-37.852042009983165" lon="144.97167197425938">
    <ele>9.28</ele>
   </trkpt>
   <trkpt lat="-37.85142401497827" lon="144.97090396139407">
    <ele>9.600000000000001</ele>
   </trkpt>
   <trkpt lat="-37.85080601498553" lon="144.97013596140374">
    <ele>9.9</ele>
   </trkpt>
   <trkpt lat="-37.850188010005134" lon="144.96936797428796">
    <ele>9.680000000000001</ele>
   </trkpt>
   <trkpt lat="-37.84957" lon="144.9686">
    <ele>9.05</ele>
   </trkpt>
   <trkpt lat="-37.84927500108988" lon="144.9681149982163">
    <ele>8.77</ele>
   </trkpt>
   <trkpt lat="-37.848980000000005" lon="144.96763">
    <ele>8.520000000000001</ele>
   </trkpt>
   <trkpt lat="-37.84855000245549" lon="144.9670933270991">
    <ele>8.46</ele>
   </trkpt>
   <trkpt lat="-37.848120002475476" lon="144.96655666045746">
    <ele>8.55</ele>
   </trkpt>
   <trkpt lat="-37.84769" lon="144.96602000000001">
    <ele>8.76</ele>
   </trkpt>
   <trkpt lat="-37.8476" lon="144.966">
    <ele>8.860000000000001</ele>
   </trkpt>
   <trkpt lat="-37.84754" lon="144.96601">
    <ele>8.860000000000001</ele>
   </trkpt>
   <trkpt lat="-37.84729" lon="144.96616">
    <ele>8.9</ele>
   </trkpt>
   <trkpt lat="-37.84704" lon="144.96623000000002">
    <ele>9.14</ele>
   </trkpt>
   <trkpt lat="-37.84682" lon="144.96624">
    <ele>9.14</ele>
   </trkpt>
   <trkpt lat="-37.846540000000005" lon="144.96620000000001">
    <ele>9.38</ele>
   </trkpt>
   <trkpt lat="-37.84682" lon="144.96624">
    <ele>9.14</ele>
   </trkpt>
   <trkpt lat="-37.84704" lon="144.96623000000002">
    <ele>9.14</ele>
   </trkpt>
   <trkpt lat="-37.84729" lon="144.96616">
    <ele>8.9</ele>
   </trkpt>
   <trkpt lat="-37.84754" lon="144.96601">
    <ele>8.860000000000001</ele>
   </trkpt>
   <trkpt lat="-37.8476" lon="144.966">
    <ele>8.860000000000001</ele>
   </trkpt>
   <trkpt lat="-37.84769" lon="144.96603000000002">
    <ele>8.860000000000001</ele>
   </trkpt>
   <trkpt lat="-37.8483200183535" lon="144.9668174528994">
    <ele>8.540000000000001</ele>
   </trkpt>
   <trkpt lat="-37.84895003146341" lon="144.96760491925505">
    <ele>8.520000000000001</ele>
   </trkpt>
   <trkpt lat="-37.84958003932953" lon="144.96839239906743">
    <ele>9.07</ele>
   </trkpt>
   <trkpt lat="-37.85021004195165" lon="144.96917989233694">
    <ele>9.670000000000002</ele>
   </trkpt>
   <trkpt lat="-37.85084003932955" lon="144.96996739906402">
    <ele>9.940000000000001</ele>
   </trkpt>
   <trkpt lat="-37.85147003146302" lon="144.9707549192491">
    <ele>9.81</ele>
   </trkpt>
   <trkpt lat="-37.852100018351884" lon="144.97154245289258">
    <ele>9.23</ele>
   </trkpt>
   <trkpt lat="-37.85273" lon="144.97233">
    <ele>8.98</ele>
   </trkpt>
   <trkpt lat="-37.85286" lon="144.97256000000002">
    <ele>8.93</ele>
   </trkpt>
   <trkpt lat="-37.85289" lon="144.97287">
    <ele>8.8</ele>
   </trkpt>
   <trkpt lat="-37.85289" lon="144.97298">
    <ele>8.8</ele>
   </trkpt>
   <trkpt lat="-37.8528" lon="144.97321000000002">
    <ele>8.780000000000001</ele>
   </trkpt>
   <trkpt lat="-37.852140000000006" lon="144.97393000000002">
    <ele>9.09</ele>
   </trkpt>
   <trkpt lat="-37.85208" lon="144.97402000000002">
    <ele>9.09</ele>
   </trkpt>
   <trkpt lat="-37.852070000000005" lon="144.97410000000002">
    <ele>9.18</ele>
   </trkpt>
   <trkpt lat="-37.852160000000005" lon="144.97428000000002">
    <ele>9.18</ele>
   </trkpt>
   <trkpt lat="-37.85266" lon="144.97466">
    <ele>9.07</ele>
   </trkpt>
   <trkpt lat="-37.853130000300204" lon="144.97498499782685">
    <ele>8.9</ele>
   </trkpt>
   <trkpt lat="-37.8536" lon="144.97531">
    <ele>8.71</ele>
   </trkpt>
   <trkpt lat="-37.853730000000006" lon="144.97541">
    <ele>8.77</ele>
   </trkpt>
   <trkpt lat="-37.85378" lon="144.9755">
    <ele>8.77</ele>
   </trkpt>
   <trkpt lat="-37.85389" lon="144.97574">
    <ele>9.07</ele>
   </trkpt>
   <trkpt lat="-37.8539" lon="144.97592">
    <ele>9.07</ele>
   </trkpt>
   <trkpt lat="-37.85405" lon="144.97590000000002">
    <ele>9.05</ele>
   </trkpt>
   <trkpt lat="-37.854490000000006" lon="144.97598000000002">
    <ele>8.73</ele>
   </trkpt>
   <trkpt lat="-37.85454" lon="144.97616000000002">
    <ele>8.93</ele>
   </trkpt>
   <trkpt lat="-37.85472" lon="144.97650000000002">
    <ele>9.200000000000001</ele>
   </trkpt>
   <trkpt lat="-37.85516000397197" lon="144.97717999197786">
    <ele>9.97</ele>
   </trkpt>
   <trkpt lat="-37.855600004033626" lon="144.97785999207306">
    <ele>11.840000000000002</ele>
   </trkpt>
   <trkpt lat="-37.85604" lon="144.97854">
    <ele>13.49</ele>
   </trkpt>
   <trkpt lat="-37.85602" lon="144.97875000000002">
    <ele>13.73</ele>
   </trkpt>
   <trkpt lat="-37.85642" lon="144.97893000000002">
    <ele>14.370000000000001</ele>
   </trkpt>
   <trkpt lat="-37.85667" lon="144.97907">
    <ele>15.05</ele>
   </trkpt>
   <trkpt lat="-37.85698" lon="144.97931">
    <ele>15.590000000000002</ele>
   </trkpt>
   <trkpt lat="-37.85739000067129" lon="144.97970499781408">
    <ele>16.68</ele>
   </trkpt>
   <trkpt lat="-37.857800000000005" lon="144.98010000000002">
    <ele>17.71</ele>
   </trkpt>
   <trkpt lat="-37.85786" lon="144.98008000000002">
    <ele>18.160000000000004</ele>
   </trkpt>
   <trkpt lat="-37.85792" lon="144.98010000000002">
    <ele>18.160000000000004</ele>
   </trkpt>
   <trkpt lat="-37.85792" lon="144.98004">
    <ele>18.410000000000004</ele>
   </trkpt>
   <trkpt lat="-37.85799" lon="144.98001000000002">
    <ele>18.44</ele>
   </trkpt>
   <trkpt lat="-37.858365001697784" lon="144.97937500324284">
    <ele>18.240000000000002</ele>
   </trkpt>
   <trkpt lat="-37.858740000000004" lon="144.97874000000002">
    <ele>17.68</ele>
   </trkpt>
   <trkpt lat="-37.858790000000006" lon="144.97871">
    <ele>17.550000000000004</ele>
   </trkpt>
   <trkpt lat="-37.859" lon="144.97839000000002">
    <ele>16.540000000000003</ele>
   </trkpt>
   <trkpt lat="-37.85913" lon="144.97823000000002">
    <ele>16.540000000000003</ele>
   </trkpt>
   <trkpt lat="-37.859590000000004" lon="144.97743">
    <ele>14.600000000000001</ele>
   </trkpt>
   <trkpt lat="-37.860052010186024" lon="144.97665401945522">
    <ele>11.62</ele>
   </trkpt>
   <trkpt lat="-37.86051401527964" lon="144.9758780291823">
    <ele>9.540000000000001</ele>
   </trkpt>
   <trkpt lat="-37.860976015280684" lon="144.97510202918096">
    <ele>9.24</ele>
   </trkpt>
   <trkpt lat="-37.861438010189" lon="144.97432601945113">
    <ele>9.500000000000002</ele>
   </trkpt>
   <trkpt lat="-37.861900000000006" lon="144.97355000000002">
    <ele>10.620000000000001</ele>
   </trkpt>
   <trkpt lat="-37.861850000000004" lon="144.97351">
    <ele>10.6</ele>
   </trkpt>
   <trkpt lat="-37.86171" lon="144.97331">
    <ele>10.41</ele>
   </trkpt>
   <trkpt lat="-37.86153" lon="144.97312000000002">
    <ele>10.41</ele>
   </trkpt>
   <trkpt lat="-37.86146" lon="144.97310000000002">
    <ele>10.020000000000001</ele>
   </trkpt>
   <trkpt lat="-37.861230000000006" lon="144.9729">
    <ele>10.020000000000001</ele>
   </trkpt>
   <trkpt lat="-37.86106" lon="144.97271">
    <ele>9.75</ele>
   </trkpt>
   <trkpt lat="-37.86103000000001" lon="144.97262">
    <ele>9.520000000000001</ele>
   </trkpt>
   <trkpt lat="-37.86086" lon="144.97250000000003">
    <ele>9.420000000000002</ele>
   </trkpt>
   <trkpt lat="-37.86026500142706" lon="144.97193999557436">
    <ele>9.260000000000002</ele>
   </trkpt>
   <trkpt lat="-37.85967" lon="144.97138">
    <ele>8.9</ele>
   </trkpt>
   <trkpt lat="-37.859290000557586" lon="144.97100999807174">
    <ele>8.610000000000001</ele>
   </trkpt>
   <trkpt lat="-37.85891" lon="144.97064">
    <ele>8.270000000000001</ele>
   </trkpt>
   <trkpt lat="-37.85849" lon="144.97018">
    <ele>8.020000000000001</ele>
   </trkpt>
   <trkpt lat="-37.858340000000005" lon="144.96997000000002">
    <ele>7.96</ele>
   </trkpt>
   <trkpt lat="-37.857880016372214" lon="144.96908997254138">
    <ele>8.0</ele>
   </trkpt>
   <trkpt lat="-37.85742002619512" lon="144.9682099560661">
    <ele>8.120000000000001</ele>
   </trkpt>
   <trkpt lat="-37.856960029468894" lon="144.96732995057397">
    <ele>8.21</ele>
   </trkpt>
   <trkpt lat="-37.85650002619375" lon="144.96644995606485">
    <ele>7.7700000000000005</ele>
   </trkpt>
   <trkpt lat="-37.856040016369846" lon="144.96556997253862">
    <ele>7.48</ele>
   </trkpt>
   <trkpt lat="-37.85558" lon="144.96469000000002">
    <ele>7.390000000000001</ele>
   </trkpt>
   <trkpt lat="-37.85517250863371" lon="144.96386498631884">
    <ele>7.540000000000001</ele>
   </trkpt>
   <trkpt lat="-37.85476501151147" lon="144.9630399817584">
    <ele>7.65</ele>
   </trkpt>
   <trkpt lat="-37.85435750863345" lon="144.9622149863187">
    <ele>7.750000000000001</ele>
   </trkpt>
   <trkpt lat="-37.853950000000005" lon="144.96139000000002">
    <ele>7.73</ele>
   </trkpt>
   <trkpt lat="-37.85394" lon="144.96139000000002">
    <ele>7.840000000000002</ele>
   </trkpt>
   <trkpt lat="-37.85350002424087" lon="144.9604849621905">
    <ele>7.840000000000002</ele>
   </trkpt>
   <trkpt lat="-37.85306004155515" lon="144.95957993518343">
    <ele>7.840000000000002</ele>
   </trkpt>
   <trkpt lat="-37.85262005194302" lon="144.9586749189787">
    <ele>7.840000000000002</ele>
   </trkpt>
   <trkpt lat="-37.85218005540469" lon="144.9577699135762">
    <ele>13.56</ele>
   </trkpt>
   <trkpt lat="-37.851740051940325" lon="144.95686491897575">
    <ele>13.56</ele>
   </trkpt>
   <trkpt lat="-37.85130004155014" lon="144.9559599351773">
    <ele>13.56</ele>
   </trkpt>
   <trkpt lat="-37.85086002423431" lon="144.95505496218064">
    <ele>13.56</ele>
   </trkpt>
   <trkpt lat="-37.85042" lon="144.95415">
    <ele>13.56</ele>
   </trkpt>
   <trkpt lat="-37.85000573255499" lon="144.95330139996804">
    <ele>7.65</ele>
   </trkpt>
   <trkpt lat="-37.849591459020516" lon="144.95245280947185">
    <ele>7.630000000000001</ele>
   </trkpt>
   <trkpt lat="-37.84917717939675" lon="144.95160422851134">
    <ele>7.96</ele>
   </trkpt>
   <trkpt lat="-37.848762893683805" lon="144.95075565708643">
    <ele>7.99</ele>
   </trkpt>
   <trkpt lat="-37.84834860188188" lon="144.94990709519698">
    <ele>8.190000000000001</ele>
   </trkpt>
   <trkpt lat="-37.847934303991124" lon="144.94905854284286">
    <ele>8.270000000000001</ele>
   </trkpt>
   <trkpt lat="-37.84752" lon="144.94821000000002">
    <ele>8.14</ele>
   </trkpt>
   <trkpt lat="-37.847165007296645" lon="144.94744998896007">
    <ele>7.86</ele>
   </trkpt>
   <trkpt lat="-37.84681000970896" lon="144.94668998523773">
    <ele>7.620000000000001</ele>
   </trkpt>
   <trkpt lat="-37.84645500723709" lon="144.9459299888329">
    <ele>7.410000000000001</ele>
   </trkpt>
   <trkpt lat="-37.8461" lon="144.94517000000002">
    <ele>7.390000000000001</ele>
   </trkpt>
   <trkpt lat="-37.8456950029507" lon="144.94432999531924">
    <ele>7.180000000000001</ele>
   </trkpt>
   <trkpt lat="-37.845290000000006" lon="144.94349000000003">
    <ele>7.180000000000001</ele>
   </trkpt>
   <trkpt lat="-37.84487" lon="144.94255">
    <ele>7.320000000000001</ele>
   </trkpt>
   <trkpt lat="-37.844800000000006" lon="144.94239000000002">
    <ele>7.320000000000001</ele>
   </trkpt>
   <trkpt lat="-37.84467" lon="144.94196000000002">
    <ele>7.25</ele>
   </trkpt>
   <trkpt lat="-37.84456000201861" lon="144.94127499919475">
    <ele>7.2700000000000005</ele>
   </trkpt>
   <trkpt lat="-37.84445" lon="144.94059000000001">
    <ele>7.2</ele>
   </trkpt>
   <trkpt lat="-37.84427" lon="144.94017000000002">
    <ele>7.220000000000001</ele>
   </trkpt>
   <trkpt lat="-37.843810000000005" lon="144.93936000000002">
    <ele>7.150000000000001</ele>
   </trkpt>
   <trkpt lat="-37.84389" lon="144.93928000000002">
    <ele>6.83</ele>
   </trkpt>
   <trkpt lat="-37.84417000092801" lon="144.93976499804342">
    <ele>6.8100000000000005</ele>
   </trkpt>
   <trkpt lat="-37.84445" lon="144.94025000000002">
    <ele>6.960000000000001</ele>
   </trkpt>
   <trkpt lat="-37.84456" lon="144.94062000000002">
    <ele>7.0200000000000005</ele>
   </trkpt>
   <trkpt lat="-37.844620000000006" lon="144.94091">
    <ele>6.970000000000001</ele>
   </trkpt>
   <trkpt lat="-37.84474" lon="144.94182">
    <ele>6.630000000000001</ele>
   </trkpt>
   <trkpt lat="-37.84489000000001" lon="144.94233">
    <ele>6.66</ele>
   </trkpt>
   <trkpt lat="-37.84534" lon="144.94329000000002">
    <ele>6.53</ele>
   </trkpt>
   <trkpt lat="-37.845400000000005" lon="144.94326">
    <ele>6.430000000000001</ele>
   </trkpt>
   <trkpt lat="-37.84578500837034" lon="144.94407248726785">
    <ele>6.410000000000001</ele>
   </trkpt>
   <trkpt lat="-37.84617001115855" lon="144.94488498301953">
    <ele>6.580000000000001</ele>
   </trkpt>
   <trkpt lat="-37.84655500836449" lon="144.94569748725516">
    <ele>6.83</ele>
   </trkpt>
   <trkpt lat="-37.846940000000004" lon="144.94651000000002">
    <ele>6.970000000000001</ele>
   </trkpt>
   <trkpt lat="-37.84738567977661" lon="144.94743929074622">
    <ele>8.0</ele>
   </trkpt>
   <trkpt lat="-37.84783135225063" lon="144.94836859272561">
    <ele>8.0</ele>
   </trkpt>
   <trkpt lat="-37.84827701742185" lon="144.9492979059384">
    <ele>8.0</ele>
   </trkpt>
   <trkpt lat="-37.84872267529009" lon="144.9502272303847">
    <ele>8.0</ele>
   </trkpt>
   <trkpt lat="-37.84916832585512" lon="144.95115656606458">
    <ele>8.0</ele>
   </trkpt>
   <trkpt lat="-37.84961396911674" lon="144.95208591297828">
    <ele>8.0</ele>
   </trkpt>
   <trkpt lat="-37.850059605074755" lon="144.95301527112582">
    <ele>8.0</ele>
   </trkpt>
   <trkpt lat="-37.850505233728946" lon="144.95394464050742">
    <ele>7.750000000000001</ele>
   </trkpt>
   <trkpt lat="-37.85095085507912" lon="144.95487402112315">
    <ele>7.750000000000001</ele>
   </trkpt>
   <trkpt lat="-37.85139646912507" lon="144.9558034129732">
    <ele>7.750000000000001</ele>
   </trkpt>
   <trkpt lat="-37.85184207586658" lon="144.95673281605767">
    <ele>7.750000000000001</ele>
   </trkpt>
   <trkpt lat="-37.85228767530346" lon="144.95766223037666">
    <ele>7.750000000000001</ele>
   </trkpt>
   <trkpt lat="-37.852733267435475" lon="144.9585916559304">
    <ele>7.750000000000001</ele>
   </trkpt>
   <trkpt lat="-37.85317885226245" lon="144.95952109271892">
    <ele>7.750000000000001</ele>
   </trkpt>
   <trkpt lat="-37.85362442978417" lon="144.96045054074236">
    <ele>7.750000000000001</ele>
   </trkpt>
   <trkpt lat="-37.85407" lon="144.96138000000002">
    <ele>7.750000000000001</ele>
   </trkpt>
   <trkpt lat="-37.854470000000006" lon="144.96212">
    <ele>6.960000000000001</ele>
   </trkpt>
   <trkpt lat="-37.854470000000006" lon="144.96213">
    <ele>5.7700000000000005</ele>
   </trkpt>
   <trkpt lat="-37.854978030144444" lon="144.96301994480368">
    <ele>5.7700000000000005</ele>
   </trkpt>
   <trkpt lat="-37.85548605359113" lon="144.9639099018733">
    <ele>5.7700000000000005</ele>
   </trkpt>
   <trkpt lat="-37.855994070339825" lon="144.96479987120918">
    <ele>5.7700000000000005</ele>
   </trkpt>
   <trkpt lat="-37.85650208039034" lon="144.96568985281152">
    <ele>5.7700000000000005</ele>
   </trkpt>
   <trkpt lat="-37.857010083742445" lon="144.96657984668053">
    <ele>12.190000000000001</ele>
   </trkpt>
   <trkpt lat="-37.85751808039595" lon="144.96746985281646">
    <ele>12.190000000000001</ele>
   </trkpt>
   <trkpt lat="-37.85802607035059" lon="144.96835987121955">
    <ele>12.190000000000001</ele>
   </trkpt>
   <trkpt lat="-37.8585340536062" lon="144.96924990188998">
    <ele>12.190000000000001</ele>
   </trkpt>
   <trkpt lat="-37.85904203016254" lon="144.97013994482808">
    <ele>12.190000000000001</ele>
   </trkpt>
   <trkpt lat="-37.859550000000006" lon="144.97103">
    <ele>12.190000000000001</ele>
   </trkpt>
   <trkpt lat="-37.85971" lon="144.97126">
    <ele>8.06</ele>
   </trkpt>
   <trkpt lat="-37.85972" lon="144.97126">
    <ele>8.07</ele>
   </trkpt>
   <trkpt lat="-37.86020000095594" lon="144.97172999696056">
    <ele>8.370000000000001</ele>
   </trkpt>
   <trkpt lat="-37.86068" lon="144.97220000000002">
    <ele>8.09</ele>
   </trkpt>
   <trkpt lat="-37.86088" lon="144.97237">
    <ele>8.190000000000001</ele>
   </trkpt>
   <trkpt lat="-37.861360000000005" lon="144.97262">
    <ele>8.84</ele>
   </trkpt>
   <trkpt lat="-37.861580000000004" lon="144.9727">
    <ele>9.05</ele>
   </trkpt>
   <trkpt lat="-37.86177" lon="144.97272">
    <ele>9.05</ele>
   </trkpt>
   <trkpt lat="-37.86204" lon="144.97272">
    <ele>9.760000000000002</ele>
   </trkpt>
   <trkpt lat="-37.86229" lon="144.97264">
    <ele>9.99</ele>
   </trkpt>
   <trkpt lat="-37.862860000000005" lon="144.97224">
    <ele>9.21</ele>
   </trkpt>
   <trkpt lat="-37.86299" lon="144.97219">
    <ele>8.93</ele>
   </trkpt>
   <trkpt lat="-37.86383" lon="144.97207">
    <ele>7.78</ele>
   </trkpt>
   <trkpt lat="-37.86406" lon="144.97208">
    <ele>7.670000000000001</ele>
   </trkpt>
   <trkpt lat="-37.864380000000004" lon="144.97216">
    <ele>7.61</ele>
   </trkpt>
   <trkpt lat="-37.86471" lon="144.97234">
    <ele>7.74</ele>
   </trkpt>
   <trkpt lat="-37.86507" lon="144.97261">
    <ele>8.13</ele>
   </trkpt>
   <trkpt lat="-37.865210000000005" lon="144.97274000000002">
    <ele>8.08</ele>
   </trkpt>
   <trkpt lat="-37.86545" lon="144.97303000000002">
    <ele>7.83</ele>
   </trkpt>
   <trkpt lat="-37.86582000000001" lon="144.97355000000002">
    <ele>7.5</ele>
   </trkpt>
   <trkpt lat="-37.866" lon="144.97372000000001">
    <ele>7.260000000000001</ele>
   </trkpt>
   <trkpt lat="-37.866240000000005" lon="144.97389">
    <ele>7.08</ele>
   </trkpt>
   <trkpt lat="-37.86686750190098" lon="144.974277490098">
    <ele>8.620000000000001</ele>
   </trkpt>
   <trkpt lat="-37.86749500253205" lon="144.97466498679555">
    <ele>8.620000000000001</ele>
   </trkpt>
   <trkpt lat="-37.86812250189317" lon="144.97505249009288">
    <ele>6.59</ele>
   </trkpt>
   <trkpt lat="-37.868750000000006" lon="144.97544000000002">
    <ele>6.59</ele>
   </trkpt>
   <trkpt lat="-37.869490000000006" lon="144.97589000000002">
    <ele>6.44</ele>
   </trkpt>
   <trkpt lat="-37.869690000000006" lon="144.97599000000002">
    <ele>6.260000000000001</ele>
   </trkpt>
   <trkpt lat="-37.869890000000005" lon="144.97605000000001">
    <ele>6.15</ele>
   </trkpt>
   <trkpt lat="-37.869980000000005" lon="144.97607000000002">
    <ele>6.12</ele>
   </trkpt>
   <trkpt lat="-37.870815833929846" lon="144.97618331918946">
    <ele>8.870000000000001</ele>
   </trkpt>
   <trkpt lat="-37.87165166775109" lon="144.97629664095004">
    <ele>8.870000000000001</ele>
   </trkpt>
   <trkpt lat="-37.87248750146369" lon="144.9764099652819">
    <ele>8.870000000000001</ele>
   </trkpt>
   <trkpt lat="-37.87332333506769" lon="144.9765232921852">
    <ele>8.870000000000001</ele>
   </trkpt>
   <trkpt lat="-37.87415916856305" lon="144.97663662166">
    <ele>8.870000000000001</ele>
   </trkpt>
   <trkpt lat="-37.874995001949785" lon="144.97674995370647">
    <ele>5.0</ele>
   </trkpt>
   <trkpt lat="-37.87583083522786" lon="144.9768632883248">
    <ele>5.0</ele>
   </trkpt>
   <trkpt lat="-37.876666668397306" lon="144.97697662551508">
    <ele>5.0</ele>
   </trkpt>
   <trkpt lat="-37.877502501458096" lon="144.97708996527743">
    <ele>5.0</ele>
   </trkpt>
   <trkpt lat="-37.87833833441024" lon="144.97720330761206">
    <ele>5.0</ele>
   </trkpt>
   <trkpt lat="-37.8791741672537" lon="144.977316652519">
    <ele>5.0</ele>
   </trkpt>
   <trkpt lat="-37.880010000000006" lon="144.97743">
    <ele>5.0</ele>
   </trkpt>
   <trkpt lat="-37.88062000005139" lon="144.97749999942377">
    <ele>6.3100000000000005</ele>
   </trkpt>
   <trkpt lat="-37.88123" lon="144.97757000000001">
    <ele>6.7700000000000005</ele>
   </trkpt>
   <trkpt lat="-37.88147" lon="144.97763">
    <ele>6.7700000000000005</ele>
   </trkpt>
   <trkpt lat="-37.88192" lon="144.97781">
    <ele>7.16</ele>
   </trkpt>
   <trkpt lat="-37.88233" lon="144.97802000000001">
    <ele>7.36</ele>
   </trkpt>
   <trkpt lat="-37.882600000000004" lon="144.97821000000002">
    <ele>7.59</ele>
   </trkpt>
   <trkpt lat="-37.883190000872176" lon="144.97864999651475">
    <ele>8.290000000000001</ele>
   </trkpt>
   <trkpt lat="-37.88378" lon="144.97909">
    <ele>8.780000000000001</ele>
   </trkpt>
   <trkpt lat="-37.88434" lon="144.97958">
    <ele>7.72</ele>
   </trkpt>
   <trkpt lat="-37.88481" lon="144.98017000000002">
    <ele>7.74</ele>
   </trkpt>
   <trkpt lat="-37.88483" lon="144.98028000000002">
    <ele>7.74</ele>
   </trkpt>
   <trkpt lat="-37.885155001181275" lon="144.98078499793075">
    <ele>7.69</ele>
   </trkpt>
   <trkpt lat="-37.88548" lon="144.98129">
    <ele>7.78</ele>
   </trkpt>
   <trkpt lat="-37.88592333792748" lon="144.9820266578025">
    <ele>7.69</ele>
   </trkpt>
   <trkpt lat="-37.88636667126452" lon="144.9827633244752">
    <ele>7.78</ele>
   </trkpt>
   <trkpt lat="-37.886810000000004" lon="144.98350000000002">
    <ele>8.14</ele>
   </trkpt>
   <trkpt lat="-37.887320002940776" lon="144.98433499420327">
    <ele>10.0</ele>
   </trkpt>
   <trkpt lat="-37.88783" lon="144.98517">
    <ele>8.0</ele>
   </trkpt>
   <trkpt lat="-37.888324011374756" lon="144.98598997799195">
    <ele>8.0</ele>
   </trkpt>
   <trkpt lat="-37.88881801706184" lon="144.9868099669869">
    <ele>8.0</ele>
   </trkpt>
   <trkpt lat="-37.88931201706104" lon="144.98762996698505">
    <ele>8.0</ele>
   </trkpt>
   <trkpt lat="-37.88980601137219" lon="144.98844997798662">
    <ele>8.0</ele>
   </trkpt>
   <trkpt lat="-37.8903" lon="144.98927">
    <ele>8.0</ele>
   </trkpt>
   <trkpt lat="-37.88980202553815" lon="144.98845095015238">
    <ele>8.0</ele>
   </trkpt>
   <trkpt lat="-37.889304045401545" lon="144.98763191138403">
    <ele>8.0</ele>
   </trkpt>
   <trkpt lat="-37.88880605959037" lon="144.98681288369474">
    <ele>8.0</ele>
   </trkpt>
   <trkpt lat="-37.88830806810483" lon="144.9859938670843">
    <ele>8.0</ele>
   </trkpt>
   <trkpt lat="-37.88781007094505" lon="144.98517486155245">
    <ele>7.0</ele>
   </trkpt>
   <trkpt lat="-37.88731206811126" lon="144.984355867099">
    <ele>7.0</ele>
   </trkpt>
   <trkpt lat="-37.88681405960361" lon="144.9835368837237">
    <ele>7.0</ele>
   </trkpt>
   <trkpt lat="-37.886316045422284" lon="144.9827179114264">
    <ele>7.0</ele>
   </trkpt>
   <trkpt lat="-37.88581802556745" lon="144.98189895020678">
    <ele>7.0</ele>
   </trkpt>
   <trkpt lat="-37.88532" lon="144.98108000000002">
    <ele>7.0</ele>
   </trkpt>
   <trkpt lat="-37.88533" lon="144.98106">
    <ele>7.8100000000000005</ele>
   </trkpt>
   <trkpt lat="-37.88483" lon="144.98028000000002">
    <ele>7.74</ele>
   </trkpt>
   <trkpt lat="-37.88479" lon="144.98026000000002">
    <ele>7.74</ele>
   </trkpt>
   <trkpt lat="-37.88437000089733" lon="144.97982499761955">
    <ele>8.98</ele>
   </trkpt>
   <trkpt lat="-37.883950000000006" lon="144.97939000000002">
    <ele>9.31</ele>
   </trkpt>
   <trkpt lat="-37.883480000403424" lon="144.97904999776824">
    <ele>8.48</ele>
   </trkpt>
   <trkpt lat="-37.883010000000006" lon="144.97871">
    <ele>8.120000000000001</ele>
   </trkpt>
   <trkpt lat="-37.88246" lon="144.97828">
    <ele>7.4</ele>
   </trkpt>
   <trkpt lat="-37.882000000000005" lon="144.97802000000001">
    <ele>7.220000000000001</ele>
   </trkpt>
   <trkpt lat="-37.881690000000006" lon="144.97789">
    <ele>7.07</ele>
   </trkpt>
   <trkpt lat="-37.88123" lon="144.97775000000001">
    <ele>6.78</ele>
   </trkpt>
   <trkpt lat="-37.881220000000006" lon="144.97774">
    <ele>1.7100000000000002</ele>
   </trkpt>
   <trkpt lat="-37.88039333345614" lon="144.97762333071552">
    <ele>1.7100000000000002</ele>
   </trkpt>
   <trkpt lat="-37.87956666679713" lon="144.97750666404997">
    <ele>7.86</ele>
   </trkpt>
   <trkpt lat="-37.87874" lon="144.97739">
    <ele>7.86</ele>
   </trkpt>
   <trkpt lat="-37.87785444493452" lon="144.97726887724014">
    <ele>7.86</ele>
   </trkpt>
   <trkpt lat="-37.876968889744944" lon="144.97714775739263">
    <ele>7.86</ele>
   </trkpt>
   <trkpt lat="-37.8760833344313" lon="144.97702664045735">
    <ele>7.86</ele>
   </trkpt>
   <trkpt lat="-37.87519777899358" lon="144.97690552643405">
    <ele>7.86</ele>
   </trkpt>
   <trkpt lat="-37.87431222343179" lon="144.97678441532264">
    <ele>7.390000000000001</ele>
   </trkpt>
   <trkpt lat="-37.87342666774594" lon="144.97666330712292">
    <ele>7.390000000000001</ele>
   </trkpt>
   <trkpt lat="-37.87254111193603" lon="144.97654220183472">
    <ele>7.390000000000001</ele>
   </trkpt>
   <trkpt lat="-37.87165555600209" lon="144.97642109945795">
    <ele>7.390000000000001</ele>
   </trkpt>
   <trkpt lat="-37.87077" lon="144.9763">
    <ele>7.390000000000001</ele>
   </trkpt>
   <trkpt lat="-37.870215000274236" lon="144.97621499939706">
    <ele>7.24</ele>
   </trkpt>
   <trkpt lat="-37.86966" lon="144.97613">
    <ele>7.630000000000001</ele>
   </trkpt>
   <trkpt lat="-37.86952" lon="144.97607000000002">
    <ele>7.91</ele>
   </trkpt>
   <trkpt lat="-37.86936" lon="144.97599000000002">
    <ele>7.98</ele>
   </trkpt>
   <trkpt lat="-37.869130000000006" lon="144.97584">
    <ele>8.040000000000001</ele>
   </trkpt>
   <trkpt lat="-37.868790000000004" lon="144.97564">
    <ele>8.030000000000001</ele>
   </trkpt>
   <trkpt lat="-37.86800500110074" lon="144.97511999443188">
    <ele>7.640000000000001</ele>
   </trkpt>
   <trkpt lat="-37.86722" lon="144.9746">
    <ele>7.7700000000000005</ele>
   </trkpt>
   <trkpt lat="-37.866510000000005" lon="144.97425">
    <ele>8.43</ele>
   </trkpt>
   <trkpt lat="-37.86625" lon="144.97410000000002">
    <ele>8.66</ele>
   </trkpt>
   <trkpt lat="-37.866110000000006" lon="144.97399000000001">
    <ele>8.76</ele>
   </trkpt>
   <trkpt lat="-37.865770000000005" lon="144.97364000000002">
    <ele>8.860000000000001</ele>
   </trkpt>
   <trkpt lat="-37.86538" lon="144.97306">
    <ele>8.56</ele>
   </trkpt>
   <trkpt lat="-37.86518" lon="144.97282">
    <ele>8.21</ele>
   </trkpt>
   <trkpt lat="-37.86486" lon="144.97255">
    <ele>7.98</ele>
   </trkpt>
   <trkpt lat="-37.86439" lon="144.97225">
    <ele>7.57</ele>
   </trkpt>
   <trkpt lat="-37.86419" lon="144.97219">
    <ele>7.790000000000001</ele>
   </trkpt>
   <trkpt lat="-37.86383" lon="144.97217">
    <ele>8.360000000000001</ele>
   </trkpt>
   <trkpt lat="-37.863130000000005" lon="144.97227">
    <ele>10.270000000000001</ele>
   </trkpt>
   <trkpt lat="-37.86289" lon="144.97235">
    <ele>10.71</ele>
   </trkpt>
   <trkpt lat="-37.862660000000005" lon="144.97251">
    <ele>10.870000000000001</ele>
   </trkpt>
   <trkpt lat="-37.862660000000005" lon="144.97267000000002">
    <ele>11.53</ele>
   </trkpt>
   <trkpt lat="-37.86231" lon="144.97294000000002">
    <ele>11.19</ele>
   </trkpt>
   <trkpt lat="-37.862010000000005" lon="144.97343">
    <ele>10.93</ele>
   </trkpt>
   <trkpt lat="-37.861940000000004" lon="144.97358">
    <ele>10.66</ele>
   </trkpt>
   <trkpt lat="-37.86159500137072" lon="144.97417000293495">
    <ele>9.850000000000001</ele>
   </trkpt>
   <trkpt lat="-37.861250000000005" lon="144.97476">
    <ele>9.41</ele>
   </trkpt>
   <trkpt lat="-37.86078667159339" lon="144.9755233429323">
    <ele>9.22</ele>
   </trkpt>
   <trkpt lat="-37.86032333825897" lon="144.97628667626728">
    <ele>10.440000000000001</ele>
   </trkpt>
   <trkpt lat="-37.859860000000005" lon="144.97705000000002">
    <ele>13.160000000000002</ele>
   </trkpt>
   <trkpt lat="-37.85934500328209" lon="144.9779350062347">
    <ele>15.950000000000003</ele>
   </trkpt>
   <trkpt lat="-37.858830000000005" lon="144.97882">
    <ele>17.150000000000002</ele>
   </trkpt>
   <trkpt lat="-37.85839000222333" lon="144.97954500432655">
    <ele>17.580000000000002</ele>
   </trkpt>
   <trkpt lat="-37.85795" lon="144.98027000000002">
    <ele>18.82</ele>
   </trkpt>
   <trkpt lat="-37.85775" lon="144.98063000000002">
    <ele>19.23</ele>
   </trkpt>
   <trkpt lat="-37.85744500111989" lon="144.98115000219164">
    <ele>19.090000000000003</ele>
   </trkpt>
   <trkpt lat="-37.85714" lon="144.98167">
    <ele>19.01</ele>
   </trkpt>
   <trkpt lat="-37.85661" lon="144.98254">
    <ele>19.06</ele>
   </trkpt>
   <trkpt lat="-37.85629" lon="144.98255">
    <ele>18.78</ele>
   </trkpt>
   <trkpt lat="-37.856080000000006" lon="144.98252000000002">
    <ele>18.03</ele>
   </trkpt>
   <trkpt lat="-37.8553" lon="144.98231">
    <ele>16.560000000000002</ele>
   </trkpt>
   <trkpt lat="-37.8547" lon="144.9821">
    <ele>15.13</ele>
   </trkpt>
   <trkpt lat="-37.85457" lon="144.9821">
    <ele>15.13</ele>
   </trkpt>
   <trkpt lat="-37.85394" lon="144.98190000000002">
    <ele>14.38</ele>
   </trkpt>
   <trkpt lat="-37.85313091275458" lon="144.98160542222035">
    <ele>14.560000000000002</ele>
   </trkpt>
   <trkpt lat="-37.85232182477535" lon="144.98131085090637">
    <ele>14.560000000000002</ele>
   </trkpt>
   <trkpt lat="-37.85151273606237" lon="144.9810162860577">
    <ele>14.560000000000002</ele>
   </trkpt>
   <trkpt lat="-37.85070364661565" lon="144.98072172767402">
    <ele>14.560000000000002</ele>
   </trkpt>
   <trkpt lat="-37.84989455643523" lon="144.98042717575498">
    <ele>14.560000000000002</ele>
   </trkpt>
   <trkpt lat="-37.84908546552116" lon="144.98013263030032">
    <ele>16.790000000000003</ele>
   </trkpt>
   <trkpt lat="-37.84827637387347" lon="144.97983809130966">
    <ele>16.790000000000003</ele>
   </trkpt>
   <trkpt lat="-37.84746728149221" lon="144.97954355878275">
    <ele>16.790000000000003</ele>
   </trkpt>
   <trkpt lat="-37.8466581883774" lon="144.97924903271914">
    <ele>16.790000000000003</ele>
   </trkpt>
   <trkpt lat="-37.84584909452908" lon="144.97895451311862">
    <ele>16.790000000000003</ele>
   </trkpt>
   <trkpt lat="-37.845040000000004" lon="144.97866000000002">
    <ele>16.790000000000003</ele>
   </trkpt>
   <trkpt lat="-37.84449000028302" lon="144.9784549985104">
    <ele>16.03</ele>
   </trkpt>
   <trkpt lat="-37.84394" lon="144.97825">
    <ele>15.93</ele>
   </trkpt>
   <trkpt lat="-37.84366" lon="144.97817">
    <ele>15.770000000000003</ele>
   </trkpt>
   <trkpt lat="-37.842932500859874" lon="144.97790249206648">
    <ele>19.03</ele>
   </trkpt>
   <trkpt lat="-37.842205001114664" lon="144.97763498941043">
    <ele>19.03</ele>
   </trkpt>
   <trkpt lat="-37.841477500764384" lon="144.97736749203162">
    <ele>20.630000000000003</ele>
   </trkpt>
   <trkpt lat="-37.84075" lon="144.9771">
    <ele>20.630000000000003</ele>
   </trkpt>
   <trkpt lat="-37.839920000342886" lon="144.9768149967928">
    <ele>13.330000000000002</ele>
   </trkpt>
   <trkpt lat="-37.839090000000006" lon="144.97653000000003">
    <ele>13.46</ele>
   </trkpt>
   <trkpt lat="-37.83836000032257" lon="144.9762449971714">
    <ele>14.14</ele>
   </trkpt>
   <trkpt lat="-37.837630000000004" lon="144.97596000000001">
    <ele>15.3</ele>
   </trkpt>
   <trkpt lat="-37.837030000000006" lon="144.97575">
    <ele>16.03</ele>
   </trkpt>
   <trkpt lat="-37.836960000000005" lon="144.97566">
    <ele>15.850000000000003</ele>
   </trkpt>
   <trkpt lat="-37.836310000000005" lon="144.9754">
    <ele>16.66</ele>
   </trkpt>
   <trkpt lat="-37.83592" lon="144.97518000000002">
    <ele>16.92</ele>
   </trkpt>
   <trkpt lat="-37.835240000000006" lon="144.97477">
    <ele>17.26</ele>
   </trkpt>
   <trkpt lat="-37.83476" lon="144.97441">
    <ele>17.0</ele>
   </trkpt>
   <trkpt lat="-37.83429" lon="144.97399000000001">
    <ele>16.27</ele>
   </trkpt>
   <trkpt lat="-37.83417" lon="144.97387">
    <ele>15.9</ele>
   </trkpt>
   <trkpt lat="-37.833960000000005" lon="144.97357000000002">
    <ele>15.55</ele>
   </trkpt>
   <trkpt lat="-37.833675001543504" lon="144.9729599975803">
    <ele>15.56</ele>
   </trkpt>
   <trkpt lat="-37.83339" lon="144.97235">
    <ele>15.9</ele>
   </trkpt>
   <trkpt lat="-37.83323" lon="144.97213000000002">
    <ele>16.03</ele>
   </trkpt>
   <trkpt lat="-37.832910000000005" lon="144.97184000000001">
    <ele>15.520000000000001</ele>
   </trkpt>
   <trkpt lat="-37.83229" lon="144.97158000000002">
    <ele>15.97</ele>
   </trkpt>
   <trkpt lat="-37.83196" lon="144.97140000000002">
    <ele>16.130000000000003</ele>
   </trkpt>
   <trkpt lat="-37.83146" lon="144.97123000000002">
    <ele>16.700000000000003</ele>
   </trkpt>
   <trkpt lat="-37.8312" lon="144.97117">
    <ele>17.130000000000003</ele>
   </trkpt>
   <trkpt lat="-37.83046" lon="144.97111">
    <ele>17.97</ele>
   </trkpt>
   <trkpt lat="-37.82983" lon="144.97109">
    <ele>18.230000000000004</ele>
   </trkpt>
   <trkpt lat="-37.829235000058816" lon="144.97110000007964">
    <ele>18.0</ele>
   </trkpt>
   <trkpt lat="-37.82864" lon="144.97111">
    <ele>17.910000000000004</ele>
   </trkpt>
   <trkpt lat="-37.827979999950635" lon="144.97116000045176">
    <ele>17.66</ele>
   </trkpt>
   <trkpt lat="-37.82732" lon="144.97121">
    <ele>17.42</ele>
   </trkpt>
   <trkpt lat="-37.82677" lon="144.97119">
    <ele>17.07</ele>
   </trkpt>
   <trkpt lat="-37.826130000000006" lon="144.97106000000002">
    <ele>16.57</ele>
   </trkpt>
   <trkpt lat="-37.82573" lon="144.97096000000002">
    <ele>16.28</ele>
   </trkpt>
   <trkpt lat="-37.82538" lon="144.97083">
    <ele>15.76</ele>
   </trkpt>
   <trkpt lat="-37.825010000000006" lon="144.97068000000002">
    <ele>15.13</ele>
   </trkpt>
   <trkpt lat="-37.82422000049438" lon="144.9703149960611">
    <ele>15.01</ele>
   </trkpt>
   <trkpt lat="-37.82343" lon="144.96995">
    <ele>14.59</ele>
   </trkpt>
   <trkpt lat="-37.823460000000004" lon="144.96984">
    <ele>14.780000000000001</ele>
   </trkpt>
   <trkpt lat="-37.823330000000006" lon="144.96978000000001">
    <ele>14.49</ele>
   </trkpt>
   <trkpt lat="-37.82356" lon="144.96907000000002">
    <ele>11.520000000000001</ele>
   </trkpt>
   <trkpt lat="-37.82361" lon="144.96881000000002">
    <ele>10.72</ele>
   </trkpt>
   <trkpt lat="-37.82361" lon="144.96855000000002">
    <ele>10.47</ele>
   </trkpt>
   <trkpt lat="-37.823420000000006" lon="144.96755000000002">
    <ele>9.940000000000001</ele>
   </trkpt>
   <trkpt lat="-37.82330500207526" lon="144.96684999893338">
    <ele>9.82</ele>
   </trkpt>
   <trkpt lat="-37.823190000000004" lon="144.96615">
    <ele>9.780000000000001</ele>
   </trkpt>
   <trkpt lat="-37.82307" lon="144.96621000000002">
    <ele>9.75</ele>
   </trkpt>
   <trkpt lat="-37.82298" lon="144.96631000000002">
    <ele>9.82</ele>
   </trkpt>
   <trkpt lat="-37.822750000000006" lon="144.96678">
    <ele>9.8</ele>
   </trkpt>
   <trkpt lat="-37.82201500015783" lon="144.96697500194264">
    <ele>10.530000000000001</ele>
   </trkpt>
   <trkpt lat="-37.82128" lon="144.96717">
    <ele>11.39</ele>
   </trkpt>
   <trkpt lat="-37.82108" lon="144.96765000000002">
    <ele>12.090000000000002</ele>
   </trkpt>
   <trkpt lat="-37.820910000000005" lon="144.96812">
    <ele>11.15</ele>
   </trkpt>
   <trkpt lat="-37.82081" lon="144.96851">
    <ele>10.22</ele>
   </trkpt>
   <trkpt lat="-37.820730000000005" lon="144.96934000000002">
    <ele>10.14</ele>
   </trkpt>
   <trkpt lat="-37.82072" lon="144.96951">
    <ele>10.100000000000001</ele>
   </trkpt>
   <trkpt lat="-37.82076" lon="144.96998000000002">
    <ele>10.05</ele>
   </trkpt>
   <trkpt lat="-37.82088" lon="144.97055">
    <ele>10.3</ele>
   </trkpt>
   <trkpt lat="-37.82114000989915" lon="144.97163332560663">
    <ele>11.09</ele>
   </trkpt>
   <trkpt lat="-37.82140000987657" lon="144.97271665884566">
    <ele>11.690000000000001</ele>
   </trkpt>
   <trkpt lat="-37.82166" lon="144.9738">
    <ele>13.06</ele>
   </trkpt>
   <trkpt lat="-37.82190000000001" lon="144.97369">
    <ele>13.840000000000002</ele>
   </trkpt>
   <trkpt lat="-37.82202" lon="144.97362">
    <ele>14.370000000000001</ele>
   </trkpt>
   <trkpt lat="-37.82206" lon="144.97352">
    <ele>14.690000000000001</ele>
   </trkpt>
   <trkpt lat="-37.82209" lon="144.97334">
    <ele>14.950000000000001</ele>
   </trkpt>
   <trkpt lat="-37.82224" lon="144.97264">
    <ele>16.09</ele>
   </trkpt>
   <trkpt lat="-37.82233" lon="144.97228">
    <ele>16.650000000000002</ele>
   </trkpt>
   <trkpt lat="-37.82244" lon="144.97203000000002">
    <ele>17.150000000000002</ele>
   </trkpt>
   <trkpt lat="-37.822630000000004" lon="144.97172">
    <ele>17.41</ele>
   </trkpt>
   <trkpt lat="-37.822810000000004" lon="144.97152">
    <ele>17.54</ele>
   </trkpt>
   <trkpt lat="-37.82294" lon="144.97134">
    <ele>17.57</ele>
   </trkpt>
   <trkpt lat="-37.82302" lon="144.97137">
    <ele>17.57</ele>
   </trkpt>
   <trkpt lat="-37.82318" lon="144.97132000000002">
    <ele>17.88</ele>
   </trkpt>
   <trkpt lat="-37.82345" lon="144.97127">
    <ele>18.330000000000002</ele>
   </trkpt>
   <trkpt lat="-37.82372" lon="144.97135">
    <ele>18.87</ele>
   </trkpt>
   <trkpt lat="-37.82394" lon="144.97151000000002">
    <ele>18.87</ele>
   </trkpt>
   <trkpt lat="-37.824690000000004" lon="144.97193000000001">
    <ele>21.150000000000002</ele>
   </trkpt>
   <trkpt lat="-37.82524" lon="144.97234">
    <ele>21.51</ele>
   </trkpt>
   <trkpt lat="-37.82546" lon="144.97245">
    <ele>21.69</ele>
   </trkpt>
   <trkpt lat="-37.8256" lon="144.97249000000002">
    <ele>21.78</ele>
   </trkpt>
   <trkpt lat="-37.82578" lon="144.97250000000003">
    <ele>21.85</ele>
   </trkpt>
   <trkpt lat="-37.826280000000004" lon="144.97241000000002">
    <ele>22.580000000000002</ele>
   </trkpt>
   <trkpt lat="-37.82643" lon="144.97240000000002">
    <ele>22.92</ele>
   </trkpt>
   <trkpt lat="-37.826550000000005" lon="144.97241000000002">
    <ele>22.990000000000002</ele>
   </trkpt>
   <trkpt lat="-37.82656" lon="144.97244">
    <ele>23.19</ele>
   </trkpt>
   <trkpt lat="-37.82663" lon="144.97248000000002">
    <ele>23.32</ele>
   </trkpt>
   <trkpt lat="-37.82685" lon="144.97241000000002">
    <ele>23.110000000000003</ele>
   </trkpt>
   <trkpt lat="-37.82697" lon="144.97241000000002">
    <ele>23.1</ele>
   </trkpt>
   <trkpt lat="-37.82719" lon="144.97250000000003">
    <ele>23.470000000000002</ele>
   </trkpt>
   <trkpt lat="-37.82737" lon="144.97262">
    <ele>23.76</ele>
   </trkpt>
   <trkpt lat="-37.82774000056169" lon="144.97298499816836">
    <ele>24.68</ele>
   </trkpt>
   <trkpt lat="-37.82811" lon="144.97335">
    <ele>26.750000000000004</ele>
   </trkpt>
   <trkpt lat="-37.82862" lon="144.9738">
    <ele>28.41</ele>
   </trkpt>
   <trkpt lat="-37.829" lon="144.97400000000002">
    <ele>30.080000000000002</ele>
   </trkpt>
   <trkpt lat="-37.8294" lon="144.97415">
    <ele>31.360000000000007</ele>
   </trkpt>
   <trkpt lat="-37.82972" lon="144.97423">
    <ele>32.120000000000005</ele>
   </trkpt>
   <trkpt lat="-37.830090000000006" lon="144.97443">
    <ele>33.42</ele>
   </trkpt>
   <trkpt lat="-37.830220000000004" lon="144.97457">
    <ele>33.84</ele>
   </trkpt>
   <trkpt lat="-37.83039" lon="144.97483000000003">
    <ele>34.1</ele>
   </trkpt>
   <trkpt lat="-37.83048" lon="144.97501000000003">
    <ele>34.13</ele>
   </trkpt>
   <trkpt lat="-37.83077" lon="144.97605000000001">
    <ele>32.6</ele>
   </trkpt>
   <trkpt lat="-37.830940000000005" lon="144.9764">
    <ele>32.199999999999996</ele>
   </trkpt>
   <trkpt lat="-37.83106" lon="144.97662000000003">
    <ele>31.900000000000006</ele>
   </trkpt>
   <trkpt lat="-37.83128" lon="144.97692">
    <ele>31.52</ele>
   </trkpt>
   <trkpt lat="-37.83176500084945" lon="144.9773699970358">
    <ele>30.8</ele>
   </trkpt>
   <trkpt lat="-37.83225" lon="144.97782">
    <ele>29.87</ele>
   </trkpt>
   <trkpt lat="-37.83267" lon="144.97839000000002">
    <ele>28.1</ele>
   </trkpt>
   <trkpt lat="-37.8329" lon="144.9788">
    <ele>27.78</ele>
   </trkpt>
   <trkpt lat="-37.8331" lon="144.97921000000002">
    <ele>27.240000000000002</ele>
   </trkpt>
   <trkpt lat="-37.83321" lon="144.97958">
    <ele>26.89</ele>
   </trkpt>
   <trkpt lat="-37.83328" lon="144.97992000000002">
    <ele>26.6</ele>
   </trkpt>
   <trkpt lat="-37.83328" lon="144.98027000000002">
    <ele>26.310000000000002</ele>
   </trkpt>
   <trkpt lat="-37.833305001535855" lon="144.98087000013163">
    <ele>25.740000000000002</ele>
   </trkpt>
   <trkpt lat="-37.833330000000004" lon="144.98147">
    <ele>26.240000000000002</ele>
   </trkpt>
   <trkpt lat="-37.83337" lon="144.98171000000002">
    <ele>27.28</ele>
   </trkpt>
   <trkpt lat="-37.83346" lon="144.9821">
    <ele>28.940000000000005</ele>
   </trkpt>
   <trkpt lat="-37.83352" lon="144.98225000000002">
    <ele>29.77</ele>
   </trkpt>
   <trkpt lat="-37.83359" lon="144.98236">
    <ele>29.77</ele>
   </trkpt>
   <trkpt lat="-37.8337" lon="144.98245">
    <ele>30.050000000000004</ele>
   </trkpt>
   <trkpt lat="-37.83384" lon="144.98252000000002">
    <ele>30.060000000000002</ele>
   </trkpt>
   <trkpt lat="-37.83395" lon="144.98255">
    <ele>30.03</ele>
   </trkpt>
   <trkpt lat="-37.83406" lon="144.98254">
    <ele>29.880000000000003</ele>
   </trkpt>
   <trkpt lat="-37.834050000000005" lon="144.98243000000002">
    <ele>29.540000000000003</ele>
   </trkpt>
   <trkpt lat="-37.83413" lon="144.9824">
    <ele>29.450000000000003</ele>
   </trkpt>
   <trkpt lat="-37.83399128364433" lon="144.98133373596818">
    <ele>27.03</ele>
   </trkpt>
   <trkpt lat="-37.83385255767599" lon="144.98026747594616">
    <ele>25.830000000000002</ele>
   </trkpt>
   <trkpt lat="-37.83371382209506" lon="144.97920121993428">
    <ele>25.23</ele>
   </trkpt>
   <trkpt lat="-37.83357507690162" lon="144.9781349679327">
    <ele>24.8</ele>
   </trkpt>
   <trkpt lat="-37.833436322095764" lon="144.9770687199417">
    <ele>23.950000000000003</ele>
   </trkpt>
   <trkpt lat="-37.83329755767757" lon="144.97600247596154">
    <ele>22.37</ele>
   </trkpt>
   <trkpt lat="-37.83315878364712" lon="144.97493623599243">
    <ele>19.23</ele>
   </trkpt>
   <trkpt lat="-37.833020000000005" lon="144.97387">
    <ele>18.080000000000002</ele>
   </trkpt>
   <trkpt lat="-37.83294" lon="144.97328000000002">
    <ele>17.51</ele>
   </trkpt>
   <trkpt lat="-37.832930000000005" lon="144.97262">
    <ele>17.03</ele>
   </trkpt>
   <trkpt lat="-37.83267" lon="144.97234">
    <ele>16.78</ele>
   </trkpt>
   <trkpt lat="-37.83229" lon="144.97201">
    <ele>16.94</ele>
   </trkpt>
   <trkpt lat="-37.83223" lon="144.97202000000001">
    <ele>17.1</ele>
   </trkpt>
   <trkpt lat="-37.832100000000004" lon="144.97198">
    <ele>17.1</ele>
   </trkpt>
   <trkpt lat="-37.83171" lon="144.97179">
    <ele>17.29</ele>
   </trkpt>
   <trkpt lat="-37.83128" lon="144.97167000000002">
    <ele>17.63</ele>
   </trkpt>
   <trkpt lat="-37.83075" lon="144.97161">
    <ele>18.61</ele>
   </trkpt>
   <trkpt lat="-37.830119999988334" lon="144.9715899998288">
    <ele>19.24</ele>
   </trkpt>
   <trkpt lat="-37.82949" lon="144.97157">
    <ele>19.1</ele>
   </trkpt>
   <trkpt lat="-37.828920000000004" lon="144.97158000000002">
    <ele>19.01</ele>
   </trkpt>
   <trkpt lat="-37.82827999994042" lon="144.97163000043918">
    <ele>18.53</ele>
   </trkpt>
   <trkpt lat="-37.82764" lon="144.97168000000002">
    <ele>18.56</ele>
   </trkpt>
   <trkpt lat="-37.827130000000004" lon="144.97167000000002">
    <ele>18.62</ele>
   </trkpt>
   <trkpt lat="-37.82692" lon="144.97167000000002">
    <ele>18.320000000000004</ele>
   </trkpt>
   <trkpt lat="-37.82625" lon="144.97158000000002">
    <ele>17.990000000000002</ele>
   </trkpt>
   <trkpt lat="-37.82625" lon="144.97155">
    <ele>17.96</ele>
   </trkpt>
   <trkpt lat="-37.825860000000006" lon="144.97145">
    <ele>17.46</ele>
   </trkpt>
   <trkpt lat="-37.82506" lon="144.97115000000002">
    <ele>16.57</ele>
   </trkpt>
   <trkpt lat="-37.824456667325585" lon="144.97087332881514">
    <ele>16.360000000000003</ele>
   </trkpt>
   <trkpt lat="-37.82385333400404" lon="144.97059666215392">
    <ele>15.690000000000003</ele>
   </trkpt>
   <trkpt lat="-37.82325" lon="144.97032000000002">
    <ele>15.56</ele>
   </trkpt>
   <trkpt lat="-37.82327" lon="144.97019">
    <ele>15.360000000000001</ele>
   </trkpt>
   <trkpt lat="-37.82318" lon="144.97015000000002">
    <ele>15.510000000000002</ele>
   </trkpt>
   <trkpt lat="-37.82263000029304" lon="144.96989999815008">
    <ele>15.72</ele>
   </trkpt>
   <trkpt lat="-37.82208" lon="144.96965">
    <ele>16.009999999999998</ele>
   </trkpt>
   <trkpt lat="-37.82133500032048" lon="144.96933499677866">
    <ele>16.130000000000003</ele>
   </trkpt>
   <trkpt lat="-37.82059" lon="144.96902">
    <ele>16.86</ele>
   </trkpt>
   <trkpt lat="-37.82029" lon="144.96885">
    <ele>17.17</ele>
   </trkpt>
   <trkpt lat="-37.82016" lon="144.96875">
    <ele>17.17</ele>
   </trkpt>
   <trkpt lat="-37.82005" lon="144.96868">
    <ele>17.05</ele>
   </trkpt>
   <trkpt lat="-37.81943000035503" lon="144.9683999976588">
    <ele>17.28</ele>
   </trkpt>
   <trkpt lat="-37.818810000000006" lon="144.96812">
    <ele>17.300000000000004</ele>
   </trkpt>
   <trkpt lat="-37.81859" lon="144.96806">
    <ele>17.150000000000002</ele>
   </trkpt>
   <trkpt lat="-37.817910000000005" lon="144.96774000000002">
    <ele>16.990000000000002</ele>
   </trkpt>
   <trkpt lat="-37.81772" lon="144.96762">
    <ele>16.27</ele>
   </trkpt>
   <trkpt lat="-37.81752" lon="144.96752">
    <ele>15.950000000000003</ele>
   </trkpt>
   <trkpt lat="-37.817330000000005" lon="144.96812">
    <ele>16.34</ele>
   </trkpt>
   <trkpt lat="-37.8171450016404" lon="144.96874000150154">
    <ele>17.130000000000003</ele>
   </trkpt>
   <trkpt lat="-37.81696" lon="144.96936000000002">
    <ele>17.910000000000004</ele>
   </trkpt>
   <trkpt lat="-37.81676" lon="144.97009">
    <ele>18.770000000000003</ele>
   </trkpt>
   <trkpt lat="-37.8164566753097" lon="144.97110000823568">
    <ele>19.32</ele>
   </trkpt>
   <trkpt lat="-37.816153341995665" lon="144.97211000817126">
    <ele>20.360000000000003</ele>
   </trkpt>
   <trkpt lat="-37.815850000000005" lon="144.97312000000002">
    <ele>22.53</ele>
   </trkpt>
   <trkpt lat="-37.81575" lon="144.97351">
    <ele>23.15</ele>
   </trkpt>
   <trkpt lat="-37.81577" lon="144.97381000000001">
    <ele>23.650000000000002</ele>
   </trkpt>
   <trkpt lat="-37.815720000000006" lon="144.97383000000002">
    <ele>24.290000000000003</ele>
   </trkpt>
   <trkpt lat="-37.81566" lon="144.97410000000002">
    <ele>24.85</ele>
   </trkpt>
   <trkpt lat="-37.8157" lon="144.97413">
    <ele>24.71</ele>
   </trkpt>
   <trkpt lat="-37.81573" lon="144.97421">
    <ele>24.610000000000003</ele>
   </trkpt>
   <trkpt lat="-37.815858015128875" lon="144.97515599342577">
    <ele>20.69</ele>
   </trkpt>
   <trkpt lat="-37.815986022692485" lon="144.9761019901323">
    <ele>17.300000000000004</ele>
   </trkpt>
   <trkpt lat="-37.81611402269078" lon="144.97704799011942">
    <ele>15.82</ele>
   </trkpt>
   <trkpt lat="-37.8162420151237" lon="144.97799399338697">
    <ele>15.55</ele>
   </trkpt>
   <trkpt lat="-37.816370000000006" lon="144.97894000000002">
    <ele>15.21</ele>
   </trkpt>
   <trkpt lat="-37.81696999997145" lon="144.97884000164447">
    <ele>14.270000000000001</ele>
   </trkpt>
   <trkpt lat="-37.817569999858364" lon="144.9787400016633">
    <ele>12.770000000000001</ele>
   </trkpt>
   <trkpt lat="-37.81817" lon="144.97864">
    <ele>12.5</ele>
   </trkpt>
   <trkpt lat="-37.81823" lon="144.97865000000002">
    <ele>12.58</ele>
   </trkpt>
   <trkpt lat="-37.818310000000004" lon="144.97869">
    <ele>12.58</ele>
   </trkpt>
   <trkpt lat="-37.81846" lon="144.97873">
    <ele>12.540000000000001</ele>
   </trkpt>
   <trkpt lat="-37.81855" lon="144.97877000000003">
    <ele>12.540000000000001</ele>
   </trkpt>
   <trkpt lat="-37.81868" lon="144.97886000000003">
    <ele>12.3</ele>
   </trkpt>
   <trkpt lat="-37.81875" lon="144.97895000000003">
    <ele>12.3</ele>
   </trkpt>
   <trkpt lat="-37.819185006681685" lon="144.97967498720942">
    <ele>12.120000000000001</ele>
   </trkpt>
   <trkpt lat="-37.81962000891988" lon="144.98039998296395">
    <ele>12.06</ele>
   </trkpt>
   <trkpt lat="-37.82005500671445" lon="144.9811249872637">
    <ele>12.33</ele>
   </trkpt>
   <trkpt lat="-37.82049000000001" lon="144.98185">
    <ele>12.58</ele>
   </trkpt>
   <trkpt lat="-37.820820000000005" lon="144.98233000000002">
    <ele>12.560000000000002</ele>
   </trkpt>
   <trkpt lat="-37.82040000000001" lon="144.98271000000003">
    <ele>8.59</ele>
   </trkpt>
   <trkpt lat="-37.82054" lon="144.98308">
    <ele>11.61</ele>
   </trkpt>
   <trkpt lat="-37.820600000000006" lon="144.98334">
    <ele>14.59</ele>
   </trkpt>
   <trkpt lat="-37.82059" lon="144.98359000000002">
    <ele>19.62</ele>
   </trkpt>
   <trkpt lat="-37.82054" lon="144.98386000000002">
    <ele>22.160000000000004</ele>
   </trkpt>
   <trkpt lat="-37.82049000000001" lon="144.98399">
    <ele>21.130000000000003</ele>
   </trkpt>
   <trkpt lat="-37.82040000000001" lon="144.98412000000002">
    <ele>21.820000000000004</ele>
   </trkpt>
   <trkpt lat="-37.820280000000004" lon="144.98423000000003">
    <ele>24.48</ele>
   </trkpt>
   <trkpt lat="-37.8202" lon="144.98428">
    <ele>25.890000000000004</ele>
   </trkpt>
   <trkpt lat="-37.820060000000005" lon="144.98434">
    <ele>28.66</ele>
   </trkpt>
   <trkpt lat="-37.81976" lon="144.98426">
    <ele>30.080000000000002</ele>
   </trkpt>
   <trkpt lat="-37.81964" lon="144.98416">
    <ele>23.610000000000003</ele>
   </trkpt>
   <trkpt lat="-37.81958" lon="144.98406">
    <ele>23.610000000000003</ele>
   </trkpt>
  </trkseg>
 </trk>
</gpx>
