<?xml version="1.0" encoding="UTF-8"?>
 <gpx creator="Garmin Connect" version="1.1"
	 xsi:schemaLocation="http://www.topografix.com/GPX/1/1 http://www.topografix.com/GPX/11.xsd"
	 xmlns:ns3="http://www.garmin.com/xmlschemas/TrackPointExtension/v1"
	 xmlns="http://www.topografix.com/GPX/1/1"
	 xmlns:xsi="http://www.w3.org/2001/XMLSchema-instance" xmlns:ns2="http://www.garmin.com/xmlschemas/GpxExtensions/v3">
	 <metadata>
		<name>Estra Firenze Marathon 2025 - 42.195 km</name>
		 <link href="https://www.goandrace.com">
		 <text>Garmin Connect</text>
		 </link>
	 <time>2026-08-23T23:03:26</time>
	 </metadata>
	 <trk>
		 <name>Estra Firenze Marathon 2025 - 42.195 km</name>
		 <trkseg>
			 <trkpt lat="43.773323" lon="11.255386">
				 <ele>58.5</ele>
			 </trkpt>
			 <trkpt lat="43.773764" lon="11.255507">
				 <ele>58.7</ele>
			 </trkpt>
			 <trkpt lat="43.77381" lon="11.25552">
				 <ele>59</ele>
			 </trkpt>
			 <trkpt lat="43.774244" lon="11.255644">
				 <ele>59.1</ele>
			 </trkpt>
			 <trkpt lat="43.774508" lon="11.255744">
				 <ele>59</ele>
			 </trkpt>
			 <trkpt lat="43.774781" lon="11.255877">
				 <ele>59</ele>
			 </trkpt>
			 <trkpt lat="43.775187" lon="11.256143">
				 <ele>59.7</ele>
			 </trkpt>
			 <trkpt lat="43.77535" lon="11.25625">
				 <ele>60.2</ele>
			 </trkpt>
			 <trkpt lat="43.775742" lon="11.256555">
				 <ele>60.5</ele>
			 </trkpt>
			 <trkpt lat="43.776134" lon="11.256859">
				 <ele>59.8</ele>
			 </trkpt>
			 <trkpt lat="43.776527" lon="11.257164">
				 <ele>59.1</ele>
			 </trkpt>
			 <trkpt lat="43.776919" lon="11.257468">
				 <ele>58.5</ele>
			 </trkpt>
			 <trkpt lat="43.777311" lon="11.257773">
				 <ele>58.1</ele>
			 </trkpt>
			 <trkpt lat="43.777667" lon="11.258049">
				 <ele>57.5</ele>
			 </trkpt>
			 <trkpt lat="43.777789" lon="11.258189">
				 <ele>57</ele>
			 </trkpt>
			 <trkpt lat="43.777819" lon="11.258356">
				 <ele>56.8</ele>
			 </trkpt>
			 <trkpt lat="43.777917" lon="11.258499">
				 <ele>56.8</ele>
			 </trkpt>
			 <trkpt lat="43.778045" lon="11.258632">
				 <ele>56.6</ele>
			 </trkpt>
			 <trkpt lat="43.778058" lon="11.258771">
				 <ele>56.2</ele>
			 </trkpt>
			 <trkpt lat="43.777889" lon="11.259172">
				 <ele>55.7</ele>
			 </trkpt>
			 <trkpt lat="43.777597" lon="11.259172">
				 <ele>55.5</ele>
			 </trkpt>
			 <trkpt lat="43.777361" lon="11.259703">
				 <ele>55.3</ele>
			 </trkpt>
			 <trkpt lat="43.777144" lon="11.260193">
				 <ele>55.3</ele>
			 </trkpt>
			 <trkpt lat="43.77698" lon="11.260528">
				 <ele>55.5</ele>
			 </trkpt>
			 <trkpt lat="43.776951" lon="11.260585">
				 <ele>55.3</ele>
			 </trkpt>
			 <trkpt lat="43.776884" lon="11.260688">
				 <ele>54.9</ele>
			 </trkpt>
			 <trkpt lat="43.776836" lon="11.260727">
				 <ele>54.8</ele>
			 </trkpt>
			 <trkpt lat="43.776707" lon="11.260916">
				 <ele>54.6</ele>
			 </trkpt>
			 <trkpt lat="43.776441" lon="11.261418">
				 <ele>54.7</ele>
			 </trkpt>
			 <trkpt lat="43.776174" lon="11.261919">
				 <ele>55</ele>
			 </trkpt>
			 <trkpt lat="43.776024" lon="11.262203">
				 <ele>55.2</ele>
			 </trkpt>
			 <trkpt lat="43.775767" lon="11.262714">
				 <ele>55.2</ele>
			 </trkpt>
			 <trkpt lat="43.775509" lon="11.263225">
				 <ele>55.4</ele>
			 </trkpt>
			 <trkpt lat="43.775252" lon="11.263736">
				 <ele>55.4</ele>
			 </trkpt>
			 <trkpt lat="43.774995" lon="11.264247">
				 <ele>55</ele>
			 </trkpt>
			 <trkpt lat="43.774808" lon="11.26462">
				 <ele>55.3</ele>
			 </trkpt>
			 <trkpt lat="43.774562" lon="11.265141">
				 <ele>55.8</ele>
			 </trkpt>
			 <trkpt lat="43.774316" lon="11.265663">
				 <ele>56.2</ele>
			 </trkpt>
			 <trkpt lat="43.77407" lon="11.266184">
				 <ele>56.2</ele>
			 </trkpt>
			 <trkpt lat="43.773824" lon="11.266705">
				 <ele>56</ele>
			 </trkpt>
			 <trkpt lat="43.773578" lon="11.267227">
				 <ele>56.1</ele>
			 </trkpt>
			 <trkpt lat="43.773332" lon="11.267748">
				 <ele>56.4</ele>
			 </trkpt>
			 <trkpt lat="43.773696" lon="11.268115">
				 <ele>56.7</ele>
			 </trkpt>
			 <trkpt lat="43.774073" lon="11.268455">
				 <ele>56.8</ele>
			 </trkpt>
			 <trkpt lat="43.77445" lon="11.268795">
				 <ele>56.8</ele>
			 </trkpt>
			 <trkpt lat="43.774827" lon="11.269135">
				 <ele>57</ele>
			 </trkpt>
			 <trkpt lat="43.775203" lon="11.269475">
				 <ele>56.9</ele>
			 </trkpt>
			 <trkpt lat="43.775482" lon="11.269727">
				 <ele>56.6</ele>
			 </trkpt>
			 <trkpt lat="43.775856" lon="11.26938">
				 <ele>56.2</ele>
			 </trkpt>
			 <trkpt lat="43.776229" lon="11.269034">
				 <ele>55.9</ele>
			 </trkpt>
			 <trkpt lat="43.776549" lon="11.268737">
				 <ele>55.8</ele>
			 </trkpt>
			 <trkpt lat="43.776873" lon="11.268306">
				 <ele>55.5</ele>
			 </trkpt>
			 <trkpt lat="43.777198" lon="11.267875">
				 <ele>55.5</ele>
			 </trkpt>
			 <trkpt lat="43.777275" lon="11.267772">
				 <ele>55.6</ele>
			 </trkpt>
			 <trkpt lat="43.777686" lon="11.267521">
				 <ele>55.8</ele>
			 </trkpt>
			 <trkpt lat="43.778098" lon="11.26727">
				 <ele>56.3</ele>
			 </trkpt>
			 <trkpt lat="43.778245" lon="11.26718">
				 <ele>56.6</ele>
			 </trkpt>
			 <trkpt lat="43.778619" lon="11.266833">
				 <ele>56.9</ele>
			 </trkpt>
			 <trkpt lat="43.778992" lon="11.266486">
				 <ele>57.3</ele>
			 </trkpt>
			 <trkpt lat="43.779365" lon="11.266139">
				 <ele>57.8</ele>
			 </trkpt>
			 <trkpt lat="43.779739" lon="11.265791">
				 <ele>58.6</ele>
			 </trkpt>
			 <trkpt lat="43.780112" lon="11.265444">
				 <ele>59.2</ele>
			 </trkpt>
			 <trkpt lat="43.780485" lon="11.265097">
				 <ele>59.5</ele>
			 </trkpt>
			 <trkpt lat="43.780512" lon="11.265072">
				 <ele>59.8</ele>
			 </trkpt>
			 <trkpt lat="43.780885" lon="11.264724">
				 <ele>60.2</ele>
			 </trkpt>
			 <trkpt lat="43.781258" lon="11.264375">
				 <ele>60.5</ele>
			 </trkpt>
			 <trkpt lat="43.78163" lon="11.264027">
				 <ele>60.6</ele>
			 </trkpt>
			 <trkpt lat="43.782003" lon="11.263678">
				 <ele>60.9</ele>
			 </trkpt>
			 <trkpt lat="43.782376" lon="11.26333">
				 <ele>61.4</ele>
			 </trkpt>
			 <trkpt lat="43.782624" lon="11.263098">
				 <ele>61.8</ele>
			 </trkpt>
			 <trkpt lat="43.782989" lon="11.262735">
				 <ele>61.9</ele>
			 </trkpt>
			 <trkpt lat="43.783202" lon="11.262524">
				 <ele>61.4</ele>
			 </trkpt>
			 <trkpt lat="43.783415" lon="11.261975">
				 <ele>61.2</ele>
			 </trkpt>
			 <trkpt lat="43.78356" lon="11.2616">
				 <ele>61.1</ele>
			 </trkpt>
			 <trkpt lat="43.783701" lon="11.261031">
				 <ele>60.7</ele>
			 </trkpt>
			 <trkpt lat="43.783565" lon="11.260437">
				 <ele>60.3</ele>
			 </trkpt>
			 <trkpt lat="43.78343" lon="11.259843">
				 <ele>59.5</ele>
			 </trkpt>
			 <trkpt lat="43.783295" lon="11.259249">
				 <ele>58.8</ele>
			 </trkpt>
			 <trkpt lat="43.78316" lon="11.258655">
				 <ele>58.2</ele>
			 </trkpt>
			 <trkpt lat="43.783025" lon="11.258061">
				 <ele>57.6</ele>
			 </trkpt>
			 <trkpt lat="43.782889" lon="11.257467">
				 <ele>56.9</ele>
			 </trkpt>
			 <trkpt lat="43.782754" lon="11.256873">
				 <ele>56.5</ele>
			 </trkpt>
			 <trkpt lat="43.782619" lon="11.256279">
				 <ele>56.5</ele>
			 </trkpt>
			 <trkpt lat="43.782484" lon="11.255685">
				 <ele>56</ele>
			 </trkpt>
			 <trkpt lat="43.782349" lon="11.255091">
				 <ele>55.6</ele>
			 </trkpt>
			 <trkpt lat="43.782213" lon="11.254497">
				 <ele>55.1</ele>
			 </trkpt>
			 <trkpt lat="43.782078" lon="11.253903">
				 <ele>54.4</ele>
			 </trkpt>
			 <trkpt lat="43.78195" lon="11.25334">
				 <ele>53.9</ele>
			 </trkpt>
			 <trkpt lat="43.78181" lon="11.25295">
				 <ele>53.5</ele>
			 </trkpt>
			 <trkpt lat="43.7811" lon="11.25215">
				 <ele>52.9</ele>
			 </trkpt>
			 <trkpt lat="43.78089" lon="11.2515">
				 <ele>52</ele>
			 </trkpt>
			 <trkpt lat="43.779746" lon="11.247525">
				 <ele>51.5</ele>
			 </trkpt>
			 <trkpt lat="43.77968" lon="11.24565">
				 <ele>50.7</ele>
			 </trkpt>
			 <trkpt lat="43.77948" lon="11.24476">
				 <ele>49.7</ele>
			 </trkpt>
			 <trkpt lat="43.77873" lon="11.2422">
				 <ele>48.9</ele>
			 </trkpt>
			 <trkpt lat="43.77828" lon="11.24069">
				 <ele>48</ele>
			 </trkpt>
			 <trkpt lat="43.77821" lon="11.23964">
				 <ele>47.5</ele>
			 </trkpt>
			 <trkpt lat="43.778565" lon="11.239258">
				 <ele>47.1</ele>
			 </trkpt>
			 <trkpt lat="43.778921" lon="11.238877">
				 <ele>46.7</ele>
			 </trkpt>
			 <trkpt lat="43.779276" lon="11.238495">
				 <ele>46.5</ele>
			 </trkpt>
			 <trkpt lat="43.779632" lon="11.238114">
				 <ele>46.5</ele>
			 </trkpt>
			 <trkpt lat="43.779987" lon="11.237732">
				 <ele>46.5</ele>
			 </trkpt>
			 <trkpt lat="43.780343" lon="11.237351">
				 <ele>46.1</ele>
			 </trkpt>
			 <trkpt lat="43.780698" lon="11.236969">
				 <ele>45.7</ele>
			 </trkpt>
			 <trkpt lat="43.781053" lon="11.236588">
				 <ele>45.6</ele>
			 </trkpt>
			 <trkpt lat="43.781409" lon="11.236206">
				 <ele>45.7</ele>
			 </trkpt>
			 <trkpt lat="43.781764" lon="11.235825">
				 <ele>45.5</ele>
			 </trkpt>
			 <trkpt lat="43.781734" lon="11.235197">
				 <ele>45.3</ele>
			 </trkpt>
			 <trkpt lat="43.781697" lon="11.234576">
				 <ele>45.1</ele>
			 </trkpt>
			 <trkpt lat="43.781684" lon="11.234362">
				 <ele>44.8</ele>
			 </trkpt>
			 <trkpt lat="43.781706" lon="11.23374">
				 <ele>44.5</ele>
			 </trkpt>
			 <trkpt lat="43.781728" lon="11.233118">
				 <ele>44.1</ele>
			 </trkpt>
			 <trkpt lat="43.781745" lon="11.232649">
				 <ele>43.7</ele>
			 </trkpt>
			 <trkpt lat="43.781847" lon="11.232043">
				 <ele>43.5</ele>
			 </trkpt>
			 <trkpt lat="43.7819" lon="11.23173">
				 <ele>43.3</ele>
			 </trkpt>
			 <trkpt lat="43.78229" lon="11.23063">
				 <ele>43.2</ele>
			 </trkpt>
			 <trkpt lat="43.78454" lon="11.22589">
				 <ele>43.2</ele>
			 </trkpt>
			 <trkpt lat="43.784796" lon="11.225378">
				 <ele>43.5</ele>
			 </trkpt>
			 <trkpt lat="43.785053" lon="11.224867">
				 <ele>43.9</ele>
			 </trkpt>
			 <trkpt lat="43.785123" lon="11.224728">
				 <ele>44.2</ele>
			 </trkpt>
			 <trkpt lat="43.785419" lon="11.2251">
				 <ele>44.5</ele>
			 </trkpt>
			 <trkpt lat="43.785694" lon="11.225592">
				 <ele>44.6</ele>
			 </trkpt>
			 <trkpt lat="43.785897" lon="11.225953">
				 <ele>44.8</ele>
			 </trkpt>
			 <trkpt lat="43.786101" lon="11.226508">
				 <ele>45</ele>
			 </trkpt>
			 <trkpt lat="43.786116" lon="11.226548">
				 <ele>45.1</ele>
			 </trkpt>
			 <trkpt lat="43.786212" lon="11.226268">
				 <ele>45.2</ele>
			 </trkpt>
			 <trkpt lat="43.785983" lon="11.225732">
				 <ele>45</ele>
			 </trkpt>
			 <trkpt lat="43.785938" lon="11.225627">
				 <ele>44.6</ele>
			 </trkpt>
			 <trkpt lat="43.785638" lon="11.225162">
				 <ele>44.3</ele>
			 </trkpt>
			 <trkpt lat="43.785338" lon="11.224698">
				 <ele>44</ele>
			 </trkpt>
			 <trkpt lat="43.785083" lon="11.224303">
				 <ele>43.6</ele>
			 </trkpt>
			 <trkpt lat="43.78478" lon="11.223842">
				 <ele>43.3</ele>
			 </trkpt>
			 <trkpt lat="43.784489" lon="11.223396">
				 <ele>43</ele>
			 </trkpt>
			 <trkpt lat="43.784298" lon="11.22313">
				 <ele>42.7</ele>
			 </trkpt>
			 <trkpt lat="43.783946" lon="11.222743">
				 <ele>42.7</ele>
			 </trkpt>
			 <trkpt lat="43.783819" lon="11.222603">
				 <ele>42.9</ele>
			 </trkpt>
			 <trkpt lat="43.783464" lon="11.222222">
				 <ele>43</ele>
			 </trkpt>
			 <trkpt lat="43.783108" lon="11.22184">
				 <ele>43.3</ele>
			 </trkpt>
			 <trkpt lat="43.783056" lon="11.221785">
				 <ele>43.6</ele>
			 </trkpt>
			 <trkpt lat="43.782703" lon="11.2214">
				 <ele>43.9</ele>
			 </trkpt>
			 <trkpt lat="43.782526" lon="11.221208">
				 <ele>44.2</ele>
			 </trkpt>
			 <trkpt lat="43.782299" lon="11.220996">
				 <ele>44.8</ele>
			 </trkpt>
			 <trkpt lat="43.782135" lon="11.220716">
				 <ele>45.5</ele>
			 </trkpt>
			 <trkpt lat="43.78211" lon="11.22031">
				 <ele>45.6</ele>
			 </trkpt>
			 <trkpt lat="43.78253" lon="11.21918">
				 <ele>46.1</ele>
			 </trkpt>
			 <trkpt lat="43.78304" lon="11.21811">
				 <ele>46.4</ele>
			 </trkpt>
			 <trkpt lat="43.78461" lon="11.21483">
				 <ele>46.5</ele>
			 </trkpt>
			 <trkpt lat="43.78585" lon="11.21283">
				 <ele>46.5</ele>
			 </trkpt>
			 <trkpt lat="43.78722" lon="11.21065">
				 <ele>46.5</ele>
			 </trkpt>
			 <trkpt lat="43.7888" lon="11.20809">
				 <ele>46.5</ele>
			 </trkpt>
			 <trkpt lat="43.78952" lon="11.20635">
				 <ele>46.6</ele>
			 </trkpt>
			 <trkpt lat="43.78975" lon="11.205815">
				 <ele>46.7</ele>
			 </trkpt>
			 <trkpt lat="43.789954" lon="11.205337">
				 <ele>46.5</ele>
			 </trkpt>
			 <trkpt lat="43.790105" lon="11.20475">
				 <ele>46.5</ele>
			 </trkpt>
			 <trkpt lat="43.790214" lon="11.204323">
				 <ele>46.7</ele>
			 </trkpt>
			 <trkpt lat="43.790314" lon="11.203715">
				 <ele>46.9</ele>
			 </trkpt>
			 <trkpt lat="43.790401" lon="11.203183">
				 <ele>46.9</ele>
			 </trkpt>
			 <trkpt lat="43.790481" lon="11.20257">
				 <ele>47</ele>
			 </trkpt>
			 <trkpt lat="43.790561" lon="11.201957">
				 <ele>47.3</ele>
			 </trkpt>
			 <trkpt lat="43.79062" lon="11.20151">
				 <ele>47.5</ele>
			 </trkpt>
			 <trkpt lat="43.79056" lon="11.19941">
				 <ele>47.4</ele>
			 </trkpt>
			 <trkpt lat="43.79041" lon="11.19853">
				 <ele>47.1</ele>
			 </trkpt>
			 <trkpt lat="43.79016" lon="11.1985">
				 <ele>47.3</ele>
			 </trkpt>
			 <trkpt lat="43.78982" lon="11.19907">
				 <ele>46.7</ele>
			 </trkpt>
			 <trkpt lat="43.78876" lon="11.20134">
				 <ele>46.5</ele>
			 </trkpt>
			 <trkpt lat="43.78671" lon="11.20548">
				 <ele>46.8</ele>
			 </trkpt>
			 <trkpt lat="43.78516" lon="11.2089">
				 <ele>46.6</ele>
			 </trkpt>
			 <trkpt lat="43.78169" lon="11.21634">
				 <ele>46.6</ele>
			 </trkpt>
			 <trkpt lat="43.78112" lon="11.21786">
				 <ele>46.9</ele>
			 </trkpt>
			 <trkpt lat="43.7795" lon="11.22189">
				 <ele>47.2</ele>
			 </trkpt>
			 <trkpt lat="43.77799" lon="11.22607">
				 <ele>47.6</ele>
			 </trkpt>
			 <trkpt lat="43.777833" lon="11.226654">
				 <ele>48.2</ele>
			 </trkpt>
			 <trkpt lat="43.777676" lon="11.227237">
				 <ele>48.8</ele>
			 </trkpt>
			 <trkpt lat="43.77752" lon="11.227821">
				 <ele>49.1</ele>
			 </trkpt>
			 <trkpt lat="43.777393" lon="11.228292">
				 <ele>50.1</ele>
			 </trkpt>
			 <trkpt lat="43.777813" lon="11.228431">
				 <ele>50.7</ele>
			 </trkpt>
			 <trkpt lat="43.777988" lon="11.227857">
				 <ele>50.8</ele>
			 </trkpt>
			 <trkpt lat="43.778163" lon="11.227283">
				 <ele>51.1</ele>
			 </trkpt>
			 <trkpt lat="43.778337" lon="11.226709">
				 <ele>51.5</ele>
			 </trkpt>
			 <trkpt lat="43.778512" lon="11.226135">
				 <ele>51.5</ele>
			 </trkpt>
			 <trkpt lat="43.778563" lon="11.225967">
				 <ele>51.5</ele>
			 </trkpt>
			 <trkpt lat="43.778742" lon="11.225396">
				 <ele>51.3</ele>
			 </trkpt>
			 <trkpt lat="43.778921" lon="11.224825">
				 <ele>51.4</ele>
			 </trkpt>
			 <trkpt lat="43.7791" lon="11.224253">
				 <ele>51.3</ele>
			 </trkpt>
			 <trkpt lat="43.779279" lon="11.223682">
				 <ele>51.1</ele>
			 </trkpt>
			 <trkpt lat="43.77931" lon="11.223582">
				 <ele>50.9</ele>
			 </trkpt>
			 <trkpt lat="43.779505" lon="11.22302">
				 <ele>50.8</ele>
			 </trkpt>
			 <trkpt lat="43.779699" lon="11.222458">
				 <ele>50.8</ele>
			 </trkpt>
			 <trkpt lat="43.779802" lon="11.22216">
				 <ele>50.8</ele>
			 </trkpt>
			 <trkpt lat="43.780032" lon="11.221625">
				 <ele>50.6</ele>
			 </trkpt>
			 <trkpt lat="43.780068" lon="11.221541">
				 <ele>49.9</ele>
			 </trkpt>
			 <trkpt lat="43.780231" lon="11.221182">
				 <ele>49.2</ele>
			 </trkpt>
			 <trkpt lat="43.78042" lon="11.220616">
				 <ele>48.6</ele>
			 </trkpt>
			 <trkpt lat="43.780608" lon="11.220051">
				 <ele>48.3</ele>
			 </trkpt>
			 <trkpt lat="43.780796" lon="11.219485">
				 <ele>48.2</ele>
			 </trkpt>
			 <trkpt lat="43.780985" lon="11.21892">
				 <ele>48</ele>
			 </trkpt>
			 <trkpt lat="43.781173" lon="11.218354">
				 <ele>47.7</ele>
			 </trkpt>
			 <trkpt lat="43.781362" lon="11.217789">
				 <ele>47.1</ele>
			 </trkpt>
			 <trkpt lat="43.78155" lon="11.217223">
				 <ele>47.1</ele>
			 </trkpt>
			 <trkpt lat="43.781628" lon="11.216989">
				 <ele>47.1</ele>
			 </trkpt>
			 <trkpt lat="43.78515" lon="11.20942">
				 <ele>46.7</ele>
			 </trkpt>
			 <trkpt lat="43.78607" lon="11.21014">
				 <ele>46.9</ele>
			 </trkpt>
			 <trkpt lat="43.78694" lon="11.21098">
				 <ele>47.3</ele>
			 </trkpt>
			 <trkpt lat="43.78474" lon="11.21463">
				 <ele>47.5</ele>
			 </trkpt>
			 <trkpt lat="43.78447" lon="11.21508">
				 <ele>47.4</ele>
			 </trkpt>
			 <trkpt lat="43.78284" lon="11.21853">
				 <ele>47.1</ele>
			 </trkpt>
			 <trkpt lat="43.78195" lon="11.22013">
				 <ele>46.9</ele>
			 </trkpt>
			 <trkpt lat="43.7819" lon="11.22018">
				 <ele>46.8</ele>
			 </trkpt>
			 <trkpt lat="43.781872" lon="11.22026">
				 <ele>47.2</ele>
			 </trkpt>
			 <trkpt lat="43.781877" lon="11.220326">
				 <ele>47.1</ele>
			 </trkpt>
			 <trkpt lat="43.781816" lon="11.220576">
				 <ele>46.6</ele>
			 </trkpt>
			 <trkpt lat="43.781791" lon="11.220679">
				 <ele>46.8</ele>
			 </trkpt>
			 <trkpt lat="43.781671" lon="11.220943">
				 <ele>46.9</ele>
			 </trkpt>
			 <trkpt lat="43.780717" lon="11.222931">
				 <ele>47</ele>
			 </trkpt>
			 <trkpt lat="43.780676" lon="11.223023">
				 <ele>47.1</ele>
			 </trkpt>
			 <trkpt lat="43.779737" lon="11.225338">
				 <ele>47.2</ele>
			 </trkpt>
			 <trkpt lat="43.777991" lon="11.229674">
				 <ele>47.2</ele>
			 </trkpt>
			 <trkpt lat="43.77784" lon="11.230071">
				 <ele>47.1</ele>
			 </trkpt>
			 <trkpt lat="43.777637" lon="11.230581">
				 <ele>46.9</ele>
			 </trkpt>
			 <trkpt lat="43.777617" lon="11.230654">
				 <ele>46.5</ele>
			 </trkpt>
			 <trkpt lat="43.777604" lon="11.230738">
				 <ele>45.9</ele>
			 </trkpt>
			 <trkpt lat="43.777603" lon="11.230818">
				 <ele>45.8</ele>
			 </trkpt>
			 <trkpt lat="43.777619" lon="11.230946">
				 <ele>45.5</ele>
			 </trkpt>
			 <trkpt lat="43.777661" lon="11.231064">
				 <ele>45.2</ele>
			 </trkpt>
			 <trkpt lat="43.777725" lon="11.231196">
				 <ele>44.8</ele>
			 </trkpt>
			 <trkpt lat="43.777762" lon="11.231273">
				 <ele>44.5</ele>
			 </trkpt>
			 <trkpt lat="43.777794" lon="11.231351">
				 <ele>44.1</ele>
			 </trkpt>
			 <trkpt lat="43.777819" lon="11.231381">
				 <ele>43.6</ele>
			 </trkpt>
			 <trkpt lat="43.777849" lon="11.231403">
				 <ele>43.4</ele>
			 </trkpt>
			 <trkpt lat="43.777888" lon="11.231415">
				 <ele>43.2</ele>
			 </trkpt>
			 <trkpt lat="43.777915" lon="11.231415">
				 <ele>43.1</ele>
			 </trkpt>
			 <trkpt lat="43.777949" lon="11.231403">
				 <ele>43</ele>
			 </trkpt>
			 <trkpt lat="43.778197" lon="11.231498">
				 <ele>42.9</ele>
			 </trkpt>
			 <trkpt lat="43.778226" lon="11.23153">
				 <ele>42.9</ele>
			 </trkpt>
			 <trkpt lat="43.778321" lon="11.23165">
				 <ele>42.9</ele>
			 </trkpt>
			 <trkpt lat="43.77836" lon="11.23171">
				 <ele>42.9</ele>
			 </trkpt>
			 <trkpt lat="43.778398" lon="11.231788">
				 <ele>42.9</ele>
			 </trkpt>
			 <trkpt lat="43.778423" lon="11.231874">
				 <ele>42.9</ele>
			 </trkpt>
			 <trkpt lat="43.778433" lon="11.232029">
				 <ele>42.9</ele>
			 </trkpt>
			 <trkpt lat="43.778406" lon="11.232246">
				 <ele>42.9</ele>
			 </trkpt>
			 <trkpt lat="43.778389" lon="11.232307">
				 <ele>42.9</ele>
			 </trkpt>
			 <trkpt lat="43.778347" lon="11.232417">
				 <ele>42.9</ele>
			 </trkpt>
			 <trkpt lat="43.778292" lon="11.232506">
				 <ele>42.9</ele>
			 </trkpt>
			 <trkpt lat="43.778225" lon="11.232578">
				 <ele>43</ele>
			 </trkpt>
			 <trkpt lat="43.778052" lon="11.232718">
				 <ele>43.1</ele>
			 </trkpt>
			 <trkpt lat="43.778008" lon="11.23278">
				 <ele>43.3</ele>
			 </trkpt>
			 <trkpt lat="43.777967" lon="11.232893">
				 <ele>43.5</ele>
			 </trkpt>
			 <trkpt lat="43.777951" lon="11.232952">
				 <ele>43.6</ele>
			 </trkpt>
			 <trkpt lat="43.777919" lon="11.233231">
				 <ele>43.8</ele>
			 </trkpt>
			 <trkpt lat="43.777912" lon="11.233358">
				 <ele>44.1</ele>
			 </trkpt>
			 <trkpt lat="43.777919" lon="11.233545">
				 <ele>44.3</ele>
			 </trkpt>
			 <trkpt lat="43.777943" lon="11.233608">
				 <ele>44.5</ele>
			 </trkpt>
			 <trkpt lat="43.777977" lon="11.23365">
				 <ele>44.6</ele>
			 </trkpt>
			 <trkpt lat="43.778031" lon="11.233698">
				 <ele>44.8</ele>
			 </trkpt>
			 <trkpt lat="43.778175" lon="11.233768">
				 <ele>44.9</ele>
			 </trkpt>
			 <trkpt lat="43.778222" lon="11.233817">
				 <ele>45</ele>
			 </trkpt>
			 <trkpt lat="43.778267" lon="11.233913">
				 <ele>45</ele>
			 </trkpt>
			 <trkpt lat="43.778283" lon="11.23397">
				 <ele>45</ele>
			 </trkpt>
			 <trkpt lat="43.7783" lon="11.23406">
				 <ele>45</ele>
			 </trkpt>
			 <trkpt lat="43.7783" lon="11.234107">
				 <ele>45</ele>
			 </trkpt>
			 <trkpt lat="43.778289" lon="11.234148">
				 <ele>45</ele>
			 </trkpt>
			 <trkpt lat="43.778228" lon="11.234263">
				 <ele>45</ele>
			 </trkpt>
			 <trkpt lat="43.778186" lon="11.234315">
				 <ele>44.9</ele>
			 </trkpt>
			 <trkpt lat="43.777987" lon="11.234452">
				 <ele>44.8</ele>
			 </trkpt>
			 <trkpt lat="43.777929" lon="11.234495">
				 <ele>44.6</ele>
			 </trkpt>
			 <trkpt lat="43.777845" lon="11.234572">
				 <ele>44.6</ele>
			 </trkpt>
			 <trkpt lat="43.777798" lon="11.234617">
				 <ele>44.6</ele>
			 </trkpt>
			 <trkpt lat="43.777578" lon="11.234788">
				 <ele>44.6</ele>
			 </trkpt>
			 <trkpt lat="43.777431" lon="11.234996">
				 <ele>44.6</ele>
			 </trkpt>
			 <trkpt lat="43.777308" lon="11.235318">
				 <ele>44.7</ele>
			 </trkpt>
			 <trkpt lat="43.776928" lon="11.236653">
				 <ele>44.8</ele>
			 </trkpt>
			 <trkpt lat="43.776911" lon="11.236719">
				 <ele>44.9</ele>
			 </trkpt>
			 <trkpt lat="43.776901" lon="11.236765">
				 <ele>45</ele>
			 </trkpt>
			 <trkpt lat="43.776769" lon="11.236914">
				 <ele>44.8</ele>
			 </trkpt>
			 <trkpt lat="43.776388" lon="11.236584">
				 <ele>44.6</ele>
			 </trkpt>
			 <trkpt lat="43.776012" lon="11.236259">
				 <ele>44.3</ele>
			 </trkpt>
			 <trkpt lat="43.775857" lon="11.235974">
				 <ele>43.8</ele>
			 </trkpt>
			 <trkpt lat="43.775689" lon="11.235527">
				 <ele>43.5</ele>
			 </trkpt>
			 <trkpt lat="43.775519" lon="11.23495">
				 <ele>43.5</ele>
			 </trkpt>
			 <trkpt lat="43.775493" lon="11.234861">
				 <ele>43.5</ele>
			 </trkpt>
			 <trkpt lat="43.77507" lon="11.23465">
				 <ele>43.5</ele>
			 </trkpt>
			 <trkpt lat="43.774735" lon="11.234483">
				 <ele>43.6</ele>
			 </trkpt>
			 <trkpt lat="43.774305" lon="11.234301">
				 <ele>43.4</ele>
			 </trkpt>
			 <trkpt lat="43.77384" lon="11.234358">
				 <ele>44.5</ele>
			 </trkpt>
			 <trkpt lat="43.77362" lon="11.23439">
				 <ele>45.4</ele>
			 </trkpt>
			 <trkpt lat="43.77315" lon="11.23609">
				 <ele>46.9</ele>
			 </trkpt>
			 <trkpt lat="43.77241" lon="11.23885">
				 <ele>48.9</ele>
			 </trkpt>
			 <trkpt lat="43.77111" lon="11.24282">
				 <ele>50.7</ele>
			 </trkpt>
			 <trkpt lat="43.76907" lon="11.24848">
				 <ele>52.6</ele>
			 </trkpt>
			 <trkpt lat="43.76859" lon="11.25001">
				 <ele>54.3</ele>
			 </trkpt>
			 <trkpt lat="43.768175" lon="11.249771">
				 <ele>55.9</ele>
			 </trkpt>
			 <trkpt lat="43.76776" lon="11.249532">
				 <ele>57.4</ele>
			 </trkpt>
			 <trkpt lat="43.767344" lon="11.249293">
				 <ele>58.4</ele>
			 </trkpt>
			 <trkpt lat="43.766929" lon="11.249054">
				 <ele>59.8</ele>
			 </trkpt>
			 <trkpt lat="43.766514" lon="11.248815">
				 <ele>59.9</ele>
			 </trkpt>
			 <trkpt lat="43.766127" lon="11.248592">
				 <ele>60.7</ele>
			 </trkpt>
			 <trkpt lat="43.765707" lon="11.248367">
				 <ele>61.2</ele>
			 </trkpt>
			 <trkpt lat="43.765288" lon="11.248142">
				 <ele>61.4</ele>
			 </trkpt>
			 <trkpt lat="43.765228" lon="11.24811">
				 <ele>61.6</ele>
			 </trkpt>
			 <trkpt lat="43.76516" lon="11.24825">
				 <ele>61.6</ele>
			 </trkpt>
			 <trkpt lat="43.765406" lon="11.248771">
				 <ele>61.6</ele>
			 </trkpt>
			 <trkpt lat="43.765653" lon="11.249292">
				 <ele>61.6</ele>
			 </trkpt>
			 <trkpt lat="43.765899" lon="11.249812">
				 <ele>61.5</ele>
			 </trkpt>
			 <trkpt lat="43.766146" lon="11.250333">
				 <ele>61.8</ele>
			 </trkpt>
			 <trkpt lat="43.766216" lon="11.250482">
				 <ele>62.2</ele>
			 </trkpt>
			 <trkpt lat="43.766532" lon="11.250914">
				 <ele>61.9</ele>
			 </trkpt>
			 <trkpt lat="43.766743" lon="11.251362">
				 <ele>60.8</ele>
			 </trkpt>
			 <trkpt lat="43.766989" lon="11.251882">
				 <ele>59.4</ele>
			 </trkpt>
			 <trkpt lat="43.767236" lon="11.252402">
				 <ele>58.3</ele>
			 </trkpt>
			 <trkpt lat="43.767351" lon="11.252645">
				 <ele>57.6</ele>
			 </trkpt>
			 <trkpt lat="43.767739" lon="11.252961">
				 <ele>57.1</ele>
			 </trkpt>
			 <trkpt lat="43.768032" lon="11.253201">
				 <ele>56.2</ele>
			 </trkpt>
			 <trkpt lat="43.76844" lon="11.253446">
				 <ele>55.1</ele>
			 </trkpt>
			 <trkpt lat="43.76833" lon="11.25388">
				 <ele>54.2</ele>
			 </trkpt>
			 <trkpt lat="43.768092" lon="11.254408">
				 <ele>53.4</ele>
			 </trkpt>
			 <trkpt lat="43.767853" lon="11.254936">
				 <ele>52.4</ele>
			 </trkpt>
			 <trkpt lat="43.767708" lon="11.255256">
				 <ele>51.7</ele>
			 </trkpt>
			 <trkpt lat="43.76754" lon="11.255833">
				 <ele>51.7</ele>
			 </trkpt>
			 <trkpt lat="43.76744" lon="11.256176">
				 <ele>51.7</ele>
			 </trkpt>
			 <trkpt lat="43.767317" lon="11.256775">
				 <ele>51.5</ele>
			 </trkpt>
			 <trkpt lat="43.767254" lon="11.257084">
				 <ele>50.5</ele>
			 </trkpt>
			 <trkpt lat="43.767132" lon="11.257683">
				 <ele>49.1</ele>
			 </trkpt>
			 <trkpt lat="43.76701" lon="11.258283">
				 <ele>48.4</ele>
			 </trkpt>
			 <trkpt lat="43.766895" lon="11.258848">
				 <ele>48.3</ele>
			 </trkpt>
			 <trkpt lat="43.766849" lon="11.258978">
				 <ele>48.3</ele>
			 </trkpt>
			 <trkpt lat="43.76668" lon="11.25896">
				 <ele>48.3</ele>
			 </trkpt>
			 <trkpt lat="43.766297" lon="11.258791">
				 <ele>48.3</ele>
			 </trkpt>
			 <trkpt lat="43.765869" lon="11.258602">
				 <ele>48.6</ele>
			 </trkpt>
			 <trkpt lat="43.765533" lon="11.258454">
				 <ele>49.7</ele>
			 </trkpt>
			 <trkpt lat="43.76543" lon="11.25903">
				 <ele>50.7</ele>
			 </trkpt>
			 <trkpt lat="43.765367" lon="11.259647">
				 <ele>51.4</ele>
			 </trkpt>
			 <trkpt lat="43.765305" lon="11.260263">
				 <ele>52</ele>
			 </trkpt>
			 <trkpt lat="43.765242" lon="11.26088">
				 <ele>53.2</ele>
			 </trkpt>
			 <trkpt lat="43.76518" lon="11.261496">
				 <ele>54.2</ele>
			 </trkpt>
			 <trkpt lat="43.765117" lon="11.262113">
				 <ele>54.7</ele>
			 </trkpt>
			 <trkpt lat="43.765055" lon="11.26273">
				 <ele>55.1</ele>
			 </trkpt>
			 <trkpt lat="43.764992" lon="11.263346">
				 <ele>55.5</ele>
			 </trkpt>
			 <trkpt lat="43.76493" lon="11.263963">
				 <ele>56.1</ele>
			 </trkpt>
			 <trkpt lat="43.764867" lon="11.264579">
				 <ele>56.5</ele>
			 </trkpt>
			 <trkpt lat="43.764805" lon="11.265196">
				 <ele>55.9</ele>
			 </trkpt>
			 <trkpt lat="43.764742" lon="11.265813">
				 <ele>55.3</ele>
			 </trkpt>
			 <trkpt lat="43.76468" lon="11.266429">
				 <ele>54.8</ele>
			 </trkpt>
			 <trkpt lat="43.764617" lon="11.267046">
				 <ele>54.6</ele>
			 </trkpt>
			 <trkpt lat="43.764555" lon="11.267662">
				 <ele>54.3</ele>
			 </trkpt>
			 <trkpt lat="43.764492" lon="11.268279">
				 <ele>53.7</ele>
			 </trkpt>
			 <trkpt lat="43.764431" lon="11.268883">
				 <ele>53.1</ele>
			 </trkpt>
			 <trkpt lat="43.764344" lon="11.269493">
				 <ele>52.5</ele>
			 </trkpt>
			 <trkpt lat="43.764257" lon="11.270104">
				 <ele>51.8</ele>
			 </trkpt>
			 <trkpt lat="43.764206" lon="11.270455">
				 <ele>51</ele>
			 </trkpt>
			 <trkpt lat="43.764184" lon="11.270754">
				 <ele>50.5</ele>
			 </trkpt>
			 <trkpt lat="43.764222" lon="11.27086">
				 <ele>50.4</ele>
			 </trkpt>
			 <trkpt lat="43.764663" lon="11.270975">
				 <ele>50.5</ele>
			 </trkpt>
			 <trkpt lat="43.76469" lon="11.270982">
				 <ele>50.7</ele>
			 </trkpt>
			 <trkpt lat="43.765133" lon="11.271089">
				 <ele>51</ele>
			 </trkpt>
			 <trkpt lat="43.765375" lon="11.271147">
				 <ele>51.1</ele>
			 </trkpt>
			 <trkpt lat="43.765722" lon="11.271172">
				 <ele>51</ele>
			 </trkpt>
			 <trkpt lat="43.765808" lon="11.271059">
				 <ele>51</ele>
			 </trkpt>
			 <trkpt lat="43.76587" lon="11.27091">
				 <ele>51</ele>
			 </trkpt>
			 <trkpt lat="43.76593" lon="11.270293">
				 <ele>51.1</ele>
			 </trkpt>
			 <trkpt lat="43.76599" lon="11.269676">
				 <ele>51</ele>
			 </trkpt>
			 <trkpt lat="43.766036" lon="11.269192">
				 <ele>50.8</ele>
			 </trkpt>
			 <trkpt lat="43.76609" lon="11.268574">
				 <ele>50.6</ele>
			 </trkpt>
			 <trkpt lat="43.766144" lon="11.267956">
				 <ele>50.8</ele>
			 </trkpt>
			 <trkpt lat="43.766198" lon="11.267338">
				 <ele>50.9</ele>
			 </trkpt>
			 <trkpt lat="43.766252" lon="11.26672">
				 <ele>50.9</ele>
			 </trkpt>
			 <trkpt lat="43.766306" lon="11.266102">
				 <ele>51.1</ele>
			 </trkpt>
			 <trkpt lat="43.766347" lon="11.265627">
				 <ele>51.5</ele>
			 </trkpt>
			 <trkpt lat="43.766396" lon="11.265008">
				 <ele>52</ele>
			 </trkpt>
			 <trkpt lat="43.766444" lon="11.264389">
				 <ele>52.2</ele>
			 </trkpt>
			 <trkpt lat="43.766493" lon="11.26377">
				 <ele>52</ele>
			 </trkpt>
			 <trkpt lat="43.766541" lon="11.263151">
				 <ele>51.9</ele>
			 </trkpt>
			 <trkpt lat="43.766553" lon="11.263004">
				 <ele>51.8</ele>
			 </trkpt>
			 <trkpt lat="43.766628" lon="11.262444">
				 <ele>51.5</ele>
			 </trkpt>
			 <trkpt lat="43.766673" lon="11.261824">
				 <ele>50.9</ele>
			 </trkpt>
			 <trkpt lat="43.766718" lon="11.261205">
				 <ele>50.4</ele>
			 </trkpt>
			 <trkpt lat="43.766764" lon="11.260585">
				 <ele>50.4</ele>
			 </trkpt>
			 <trkpt lat="43.766809" lon="11.259966">
				 <ele>50.6</ele>
			 </trkpt>
			 <trkpt lat="43.766854" lon="11.259346">
				 <ele>50.9</ele>
			 </trkpt>
			 <trkpt lat="43.76686" lon="11.259267">
				 <ele>51.3</ele>
			 </trkpt>
			 <trkpt lat="43.766872" lon="11.259088">
				 <ele>52</ele>
			 </trkpt>
			 <trkpt lat="43.767301" lon="11.259271">
				 <ele>52.9</ele>
			 </trkpt>
			 <trkpt lat="43.767648" lon="11.259419">
				 <ele>53.7</ele>
			 </trkpt>
			 <trkpt lat="43.767815" lon="11.259542">
				 <ele>54.5</ele>
			 </trkpt>
			 <trkpt lat="43.767984" lon="11.259703">
				 <ele>55.2</ele>
			 </trkpt>
			 <trkpt lat="43.768442" lon="11.260082">
				 <ele>55.9</ele>
			 </trkpt>
			 <trkpt lat="43.768933" lon="11.260496">
				 <ele>56.6</ele>
			 </trkpt>
			 <trkpt lat="43.768964" lon="11.260523">
				 <ele>56.9</ele>
			 </trkpt>
			 <trkpt lat="43.768999" lon="11.260551">
				 <ele>57</ele>
			 </trkpt>
			 <trkpt lat="43.769093" lon="11.260626">
				 <ele>57.1</ele>
			 </trkpt>
			 <trkpt lat="43.769274" lon="11.260771">
				 <ele>56.8</ele>
			 </trkpt>
			 <trkpt lat="43.769342" lon="11.260825">
				 <ele>56.5</ele>
			 </trkpt>
			 <trkpt lat="43.769371" lon="11.260848">
				 <ele>56.2</ele>
			 </trkpt>
			 <trkpt lat="43.769652" lon="11.261071">
				 <ele>55.9</ele>
			 </trkpt>
			 <trkpt lat="43.769908" lon="11.261265">
				 <ele>55.7</ele>
			 </trkpt>
			 <trkpt lat="43.770195" lon="11.261504">
				 <ele>56</ele>
			 </trkpt>
			 <trkpt lat="43.77024" lon="11.261545">
				 <ele>56.3</ele>
			 </trkpt>
			 <trkpt lat="43.770221" lon="11.261631">
				 <ele>56.5</ele>
			 </trkpt>
			 <trkpt lat="43.770139" lon="11.262035">
				 <ele>56.8</ele>
			 </trkpt>
			 <trkpt lat="43.77013" lon="11.262076">
				 <ele>56.8</ele>
			 </trkpt>
			 <trkpt lat="43.769979" lon="11.262754">
				 <ele>56.7</ele>
			 </trkpt>
			 <trkpt lat="43.7698" lon="11.263613">
				 <ele>56.9</ele>
			 </trkpt>
			 <trkpt lat="43.769775" lon="11.263723">
				 <ele>56.9</ele>
			 </trkpt>
			 <trkpt lat="43.769755" lon="11.263816">
				 <ele>56.9</ele>
			 </trkpt>
			 <trkpt lat="43.769658" lon="11.264278">
				 <ele>57</ele>
			 </trkpt>
			 <trkpt lat="43.769426" lon="11.265431">
				 <ele>57</ele>
			 </trkpt>
			 <trkpt lat="43.769413" lon="11.26549">
				 <ele>56.6</ele>
			 </trkpt>
			 <trkpt lat="43.769327" lon="11.265926">
				 <ele>56.3</ele>
			 </trkpt>
			 <trkpt lat="43.768917" lon="11.267922">
				 <ele>55.9</ele>
			 </trkpt>
			 <trkpt lat="43.768872" lon="11.268156">
				 <ele>55.2</ele>
			 </trkpt>
			 <trkpt lat="43.768846" lon="11.268285">
				 <ele>54.5</ele>
			 </trkpt>
			 <trkpt lat="43.768838" lon="11.268324">
				 <ele>53.8</ele>
			 </trkpt>
			 <trkpt lat="43.768608" lon="11.2695">
				 <ele>53.7</ele>
			 </trkpt>
			 <trkpt lat="43.768574" lon="11.269661">
				 <ele>53.5</ele>
			 </trkpt>
			 <trkpt lat="43.76666" lon="11.26859">
				 <ele>53.4</ele>
			 </trkpt>
			 <trkpt lat="43.76636" lon="11.2686">
				 <ele>53.4</ele>
			 </trkpt>
			 <trkpt lat="43.76612" lon="11.26894">
				 <ele>53.2</ele>
			 </trkpt>
			 <trkpt lat="43.7659" lon="11.27171">
				 <ele>53.1</ele>
			 </trkpt>
			 <trkpt lat="43.76564" lon="11.27613">
				 <ele>52.9</ele>
			 </trkpt>
			 <trkpt lat="43.76542" lon="11.27837">
				 <ele>52.7</ele>
			 </trkpt>
			 <trkpt lat="43.765487" lon="11.278986">
				 <ele>53</ele>
			 </trkpt>
			 <trkpt lat="43.765554" lon="11.279601">
				 <ele>53.4</ele>
			 </trkpt>
			 <trkpt lat="43.765621" lon="11.280217">
				 <ele>53.6</ele>
			 </trkpt>
			 <trkpt lat="43.765689" lon="11.280833">
				 <ele>53.3</ele>
			 </trkpt>
			 <trkpt lat="43.765756" lon="11.281448">
				 <ele>53.5</ele>
			 </trkpt>
			 <trkpt lat="43.765823" lon="11.282064">
				 <ele>53.5</ele>
			 </trkpt>
			 <trkpt lat="43.76589" lon="11.28268">
				 <ele>53.5</ele>
			 </trkpt>
			 <trkpt lat="43.765957" lon="11.283295">
				 <ele>53.6</ele>
			 </trkpt>
			 <trkpt lat="43.766024" lon="11.283911">
				 <ele>53.7</ele>
			 </trkpt>
			 <trkpt lat="43.766091" lon="11.284527">
				 <ele>54</ele>
			 </trkpt>
			 <trkpt lat="43.766158" lon="11.285142">
				 <ele>54.3</ele>
			 </trkpt>
			 <trkpt lat="43.766226" lon="11.285758">
				 <ele>54.4</ele>
			 </trkpt>
			 <trkpt lat="43.766293" lon="11.286374">
				 <ele>54.5</ele>
			 </trkpt>
			 <trkpt lat="43.76636" lon="11.286989">
				 <ele>54.8</ele>
			 </trkpt>
			 <trkpt lat="43.766427" lon="11.287605">
				 <ele>54.9</ele>
			 </trkpt>
			 <trkpt lat="43.766494" lon="11.288221">
				 <ele>54.7</ele>
			 </trkpt>
			 <trkpt lat="43.766561" lon="11.288836">
				 <ele>54.6</ele>
			 </trkpt>
			 <trkpt lat="43.766628" lon="11.289452">
				 <ele>54.4</ele>
			 </trkpt>
			 <trkpt lat="43.766696" lon="11.290068">
				 <ele>54</ele>
			 </trkpt>
			 <trkpt lat="43.766763" lon="11.290684">
				 <ele>53.5</ele>
			 </trkpt>
			 <trkpt lat="43.76683" lon="11.291299">
				 <ele>53.2</ele>
			 </trkpt>
			 <trkpt lat="43.766897" lon="11.291915">
				 <ele>52.9</ele>
			 </trkpt>
			 <trkpt lat="43.766964" lon="11.292531">
				 <ele>52.6</ele>
			 </trkpt>
			 <trkpt lat="43.767031" lon="11.293146">
				 <ele>52.4</ele>
			 </trkpt>
			 <trkpt lat="43.767098" lon="11.293762">
				 <ele>52.3</ele>
			 </trkpt>
			 <trkpt lat="43.767136" lon="11.294106">
				 <ele>52.3</ele>
			 </trkpt>
			 <trkpt lat="43.767119" lon="11.294728">
				 <ele>52.4</ele>
			 </trkpt>
			 <trkpt lat="43.767053" lon="11.295361">
				 <ele>52.3</ele>
			 </trkpt>
			 <trkpt lat="43.767018" lon="11.295684">
				 <ele>52.2</ele>
			 </trkpt>
			 <trkpt lat="43.766926" lon="11.296294">
				 <ele>52.4</ele>
			 </trkpt>
			 <trkpt lat="43.766888" lon="11.296547">
				 <ele>52.5</ele>
			 </trkpt>
			 <trkpt lat="43.767001" lon="11.296806">
				 <ele>52.6</ele>
			 </trkpt>
			 <trkpt lat="43.767234" lon="11.296966">
				 <ele>52.7</ele>
			 </trkpt>
			 <trkpt lat="43.767662" lon="11.297159">
				 <ele>53.2</ele>
			 </trkpt>
			 <trkpt lat="43.76782" lon="11.29723">
				 <ele>53.5</ele>
			 </trkpt>
			 <trkpt lat="43.76801" lon="11.296972">
				 <ele>53.6</ele>
			 </trkpt>
			 <trkpt lat="43.768083" lon="11.296625">
				 <ele>53.8</ele>
			 </trkpt>
			 <trkpt lat="43.768131" lon="11.29601">
				 <ele>53.9</ele>
			 </trkpt>
			 <trkpt lat="43.768188" lon="11.295392">
				 <ele>54.1</ele>
			 </trkpt>
			 <trkpt lat="43.768246" lon="11.294775">
				 <ele>54.3</ele>
			 </trkpt>
			 <trkpt lat="43.768274" lon="11.29447">
				 <ele>54.5</ele>
			 </trkpt>
			 <trkpt lat="43.768336" lon="11.293854">
				 <ele>54.9</ele>
			 </trkpt>
			 <trkpt lat="43.768399" lon="11.293237">
				 <ele>55.2</ele>
			 </trkpt>
			 <trkpt lat="43.768461" lon="11.29262">
				 <ele>55.4</ele>
			 </trkpt>
			 <trkpt lat="43.768523" lon="11.292004">
				 <ele>54.9</ele>
			 </trkpt>
			 <trkpt lat="43.768585" lon="11.291387">
				 <ele>54.5</ele>
			 </trkpt>
			 <trkpt lat="43.768647" lon="11.29077">
				 <ele>54.2</ele>
			 </trkpt>
			 <trkpt lat="43.76871" lon="11.290154">
				 <ele>54</ele>
			 </trkpt>
			 <trkpt lat="43.768772" lon="11.289537">
				 <ele>53.8</ele>
			 </trkpt>
			 <trkpt lat="43.768834" lon="11.28892">
				 <ele>53.8</ele>
			 </trkpt>
			 <trkpt lat="43.768896" lon="11.288304">
				 <ele>53.6</ele>
			 </trkpt>
			 <trkpt lat="43.768959" lon="11.287687">
				 <ele>53.4</ele>
			 </trkpt>
			 <trkpt lat="43.769021" lon="11.28707">
				 <ele>53</ele>
			 </trkpt>
			 <trkpt lat="43.76905" lon="11.28678">
				 <ele>52.7</ele>
			 </trkpt>
			 <trkpt lat="43.769119" lon="11.286165">
				 <ele>52.5</ele>
			 </trkpt>
			 <trkpt lat="43.769188" lon="11.285549">
				 <ele>52.5</ele>
			 </trkpt>
			 <trkpt lat="43.769257" lon="11.284934">
				 <ele>52.7</ele>
			 </trkpt>
			 <trkpt lat="43.769272" lon="11.284807">
				 <ele>52.7</ele>
			 </trkpt>
			 <trkpt lat="43.769705" lon="11.284974">
				 <ele>52.8</ele>
			 </trkpt>
			 <trkpt lat="43.769817" lon="11.285017">
				 <ele>52.8</ele>
			 </trkpt>
			 <trkpt lat="43.769906" lon="11.284917">
				 <ele>52.6</ele>
			 </trkpt>
			 <trkpt lat="43.769974" lon="11.284301">
				 <ele>52.8</ele>
			 </trkpt>
			 <trkpt lat="43.770042" lon="11.283686">
				 <ele>53</ele>
			 </trkpt>
			 <trkpt lat="43.77011" lon="11.28307">
				 <ele>53.3</ele>
			 </trkpt>
			 <trkpt lat="43.770178" lon="11.282455">
				 <ele>53.4</ele>
			 </trkpt>
			 <trkpt lat="43.770201" lon="11.28224">
				 <ele>53.5</ele>
			 </trkpt>
			 <trkpt lat="43.770572" lon="11.282369">
				 <ele>53.5</ele>
			 </trkpt>
			 <trkpt lat="43.770899" lon="11.282669">
				 <ele>53.6</ele>
			 </trkpt>
			 <trkpt lat="43.771035" lon="11.282471">
				 <ele>53.7</ele>
			 </trkpt>
			 <trkpt lat="43.771054" lon="11.282293">
				 <ele>53.6</ele>
			 </trkpt>
			 <trkpt lat="43.771071" lon="11.282241">
				 <ele>53.8</ele>
			 </trkpt>
			 <trkpt lat="43.771101" lon="11.282208">
				 <ele>54</ele>
			 </trkpt>
			 <trkpt lat="43.772215" lon="11.281168">
				 <ele>53.9</ele>
			 </trkpt>
			 <trkpt lat="43.772278" lon="11.281106">
				 <ele>53.8</ele>
			 </trkpt>
			 <trkpt lat="43.77317" lon="11.280235">
				 <ele>53.6</ele>
			 </trkpt>
			 <trkpt lat="43.77328" lon="11.280109">
				 <ele>53.5</ele>
			 </trkpt>
			 <trkpt lat="43.773355" lon="11.280023">
				 <ele>53.5</ele>
			 </trkpt>
			 <trkpt lat="43.773513" lon="11.279875">
				 <ele>53.5</ele>
			 </trkpt>
			 <trkpt lat="43.773669" lon="11.279727">
				 <ele>53.5</ele>
			 </trkpt>
			 <trkpt lat="43.773756" lon="11.279646">
				 <ele>53.5</ele>
			 </trkpt>
			 <trkpt lat="43.77402" lon="11.279413">
				 <ele>53.4</ele>
			 </trkpt>
			 <trkpt lat="43.774591" lon="11.27887">
				 <ele>53.2</ele>
			 </trkpt>
			 <trkpt lat="43.775106" lon="11.278382">
				 <ele>53</ele>
			 </trkpt>
			 <trkpt lat="43.775149" lon="11.278342">
				 <ele>53.1</ele>
			 </trkpt>
			 <trkpt lat="43.77534" lon="11.278156">
				 <ele>53.2</ele>
			 </trkpt>
			 <trkpt lat="43.775445" lon="11.278053">
				 <ele>53.3</ele>
			 </trkpt>
			 <trkpt lat="43.77548" lon="11.27802">
				 <ele>53.4</ele>
			 </trkpt>
			 <trkpt lat="43.776192" lon="11.277349">
				 <ele>53.4</ele>
			 </trkpt>
			 <trkpt lat="43.776799" lon="11.276749">
				 <ele>53.3</ele>
			 </trkpt>
			 <trkpt lat="43.776928" lon="11.276622">
				 <ele>53.2</ele>
			 </trkpt>
			 <trkpt lat="43.777034" lon="11.276517">
				 <ele>53.2</ele>
			 </trkpt>
			 <trkpt lat="43.777095" lon="11.276456">
				 <ele>53.3</ele>
			 </trkpt>
			 <trkpt lat="43.777291" lon="11.276266">
				 <ele>53.5</ele>
			 </trkpt>
			 <trkpt lat="43.777466" lon="11.276107">
				 <ele>53.8</ele>
			 </trkpt>
			 <trkpt lat="43.777616" lon="11.275971">
				 <ele>54.1</ele>
			 </trkpt>
			 <trkpt lat="43.777992" lon="11.275621">
				 <ele>54.4</ele>
			 </trkpt>
			 <trkpt lat="43.778055" lon="11.2756">
				 <ele>54.6</ele>
			 </trkpt>
			 <trkpt lat="43.778809" lon="11.274896">
				 <ele>54.7</ele>
			 </trkpt>
			 <trkpt lat="43.779475" lon="11.274296">
				 <ele>54.9</ele>
			 </trkpt>
			 <trkpt lat="43.779714" lon="11.274072">
				 <ele>55.2</ele>
			 </trkpt>
			 <trkpt lat="43.780383" lon="11.273438">
				 <ele>55.5</ele>
			 </trkpt>
			 <trkpt lat="43.780423" lon="11.2734">
				 <ele>56.1</ele>
			 </trkpt>
			 <trkpt lat="43.781414" lon="11.272452">
				 <ele>56.6</ele>
			 </trkpt>
			 <trkpt lat="43.781526" lon="11.272323">
				 <ele>57</ele>
			 </trkpt>
			 <trkpt lat="43.781561" lon="11.272263">
				 <ele>57.2</ele>
			 </trkpt>
			 <trkpt lat="43.781606" lon="11.272173">
				 <ele>57.3</ele>
			 </trkpt>
			 <trkpt lat="43.78187" lon="11.271526">
				 <ele>57.3</ele>
			 </trkpt>
			 <trkpt lat="43.781949" lon="11.271352">
				 <ele>57.3</ele>
			 </trkpt>
			 <trkpt lat="43.781998" lon="11.271234">
				 <ele>57.4</ele>
			 </trkpt>
			 <trkpt lat="43.782051" lon="11.271106">
				 <ele>57.4</ele>
			 </trkpt>
			 <trkpt lat="43.782075" lon="11.271126">
				 <ele>57.4</ele>
			 </trkpt>
			 <trkpt lat="43.7822" lon="11.271196">
				 <ele>57.3</ele>
			 </trkpt>
			 <trkpt lat="43.782284" lon="11.271215">
				 <ele>57.1</ele>
			 </trkpt>
			 <trkpt lat="43.782371" lon="11.271285">
				 <ele>56.9</ele>
			 </trkpt>
			 <trkpt lat="43.78242" lon="11.271351">
				 <ele>56.8</ele>
			 </trkpt>
			 <trkpt lat="43.782586" lon="11.271485">
				 <ele>56.8</ele>
			 </trkpt>
			 <trkpt lat="43.782738" lon="11.271608">
				 <ele>56.8</ele>
			 </trkpt>
			 <trkpt lat="43.782851" lon="11.271712">
				 <ele>56.8</ele>
			 </trkpt>
			 <trkpt lat="43.782917" lon="11.27178">
				 <ele>56.8</ele>
			 </trkpt>
			 <trkpt lat="43.78293" lon="11.271841">
				 <ele>56.7</ele>
			 </trkpt>
			 <trkpt lat="43.782934" lon="11.271947">
				 <ele>56.6</ele>
			 </trkpt>
			 <trkpt lat="43.782928" lon="11.272027">
				 <ele>56.5</ele>
			 </trkpt>
			 <trkpt lat="43.782881" lon="11.272254">
				 <ele>56.5</ele>
			 </trkpt>
			 <trkpt lat="43.782845" lon="11.272361">
				 <ele>56.5</ele>
			 </trkpt>
			 <trkpt lat="43.782717" lon="11.272744">
				 <ele>56.4</ele>
			 </trkpt>
			 <trkpt lat="43.782676" lon="11.272892">
				 <ele>56.3</ele>
			 </trkpt>
			 <trkpt lat="43.782663" lon="11.272943">
				 <ele>56.1</ele>
			 </trkpt>
			 <trkpt lat="43.78258" lon="11.273245">
				 <ele>55.9</ele>
			 </trkpt>
			 <trkpt lat="43.782555" lon="11.273337">
				 <ele>55.8</ele>
			 </trkpt>
			 <trkpt lat="43.782486" lon="11.27347">
				 <ele>55.7</ele>
			 </trkpt>
			 <trkpt lat="43.782384" lon="11.273683">
				 <ele>55.8</ele>
			 </trkpt>
			 <trkpt lat="43.782355" lon="11.27374">
				 <ele>55.9</ele>
			 </trkpt>
			 <trkpt lat="43.782311" lon="11.273813">
				 <ele>55.9</ele>
			 </trkpt>
			 <trkpt lat="43.782289" lon="11.273845">
				 <ele>55.9</ele>
			 </trkpt>
			 <trkpt lat="43.782192" lon="11.273993">
				 <ele>55.9</ele>
			 </trkpt>
			 <trkpt lat="43.782134" lon="11.274052">
				 <ele>55.5</ele>
			 </trkpt>
			 <trkpt lat="43.782097" lon="11.274089">
				 <ele>55</ele>
			 </trkpt>
			 <trkpt lat="43.780636" lon="11.275463">
				 <ele>54.5</ele>
			 </trkpt>
			 <trkpt lat="43.780362" lon="11.275734">
				 <ele>54.2</ele>
			 </trkpt>
			 <trkpt lat="43.780082" lon="11.276003">
				 <ele>53.7</ele>
			 </trkpt>
			 <trkpt lat="43.77822" lon="11.277782">
				 <ele>53.3</ele>
			 </trkpt>
			 <trkpt lat="43.778145" lon="11.277854">
				 <ele>52.8</ele>
			 </trkpt>
			 <trkpt lat="43.778123" lon="11.277876">
				 <ele>52.4</ele>
			 </trkpt>
			 <trkpt lat="43.778048" lon="11.277946">
				 <ele>52.1</ele>
			 </trkpt>
			 <trkpt lat="43.777935" lon="11.278056">
				 <ele>51.7</ele>
			 </trkpt>
			 <trkpt lat="43.777748" lon="11.27823">
				 <ele>51.5</ele>
			 </trkpt>
			 <trkpt lat="43.777689" lon="11.278287">
				 <ele>51.6</ele>
			 </trkpt>
			 <trkpt lat="43.777592" lon="11.278374">
				 <ele>51.8</ele>
			 </trkpt>
			 <trkpt lat="43.777355" lon="11.278592">
				 <ele>52</ele>
			 </trkpt>
			 <trkpt lat="43.777111" lon="11.278832">
				 <ele>52.1</ele>
			 </trkpt>
			 <trkpt lat="43.777093" lon="11.278876">
				 <ele>52.3</ele>
			 </trkpt>
			 <trkpt lat="43.777085" lon="11.278917">
				 <ele>52.5</ele>
			 </trkpt>
			 <trkpt lat="43.777087" lon="11.278961">
				 <ele>52.8</ele>
			 </trkpt>
			 <trkpt lat="43.777101" lon="11.279005">
				 <ele>53.3</ele>
			 </trkpt>
			 <trkpt lat="43.777121" lon="11.279031">
				 <ele>53.7</ele>
			 </trkpt>
			 <trkpt lat="43.777147" lon="11.279081">
				 <ele>54</ele>
			 </trkpt>
			 <trkpt lat="43.777157" lon="11.279142">
				 <ele>54.2</ele>
			 </trkpt>
			 <trkpt lat="43.777149" lon="11.279179">
				 <ele>54.3</ele>
			 </trkpt>
			 <trkpt lat="43.77681" lon="11.279891">
				 <ele>54.4</ele>
			 </trkpt>
			 <trkpt lat="43.776667" lon="11.280194">
				 <ele>54.5</ele>
			 </trkpt>
			 <trkpt lat="43.7762" lon="11.281177">
				 <ele>54.6</ele>
			 </trkpt>
			 <trkpt lat="43.776155" lon="11.281274">
				 <ele>54.7</ele>
			 </trkpt>
			 <trkpt lat="43.776102" lon="11.281382">
				 <ele>54.7</ele>
			 </trkpt>
			 <trkpt lat="43.776071" lon="11.28145">
				 <ele>54.7</ele>
			 </trkpt>
			 <trkpt lat="43.77603" lon="11.281536">
				 <ele>54.5</ele>
			 </trkpt>
			 <trkpt lat="43.775607" lon="11.282429">
				 <ele>54.3</ele>
			 </trkpt>
			 <trkpt lat="43.775529" lon="11.282593">
				 <ele>54.3</ele>
			 </trkpt>
			 <trkpt lat="43.775479" lon="11.282698">
				 <ele>54.4</ele>
			 </trkpt>
			 <trkpt lat="43.775457" lon="11.282744">
				 <ele>54.8</ele>
			 </trkpt>
			 <trkpt lat="43.775376" lon="11.282912">
				 <ele>55.3</ele>
			 </trkpt>
			 <trkpt lat="43.775346" lon="11.282978">
				 <ele>55.7</ele>
			 </trkpt>
			 <trkpt lat="43.775125" lon="11.283443">
				 <ele>56.3</ele>
			 </trkpt>
			 <trkpt lat="43.774953" lon="11.283805">
				 <ele>56.5</ele>
			 </trkpt>
			 <trkpt lat="43.774771" lon="11.28419">
				 <ele>56.8</ele>
			 </trkpt>
			 <trkpt lat="43.774707" lon="11.284328">
				 <ele>57.1</ele>
			 </trkpt>
			 <trkpt lat="43.774836" lon="11.284479">
				 <ele>57.3</ele>
			 </trkpt>
			 <trkpt lat="43.775334" lon="11.284907">
				 <ele>57.5</ele>
			 </trkpt>
			 <trkpt lat="43.775802" lon="11.285327">
				 <ele>57.5</ele>
			 </trkpt>
			 <trkpt lat="43.776041" lon="11.285544">
				 <ele>57.5</ele>
			 </trkpt>
			 <trkpt lat="43.77644" lon="11.2859">
				 <ele>57.3</ele>
			 </trkpt>
			 <trkpt lat="43.776652" lon="11.28609">
				 <ele>57</ele>
			 </trkpt>
			 <trkpt lat="43.776795" lon="11.286228">
				 <ele>56.5</ele>
			 </trkpt>
			 <trkpt lat="43.777031" lon="11.286427">
				 <ele>55.9</ele>
			 </trkpt>
			 <trkpt lat="43.777117" lon="11.286514">
				 <ele>55.5</ele>
			 </trkpt>
			 <trkpt lat="43.777169" lon="11.286398">
				 <ele>55.2</ele>
			 </trkpt>
			 <trkpt lat="43.777188" lon="11.286356">
				 <ele>54.8</ele>
			 </trkpt>
			 <trkpt lat="43.777488" lon="11.285721">
				 <ele>54.5</ele>
			 </trkpt>
			 <trkpt lat="43.77776" lon="11.285147">
				 <ele>54</ele>
			 </trkpt>
			 <trkpt lat="43.777921" lon="11.284806">
				 <ele>53.6</ele>
			 </trkpt>
			 <trkpt lat="43.777974" lon="11.284697">
				 <ele>53.3</ele>
			 </trkpt>
			 <trkpt lat="43.778006" lon="11.284628">
				 <ele>52.9</ele>
			 </trkpt>
			 <trkpt lat="43.778075" lon="11.284482">
				 <ele>52.5</ele>
			 </trkpt>
			 <trkpt lat="43.778198" lon="11.284224">
				 <ele>52.3</ele>
			 </trkpt>
			 <trkpt lat="43.778508" lon="11.283579">
				 <ele>52.2</ele>
			 </trkpt>
			 <trkpt lat="43.778549" lon="11.283494">
				 <ele>52.2</ele>
			 </trkpt>
			 <trkpt lat="43.778593" lon="11.283405">
				 <ele>52.2</ele>
			 </trkpt>
			 <trkpt lat="43.778625" lon="11.283335">
				 <ele>52.2</ele>
			 </trkpt>
			 <trkpt lat="43.778666" lon="11.283247">
				 <ele>52.3</ele>
			 </trkpt>
			 <trkpt lat="43.778779" lon="11.283013">
				 <ele>52.5</ele>
			 </trkpt>
			 <trkpt lat="43.778903" lon="11.282751">
				 <ele>52.5</ele>
			 </trkpt>
			 <trkpt lat="43.77893" lon="11.282695">
				 <ele>52.6</ele>
			 </trkpt>
			 <trkpt lat="43.778946" lon="11.282664">
				 <ele>52.7</ele>
			 </trkpt>
			 <trkpt lat="43.77903" lon="11.282493">
				 <ele>52.7</ele>
			 </trkpt>
			 <trkpt lat="43.779086" lon="11.282548">
				 <ele>52.6</ele>
			 </trkpt>
			 <trkpt lat="43.779136" lon="11.282599">
				 <ele>52.5</ele>
			 </trkpt>
			 <trkpt lat="43.779169" lon="11.282634">
				 <ele>52.4</ele>
			 </trkpt>
			 <trkpt lat="43.780137" lon="11.283668">
				 <ele>52.2</ele>
			 </trkpt>
			 <trkpt lat="43.78073" lon="11.284291">
				 <ele>52</ele>
			 </trkpt>
			 <trkpt lat="43.780798" lon="11.284351">
				 <ele>51.8</ele>
			 </trkpt>
			 <trkpt lat="43.780881" lon="11.284409">
				 <ele>51.6</ele>
			 </trkpt>
			 <trkpt lat="43.780962" lon="11.284446">
				 <ele>51.5</ele>
			 </trkpt>
			 <trkpt lat="43.781008" lon="11.284458">
				 <ele>51.5</ele>
			 </trkpt>
			 <trkpt lat="43.781107" lon="11.284468">
				 <ele>51.4</ele>
			 </trkpt>
			 <trkpt lat="43.781239" lon="11.284455">
				 <ele>51.3</ele>
			 </trkpt>
			 <trkpt lat="43.781333" lon="11.28443">
				 <ele>51.5</ele>
			 </trkpt>
			 <trkpt lat="43.78147" lon="11.284388">
				 <ele>51.7</ele>
			 </trkpt>
			 <trkpt lat="43.781618" lon="11.284314">
				 <ele>51.9</ele>
			 </trkpt>
			 <trkpt lat="43.781658" lon="11.284284">
				 <ele>52.2</ele>
			 </trkpt>
			 <trkpt lat="43.781746" lon="11.284207">
				 <ele>52.5</ele>
			 </trkpt>
			 <trkpt lat="43.78203" lon="11.283749">
				 <ele>52.7</ele>
			 </trkpt>
			 <trkpt lat="43.782161" lon="11.283445">
				 <ele>52.8</ele>
			 </trkpt>
			 <trkpt lat="43.782089" lon="11.283008">
				 <ele>52.9</ele>
			 </trkpt>
			 <trkpt lat="43.781858" lon="11.282554">
				 <ele>53</ele>
			 </trkpt>
			 <trkpt lat="43.78152" lon="11.282143">
				 <ele>53.2</ele>
			 </trkpt>
			 <trkpt lat="43.781256" lon="11.281821">
				 <ele>53.4</ele>
			 </trkpt>
			 <trkpt lat="43.780878" lon="11.281483">
				 <ele>53.4</ele>
			 </trkpt>
			 <trkpt lat="43.7805" lon="11.281146">
				 <ele>53.2</ele>
			 </trkpt>
			 <trkpt lat="43.780279" lon="11.280948">
				 <ele>53</ele>
			 </trkpt>
			 <trkpt lat="43.780057" lon="11.280758">
				 <ele>52.6</ele>
			 </trkpt>
			 <trkpt lat="43.779612" lon="11.28067">
				 <ele>52.1</ele>
			 </trkpt>
			 <trkpt lat="43.77927" lon="11.280602">
				 <ele>51.8</ele>
			 </trkpt>
			 <trkpt lat="43.779125" lon="11.281004">
				 <ele>51.6</ele>
			 </trkpt>
			 <trkpt lat="43.778941" lon="11.281198">
				 <ele>51.5</ele>
			 </trkpt>
			 <trkpt lat="43.778721" lon="11.281171">
				 <ele>51.5</ele>
			 </trkpt>
			 <trkpt lat="43.778345" lon="11.280831">
				 <ele>51.5</ele>
			 </trkpt>
			 <trkpt lat="43.77798" lon="11.280501">
				 <ele>51.6</ele>
			 </trkpt>
			 <trkpt lat="43.777896" lon="11.280184">
				 <ele>51.9</ele>
			 </trkpt>
			 <trkpt lat="43.777936" lon="11.279905">
				 <ele>52.4</ele>
			 </trkpt>
			 <trkpt lat="43.778304" lon="11.279548">
				 <ele>52.8</ele>
			 </trkpt>
			 <trkpt lat="43.778535" lon="11.279323">
				 <ele>53.2</ele>
			 </trkpt>
			 <trkpt lat="43.77892" lon="11.279646">
				 <ele>53.5</ele>
			 </trkpt>
			 <trkpt lat="43.779305" lon="11.279968">
				 <ele>53.7</ele>
			 </trkpt>
			 <trkpt lat="43.779689" lon="11.280291">
				 <ele>54.1</ele>
			 </trkpt>
			 <trkpt lat="43.78001" lon="11.280559">
				 <ele>54.5</ele>
			 </trkpt>
			 <trkpt lat="43.780376" lon="11.280921">
				 <ele>54.6</ele>
			 </trkpt>
			 <trkpt lat="43.780742" lon="11.281283">
				 <ele>54.5</ele>
			 </trkpt>
			 <trkpt lat="43.781045" lon="11.281582">
				 <ele>54.4</ele>
			 </trkpt>
			 <trkpt lat="43.781422" lon="11.281921">
				 <ele>54.1</ele>
			 </trkpt>
			 <trkpt lat="43.781451" lon="11.281947">
				 <ele>53.8</ele>
			 </trkpt>
			 <trkpt lat="43.781792" lon="11.282353">
				 <ele>53.6</ele>
			 </trkpt>
			 <trkpt lat="43.781978" lon="11.282648">
				 <ele>53.6</ele>
			 </trkpt>
			 <trkpt lat="43.782032" lon="11.282756">
				 <ele>53.7</ele>
			 </trkpt>
			 <trkpt lat="43.782072" lon="11.282853">
				 <ele>53.9</ele>
			 </trkpt>
			 <trkpt lat="43.78213" lon="11.283007">
				 <ele>53.9</ele>
			 </trkpt>
			 <trkpt lat="43.78216" lon="11.283113">
				 <ele>53.9</ele>
			 </trkpt>
			 <trkpt lat="43.782204" lon="11.283334">
				 <ele>54</ele>
			 </trkpt>
			 <trkpt lat="43.782222" lon="11.283478">
				 <ele>54.4</ele>
			 </trkpt>
			 <trkpt lat="43.782254" lon="11.283875">
				 <ele>54.8</ele>
			 </trkpt>
			 <trkpt lat="43.782249" lon="11.284338">
				 <ele>55.5</ele>
			 </trkpt>
			 <trkpt lat="43.782235" lon="11.284527">
				 <ele>56</ele>
			 </trkpt>
			 <trkpt lat="43.782219" lon="11.284733">
				 <ele>56.5</ele>
			 </trkpt>
			 <trkpt lat="43.782208" lon="11.284813">
				 <ele>56.9</ele>
			 </trkpt>
			 <trkpt lat="43.782187" lon="11.284984">
				 <ele>57.2</ele>
			 </trkpt>
			 <trkpt lat="43.782133" lon="11.285258">
				 <ele>57.5</ele>
			 </trkpt>
			 <trkpt lat="43.782064" lon="11.28552">
				 <ele>57.8</ele>
			 </trkpt>
			 <trkpt lat="43.782017" lon="11.285691">
				 <ele>58.1</ele>
			 </trkpt>
			 <trkpt lat="43.781979" lon="11.2858">
				 <ele>58.4</ele>
			 </trkpt>
			 <trkpt lat="43.781918" lon="11.285984">
				 <ele>58.4</ele>
			 </trkpt>
			 <trkpt lat="43.781838" lon="11.286197">
				 <ele>58.3</ele>
			 </trkpt>
			 <trkpt lat="43.781761" lon="11.28637">
				 <ele>58.1</ele>
			 </trkpt>
			 <trkpt lat="43.781663" lon="11.286563">
				 <ele>57.8</ele>
			 </trkpt>
			 <trkpt lat="43.781543" lon="11.286767">
				 <ele>57.5</ele>
			 </trkpt>
			 <trkpt lat="43.781251" lon="11.287204">
				 <ele>57.2</ele>
			 </trkpt>
			 <trkpt lat="43.781176" lon="11.287307">
				 <ele>57</ele>
			 </trkpt>
			 <trkpt lat="43.78097" lon="11.287532">
				 <ele>56.7</ele>
			 </trkpt>
			 <trkpt lat="43.780725" lon="11.287749">
				 <ele>56.4</ele>
			 </trkpt>
			 <trkpt lat="43.780699" lon="11.287767">
				 <ele>56.1</ele>
			 </trkpt>
			 <trkpt lat="43.780429" lon="11.28797">
				 <ele>55.7</ele>
			 </trkpt>
			 <trkpt lat="43.780267" lon="11.288068">
				 <ele>55.6</ele>
			 </trkpt>
			 <trkpt lat="43.780072" lon="11.288152">
				 <ele>55.5</ele>
			 </trkpt>
			 <trkpt lat="43.780029" lon="11.288166">
				 <ele>55.5</ele>
			 </trkpt>
			 <trkpt lat="43.779871" lon="11.288218">
				 <ele>55.5</ele>
			 </trkpt>
			 <trkpt lat="43.779701" lon="11.288237">
				 <ele>55.5</ele>
			 </trkpt>
			 <trkpt lat="43.779577" lon="11.288243">
				 <ele>55.6</ele>
			 </trkpt>
			 <trkpt lat="43.779488" lon="11.288234">
				 <ele>55.7</ele>
			 </trkpt>
			 <trkpt lat="43.779292" lon="11.288206">
				 <ele>55.8</ele>
			 </trkpt>
			 <trkpt lat="43.779139" lon="11.288152">
				 <ele>55.9</ele>
			 </trkpt>
			 <trkpt lat="43.778987" lon="11.288077">
				 <ele>56</ele>
			 </trkpt>
			 <trkpt lat="43.778705" lon="11.28789">
				 <ele>56.1</ele>
			 </trkpt>
			 <trkpt lat="43.778623" lon="11.287835">
				 <ele>56.1</ele>
			 </trkpt>
			 <trkpt lat="43.778416" lon="11.287682">
				 <ele>56.2</ele>
			 </trkpt>
			 <trkpt lat="43.778165" lon="11.287458">
				 <ele>56.3</ele>
			 </trkpt>
			 <trkpt lat="43.777245" lon="11.286635">
				 <ele>56.4</ele>
			 </trkpt>
			 <trkpt lat="43.777081" lon="11.28663">
				 <ele>56.4</ele>
			 </trkpt>
			 <trkpt lat="43.777051" lon="11.286654">
				 <ele>56.5</ele>
			 </trkpt>
			 <trkpt lat="43.776327" lon="11.288201">
				 <ele>56.7</ele>
			 </trkpt>
			 <trkpt lat="43.776295" lon="11.288269">
				 <ele>57</ele>
			 </trkpt>
			 <trkpt lat="43.776196" lon="11.288182">
				 <ele>57.2</ele>
			 </trkpt>
			 <trkpt lat="43.775809" lon="11.287842">
				 <ele>57.3</ele>
			 </trkpt>
			 <trkpt lat="43.775383" lon="11.287436">
				 <ele>57.4</ele>
			 </trkpt>
			 <trkpt lat="43.775158" lon="11.287207">
				 <ele>57.5</ele>
			 </trkpt>
			 <trkpt lat="43.77508" lon="11.287125">
				 <ele>57.5</ele>
			 </trkpt>
			 <trkpt lat="43.774874" lon="11.28691">
				 <ele>57.5</ele>
			 </trkpt>
			 <trkpt lat="43.77476" lon="11.286793">
				 <ele>57.5</ele>
			 </trkpt>
			 <trkpt lat="43.774665" lon="11.286697">
				 <ele>57.6</ele>
			 </trkpt>
			 <trkpt lat="43.774526" lon="11.286551">
				 <ele>57.5</ele>
			 </trkpt>
			 <trkpt lat="43.774408" lon="11.286417">
				 <ele>57.2</ele>
			 </trkpt>
			 <trkpt lat="43.774178" lon="11.286149">
				 <ele>56.9</ele>
			 </trkpt>
			 <trkpt lat="43.774119" lon="11.286087">
				 <ele>56.7</ele>
			 </trkpt>
			 <trkpt lat="43.773899" lon="11.285821">
				 <ele>56.6</ele>
			 </trkpt>
			 <trkpt lat="43.773479" lon="11.285302">
				 <ele>56.5</ele>
			 </trkpt>
			 <trkpt lat="43.773265" lon="11.285045">
				 <ele>56.5</ele>
			 </trkpt>
			 <trkpt lat="43.773041" lon="11.28478">
				 <ele>56.3</ele>
			 </trkpt>
			 <trkpt lat="43.772762" lon="11.284471">
				 <ele>56.1</ele>
			 </trkpt>
			 <trkpt lat="43.772659" lon="11.284358">
				 <ele>55.8</ele>
			 </trkpt>
			 <trkpt lat="43.772532" lon="11.284219">
				 <ele>55.5</ele>
			 </trkpt>
			 <trkpt lat="43.772236" lon="11.2839">
				 <ele>55.5</ele>
			 </trkpt>
			 <trkpt lat="43.772134" lon="11.283818">
				 <ele>55.4</ele>
			 </trkpt>
			 <trkpt lat="43.772107" lon="11.283797">
				 <ele>55.3</ele>
			 </trkpt>
			 <trkpt lat="43.771934" lon="11.283652">
				 <ele>55.1</ele>
			 </trkpt>
			 <trkpt lat="43.771828" lon="11.283537">
				 <ele>54.8</ele>
			 </trkpt>
			 <trkpt lat="43.77179" lon="11.283491">
				 <ele>54.5</ele>
			 </trkpt>
			 <trkpt lat="43.771649" lon="11.283323">
				 <ele>54.2</ele>
			 </trkpt>
			 <trkpt lat="43.770471" lon="11.281901">
				 <ele>53.8</ele>
			 </trkpt>
			 <trkpt lat="43.770306" lon="11.281687">
				 <ele>53.4</ele>
			 </trkpt>
			 <trkpt lat="43.770209" lon="11.281545">
				 <ele>53</ele>
			 </trkpt>
			 <trkpt lat="43.770163" lon="11.281478">
				 <ele>52.6</ele>
			 </trkpt>
			 <trkpt lat="43.770134" lon="11.281435">
				 <ele>52.4</ele>
			 </trkpt>
			 <trkpt lat="43.77006" lon="11.281332">
				 <ele>52.4</ele>
			 </trkpt>
			 <trkpt lat="43.76997" lon="11.281207">
				 <ele>52.6</ele>
			 </trkpt>
			 <trkpt lat="43.769738" lon="11.280911">
				 <ele>53</ele>
			 </trkpt>
			 <trkpt lat="43.769656" lon="11.280819">
				 <ele>53.1</ele>
			 </trkpt>
			 <trkpt lat="43.769528" lon="11.280641">
				 <ele>53.3</ele>
			 </trkpt>
			 <trkpt lat="43.769066" lon="11.280076">
				 <ele>53.6</ele>
			 </trkpt>
			 <trkpt lat="43.768413" lon="11.279291">
				 <ele>54</ele>
			 </trkpt>
			 <trkpt lat="43.768338" lon="11.279198">
				 <ele>54.4</ele>
			 </trkpt>
			 <trkpt lat="43.767547" lon="11.27828">
				 <ele>54.7</ele>
			 </trkpt>
			 <trkpt lat="43.767559" lon="11.278172">
				 <ele>55.2</ele>
			 </trkpt>
			 <trkpt lat="43.767594" lon="11.277869">
				 <ele>55.5</ele>
			 </trkpt>
			 <trkpt lat="43.767754" lon="11.276501">
				 <ele>55.7</ele>
			 </trkpt>
			 <trkpt lat="43.767813" lon="11.276037">
				 <ele>55.5</ele>
			 </trkpt>
			 <trkpt lat="43.767824" lon="11.275949">
				 <ele>55.3</ele>
			 </trkpt>
			 <trkpt lat="43.767858" lon="11.275659">
				 <ele>55.5</ele>
			 </trkpt>
			 <trkpt lat="43.76797" lon="11.274708">
				 <ele>55.8</ele>
			 </trkpt>
			 <trkpt lat="43.76798" lon="11.274628">
				 <ele>55.7</ele>
			 </trkpt>
			 <trkpt lat="43.768059" lon="11.273947">
				 <ele>55.6</ele>
			 </trkpt>
			 <trkpt lat="43.768089" lon="11.273688">
				 <ele>55.6</ele>
			 </trkpt>
			 <trkpt lat="43.768183" lon="11.272867">
				 <ele>55.6</ele>
			 </trkpt>
			 <trkpt lat="43.768194" lon="11.272788">
				 <ele>55.5</ele>
			 </trkpt>
			 <trkpt lat="43.768362" lon="11.271384">
				 <ele>55.5</ele>
			 </trkpt>
			 <trkpt lat="43.768388" lon="11.271176">
				 <ele>55.5</ele>
			 </trkpt>
			 <trkpt lat="43.76848" lon="11.270361">
				 <ele>55.4</ele>
			 </trkpt>
			 <trkpt lat="43.768486" lon="11.270314">
				 <ele>55.1</ele>
			 </trkpt>
			 <trkpt lat="43.768802" lon="11.269891">
				 <ele>54.6</ele>
			 </trkpt>
			 <trkpt lat="43.768832" lon="11.269853">
				 <ele>54.4</ele>
			 </trkpt>
			 <trkpt lat="43.769261" lon="11.269938">
				 <ele>54.4</ele>
			 </trkpt>
			 <trkpt lat="43.769371" lon="11.269334">
				 <ele>54</ele>
			 </trkpt>
			 <trkpt lat="43.769481" lon="11.26873">
				 <ele>53.5</ele>
			 </trkpt>
			 <trkpt lat="43.76959" lon="11.268126">
				 <ele>53.2</ele>
			 </trkpt>
			 <trkpt lat="43.7697" lon="11.267523">
				 <ele>53</ele>
			 </trkpt>
			 <trkpt lat="43.769806" lon="11.266939">
				 <ele>52.9</ele>
			 </trkpt>
			 <trkpt lat="43.770225" lon="11.267166">
				 <ele>52.8</ele>
			 </trkpt>
			 <trkpt lat="43.77038" lon="11.26725">
				 <ele>52.8</ele>
			 </trkpt>
			 <trkpt lat="43.77136" lon="11.26787">
				 <ele>53</ele>
			 </trkpt>
			 <trkpt lat="43.771399" lon="11.26725">
				 <ele>53.2</ele>
			 </trkpt>
			 <trkpt lat="43.771417" lon="11.266953">
				 <ele>53.3</ele>
			 </trkpt>
			 <trkpt lat="43.771426" lon="11.26633">
				 <ele>53.2</ele>
			 </trkpt>
			 <trkpt lat="43.771436" lon="11.265708">
				 <ele>53.5</ele>
			 </trkpt>
			 <trkpt lat="43.771445" lon="11.265085">
				 <ele>53.9</ele>
			 </trkpt>
			 <trkpt lat="43.771449" lon="11.264782">
				 <ele>54.6</ele>
			 </trkpt>
			 <trkpt lat="43.771432" lon="11.26416">
				 <ele>55.5</ele>
			 </trkpt>
			 <trkpt lat="43.771415" lon="11.263538">
				 <ele>56.2</ele>
			 </trkpt>
			 <trkpt lat="43.771401" lon="11.263019">
				 <ele>56.8</ele>
			 </trkpt>
			 <trkpt lat="43.771538" lon="11.26245">
				 <ele>57.3</ele>
			 </trkpt>
			 <trkpt lat="43.771719" lon="11.262004">
				 <ele>57.8</ele>
			 </trkpt>
			 <trkpt lat="43.771871" lon="11.261418">
				 <ele>58.2</ele>
			 </trkpt>
			 <trkpt lat="43.772023" lon="11.260832">
				 <ele>58.2</ele>
			 </trkpt>
			 <trkpt lat="43.772098" lon="11.260545">
				 <ele>59.1</ele>
			 </trkpt>
			 <trkpt lat="43.772234" lon="11.259952">
				 <ele>60.1</ele>
			 </trkpt>
			 <trkpt lat="43.77237" lon="11.259358">
				 <ele>61.1</ele>
			 </trkpt>
			 <trkpt lat="43.772444" lon="11.259033">
				 <ele>61.8</ele>
			 </trkpt>
			 <trkpt lat="43.772515" lon="11.258418">
				 <ele>62.1</ele>
			 </trkpt>
			 <trkpt lat="43.77258" lon="11.25785">
				 <ele>62.1</ele>
			 </trkpt>
			 <trkpt lat="43.772966" lon="11.257769">
				 <ele>62</ele>
			 </trkpt>
			 <trkpt lat="43.773221" lon="11.257635">
				 <ele>62.2</ele>
			 </trkpt>
			 <trkpt lat="43.773562" lon="11.257238">
				 <ele>62.5</ele>
			 </trkpt>
			 <trkpt lat="43.773904" lon="11.257642">
				 <ele>62.7</ele>
			 </trkpt>
			 <trkpt lat="43.77411" lon="11.257886">
				 <ele>63.1</ele>
			 </trkpt>
			 <trkpt lat="43.774303" lon="11.257323">
				 <ele>62.6</ele>
			 </trkpt>
			 <trkpt lat="43.774481" lon="11.256804">
				 <ele>61.8</ele>
			 </trkpt>
			 <trkpt lat="43.774876" lon="11.257103">
				 <ele>61</ele>
			 </trkpt>
			 <trkpt lat="43.77527" lon="11.257401">
				 <ele>60.2</ele>
			 </trkpt>
			 <trkpt lat="43.775665" lon="11.2577">
				 <ele>59.5</ele>
			 </trkpt>
			 <trkpt lat="43.776059" lon="11.257999">
				 <ele>59</ele>
			 </trkpt>
			 <trkpt lat="43.776454" lon="11.258298">
				 <ele>58.6</ele>
			 </trkpt>
			 <trkpt lat="43.776848" lon="11.258596">
				 <ele>58.5</ele>
			 </trkpt>
			 <trkpt lat="43.777243" lon="11.258895">
				 <ele>58.3</ele>
			 </trkpt>
			 <trkpt lat="43.777472" lon="11.259068">
				 <ele>58.1</ele>
			 </trkpt>
			 <trkpt lat="43.777682" lon="11.258518">
				 <ele>57.9</ele>
			 </trkpt>
			 <trkpt lat="43.777803" lon="11.2582">
				 <ele>57.9</ele>
			 </trkpt>
			 <trkpt lat="43.777579" lon="11.257955">
				 <ele>58.3</ele>
			 </trkpt>
			 <trkpt lat="43.777185" lon="11.257655">
				 <ele>58.6</ele>
			 </trkpt>
			 <trkpt lat="43.776791" lon="11.257354">
				 <ele>58.8</ele>
			 </trkpt>
			 <trkpt lat="43.776397" lon="11.257054">
				 <ele>59.2</ele>
			 </trkpt>
			 <trkpt lat="43.776003" lon="11.256753">
				 <ele>59.8</ele>
			 </trkpt>
			 <trkpt lat="43.775609" lon="11.256453">
				 <ele>60.3</ele>
			 </trkpt>
			 <trkpt lat="43.775349" lon="11.256255">
				 <ele>59.6</ele>
			 </trkpt>
			 <trkpt lat="43.774944" lon="11.255986">
				 <ele>59</ele>
			 </trkpt>
			 <trkpt lat="43.774783" lon="11.255879">
				 <ele>58.3</ele>
			 </trkpt>
			 <trkpt lat="43.774509" lon="11.255741">
				 <ele>57.9</ele>
			 </trkpt>
			 <trkpt lat="43.77407" lon="11.255606">
				 <ele>57.8</ele>
			 </trkpt>
			 <trkpt lat="43.773631" lon="11.255471">
				 <ele>58</ele>
			 </trkpt>
			 <trkpt lat="43.773501" lon="11.25543">
				 <ele>58.2</ele>
			 </trkpt>
			 <trkpt lat="43.773448" lon="11.255522">
				 <ele>58.6</ele>
			 </trkpt>
			 <trkpt lat="43.773437" lon="11.256144">
				 <ele>59.2</ele>
			 </trkpt>
			 <trkpt lat="43.77343" lon="11.25655">
				 <ele>59.5</ele>
			 </trkpt>
			 <trkpt lat="43.77359" lon="11.256794">
				 <ele>59.9</ele>
			 </trkpt>
			 <trkpt lat="43.773614" lon="11.256865">
				 <ele>61.1</ele>
			 </trkpt>
			 <trkpt lat="43.773607" lon="11.257082">
				 <ele>62.3</ele>
			 </trkpt>
			 <trkpt lat="43.773533" lon="11.257194">
				 <ele>63.5</ele>
			 </trkpt>
			 <trkpt lat="43.773425" lon="11.257347">
				 <ele>64.5</ele>
			 </trkpt>
			 <trkpt lat="43.773199" lon="11.25761">
				 <ele>64.9</ele>
			 </trkpt>
			 <trkpt lat="43.773079" lon="11.25767">
				 <ele>64.9</ele>
			 </trkpt>
			 <trkpt lat="43.773011" lon="11.257695">
				 <ele>64.8</ele>
			 </trkpt>
			 <trkpt lat="43.772886" lon="11.257744">
				 <ele>64.6</ele>
			 </trkpt>
			 <trkpt lat="43.772579" lon="11.257831">
				 <ele>64.4</ele>
			 </trkpt>
			 <trkpt lat="43.772537" lon="11.257837">
				 <ele>64.1</ele>
			 </trkpt>
			 <trkpt lat="43.772346" lon="11.257857">
				 <ele>64</ele>
			 </trkpt>
			 <trkpt lat="43.772255" lon="11.257868">
				 <ele>64.2</ele>
			 </trkpt>
			 <trkpt lat="43.772165" lon="11.257875">
				 <ele>64.8</ele>
			 </trkpt>
			 <trkpt lat="43.771976" lon="11.257889">
				 <ele>65.5</ele>
			 </trkpt>
			 <trkpt lat="43.771564" lon="11.257919">
				 <ele>66.3</ele>
			 </trkpt>
			 <trkpt lat="43.771517" lon="11.257923">
				 <ele>67.2</ele>
			 </trkpt>
			 <trkpt lat="43.771217" lon="11.257926">
				 <ele>67.4</ele>
			 </trkpt>
			 <trkpt lat="43.770935" lon="11.257896">
				 <ele>67.5</ele>
			 </trkpt>
			 <trkpt lat="43.770907" lon="11.257893">
				 <ele>67.5</ele>
			 </trkpt>
			 <trkpt lat="43.770878" lon="11.257889">
				 <ele>67</ele>
			 </trkpt>
			 <trkpt lat="43.770436" lon="11.257788">
				 <ele>66.4</ele>
			 </trkpt>
			 <trkpt lat="43.769993" lon="11.25768">
				 <ele>65.8</ele>
			 </trkpt>
			 <trkpt lat="43.76955" lon="11.257572">
				 <ele>65</ele>
			 </trkpt>
			 <trkpt lat="43.76942" lon="11.25754">
				 <ele>63.9</ele>
			 </trkpt>
			 <trkpt lat="43.769021" lon="11.257252">
				 <ele>63.3</ele>
			 </trkpt>
			 <trkpt lat="43.768984" lon="11.257225">
				 <ele>62.6</ele>
			 </trkpt>
			 <trkpt lat="43.768718" lon="11.256942">
				 <ele>61.8</ele>
			 </trkpt>
			 <trkpt lat="43.768745" lon="11.256925">
				 <ele>61.8</ele>
			 </trkpt>
			 <trkpt lat="43.768852" lon="11.25674">
				 <ele>61.7</ele>
			 </trkpt>
			 <trkpt lat="43.769017" lon="11.256161">
				 <ele>61.8</ele>
			 </trkpt>
			 <trkpt lat="43.7691" lon="11.255868">
				 <ele>62.5</ele>
			 </trkpt>
			 <trkpt lat="43.768675" lon="11.255664">
				 <ele>63.1</ele>
			 </trkpt>
			 <trkpt lat="43.76861" lon="11.255632">
				 <ele>63.5</ele>
			 </trkpt>
			 <trkpt lat="43.768519" lon="11.25559">
				 <ele>64</ele>
			 </trkpt>
			 <trkpt lat="43.768536" lon="11.255514">
				 <ele>64.2</ele>
			 </trkpt>
			 <trkpt lat="43.768591" lon="11.255261">
				 <ele>63.5</ele>
			 </trkpt>
			 <trkpt lat="43.768594" lon="11.255129">
				 <ele>62.6</ele>
			 </trkpt>
			 <trkpt lat="43.768618" lon="11.254966">
				 <ele>61.2</ele>
			 </trkpt>
			 <trkpt lat="43.768641" lon="11.254875">
				 <ele>60.1</ele>
			 </trkpt>
			 <trkpt lat="43.768892" lon="11.254376">
				 <ele>59</ele>
			 </trkpt>
			 <trkpt lat="43.768954" lon="11.253857">
				 <ele>57.5</ele>
			 </trkpt>
			 <trkpt lat="43.768892" lon="11.253753">
				 <ele>56.1</ele>
			 </trkpt>
			 <trkpt lat="43.768491" lon="11.253471">
				 <ele>54.7</ele>
			 </trkpt>
			 <trkpt lat="43.768666" lon="11.252896">
				 <ele>53.5</ele>
			 </trkpt>
			 <trkpt lat="43.768849" lon="11.252327">
				 <ele>52.3</ele>
			 </trkpt>
			 <trkpt lat="43.769028" lon="11.251769">
				 <ele>51.3</ele>
			 </trkpt>
			 <trkpt lat="43.76925" lon="11.251228">
				 <ele>50.9</ele>
			 </trkpt>
			 <trkpt lat="43.769472" lon="11.250686">
				 <ele>50.6</ele>
			 </trkpt>
			 <trkpt lat="43.769615" lon="11.250339">
				 <ele>51.1</ele>
			 </trkpt>
			 <trkpt lat="43.769856" lon="11.249813">
				 <ele>51</ele>
			 </trkpt>
			 <trkpt lat="43.770097" lon="11.249288">
				 <ele>51.3</ele>
			 </trkpt>
			 <trkpt lat="43.770338" lon="11.248762">
				 <ele>52.3</ele>
			 </trkpt>
			 <trkpt lat="43.770579" lon="11.248237">
				 <ele>53.8</ele>
			 </trkpt>
			 <trkpt lat="43.77082" lon="11.247711">
				 <ele>55.2</ele>
			 </trkpt>
			 <trkpt lat="43.771061" lon="11.247185">
				 <ele>55.4</ele>
			 </trkpt>
			 <trkpt lat="43.771302" lon="11.24666">
				 <ele>55.7</ele>
			 </trkpt>
			 <trkpt lat="43.771544" lon="11.246134">
				 <ele>56</ele>
			 </trkpt>
			 <trkpt lat="43.771785" lon="11.245608">
				 <ele>56</ele>
			 </trkpt>
			 <trkpt lat="43.771843" lon="11.245482">
				 <ele>55.8</ele>
			 </trkpt>
			 <trkpt lat="43.772062" lon="11.244938">
				 <ele>55.5</ele>
			 </trkpt>
			 <trkpt lat="43.772281" lon="11.244394">
				 <ele>55.5</ele>
			 </trkpt>
			 <trkpt lat="43.7725" lon="11.24385">
				 <ele>54.9</ele>
			 </trkpt>
			 <trkpt lat="43.772539" lon="11.243753">
				 <ele>54</ele>
			 </trkpt>
			 <trkpt lat="43.772782" lon="11.243229">
				 <ele>52.6</ele>
			 </trkpt>
			 <trkpt lat="43.773026" lon="11.242705">
				 <ele>51.5</ele>
			 </trkpt>
			 <trkpt lat="43.773269" lon="11.242182">
				 <ele>51.8</ele>
			 </trkpt>
			 <trkpt lat="43.773462" lon="11.241767">
				 <ele>52.2</ele>
			 </trkpt>
			 <trkpt lat="43.77376" lon="11.242233">
				 <ele>52.5</ele>
			 </trkpt>
			 <trkpt lat="43.774038" lon="11.242667">
				 <ele>52.8</ele>
			 </trkpt>
			 <trkpt lat="43.773724" lon="11.243112">
				 <ele>52.8</ele>
			 </trkpt>
			 <trkpt lat="43.773409" lon="11.243557">
				 <ele>53.5</ele>
			 </trkpt>
			 <trkpt lat="43.773094" lon="11.244002">
				 <ele>54.2</ele>
			 </trkpt>
			 <trkpt lat="43.77306" lon="11.24405">
				 <ele>55.1</ele>
			 </trkpt>
			 <trkpt lat="43.772754" lon="11.244507">
				 <ele>55.5</ele>
			 </trkpt>
			 <trkpt lat="43.772449" lon="11.244963">
				 <ele>55.5</ele>
			 </trkpt>
			 <trkpt lat="43.77218" lon="11.245364">
				 <ele>55.6</ele>
			 </trkpt>
			 <trkpt lat="43.772198" lon="11.245987">
				 <ele>55.5</ele>
			 </trkpt>
			 <trkpt lat="43.771905" lon="11.246484">
				 <ele>55.3</ele>
			 </trkpt>
			 <trkpt lat="43.771611" lon="11.246955">
				 <ele>55.4</ele>
			 </trkpt>
			 <trkpt lat="43.771316" lon="11.247426">
				 <ele>55.8</ele>
			 </trkpt>
			 <trkpt lat="43.77107" lon="11.24782">
				 <ele>57</ele>
			 </trkpt>
			 <trkpt lat="43.77107" lon="11.24789">
				 <ele>57.7</ele>
			 </trkpt>
			 <trkpt lat="43.77098" lon="11.24824">
				 <ele>58.1</ele>
			 </trkpt>
			 <trkpt lat="43.77129" lon="11.2502">
				 <ele>58.3</ele>
			 </trkpt>
			 <trkpt lat="43.771398" lon="11.250804">
				 <ele>58.8</ele>
			 </trkpt>
			 <trkpt lat="43.771495" lon="11.251346">
				 <ele>59.7</ele>
			 </trkpt>
			 <trkpt lat="43.771045" lon="11.251342">
				 <ele>60.5</ele>
			 </trkpt>
			 <trkpt lat="43.770596" lon="11.251339">
				 <ele>61.4</ele>
			 </trkpt>
			 <trkpt lat="43.770146" lon="11.251335">
				 <ele>62.1</ele>
			 </trkpt>
			 <trkpt lat="43.770103" lon="11.251335">
				 <ele>62.5</ele>
			 </trkpt>
			 <trkpt lat="43.770014" lon="11.251945">
				 <ele>62.4</ele>
			 </trkpt>
			 <trkpt lat="43.769988" lon="11.252118">
				 <ele>62</ele>
			 </trkpt>
			 <trkpt lat="43.769914" lon="11.25255">
				 <ele>61.5</ele>
			 </trkpt>
			 <trkpt lat="43.769651" lon="11.253055">
				 <ele>61.3</ele>
			 </trkpt>
			 <trkpt lat="43.76962" lon="11.253114">
				 <ele>61.5</ele>
			 </trkpt>
			 <trkpt lat="43.769417" lon="11.253669">
				 <ele>61.7</ele>
			 </trkpt>
			 <trkpt lat="43.76926" lon="11.2541">
				 <ele>62.1</ele>
			 </trkpt>
			 <trkpt lat="43.769595" lon="11.254383">
				 <ele>62.4</ele>
			 </trkpt>
			 <trkpt lat="43.769489" lon="11.254988">
				 <ele>62.1</ele>
			 </trkpt>
			 <trkpt lat="43.769447" lon="11.255227">
				 <ele>61.5</ele>
			 </trkpt>
			 <trkpt lat="43.76961" lon="11.25523">
				 <ele>61.4</ele>
			 </trkpt>
			 <trkpt lat="43.77058" lon="11.25528">
				 <ele>61.4</ele>
			 </trkpt>
			 <trkpt lat="43.77186" lon="11.25535">
				 <ele>61.6</ele>
			 </trkpt>
			 <trkpt lat="43.77284" lon="11.25537">
				 <ele>62.1</ele>
			 </trkpt>
			 <trkpt lat="43.77286" lon="11.25494">
				 <ele>62.3</ele>
			 </trkpt>
		 </trkseg>
	 </trk>
</gpx>