<?xml version="1.0" encoding="UTF-8" standalone="no" ?>
<gpx xmlns="http://www.topografix.com/GPX/1/1" xmlns:xsi="http://www.w3.org/2001/XMLSchema-instance" xsi:schemaLocation="http://www.topografix.com/GPX/1/1 http://www.topografix.com/GPX/1/1/gpx.xsd" version="1.1" creator="VisuGPX - https://www.visugpx.com">
  <metadata>
    <name>Marathon de Metz 2021</name>
    <desc><![CDATA[Marathon de Metz 2021]]></desc>
  </metadata>
  <trk>
    <name><![CDATA[Marathon de Metz 2021]]></name>
    <extensions>
      <line xmlns="http://www.topografix.com/GPX/gpx_style/0/2">
        <color>0000FF</color>
        <width>4</width>
      </line>
    </extensions>
    <trkseg>
      <trkpt lat="49.11658" lon="6.16864">
        <ele>176.1</ele>
      </trkpt>
      <trkpt lat="49.11651" lon="6.16858">
        <ele>175.1</ele>
      </trkpt>
      <trkpt lat="49.11578" lon="6.16824">
        <ele>175.5</ele>
      </trkpt>
      <trkpt lat="49.11566" lon="6.16817">
        <ele>175.6</ele>
      </trkpt>
      <trkpt lat="49.11544" lon="6.16806">
        <ele>176</ele>
      </trkpt>
      <trkpt lat="49.11513" lon="6.1679">
        <ele>176</ele>
      </trkpt>
      <trkpt lat="49.11473" lon="6.16768">
        <ele>177</ele>
      </trkpt>
      <trkpt lat="49.11445" lon="6.16753">
        <ele>177.1</ele>
      </trkpt>
      <trkpt lat="49.11393" lon="6.16716">
        <ele>177.5</ele>
      </trkpt>
      <trkpt lat="49.11357" lon="6.16689">
        <ele>177.4</ele>
      </trkpt>
      <trkpt lat="49.11326" lon="6.16664">
        <ele>176.7</ele>
      </trkpt>
      <trkpt lat="49.11299" lon="6.16639">
        <ele>175.7</ele>
      </trkpt>
      <trkpt lat="49.11265" lon="6.16616">
        <ele>176.4</ele>
      </trkpt>
      <trkpt lat="49.11217" lon="6.16573">
        <ele>175.5</ele>
      </trkpt>
      <trkpt lat="49.11183" lon="6.16543">
        <ele>175.4</ele>
      </trkpt>
      <trkpt lat="49.11155" lon="6.16518">
        <ele>175.2</ele>
      </trkpt>
      <trkpt lat="49.11124" lon="6.16486">
        <ele>175.4</ele>
      </trkpt>
      <trkpt lat="49.1109" lon="6.16455">
        <ele>176</ele>
      </trkpt>
      <trkpt lat="49.11052" lon="6.16424">
        <ele>177.6</ele>
      </trkpt>
      <trkpt lat="49.11018" lon="6.16397">
        <ele>178.4</ele>
      </trkpt>
      <trkpt lat="49.10987" lon="6.16366">
        <ele>178.2</ele>
      </trkpt>
      <trkpt lat="49.10954" lon="6.16341">
        <ele>177.8</ele>
      </trkpt>
      <trkpt lat="49.10926" lon="6.16303">
        <ele>176.9</ele>
      </trkpt>
      <trkpt lat="49.10881" lon="6.16252">
        <ele>177.1</ele>
      </trkpt>
      <trkpt lat="49.10851" lon="6.16211">
        <ele>176.2</ele>
      </trkpt>
      <trkpt lat="49.10822" lon="6.16174">
        <ele>176.1</ele>
      </trkpt>
      <trkpt lat="49.10791" lon="6.16176">
        <ele>177</ele>
      </trkpt>
      <trkpt lat="49.1077" lon="6.16217">
        <ele>178.1</ele>
      </trkpt>
      <trkpt lat="49.10754" lon="6.16278">
        <ele>179.2</ele>
      </trkpt>
      <trkpt lat="49.10786" lon="6.16304">
        <ele>180</ele>
      </trkpt>
      <trkpt lat="49.1082" lon="6.16333">
        <ele>180</ele>
      </trkpt>
      <trkpt lat="49.10852" lon="6.16367">
        <ele>180</ele>
      </trkpt>
      <trkpt lat="49.10899" lon="6.16419">
        <ele>180.1</ele>
      </trkpt>
      <trkpt lat="49.10929" lon="6.16458">
        <ele>180.3</ele>
      </trkpt>
      <trkpt lat="49.10938" lon="6.16507">
        <ele>181.1</ele>
      </trkpt>
      <trkpt lat="49.10914" lon="6.16552">
        <ele>182</ele>
      </trkpt>
      <trkpt lat="49.10893" lon="6.16605">
        <ele>183</ele>
      </trkpt>
      <trkpt lat="49.10875" lon="6.16679">
        <ele>183</ele>
      </trkpt>
      <trkpt lat="49.1086" lon="6.16732">
        <ele>182.6</ele>
      </trkpt>
      <trkpt lat="49.10842" lon="6.16785">
        <ele>182</ele>
      </trkpt>
      <trkpt lat="49.10824" lon="6.16839">
        <ele>181.5</ele>
      </trkpt>
      <trkpt lat="49.10805" lon="6.16892">
        <ele>181</ele>
      </trkpt>
      <trkpt lat="49.1079" lon="6.16975">
        <ele>180</ele>
      </trkpt>
      <trkpt lat="49.10797" lon="6.17027">
        <ele>179.7</ele>
      </trkpt>
      <trkpt lat="49.10804" lon="6.17033">
        <ele>179.8</ele>
      </trkpt>
      <trkpt lat="49.10837" lon="6.17067">
        <ele>179</ele>
      </trkpt>
      <trkpt lat="49.10856" lon="6.1709">
        <ele>179</ele>
      </trkpt>
      <trkpt lat="49.10889" lon="6.17145">
        <ele>178.8</ele>
      </trkpt>
      <trkpt lat="49.10913" lon="6.17179">
        <ele>178.5</ele>
      </trkpt>
      <trkpt lat="49.10942" lon="6.17222">
        <ele>178</ele>
      </trkpt>
      <trkpt lat="49.10958" lon="6.17255">
        <ele>177.9</ele>
      </trkpt>
      <trkpt lat="49.1097" lon="6.1728">
        <ele>177.1</ele>
      </trkpt>
      <trkpt lat="49.10943" lon="6.17327">
        <ele>176.9</ele>
      </trkpt>
      <trkpt lat="49.10921" lon="6.17349">
        <ele>175.7</ele>
      </trkpt>
      <trkpt lat="49.1089" lon="6.17387">
        <ele>174.1</ele>
      </trkpt>
      <trkpt lat="49.10886" lon="6.17434">
        <ele>173.6</ele>
      </trkpt>
      <trkpt lat="49.10908" lon="6.17483">
        <ele>173.4</ele>
      </trkpt>
      <trkpt lat="49.10937" lon="6.17558">
        <ele>174</ele>
      </trkpt>
      <trkpt lat="49.10946" lon="6.17587">
        <ele>174.1</ele>
      </trkpt>
      <trkpt lat="49.11075" lon="6.17813">
        <ele>173</ele>
      </trkpt>
      <trkpt lat="49.11087" lon="6.17849">
        <ele>173</ele>
      </trkpt>
      <trkpt lat="49.11106" lon="6.17884">
        <ele>172.2</ele>
      </trkpt>
      <trkpt lat="49.1115" lon="6.17878">
        <ele>172.6</ele>
      </trkpt>
      <trkpt lat="49.11179" lon="6.17868">
        <ele>172</ele>
      </trkpt>
      <trkpt lat="49.11201" lon="6.17859">
        <ele>172</ele>
      </trkpt>
      <trkpt lat="49.11241" lon="6.17845">
        <ele>171.7</ele>
      </trkpt>
      <trkpt lat="49.11264" lon="6.17827">
        <ele>171.6</ele>
      </trkpt>
      <trkpt lat="49.11265" lon="6.1777">
        <ele>172</ele>
      </trkpt>
      <trkpt lat="49.11264" lon="6.17713">
        <ele>172</ele>
      </trkpt>
      <trkpt lat="49.11229" lon="6.17696">
        <ele>173</ele>
      </trkpt>
      <trkpt lat="49.11226" lon="6.17637">
        <ele>174</ele>
      </trkpt>
      <trkpt lat="49.11225" lon="6.17588">
        <ele>174</ele>
      </trkpt>
      <trkpt lat="49.11228" lon="6.17532">
        <ele>174.9</ele>
      </trkpt>
      <trkpt lat="49.11245" lon="6.17495">
        <ele>175</ele>
      </trkpt>
      <trkpt lat="49.11276" lon="6.17459">
        <ele>175</ele>
      </trkpt>
      <trkpt lat="49.11307" lon="6.1742">
        <ele>175.9</ele>
      </trkpt>
      <trkpt lat="49.11335" lon="6.17351">
        <ele>176</ele>
      </trkpt>
      <trkpt lat="49.11369" lon="6.17347">
        <ele>176</ele>
      </trkpt>
      <trkpt lat="49.11401" lon="6.17371">
        <ele>176.2</ele>
      </trkpt>
      <trkpt lat="49.11432" lon="6.17406">
        <ele>175.2</ele>
      </trkpt>
      <trkpt lat="49.11452" lon="6.17434">
        <ele>175.3</ele>
      </trkpt>
      <trkpt lat="49.11495" lon="6.17489">
        <ele>175.3</ele>
      </trkpt>
      <trkpt lat="49.11521" lon="6.17503">
        <ele>175</ele>
      </trkpt>
      <trkpt lat="49.11536" lon="6.17516">
        <ele>175.1</ele>
      </trkpt>
      <trkpt lat="49.1156" lon="6.17545">
        <ele>175.2</ele>
      </trkpt>
      <trkpt lat="49.11589" lon="6.17583">
        <ele>175.2</ele>
      </trkpt>
      <trkpt lat="49.11634" lon="6.17641">
        <ele>175</ele>
      </trkpt>
      <trkpt lat="49.11667" lon="6.17673">
        <ele>175</ele>
      </trkpt>
      <trkpt lat="49.11703" lon="6.17701">
        <ele>175.5</ele>
      </trkpt>
      <trkpt lat="49.11735" lon="6.17692">
        <ele>175.5</ele>
      </trkpt>
      <trkpt lat="49.11758" lon="6.17646">
        <ele>177.8</ele>
      </trkpt>
      <trkpt lat="49.11772" lon="6.176">
        <ele>178</ele>
      </trkpt>
      <trkpt lat="49.11752" lon="6.17578">
        <ele>178</ele>
      </trkpt>
      <trkpt lat="49.11735" lon="6.17562">
        <ele>177.5</ele>
      </trkpt>
      <trkpt lat="49.11721" lon="6.17548">
        <ele>177.3</ele>
      </trkpt>
      <trkpt lat="49.11725" lon="6.17491">
        <ele>178.1</ele>
      </trkpt>
      <trkpt lat="49.1175" lon="6.17459">
        <ele>179.5</ele>
      </trkpt>
      <trkpt lat="49.11755" lon="6.17453">
        <ele>179.8</ele>
      </trkpt>
      <trkpt lat="49.11793" lon="6.17476">
        <ele>180.5</ele>
      </trkpt>
      <trkpt lat="49.11824" lon="6.17494">
        <ele>180.3</ele>
      </trkpt>
      <trkpt lat="49.11867" lon="6.17449">
        <ele>181</ele>
      </trkpt>
      <trkpt lat="49.1189" lon="6.17412">
        <ele>179.8</ele>
      </trkpt>
      <trkpt lat="49.11911" lon="6.17365">
        <ele>178.4</ele>
      </trkpt>
      <trkpt lat="49.11924" lon="6.17311">
        <ele>177.9</ele>
      </trkpt>
      <trkpt lat="49.11932" lon="6.17277">
        <ele>176</ele>
      </trkpt>
      <trkpt lat="49.11969" lon="6.17292">
        <ele>174.8</ele>
      </trkpt>
      <trkpt lat="49.12003" lon="6.17312">
        <ele>172.7</ele>
      </trkpt>
      <trkpt lat="49.12017" lon="6.17325">
        <ele>172.1</ele>
      </trkpt>
      <trkpt lat="49.1204" lon="6.17308">
        <ele>169.8</ele>
      </trkpt>
      <trkpt lat="49.12067" lon="6.17277">
        <ele>168.4</ele>
      </trkpt>
      <trkpt lat="49.12095" lon="6.17229">
        <ele>168.6</ele>
      </trkpt>
      <trkpt lat="49.12097" lon="6.17197">
        <ele>168.5</ele>
      </trkpt>
      <trkpt lat="49.121" lon="6.17173">
        <ele>168.1</ele>
      </trkpt>
      <trkpt lat="49.12113" lon="6.17128">
        <ele>168</ele>
      </trkpt>
      <trkpt lat="49.12133" lon="6.17088">
        <ele>167.2</ele>
      </trkpt>
      <trkpt lat="49.12162" lon="6.17061">
        <ele>168</ele>
      </trkpt>
      <trkpt lat="49.12187" lon="6.17087">
        <ele>168.7</ele>
      </trkpt>
      <trkpt lat="49.12208" lon="6.17113">
        <ele>168.5</ele>
      </trkpt>
      <trkpt lat="49.12239" lon="6.17141">
        <ele>168</ele>
      </trkpt>
      <trkpt lat="49.12271" lon="6.17171">
        <ele>167.4</ele>
      </trkpt>
      <trkpt lat="49.12327" lon="6.172">
        <ele>168</ele>
      </trkpt>
      <trkpt lat="49.12361" lon="6.17232">
        <ele>168</ele>
      </trkpt>
      <trkpt lat="49.12391" lon="6.17264">
        <ele>167.9</ele>
      </trkpt>
      <trkpt lat="49.12414" lon="6.17302">
        <ele>167.9</ele>
      </trkpt>
      <trkpt lat="49.12439" lon="6.17335">
        <ele>168</ele>
      </trkpt>
      <trkpt lat="49.12473" lon="6.17402">
        <ele>169</ele>
      </trkpt>
      <trkpt lat="49.12479" lon="6.17439">
        <ele>169</ele>
      </trkpt>
      <trkpt lat="49.12447" lon="6.17472">
        <ele>169</ele>
      </trkpt>
      <trkpt lat="49.12431" lon="6.17492">
        <ele>169</ele>
      </trkpt>
      <trkpt lat="49.12409" lon="6.17567">
        <ele>168.8</ele>
      </trkpt>
      <trkpt lat="49.12425" lon="6.1762">
        <ele>170</ele>
      </trkpt>
      <trkpt lat="49.1244" lon="6.17671">
        <ele>170.1</ele>
      </trkpt>
      <trkpt lat="49.12425" lon="6.17709">
        <ele>169.7</ele>
      </trkpt>
      <trkpt lat="49.12396" lon="6.17745">
        <ele>170.2</ele>
      </trkpt>
      <trkpt lat="49.12348" lon="6.17796">
        <ele>167.6</ele>
      </trkpt>
      <trkpt lat="49.12317" lon="6.17825">
        <ele>164.1</ele>
      </trkpt>
      <trkpt lat="49.12281" lon="6.17845">
        <ele>168.5</ele>
      </trkpt>
      <trkpt lat="49.12246" lon="6.17825">
        <ele>170.2</ele>
      </trkpt>
      <trkpt lat="49.12208" lon="6.17802">
        <ele>173.2</ele>
      </trkpt>
      <trkpt lat="49.12154" lon="6.17772">
        <ele>180.5</ele>
      </trkpt>
      <trkpt lat="49.12128" lon="6.17746">
        <ele>182.2</ele>
      </trkpt>
      <trkpt lat="49.12099" lon="6.17705">
        <ele>180.2</ele>
      </trkpt>
      <trkpt lat="49.12068" lon="6.17674">
        <ele>179.2</ele>
      </trkpt>
      <trkpt lat="49.12036" lon="6.17646">
        <ele>178.6</ele>
      </trkpt>
      <trkpt lat="49.11982" lon="6.17609">
        <ele>179</ele>
      </trkpt>
      <trkpt lat="49.11956" lon="6.17597">
        <ele>179</ele>
      </trkpt>
      <trkpt lat="49.11935" lon="6.17582">
        <ele>179</ele>
      </trkpt>
      <trkpt lat="49.11916" lon="6.17624">
        <ele>180.9</ele>
      </trkpt>
      <trkpt lat="49.11894" lon="6.17662">
        <ele>180.5</ele>
      </trkpt>
      <trkpt lat="49.11857" lon="6.17727">
        <ele>179.2</ele>
      </trkpt>
      <trkpt lat="49.1184" lon="6.17768">
        <ele>177.7</ele>
      </trkpt>
      <trkpt lat="49.11818" lon="6.17819">
        <ele>175</ele>
      </trkpt>
      <trkpt lat="49.11797" lon="6.17854">
        <ele>172.7</ele>
      </trkpt>
      <trkpt lat="49.11771" lon="6.179">
        <ele>170.7</ele>
      </trkpt>
      <trkpt lat="49.11742" lon="6.17963">
        <ele>169.2</ele>
      </trkpt>
      <trkpt lat="49.11708" lon="6.17986">
        <ele>169</ele>
      </trkpt>
      <trkpt lat="49.11684" lon="6.18">
        <ele>169</ele>
      </trkpt>
      <trkpt lat="49.11671" lon="6.17957">
        <ele>169</ele>
      </trkpt>
      <trkpt lat="49.11647" lon="6.17918">
        <ele>170</ele>
      </trkpt>
      <trkpt lat="49.11611" lon="6.17918">
        <ele>171</ele>
      </trkpt>
      <trkpt lat="49.11572" lon="6.17909">
        <ele>170.6</ele>
      </trkpt>
      <trkpt lat="49.11534" lon="6.17909">
        <ele>171</ele>
      </trkpt>
      <trkpt lat="49.11495" lon="6.17923">
        <ele>170</ele>
      </trkpt>
      <trkpt lat="49.11435" lon="6.17941">
        <ele>169.7</ele>
      </trkpt>
      <trkpt lat="49.11396" lon="6.17939">
        <ele>169.2</ele>
      </trkpt>
      <trkpt lat="49.11357" lon="6.1795">
        <ele>170</ele>
      </trkpt>
      <trkpt lat="49.11319" lon="6.17956">
        <ele>170.2</ele>
      </trkpt>
      <trkpt lat="49.11293" lon="6.17966">
        <ele>170.5</ele>
      </trkpt>
      <trkpt lat="49.11303" lon="6.18015">
        <ele>170.5</ele>
      </trkpt>
      <trkpt lat="49.11313" lon="6.18073">
        <ele>170.1</ele>
      </trkpt>
      <trkpt lat="49.11319" lon="6.18131">
        <ele>170</ele>
      </trkpt>
      <trkpt lat="49.11332" lon="6.18188">
        <ele>169.2</ele>
      </trkpt>
      <trkpt lat="49.11342" lon="6.18244">
        <ele>169</ele>
      </trkpt>
      <trkpt lat="49.11357" lon="6.18303">
        <ele>169.1</ele>
      </trkpt>
      <trkpt lat="49.11334" lon="6.18337">
        <ele>170</ele>
      </trkpt>
      <trkpt lat="49.11309" lon="6.18319">
        <ele>170</ele>
      </trkpt>
      <trkpt lat="49.11284" lon="6.18276">
        <ele>170.8</ele>
      </trkpt>
      <trkpt lat="49.11259" lon="6.18231">
        <ele>172.1</ele>
      </trkpt>
      <trkpt lat="49.11223" lon="6.18164">
        <ele>171.9</ele>
      </trkpt>
      <trkpt lat="49.11201" lon="6.18115">
        <ele>173</ele>
      </trkpt>
      <trkpt lat="49.11191" lon="6.1809">
        <ele>172.9</ele>
      </trkpt>
      <trkpt lat="49.11164" lon="6.18045">
        <ele>173.7</ele>
      </trkpt>
      <trkpt lat="49.11134" lon="6.18003">
        <ele>175</ele>
      </trkpt>
      <trkpt lat="49.11102" lon="6.17927">
        <ele>172.9</ele>
      </trkpt>
      <trkpt lat="49.11073" lon="6.17893">
        <ele>172.4</ele>
      </trkpt>
      <trkpt lat="49.10918" lon="6.17538">
        <ele>173.4</ele>
      </trkpt>
      <trkpt lat="49.10899" lon="6.17497">
        <ele>173</ele>
      </trkpt>
      <trkpt lat="49.10878" lon="6.17447">
        <ele>172.6</ele>
      </trkpt>
      <trkpt lat="49.1084" lon="6.17381">
        <ele>172.7</ele>
      </trkpt>
      <trkpt lat="49.10815" lon="6.17338">
        <ele>175.1</ele>
      </trkpt>
      <trkpt lat="49.10787" lon="6.17292">
        <ele>174.7</ele>
      </trkpt>
      <trkpt lat="49.10762" lon="6.17248">
        <ele>174</ele>
      </trkpt>
      <trkpt lat="49.1072" lon="6.17194">
        <ele>173.9</ele>
      </trkpt>
      <trkpt lat="49.10688" lon="6.17221">
        <ele>176.2</ele>
      </trkpt>
      <trkpt lat="49.10662" lon="6.17263">
        <ele>176.4</ele>
      </trkpt>
      <trkpt lat="49.10645" lon="6.17278">
        <ele>175.1</ele>
      </trkpt>
      <trkpt lat="49.10623" lon="6.17322">
        <ele>175.4</ele>
      </trkpt>
      <trkpt lat="49.10584" lon="6.17391">
        <ele>173</ele>
      </trkpt>
      <trkpt lat="49.10583" lon="6.17448">
        <ele>172</ele>
      </trkpt>
      <trkpt lat="49.10599" lon="6.17502">
        <ele>171.9</ele>
      </trkpt>
      <trkpt lat="49.10617" lon="6.17553">
        <ele>171</ele>
      </trkpt>
      <trkpt lat="49.10638" lon="6.17597">
        <ele>171</ele>
      </trkpt>
      <trkpt lat="49.10675" lon="6.17664">
        <ele>170</ele>
      </trkpt>
      <trkpt lat="49.10666" lon="6.17693">
        <ele>170</ele>
      </trkpt>
      <trkpt lat="49.10644" lon="6.17724">
        <ele>170</ele>
      </trkpt>
      <trkpt lat="49.10611" lon="6.17765">
        <ele>170</ele>
      </trkpt>
      <trkpt lat="49.10584" lon="6.17801">
        <ele>170</ele>
      </trkpt>
      <trkpt lat="49.10577" lon="6.1787">
        <ele>169.1</ele>
      </trkpt>
      <trkpt lat="49.10587" lon="6.17884">
        <ele>169</ele>
      </trkpt>
      <trkpt lat="49.10598" lon="6.17915">
        <ele>169.5</ele>
      </trkpt>
      <trkpt lat="49.10628" lon="6.17931">
        <ele>170</ele>
      </trkpt>
      <trkpt lat="49.10667" lon="6.17931">
        <ele>170.5</ele>
      </trkpt>
      <trkpt lat="49.1072" lon="6.17916">
        <ele>170</ele>
      </trkpt>
      <trkpt lat="49.10729" lon="6.17976">
        <ele>171.2</ele>
      </trkpt>
      <trkpt lat="49.10746" lon="6.18034">
        <ele>171</ele>
      </trkpt>
      <trkpt lat="49.10754" lon="6.18091">
        <ele>171</ele>
      </trkpt>
      <trkpt lat="49.10751" lon="6.18141">
        <ele>171</ele>
      </trkpt>
      <trkpt lat="49.10763" lon="6.18194">
        <ele>170.5</ele>
      </trkpt>
      <trkpt lat="49.10782" lon="6.18247">
        <ele>171.1</ele>
      </trkpt>
      <trkpt lat="49.10776" lon="6.18306">
        <ele>172.8</ele>
      </trkpt>
      <trkpt lat="49.10744" lon="6.18341">
        <ele>170.3</ele>
      </trkpt>
      <trkpt lat="49.10688" lon="6.18363">
        <ele>170.1</ele>
      </trkpt>
      <trkpt lat="49.10648" lon="6.18367">
        <ele>170.1</ele>
      </trkpt>
      <trkpt lat="49.10611" lon="6.18377">
        <ele>170</ele>
      </trkpt>
      <trkpt lat="49.10574" lon="6.1839">
        <ele>170</ele>
      </trkpt>
      <trkpt lat="49.10536" lon="6.184">
        <ele>170</ele>
      </trkpt>
      <trkpt lat="49.10476" lon="6.18405">
        <ele>169.1</ele>
      </trkpt>
      <trkpt lat="49.10437" lon="6.18414">
        <ele>169.2</ele>
      </trkpt>
      <trkpt lat="49.10398" lon="6.18418">
        <ele>169.6</ele>
      </trkpt>
      <trkpt lat="49.1036" lon="6.1842">
        <ele>169.5</ele>
      </trkpt>
      <trkpt lat="49.10321" lon="6.1843">
        <ele>169.5</ele>
      </trkpt>
      <trkpt lat="49.10277" lon="6.18435">
        <ele>169</ele>
      </trkpt>
      <trkpt lat="49.10266" lon="6.18439">
        <ele>168.9</ele>
      </trkpt>
      <trkpt lat="49.10242" lon="6.18443">
        <ele>168.9</ele>
      </trkpt>
      <trkpt lat="49.10237" lon="6.18443">
        <ele>168.9</ele>
      </trkpt>
      <trkpt lat="49.10199" lon="6.1845">
        <ele>169</ele>
      </trkpt>
      <trkpt lat="49.1015" lon="6.18452">
        <ele>169</ele>
      </trkpt>
      <trkpt lat="49.10109" lon="6.18455">
        <ele>169</ele>
      </trkpt>
      <trkpt lat="49.10081" lon="6.18459">
        <ele>169</ele>
      </trkpt>
      <trkpt lat="49.10048" lon="6.18483">
        <ele>168</ele>
      </trkpt>
      <trkpt lat="49.10047" lon="6.18533">
        <ele>168.6</ele>
      </trkpt>
      <trkpt lat="49.10057" lon="6.18626">
        <ele>169.1</ele>
      </trkpt>
      <trkpt lat="49.10056" lon="6.18676">
        <ele>169</ele>
      </trkpt>
      <trkpt lat="49.10056" lon="6.18734">
        <ele>170</ele>
      </trkpt>
      <trkpt lat="49.1006" lon="6.18793">
        <ele>164.5</ele>
      </trkpt>
      <trkpt lat="49.10061" lon="6.18851">
        <ele>169.2</ele>
      </trkpt>
      <trkpt lat="49.10007" lon="6.1888">
        <ele>169.9</ele>
      </trkpt>
      <trkpt lat="49.09969" lon="6.18892">
        <ele>169.2</ele>
      </trkpt>
      <trkpt lat="49.09932" lon="6.18874">
        <ele>169.7</ele>
      </trkpt>
      <trkpt lat="49.09907" lon="6.18855">
        <ele>169.1</ele>
      </trkpt>
      <trkpt lat="49.09874" lon="6.18838">
        <ele>169</ele>
      </trkpt>
      <trkpt lat="49.09821" lon="6.18813">
        <ele>168.7</ele>
      </trkpt>
      <trkpt lat="49.09786" lon="6.18789">
        <ele>169.5</ele>
      </trkpt>
      <trkpt lat="49.0975" lon="6.18767">
        <ele>167.6</ele>
      </trkpt>
      <trkpt lat="49.09712" lon="6.18751">
        <ele>168.4</ele>
      </trkpt>
      <trkpt lat="49.09657" lon="6.18726">
        <ele>168.6</ele>
      </trkpt>
      <trkpt lat="49.0962" lon="6.18713">
        <ele>169.1</ele>
      </trkpt>
      <trkpt lat="49.09581" lon="6.18706">
        <ele>169.5</ele>
      </trkpt>
      <trkpt lat="49.09542" lon="6.18701">
        <ele>169.8</ele>
      </trkpt>
      <trkpt lat="49.09503" lon="6.18696">
        <ele>170.1</ele>
      </trkpt>
      <trkpt lat="49.09445" lon="6.18684">
        <ele>170.9</ele>
      </trkpt>
      <trkpt lat="49.09407" lon="6.18674">
        <ele>170.9</ele>
      </trkpt>
      <trkpt lat="49.09383" lon="6.18668">
        <ele>170.2</ele>
      </trkpt>
      <trkpt lat="49.09367" lon="6.18667">
        <ele>170.1</ele>
      </trkpt>
      <trkpt lat="49.09328" lon="6.18664">
        <ele>171.8</ele>
      </trkpt>
      <trkpt lat="49.0927" lon="6.18658">
        <ele>171.6</ele>
      </trkpt>
      <trkpt lat="49.09233" lon="6.18655">
        <ele>172.1</ele>
      </trkpt>
      <trkpt lat="49.09195" lon="6.1865">
        <ele>172</ele>
      </trkpt>
      <trkpt lat="49.09157" lon="6.18645">
        <ele>170.6</ele>
      </trkpt>
      <trkpt lat="49.09119" lon="6.18641">
        <ele>170.4</ele>
      </trkpt>
      <trkpt lat="49.0906" lon="6.18639">
        <ele>170.9</ele>
      </trkpt>
      <trkpt lat="49.0902" lon="6.18634">
        <ele>170.9</ele>
      </trkpt>
      <trkpt lat="49.08979" lon="6.18622">
        <ele>169.7</ele>
      </trkpt>
      <trkpt lat="49.08942" lon="6.18605">
        <ele>169.1</ele>
      </trkpt>
      <trkpt lat="49.08905" lon="6.18616">
        <ele>170.9</ele>
      </trkpt>
      <trkpt lat="49.08849" lon="6.18642">
        <ele>171.7</ele>
      </trkpt>
      <trkpt lat="49.08813" lon="6.18661">
        <ele>171.6</ele>
      </trkpt>
      <trkpt lat="49.0878" lon="6.18684">
        <ele>172.3</ele>
      </trkpt>
      <trkpt lat="49.08748" lon="6.18716">
        <ele>172.4</ele>
      </trkpt>
      <trkpt lat="49.08718" lon="6.18748">
        <ele>173.4</ele>
      </trkpt>
      <trkpt lat="49.0867" lon="6.18754">
        <ele>171.1</ele>
      </trkpt>
      <trkpt lat="49.08632" lon="6.18735">
        <ele>171.2</ele>
      </trkpt>
      <trkpt lat="49.08608" lon="6.18729">
        <ele>172.1</ele>
      </trkpt>
      <trkpt lat="49.08569" lon="6.18738">
        <ele>173</ele>
      </trkpt>
      <trkpt lat="49.08515" lon="6.18771">
        <ele>173.6</ele>
      </trkpt>
      <trkpt lat="49.08482" lon="6.18797">
        <ele>173.8</ele>
      </trkpt>
      <trkpt lat="49.08447" lon="6.18821">
        <ele>174</ele>
      </trkpt>
      <trkpt lat="49.08421" lon="6.18837">
        <ele>174.7</ele>
      </trkpt>
      <trkpt lat="49.08391" lon="6.18873">
        <ele>175</ele>
      </trkpt>
      <trkpt lat="49.08352" lon="6.18936">
        <ele>175</ele>
      </trkpt>
      <trkpt lat="49.08325" lon="6.18983">
        <ele>175.4</ele>
      </trkpt>
      <trkpt lat="49.0831" lon="6.19006">
        <ele>176</ele>
      </trkpt>
      <trkpt lat="49.08284" lon="6.19048">
        <ele>176.7</ele>
      </trkpt>
      <trkpt lat="49.08257" lon="6.19091">
        <ele>177.1</ele>
      </trkpt>
      <trkpt lat="49.0821" lon="6.19115">
        <ele>177.8</ele>
      </trkpt>
      <trkpt lat="49.08179" lon="6.19074">
        <ele>177.4</ele>
      </trkpt>
      <trkpt lat="49.08149" lon="6.19032">
        <ele>175</ele>
      </trkpt>
      <trkpt lat="49.08133" lon="6.18996">
        <ele>174</ele>
      </trkpt>
      <trkpt lat="49.08157" lon="6.18972">
        <ele>174.6</ele>
      </trkpt>
      <trkpt lat="49.08199" lon="6.18942">
        <ele>174.9</ele>
      </trkpt>
      <trkpt lat="49.08224" lon="6.18924">
        <ele>174.3</ele>
      </trkpt>
      <trkpt lat="49.08262" lon="6.18899">
        <ele>174</ele>
      </trkpt>
      <trkpt lat="49.083" lon="6.18882">
        <ele>174.6</ele>
      </trkpt>
      <trkpt lat="49.08308" lon="6.18839">
        <ele>174</ele>
      </trkpt>
      <trkpt lat="49.08287" lon="6.18756">
        <ele>173</ele>
      </trkpt>
      <trkpt lat="49.08278" lon="6.18717">
        <ele>172</ele>
      </trkpt>
      <trkpt lat="49.08265" lon="6.1866">
        <ele>172</ele>
      </trkpt>
      <trkpt lat="49.08255" lon="6.18605">
        <ele>171.8</ele>
      </trkpt>
      <trkpt lat="49.08244" lon="6.18546">
        <ele>171</ele>
      </trkpt>
      <trkpt lat="49.08225" lon="6.18459">
        <ele>171.5</ele>
      </trkpt>
      <trkpt lat="49.08227" lon="6.18434">
        <ele>171</ele>
      </trkpt>
      <trkpt lat="49.08244" lon="6.18407">
        <ele>171</ele>
      </trkpt>
      <trkpt lat="49.08274" lon="6.18369">
        <ele>170.9</ele>
      </trkpt>
      <trkpt lat="49.08298" lon="6.18325">
        <ele>170.8</ele>
      </trkpt>
      <trkpt lat="49.08264" lon="6.1832">
        <ele>170.5</ele>
      </trkpt>
      <trkpt lat="49.08225" lon="6.18328">
        <ele>170.4</ele>
      </trkpt>
      <trkpt lat="49.08187" lon="6.18346">
        <ele>169.9</ele>
      </trkpt>
      <trkpt lat="49.08159" lon="6.1836">
        <ele>170.9</ele>
      </trkpt>
      <trkpt lat="49.08104" lon="6.18389">
        <ele>170</ele>
      </trkpt>
      <trkpt lat="49.08065" lon="6.18403">
        <ele>170</ele>
      </trkpt>
      <trkpt lat="49.08026" lon="6.18413">
        <ele>169.6</ele>
      </trkpt>
      <trkpt lat="49.07987" lon="6.18415">
        <ele>169.8</ele>
      </trkpt>
      <trkpt lat="49.07951" lon="6.18414">
        <ele>169.7</ele>
      </trkpt>
      <trkpt lat="49.07893" lon="6.18403">
        <ele>169.5</ele>
      </trkpt>
      <trkpt lat="49.07854" lon="6.18392">
        <ele>169.3</ele>
      </trkpt>
      <trkpt lat="49.07815" lon="6.18384">
        <ele>169.3</ele>
      </trkpt>
      <trkpt lat="49.07777" lon="6.18387">
        <ele>169.1</ele>
      </trkpt>
      <trkpt lat="49.07737" lon="6.18395">
        <ele>169.6</ele>
      </trkpt>
      <trkpt lat="49.0768" lon="6.18403">
        <ele>170</ele>
      </trkpt>
      <trkpt lat="49.0764" lon="6.18408">
        <ele>170</ele>
      </trkpt>
      <trkpt lat="49.07602" lon="6.18413">
        <ele>170</ele>
      </trkpt>
      <trkpt lat="49.0757" lon="6.18418">
        <ele>170</ele>
      </trkpt>
      <trkpt lat="49.07531" lon="6.18424">
        <ele>170</ele>
      </trkpt>
      <trkpt lat="49.07474" lon="6.18435">
        <ele>170</ele>
      </trkpt>
      <trkpt lat="49.07436" lon="6.1844">
        <ele>170</ele>
      </trkpt>
      <trkpt lat="49.07397" lon="6.18444">
        <ele>170.7</ele>
      </trkpt>
      <trkpt lat="49.0736" lon="6.18445">
        <ele>171</ele>
      </trkpt>
      <trkpt lat="49.0732" lon="6.18454">
        <ele>171</ele>
      </trkpt>
      <trkpt lat="49.07262" lon="6.18465">
        <ele>171.7</ele>
      </trkpt>
      <trkpt lat="49.07224" lon="6.18473">
        <ele>172</ele>
      </trkpt>
      <trkpt lat="49.07186" lon="6.18477">
        <ele>172</ele>
      </trkpt>
      <trkpt lat="49.07155" lon="6.18482">
        <ele>172</ele>
      </trkpt>
      <trkpt lat="49.07139" lon="6.18494">
        <ele>172</ele>
      </trkpt>
      <trkpt lat="49.07137" lon="6.18561">
        <ele>172.3</ele>
      </trkpt>
      <trkpt lat="49.07138" lon="6.18619">
        <ele>173.3</ele>
      </trkpt>
      <trkpt lat="49.07136" lon="6.18657">
        <ele>174.7</ele>
      </trkpt>
      <trkpt lat="49.07134" lon="6.18716">
        <ele>176</ele>
      </trkpt>
      <trkpt lat="49.07126" lon="6.18803">
        <ele>177.9</ele>
      </trkpt>
      <trkpt lat="49.07107" lon="6.18853">
        <ele>179.7</ele>
      </trkpt>
      <trkpt lat="49.07086" lon="6.18901">
        <ele>180.5</ele>
      </trkpt>
      <trkpt lat="49.07063" lon="6.18951">
        <ele>180.3</ele>
      </trkpt>
      <trkpt lat="49.07061" lon="6.19006">
        <ele>180.6</ele>
      </trkpt>
      <trkpt lat="49.07072" lon="6.19087">
        <ele>182.1</ele>
      </trkpt>
      <trkpt lat="49.0708" lon="6.19145">
        <ele>182.9</ele>
      </trkpt>
      <trkpt lat="49.07086" lon="6.19183">
        <ele>183.1</ele>
      </trkpt>
      <trkpt lat="49.07095" lon="6.19214">
        <ele>183.1</ele>
      </trkpt>
      <trkpt lat="49.07107" lon="6.19269">
        <ele>182.3</ele>
      </trkpt>
      <trkpt lat="49.0713" lon="6.1935">
        <ele>182.3</ele>
      </trkpt>
      <trkpt lat="49.07126" lon="6.19387">
        <ele>181.6</ele>
      </trkpt>
      <trkpt lat="49.07094" lon="6.19408">
        <ele>180</ele>
      </trkpt>
      <trkpt lat="49.07076" lon="6.19415">
        <ele>178.5</ele>
      </trkpt>
      <trkpt lat="49.07066" lon="6.19453">
        <ele>177.5</ele>
      </trkpt>
      <trkpt lat="49.07061" lon="6.19534">
        <ele>177.3</ele>
      </trkpt>
      <trkpt lat="49.07072" lon="6.19588">
        <ele>178</ele>
      </trkpt>
      <trkpt lat="49.07088" lon="6.19631">
        <ele>178.4</ele>
      </trkpt>
      <trkpt lat="49.07102" lon="6.19682">
        <ele>178</ele>
      </trkpt>
      <trkpt lat="49.07089" lon="6.19739">
        <ele>179</ele>
      </trkpt>
      <trkpt lat="49.07068" lon="6.19818">
        <ele>183</ele>
      </trkpt>
      <trkpt lat="49.07055" lon="6.19861">
        <ele>185</ele>
      </trkpt>
      <trkpt lat="49.07037" lon="6.1991">
        <ele>188.1</ele>
      </trkpt>
      <trkpt lat="49.0701" lon="6.19951">
        <ele>190.6</ele>
      </trkpt>
      <trkpt lat="49.06997" lon="6.20006">
        <ele>191.4</ele>
      </trkpt>
      <trkpt lat="49.06966" lon="6.20084">
        <ele>194.2</ele>
      </trkpt>
      <trkpt lat="49.06945" lon="6.2013">
        <ele>195</ele>
      </trkpt>
      <trkpt lat="49.06919" lon="6.20173">
        <ele>195.9</ele>
      </trkpt>
      <trkpt lat="49.06893" lon="6.20216">
        <ele>196.5</ele>
      </trkpt>
      <trkpt lat="49.06843" lon="6.20259">
        <ele>197</ele>
      </trkpt>
      <trkpt lat="49.06806" lon="6.20278">
        <ele>197</ele>
      </trkpt>
      <trkpt lat="49.0677" lon="6.20304">
        <ele>198</ele>
      </trkpt>
      <trkpt lat="49.0675" lon="6.2028">
        <ele>198</ele>
      </trkpt>
      <trkpt lat="49.06727" lon="6.20257">
        <ele>198.4</ele>
      </trkpt>
      <trkpt lat="49.06678" lon="6.20223">
        <ele>197.2</ele>
      </trkpt>
      <trkpt lat="49.06649" lon="6.2018">
        <ele>196.8</ele>
      </trkpt>
      <trkpt lat="49.06622" lon="6.20137">
        <ele>196.7</ele>
      </trkpt>
      <trkpt lat="49.06596" lon="6.20091">
        <ele>196.8</ele>
      </trkpt>
      <trkpt lat="49.06574" lon="6.20044">
        <ele>196.4</ele>
      </trkpt>
      <trkpt lat="49.06546" lon="6.19976">
        <ele>195.5</ele>
      </trkpt>
      <trkpt lat="49.06525" lon="6.19929">
        <ele>195.1</ele>
      </trkpt>
      <trkpt lat="49.06508" lon="6.19898">
        <ele>195</ele>
      </trkpt>
      <trkpt lat="49.06486" lon="6.19848">
        <ele>194</ele>
      </trkpt>
      <trkpt lat="49.06471" lon="6.1981">
        <ele>193.4</ele>
      </trkpt>
      <trkpt lat="49.06445" lon="6.19751">
        <ele>193</ele>
      </trkpt>
      <trkpt lat="49.06433" lon="6.1972">
        <ele>193.3</ele>
      </trkpt>
      <trkpt lat="49.06415" lon="6.19674">
        <ele>192.2</ele>
      </trkpt>
      <trkpt lat="49.06396" lon="6.19618">
        <ele>191.6</ele>
      </trkpt>
      <trkpt lat="49.06378" lon="6.19565">
        <ele>191.4</ele>
      </trkpt>
      <trkpt lat="49.06352" lon="6.19483">
        <ele>189.8</ele>
      </trkpt>
      <trkpt lat="49.06335" lon="6.19432">
        <ele>188.5</ele>
      </trkpt>
      <trkpt lat="49.06317" lon="6.1938">
        <ele>187</ele>
      </trkpt>
      <trkpt lat="49.06302" lon="6.19326">
        <ele>185.6</ele>
      </trkpt>
      <trkpt lat="49.06284" lon="6.19273">
        <ele>184.8</ele>
      </trkpt>
      <trkpt lat="49.06257" lon="6.19198">
        <ele>183.7</ele>
      </trkpt>
      <trkpt lat="49.06242" lon="6.19144">
        <ele>184.4</ele>
      </trkpt>
      <trkpt lat="49.06227" lon="6.19092">
        <ele>185.8</ele>
      </trkpt>
      <trkpt lat="49.06215" lon="6.19035">
        <ele>187.3</ele>
      </trkpt>
      <trkpt lat="49.06201" lon="6.18983">
        <ele>189.4</ele>
      </trkpt>
      <trkpt lat="49.06184" lon="6.1892">
        <ele>191.7</ele>
      </trkpt>
      <trkpt lat="49.0617" lon="6.18865">
        <ele>193.6</ele>
      </trkpt>
      <trkpt lat="49.06156" lon="6.18812">
        <ele>194.8</ele>
      </trkpt>
      <trkpt lat="49.06142" lon="6.18767">
        <ele>195.8</ele>
      </trkpt>
      <trkpt lat="49.0612" lon="6.18686">
        <ele>196.7</ele>
      </trkpt>
      <trkpt lat="49.061" lon="6.1865">
        <ele>198.2</ele>
      </trkpt>
      <trkpt lat="49.06064" lon="6.18656">
        <ele>199.9</ele>
      </trkpt>
      <trkpt lat="49.06026" lon="6.18654">
        <ele>201.6</ele>
      </trkpt>
      <trkpt lat="49.06002" lon="6.18661">
        <ele>202.9</ele>
      </trkpt>
      <trkpt lat="49.05961" lon="6.18669">
        <ele>202.9</ele>
      </trkpt>
      <trkpt lat="49.05926" lon="6.18684">
        <ele>199.1</ele>
      </trkpt>
      <trkpt lat="49.05891" lon="6.18708">
        <ele>203.1</ele>
      </trkpt>
      <trkpt lat="49.05853" lon="6.18723">
        <ele>203.7</ele>
      </trkpt>
      <trkpt lat="49.05816" lon="6.18733">
        <ele>204</ele>
      </trkpt>
      <trkpt lat="49.0576" lon="6.18737">
        <ele>205.7</ele>
      </trkpt>
      <trkpt lat="49.05721" lon="6.18736">
        <ele>206</ele>
      </trkpt>
      <trkpt lat="49.05692" lon="6.18736">
        <ele>207</ele>
      </trkpt>
      <trkpt lat="49.05654" lon="6.18736">
        <ele>207.2</ele>
      </trkpt>
      <trkpt lat="49.05616" lon="6.18739">
        <ele>207.9</ele>
      </trkpt>
      <trkpt lat="49.05563" lon="6.18741">
        <ele>208</ele>
      </trkpt>
      <trkpt lat="49.05531" lon="6.18745">
        <ele>208</ele>
      </trkpt>
      <trkpt lat="49.05498" lon="6.18746">
        <ele>208</ele>
      </trkpt>
      <trkpt lat="49.05465" lon="6.18749">
        <ele>208</ele>
      </trkpt>
      <trkpt lat="49.05426" lon="6.18756">
        <ele>208.5</ele>
      </trkpt>
      <trkpt lat="49.05367" lon="6.18768">
        <ele>208.6</ele>
      </trkpt>
      <trkpt lat="49.05329" lon="6.18779">
        <ele>208</ele>
      </trkpt>
      <trkpt lat="49.05295" lon="6.18789">
        <ele>207.6</ele>
      </trkpt>
      <trkpt lat="49.05269" lon="6.18801">
        <ele>206.7</ele>
      </trkpt>
      <trkpt lat="49.05231" lon="6.18813">
        <ele>206.1</ele>
      </trkpt>
      <trkpt lat="49.05175" lon="6.18833">
        <ele>204.3</ele>
      </trkpt>
      <trkpt lat="49.05135" lon="6.18833">
        <ele>203.9</ele>
      </trkpt>
      <trkpt lat="49.05096" lon="6.18827">
        <ele>203</ele>
      </trkpt>
      <trkpt lat="49.05057" lon="6.18827">
        <ele>203.7</ele>
      </trkpt>
      <trkpt lat="49.05" lon="6.18836">
        <ele>203.1</ele>
      </trkpt>
      <trkpt lat="49.04987" lon="6.18843">
        <ele>203.3</ele>
      </trkpt>
      <trkpt lat="49.04964" lon="6.18853">
        <ele>203.5</ele>
      </trkpt>
      <trkpt lat="49.04924" lon="6.18865">
        <ele>202.4</ele>
      </trkpt>
      <trkpt lat="49.04886" lon="6.18873">
        <ele>201.9</ele>
      </trkpt>
      <trkpt lat="49.04848" lon="6.1888">
        <ele>201.4</ele>
      </trkpt>
      <trkpt lat="49.04809" lon="6.18884">
        <ele>201</ele>
      </trkpt>
      <trkpt lat="49.04771" lon="6.18886">
        <ele>200.9</ele>
      </trkpt>
      <trkpt lat="49.04731" lon="6.1889">
        <ele>201</ele>
      </trkpt>
      <trkpt lat="49.04692" lon="6.18894">
        <ele>202</ele>
      </trkpt>
      <trkpt lat="49.04632" lon="6.18899">
        <ele>202.3</ele>
      </trkpt>
      <trkpt lat="49.04593" lon="6.18903">
        <ele>201.3</ele>
      </trkpt>
      <trkpt lat="49.04557" lon="6.18908">
        <ele>200.7</ele>
      </trkpt>
      <trkpt lat="49.04517" lon="6.18914">
        <ele>199</ele>
      </trkpt>
      <trkpt lat="49.04477" lon="6.18923">
        <ele>198.2</ele>
      </trkpt>
      <trkpt lat="49.04486" lon="6.19007">
        <ele>200</ele>
      </trkpt>
      <trkpt lat="49.04496" lon="6.19065">
        <ele>201</ele>
      </trkpt>
      <trkpt lat="49.04503" lon="6.19122">
        <ele>202</ele>
      </trkpt>
      <trkpt lat="49.04481" lon="6.19163">
        <ele>202.9</ele>
      </trkpt>
      <trkpt lat="49.04448" lon="6.19188">
        <ele>203.1</ele>
      </trkpt>
      <trkpt lat="49.04396" lon="6.19224">
        <ele>204.1</ele>
      </trkpt>
      <trkpt lat="49.0436" lon="6.19252">
        <ele>204.1</ele>
      </trkpt>
      <trkpt lat="49.04331" lon="6.19293">
        <ele>205</ele>
      </trkpt>
      <trkpt lat="49.04308" lon="6.19338">
        <ele>205.2</ele>
      </trkpt>
      <trkpt lat="49.04285" lon="6.19387">
        <ele>206</ele>
      </trkpt>
      <trkpt lat="49.04254" lon="6.19459">
        <ele>207</ele>
      </trkpt>
      <trkpt lat="49.04253" lon="6.19516">
        <ele>207.6</ele>
      </trkpt>
      <trkpt lat="49.04239" lon="6.19565">
        <ele>208.4</ele>
      </trkpt>
      <trkpt lat="49.04203" lon="6.19587">
        <ele>208.2</ele>
      </trkpt>
      <trkpt lat="49.04167" lon="6.19602">
        <ele>208.7</ele>
      </trkpt>
      <trkpt lat="49.04113" lon="6.19635">
        <ele>209.9</ele>
      </trkpt>
      <trkpt lat="49.04079" lon="6.19623">
        <ele>207.6</ele>
      </trkpt>
      <trkpt lat="49.04061" lon="6.19581">
        <ele>207.2</ele>
      </trkpt>
      <trkpt lat="49.04051" lon="6.19546">
        <ele>206.8</ele>
      </trkpt>
      <trkpt lat="49.04032" lon="6.19464">
        <ele>206.2</ele>
      </trkpt>
      <trkpt lat="49.04011" lon="6.19415">
        <ele>206</ele>
      </trkpt>
      <trkpt lat="49.03994" lon="6.19381">
        <ele>205.2</ele>
      </trkpt>
      <trkpt lat="49.03973" lon="6.19334">
        <ele>206</ele>
      </trkpt>
      <trkpt lat="49.03954" lon="6.19284">
        <ele>205.9</ele>
      </trkpt>
      <trkpt lat="49.03924" lon="6.19208">
        <ele>205</ele>
      </trkpt>
      <trkpt lat="49.03908" lon="6.19156">
        <ele>204.5</ele>
      </trkpt>
      <trkpt lat="49.03892" lon="6.19117">
        <ele>204.1</ele>
      </trkpt>
      <trkpt lat="49.03874" lon="6.19067">
        <ele>203.5</ele>
      </trkpt>
      <trkpt lat="49.03857" lon="6.19016">
        <ele>202.1</ele>
      </trkpt>
      <trkpt lat="49.03851" lon="6.1893">
        <ele>199.8</ele>
      </trkpt>
      <trkpt lat="49.03846" lon="6.18871">
        <ele>197.5</ele>
      </trkpt>
      <trkpt lat="49.03853" lon="6.18815">
        <ele>194.6</ele>
      </trkpt>
      <trkpt lat="49.03867" lon="6.1876">
        <ele>192.4</ele>
      </trkpt>
      <trkpt lat="49.03873" lon="6.18699">
        <ele>190.2</ele>
      </trkpt>
      <trkpt lat="49.03866" lon="6.18609">
        <ele>186.9</ele>
      </trkpt>
      <trkpt lat="49.03852" lon="6.18551">
        <ele>185.2</ele>
      </trkpt>
      <trkpt lat="49.0384" lon="6.18494">
        <ele>183</ele>
      </trkpt>
      <trkpt lat="49.03829" lon="6.18439">
        <ele>181.8</ele>
      </trkpt>
      <trkpt lat="49.0382" lon="6.18382">
        <ele>180.4</ele>
      </trkpt>
      <trkpt lat="49.03814" lon="6.18318">
        <ele>178.8</ele>
      </trkpt>
      <trkpt lat="49.03811" lon="6.18268">
        <ele>177.1</ele>
      </trkpt>
      <trkpt lat="49.03807" lon="6.1821">
        <ele>176</ele>
      </trkpt>
      <trkpt lat="49.03801" lon="6.18154">
        <ele>175.1</ele>
      </trkpt>
      <trkpt lat="49.03793" lon="6.18098">
        <ele>174.2</ele>
      </trkpt>
      <trkpt lat="49.03759" lon="6.18034">
        <ele>173.2</ele>
      </trkpt>
      <trkpt lat="49.03727" lon="6.18016">
        <ele>173.8</ele>
      </trkpt>
      <trkpt lat="49.03695" lon="6.18001">
        <ele>174</ele>
      </trkpt>
      <trkpt lat="49.0366" lon="6.17986">
        <ele>174.2</ele>
      </trkpt>
      <trkpt lat="49.03607" lon="6.17989">
        <ele>175.5</ele>
      </trkpt>
      <trkpt lat="49.03593" lon="6.17997">
        <ele>175.8</ele>
      </trkpt>
      <trkpt lat="49.03575" lon="6.18007">
        <ele>176.3</ele>
      </trkpt>
      <trkpt lat="49.03542" lon="6.18025">
        <ele>176.5</ele>
      </trkpt>
      <trkpt lat="49.03522" lon="6.18036">
        <ele>176.4</ele>
      </trkpt>
      <trkpt lat="49.03466" lon="6.18067">
        <ele>177.1</ele>
      </trkpt>
      <trkpt lat="49.03427" lon="6.18069">
        <ele>176.2</ele>
      </trkpt>
      <trkpt lat="49.0339" lon="6.18053">
        <ele>174.9</ele>
      </trkpt>
      <trkpt lat="49.03371" lon="6.18031">
        <ele>174.7</ele>
      </trkpt>
      <trkpt lat="49.03352" lon="6.17992">
        <ele>173.8</ele>
      </trkpt>
      <trkpt lat="49.03326" lon="6.17916">
        <ele>172.7</ele>
      </trkpt>
      <trkpt lat="49.0331" lon="6.17874">
        <ele>173.5</ele>
      </trkpt>
      <trkpt lat="49.03293" lon="6.17822">
        <ele>173.1</ele>
      </trkpt>
      <trkpt lat="49.03277" lon="6.17767">
        <ele>173.9</ele>
      </trkpt>
      <trkpt lat="49.0326" lon="6.17717">
        <ele>172.8</ele>
      </trkpt>
      <trkpt lat="49.03234" lon="6.17637">
        <ele>172.1</ele>
      </trkpt>
      <trkpt lat="49.03219" lon="6.1758">
        <ele>173.7</ele>
      </trkpt>
      <trkpt lat="49.03208" lon="6.17523">
        <ele>172.6</ele>
      </trkpt>
      <trkpt lat="49.03203" lon="6.17463">
        <ele>172.2</ele>
      </trkpt>
      <trkpt lat="49.03197" lon="6.17416">
        <ele>173</ele>
      </trkpt>
      <trkpt lat="49.03194" lon="6.1733">
        <ele>174.2</ele>
      </trkpt>
      <trkpt lat="49.03193" lon="6.17273">
        <ele>175</ele>
      </trkpt>
      <trkpt lat="49.03188" lon="6.17215">
        <ele>174.2</ele>
      </trkpt>
      <trkpt lat="49.03185" lon="6.17158">
        <ele>174.2</ele>
      </trkpt>
      <trkpt lat="49.03181" lon="6.17104">
        <ele>173.7</ele>
      </trkpt>
      <trkpt lat="49.03176" lon="6.17016">
        <ele>173</ele>
      </trkpt>
      <trkpt lat="49.03177" lon="6.16958">
        <ele>173.1</ele>
      </trkpt>
      <trkpt lat="49.03184" lon="6.169">
        <ele>172.4</ele>
      </trkpt>
      <trkpt lat="49.0319" lon="6.16844">
        <ele>172.8</ele>
      </trkpt>
      <trkpt lat="49.03198" lon="6.16756">
        <ele>173.7</ele>
      </trkpt>
      <trkpt lat="49.0322" lon="6.16718">
        <ele>172.9</ele>
      </trkpt>
      <trkpt lat="49.03252" lon="6.16727">
        <ele>172.9</ele>
      </trkpt>
      <trkpt lat="49.03285" lon="6.16738">
        <ele>172.6</ele>
      </trkpt>
      <trkpt lat="49.03315" lon="6.16747">
        <ele>172.6</ele>
      </trkpt>
      <trkpt lat="49.03369" lon="6.16757">
        <ele>172</ele>
      </trkpt>
      <trkpt lat="49.03394" lon="6.16747">
        <ele>172.3</ele>
      </trkpt>
      <trkpt lat="49.0343" lon="6.16722">
        <ele>173</ele>
      </trkpt>
      <trkpt lat="49.03459" lon="6.16687">
        <ele>173</ele>
      </trkpt>
      <trkpt lat="49.03484" lon="6.16657">
        <ele>173</ele>
      </trkpt>
      <trkpt lat="49.03527" lon="6.16602">
        <ele>173</ele>
      </trkpt>
      <trkpt lat="49.03546" lon="6.16578">
        <ele>173.7</ele>
      </trkpt>
      <trkpt lat="49.03574" lon="6.16543">
        <ele>173.7</ele>
      </trkpt>
      <trkpt lat="49.03605" lon="6.1651">
        <ele>173.9</ele>
      </trkpt>
      <trkpt lat="49.03638" lon="6.16481">
        <ele>174</ele>
      </trkpt>
      <trkpt lat="49.03662" lon="6.16463">
        <ele>174</ele>
      </trkpt>
      <trkpt lat="49.03697" lon="6.16445">
        <ele>174.1</ele>
      </trkpt>
      <trkpt lat="49.03726" lon="6.16434">
        <ele>174.9</ele>
      </trkpt>
      <trkpt lat="49.03737" lon="6.1643">
        <ele>174.7</ele>
      </trkpt>
      <trkpt lat="49.03745" lon="6.16427">
        <ele>174.7</ele>
      </trkpt>
      <trkpt lat="49.03796" lon="6.16396">
        <ele>174.3</ele>
      </trkpt>
      <trkpt lat="49.03831" lon="6.16379">
        <ele>174</ele>
      </trkpt>
      <trkpt lat="49.03863" lon="6.16351">
        <ele>174.3</ele>
      </trkpt>
      <trkpt lat="49.03894" lon="6.16316">
        <ele>174</ele>
      </trkpt>
      <trkpt lat="49.03925" lon="6.16278">
        <ele>174</ele>
      </trkpt>
      <trkpt lat="49.03972" lon="6.16236">
        <ele>174</ele>
      </trkpt>
      <trkpt lat="49.04005" lon="6.16205">
        <ele>174.6</ele>
      </trkpt>
      <trkpt lat="49.04037" lon="6.16174">
        <ele>175</ele>
      </trkpt>
      <trkpt lat="49.04069" lon="6.16144">
        <ele>175.8</ele>
      </trkpt>
      <trkpt lat="49.04094" lon="6.16115">
        <ele>175.6</ele>
      </trkpt>
      <trkpt lat="49.04139" lon="6.16066">
        <ele>175</ele>
      </trkpt>
      <trkpt lat="49.04174" lon="6.16034">
        <ele>174.6</ele>
      </trkpt>
      <trkpt lat="49.0421" lon="6.16018">
        <ele>174.2</ele>
      </trkpt>
      <trkpt lat="49.04245" lon="6.16007">
        <ele>174</ele>
      </trkpt>
      <trkpt lat="49.04275" lon="6.15991">
        <ele>174</ele>
      </trkpt>
      <trkpt lat="49.0429" lon="6.15945">
        <ele>174</ele>
      </trkpt>
      <trkpt lat="49.0429" lon="6.15885">
        <ele>174</ele>
      </trkpt>
      <trkpt lat="49.04292" lon="6.15827">
        <ele>174</ele>
      </trkpt>
      <trkpt lat="49.04298" lon="6.1579">
        <ele>174.2</ele>
      </trkpt>
      <trkpt lat="49.04331" lon="6.1573">
        <ele>176</ele>
      </trkpt>
      <trkpt lat="49.0435" lon="6.15709">
        <ele>176</ele>
      </trkpt>
      <trkpt lat="49.04387" lon="6.15687">
        <ele>175.3</ele>
      </trkpt>
      <trkpt lat="49.04425" lon="6.1567">
        <ele>175.6</ele>
      </trkpt>
      <trkpt lat="49.04462" lon="6.15653">
        <ele>175</ele>
      </trkpt>
      <trkpt lat="49.04516" lon="6.15624">
        <ele>173.7</ele>
      </trkpt>
      <trkpt lat="49.04552" lon="6.15606">
        <ele>173</ele>
      </trkpt>
      <trkpt lat="49.0459" lon="6.15593">
        <ele>172.8</ele>
      </trkpt>
      <trkpt lat="49.04626" lon="6.15574">
        <ele>172</ele>
      </trkpt>
      <trkpt lat="49.0464" lon="6.15556">
        <ele>172</ele>
      </trkpt>
      <trkpt lat="49.04645" lon="6.1548">
        <ele>172</ele>
      </trkpt>
      <trkpt lat="49.04655" lon="6.15424">
        <ele>172.4</ele>
      </trkpt>
      <trkpt lat="49.04664" lon="6.15382">
        <ele>172.1</ele>
      </trkpt>
      <trkpt lat="49.0468" lon="6.1533">
        <ele>172.5</ele>
      </trkpt>
      <trkpt lat="49.047" lon="6.15279">
        <ele>172</ele>
      </trkpt>
      <trkpt lat="49.04723" lon="6.15223">
        <ele>172</ele>
      </trkpt>
      <trkpt lat="49.04741" lon="6.15172">
        <ele>172.5</ele>
      </trkpt>
      <trkpt lat="49.04756" lon="6.15119">
        <ele>173</ele>
      </trkpt>
      <trkpt lat="49.04778" lon="6.15072">
        <ele>173</ele>
      </trkpt>
      <trkpt lat="49.04803" lon="6.15032">
        <ele>173</ele>
      </trkpt>
      <trkpt lat="49.04841" lon="6.14966">
        <ele>173.1</ele>
      </trkpt>
      <trkpt lat="49.04865" lon="6.14924">
        <ele>173.9</ele>
      </trkpt>
      <trkpt lat="49.04883" lon="6.14898">
        <ele>173.6</ele>
      </trkpt>
      <trkpt lat="49.04896" lon="6.14882">
        <ele>173.8</ele>
      </trkpt>
      <trkpt lat="49.04923" lon="6.14839">
        <ele>174</ele>
      </trkpt>
      <trkpt lat="49.04949" lon="6.14796">
        <ele>175</ele>
      </trkpt>
      <trkpt lat="49.04977" lon="6.14751">
        <ele>176</ele>
      </trkpt>
      <trkpt lat="49.04986" lon="6.1472">
        <ele>177.1</ele>
      </trkpt>
      <trkpt lat="49.0497" lon="6.14701">
        <ele>177.7</ele>
      </trkpt>
      <trkpt lat="49.04939" lon="6.14657">
        <ele>178.3</ele>
      </trkpt>
      <trkpt lat="49.04945" lon="6.14629">
        <ele>179.4</ele>
      </trkpt>
      <trkpt lat="49.04979" lon="6.14627">
        <ele>179.8</ele>
      </trkpt>
      <trkpt lat="49.05001" lon="6.14628">
        <ele>180.8</ele>
      </trkpt>
      <trkpt lat="49.05041" lon="6.14629">
        <ele>179.2</ele>
      </trkpt>
      <trkpt lat="49.05088" lon="6.14633">
        <ele>175.1</ele>
      </trkpt>
      <trkpt lat="49.05115" lon="6.14633">
        <ele>180.6</ele>
      </trkpt>
      <trkpt lat="49.05152" lon="6.14634">
        <ele>180.4</ele>
      </trkpt>
      <trkpt lat="49.05188" lon="6.14635">
        <ele>180.3</ele>
      </trkpt>
      <trkpt lat="49.05196" lon="6.14636">
        <ele>180.2</ele>
      </trkpt>
      <trkpt lat="49.05236" lon="6.14636">
        <ele>180.3</ele>
      </trkpt>
      <trkpt lat="49.05257" lon="6.14637">
        <ele>180.4</ele>
      </trkpt>
      <trkpt lat="49.05286" lon="6.14637">
        <ele>181.1</ele>
      </trkpt>
      <trkpt lat="49.05322" lon="6.14641">
        <ele>180.7</ele>
      </trkpt>
      <trkpt lat="49.05348" lon="6.14641">
        <ele>180.6</ele>
      </trkpt>
      <trkpt lat="49.0539" lon="6.14648">
        <ele>178.1</ele>
      </trkpt>
      <trkpt lat="49.05429" lon="6.14659">
        <ele>179.3</ele>
      </trkpt>
      <trkpt lat="49.05464" lon="6.14671">
        <ele>180.9</ele>
      </trkpt>
      <trkpt lat="49.055" lon="6.1469">
        <ele>181.5</ele>
      </trkpt>
      <trkpt lat="49.05526" lon="6.14704">
        <ele>183.4</ele>
      </trkpt>
      <trkpt lat="49.05581" lon="6.14724">
        <ele>182</ele>
      </trkpt>
      <trkpt lat="49.05614" lon="6.14728">
        <ele>183.3</ele>
      </trkpt>
      <trkpt lat="49.05653" lon="6.14726">
        <ele>183.5</ele>
      </trkpt>
      <trkpt lat="49.05685" lon="6.14719">
        <ele>184.6</ele>
      </trkpt>
      <trkpt lat="49.05722" lon="6.14699">
        <ele>182.7</ele>
      </trkpt>
      <trkpt lat="49.05761" lon="6.14703">
        <ele>182.7</ele>
      </trkpt>
      <trkpt lat="49.0578" lon="6.14681">
        <ele>182</ele>
      </trkpt>
      <trkpt lat="49.0581" lon="6.14645">
        <ele>181.8</ele>
      </trkpt>
      <trkpt lat="49.05835" lon="6.14605">
        <ele>181.2</ele>
      </trkpt>
      <trkpt lat="49.05873" lon="6.14549">
        <ele>180.5</ele>
      </trkpt>
      <trkpt lat="49.059" lon="6.1451">
        <ele>180.7</ele>
      </trkpt>
      <trkpt lat="49.05926" lon="6.14469">
        <ele>180.7</ele>
      </trkpt>
      <trkpt lat="49.05946" lon="6.14432">
        <ele>180.9</ele>
      </trkpt>
      <trkpt lat="49.05967" lon="6.14383">
        <ele>181.2</ele>
      </trkpt>
      <trkpt lat="49.05984" lon="6.14321">
        <ele>181.5</ele>
      </trkpt>
      <trkpt lat="49.0599" lon="6.14266">
        <ele>182.5</ele>
      </trkpt>
      <trkpt lat="49.05993" lon="6.14222">
        <ele>182.5</ele>
      </trkpt>
      <trkpt lat="49.05992" lon="6.14174">
        <ele>182.7</ele>
      </trkpt>
      <trkpt lat="49.05989" lon="6.14116">
        <ele>182.5</ele>
      </trkpt>
      <trkpt lat="49.0599" lon="6.14028">
        <ele>181.7</ele>
      </trkpt>
      <trkpt lat="49.05993" lon="6.1397">
        <ele>180.8</ele>
      </trkpt>
      <trkpt lat="49.05997" lon="6.13927">
        <ele>181.6</ele>
      </trkpt>
      <trkpt lat="49.06003" lon="6.13894">
        <ele>182</ele>
      </trkpt>
      <trkpt lat="49.06011" lon="6.13863">
        <ele>181.6</ele>
      </trkpt>
      <trkpt lat="49.06042" lon="6.1379">
        <ele>181.5</ele>
      </trkpt>
      <trkpt lat="49.06066" lon="6.13747">
        <ele>181.4</ele>
      </trkpt>
      <trkpt lat="49.06095" lon="6.13708">
        <ele>182.5</ele>
      </trkpt>
      <trkpt lat="49.06125" lon="6.13674">
        <ele>183.4</ele>
      </trkpt>
      <trkpt lat="49.0614" lon="6.13633">
        <ele>184</ele>
      </trkpt>
      <trkpt lat="49.0612" lon="6.13572">
        <ele>185.1</ele>
      </trkpt>
      <trkpt lat="49.06104" lon="6.13541">
        <ele>185.3</ele>
      </trkpt>
      <trkpt lat="49.06087" lon="6.13522">
        <ele>186</ele>
      </trkpt>
      <trkpt lat="49.06058" lon="6.13484">
        <ele>186.1</ele>
      </trkpt>
      <trkpt lat="49.06031" lon="6.13443">
        <ele>186.2</ele>
      </trkpt>
      <trkpt lat="49.06011" lon="6.1337">
        <ele>186.8</ele>
      </trkpt>
      <trkpt lat="49.06003" lon="6.13342">
        <ele>187.1</ele>
      </trkpt>
      <trkpt lat="49.05998" lon="6.13325">
        <ele>187.2</ele>
      </trkpt>
      <trkpt lat="49.05985" lon="6.13271">
        <ele>187.7</ele>
      </trkpt>
      <trkpt lat="49.05963" lon="6.13188">
        <ele>188.9</ele>
      </trkpt>
      <trkpt lat="49.05952" lon="6.13151">
        <ele>189.3</ele>
      </trkpt>
      <trkpt lat="49.05938" lon="6.13094">
        <ele>189.5</ele>
      </trkpt>
      <trkpt lat="49.05928" lon="6.13063">
        <ele>189.4</ele>
      </trkpt>
      <trkpt lat="49.05911" lon="6.13014">
        <ele>189.4</ele>
      </trkpt>
      <trkpt lat="49.05908" lon="6.12968">
        <ele>190.4</ele>
      </trkpt>
      <trkpt lat="49.05893" lon="6.12915">
        <ele>191.1</ele>
      </trkpt>
      <trkpt lat="49.0588" lon="6.12877">
        <ele>190.8</ele>
      </trkpt>
      <trkpt lat="49.05865" lon="6.12845">
        <ele>191.1</ele>
      </trkpt>
      <trkpt lat="49.05842" lon="6.12798">
        <ele>191.5</ele>
      </trkpt>
      <trkpt lat="49.0583" lon="6.12774">
        <ele>191.9</ele>
      </trkpt>
      <trkpt lat="49.05813" lon="6.12744">
        <ele>192.1</ele>
      </trkpt>
      <trkpt lat="49.05793" lon="6.12715">
        <ele>192.3</ele>
      </trkpt>
      <trkpt lat="49.05763" lon="6.12676">
        <ele>192.8</ele>
      </trkpt>
      <trkpt lat="49.05732" lon="6.12638">
        <ele>193</ele>
      </trkpt>
      <trkpt lat="49.05692" lon="6.12589">
        <ele>192.8</ele>
      </trkpt>
      <trkpt lat="49.05664" lon="6.12548">
        <ele>193.2</ele>
      </trkpt>
      <trkpt lat="49.05644" lon="6.12509">
        <ele>193.7</ele>
      </trkpt>
      <trkpt lat="49.05629" lon="6.12476">
        <ele>194</ele>
      </trkpt>
      <trkpt lat="49.05629" lon="6.12432">
        <ele>194.6</ele>
      </trkpt>
      <trkpt lat="49.05675" lon="6.12385">
        <ele>195.5</ele>
      </trkpt>
      <trkpt lat="49.05709" lon="6.12351">
        <ele>197.2</ele>
      </trkpt>
      <trkpt lat="49.05739" lon="6.12316">
        <ele>198</ele>
      </trkpt>
      <trkpt lat="49.05753" lon="6.12301">
        <ele>198.1</ele>
      </trkpt>
      <trkpt lat="49.05786" lon="6.12268">
        <ele>198</ele>
      </trkpt>
      <trkpt lat="49.05816" lon="6.123">
        <ele>198</ele>
      </trkpt>
      <trkpt lat="49.05845" lon="6.1234">
        <ele>198.3</ele>
      </trkpt>
      <trkpt lat="49.05877" lon="6.12363">
        <ele>198</ele>
      </trkpt>
      <trkpt lat="49.05894" lon="6.12327">
        <ele>198.9</ele>
      </trkpt>
      <trkpt lat="49.05918" lon="6.12291">
        <ele>199</ele>
      </trkpt>
      <trkpt lat="49.05963" lon="6.12318">
        <ele>198.4</ele>
      </trkpt>
      <trkpt lat="49.05972" lon="6.1236">
        <ele>199</ele>
      </trkpt>
      <trkpt lat="49.05979" lon="6.12418">
        <ele>197.8</ele>
      </trkpt>
      <trkpt lat="49.05998" lon="6.12466">
        <ele>197</ele>
      </trkpt>
      <trkpt lat="49.06021" lon="6.125">
        <ele>196</ele>
      </trkpt>
      <trkpt lat="49.06041" lon="6.12517">
        <ele>196</ele>
      </trkpt>
      <trkpt lat="49.06057" lon="6.12522">
        <ele>195.9</ele>
      </trkpt>
      <trkpt lat="49.06095" lon="6.12534">
        <ele>194.7</ele>
      </trkpt>
      <trkpt lat="49.06132" lon="6.12545">
        <ele>193.4</ele>
      </trkpt>
      <trkpt lat="49.06175" lon="6.12541">
        <ele>191.7</ele>
      </trkpt>
      <trkpt lat="49.06189" lon="6.12512">
        <ele>191.2</ele>
      </trkpt>
      <trkpt lat="49.06188" lon="6.12468">
        <ele>191.2</ele>
      </trkpt>
      <trkpt lat="49.06176" lon="6.12417">
        <ele>191.7</ele>
      </trkpt>
      <trkpt lat="49.06175" lon="6.12361">
        <ele>191.4</ele>
      </trkpt>
      <trkpt lat="49.06161" lon="6.12283">
        <ele>191.4</ele>
      </trkpt>
      <trkpt lat="49.06154" lon="6.12232">
        <ele>192.5</ele>
      </trkpt>
      <trkpt lat="49.06146" lon="6.12198">
        <ele>192.7</ele>
      </trkpt>
      <trkpt lat="49.06166" lon="6.12152">
        <ele>193</ele>
      </trkpt>
      <trkpt lat="49.06167" lon="6.12124">
        <ele>193.5</ele>
      </trkpt>
      <trkpt lat="49.06201" lon="6.12061">
        <ele>194.8</ele>
      </trkpt>
      <trkpt lat="49.06236" lon="6.12037">
        <ele>195.3</ele>
      </trkpt>
      <trkpt lat="49.06263" lon="6.1202">
        <ele>196</ele>
      </trkpt>
      <trkpt lat="49.06265" lon="6.11979">
        <ele>196.4</ele>
      </trkpt>
      <trkpt lat="49.06256" lon="6.11951">
        <ele>196.1</ele>
      </trkpt>
      <trkpt lat="49.0623" lon="6.11887">
        <ele>197</ele>
      </trkpt>
      <trkpt lat="49.06216" lon="6.11848">
        <ele>197</ele>
      </trkpt>
      <trkpt lat="49.06193" lon="6.11797">
        <ele>197</ele>
      </trkpt>
      <trkpt lat="49.06171" lon="6.11748">
        <ele>197.2</ele>
      </trkpt>
      <trkpt lat="49.06176" lon="6.11692">
        <ele>198.4</ele>
      </trkpt>
      <trkpt lat="49.0622" lon="6.11638">
        <ele>198.9</ele>
      </trkpt>
      <trkpt lat="49.06257" lon="6.1162">
        <ele>198.7</ele>
      </trkpt>
      <trkpt lat="49.06294" lon="6.11627">
        <ele>198.4</ele>
      </trkpt>
      <trkpt lat="49.06313" lon="6.11635">
        <ele>198.1</ele>
      </trkpt>
      <trkpt lat="49.06364" lon="6.11648">
        <ele>198</ele>
      </trkpt>
      <trkpt lat="49.06394" lon="6.11654">
        <ele>198</ele>
      </trkpt>
      <trkpt lat="49.06428" lon="6.11663">
        <ele>198.1</ele>
      </trkpt>
      <trkpt lat="49.06447" lon="6.11667">
        <ele>198</ele>
      </trkpt>
      <trkpt lat="49.06486" lon="6.11677">
        <ele>198.1</ele>
      </trkpt>
      <trkpt lat="49.06546" lon="6.11692">
        <ele>199</ele>
      </trkpt>
      <trkpt lat="49.06584" lon="6.11689">
        <ele>199.2</ele>
      </trkpt>
      <trkpt lat="49.0662" lon="6.11688">
        <ele>200.3</ele>
      </trkpt>
      <trkpt lat="49.06658" lon="6.11681">
        <ele>201</ele>
      </trkpt>
      <trkpt lat="49.06697" lon="6.11678">
        <ele>201.5</ele>
      </trkpt>
      <trkpt lat="49.06753" lon="6.11679">
        <ele>200.5</ele>
      </trkpt>
      <trkpt lat="49.06791" lon="6.1168">
        <ele>199.8</ele>
      </trkpt>
      <trkpt lat="49.0683" lon="6.11681">
        <ele>198.2</ele>
      </trkpt>
      <trkpt lat="49.06867" lon="6.11684">
        <ele>197.2</ele>
      </trkpt>
      <trkpt lat="49.06906" lon="6.11687">
        <ele>195.7</ele>
      </trkpt>
      <trkpt lat="49.06965" lon="6.11676">
        <ele>194.3</ele>
      </trkpt>
      <trkpt lat="49.06988" lon="6.11666">
        <ele>194</ele>
      </trkpt>
      <trkpt lat="49.0702" lon="6.11654">
        <ele>193.3</ele>
      </trkpt>
      <trkpt lat="49.0703" lon="6.11648">
        <ele>193</ele>
      </trkpt>
      <trkpt lat="49.07058" lon="6.11628">
        <ele>193.4</ele>
      </trkpt>
      <trkpt lat="49.07105" lon="6.11576">
        <ele>192.5</ele>
      </trkpt>
      <trkpt lat="49.0712" lon="6.11544">
        <ele>192.5</ele>
      </trkpt>
      <trkpt lat="49.07143" lon="6.11501">
        <ele>191.9</ele>
      </trkpt>
      <trkpt lat="49.07164" lon="6.11449">
        <ele>191.1</ele>
      </trkpt>
      <trkpt lat="49.07181" lon="6.114">
        <ele>191</ele>
      </trkpt>
      <trkpt lat="49.0721" lon="6.11327">
        <ele>190.9</ele>
      </trkpt>
      <trkpt lat="49.07238" lon="6.11299">
        <ele>190.4</ele>
      </trkpt>
      <trkpt lat="49.07271" lon="6.11271">
        <ele>189</ele>
      </trkpt>
      <trkpt lat="49.07309" lon="6.11286">
        <ele>188.2</ele>
      </trkpt>
      <trkpt lat="49.07338" lon="6.11321">
        <ele>188.5</ele>
      </trkpt>
      <trkpt lat="49.07366" lon="6.11359">
        <ele>188.9</ele>
      </trkpt>
      <trkpt lat="49.07395" lon="6.11397">
        <ele>189</ele>
      </trkpt>
      <trkpt lat="49.07423" lon="6.11439">
        <ele>189</ele>
      </trkpt>
      <trkpt lat="49.07448" lon="6.11474">
        <ele>189</ele>
      </trkpt>
      <trkpt lat="49.07484" lon="6.11539">
        <ele>188.8</ele>
      </trkpt>
      <trkpt lat="49.0751" lon="6.11585">
        <ele>187.9</ele>
      </trkpt>
      <trkpt lat="49.07536" lon="6.11626">
        <ele>186.3</ele>
      </trkpt>
      <trkpt lat="49.07564" lon="6.11663">
        <ele>184.8</ele>
      </trkpt>
      <trkpt lat="49.07592" lon="6.11702">
        <ele>183.5</ele>
      </trkpt>
      <trkpt lat="49.07624" lon="6.11747">
        <ele>181.2</ele>
      </trkpt>
      <trkpt lat="49.0765" lon="6.11789">
        <ele>180.9</ele>
      </trkpt>
      <trkpt lat="49.0767" lon="6.11829">
        <ele>180.5</ele>
      </trkpt>
      <trkpt lat="49.07695" lon="6.11874">
        <ele>180.5</ele>
      </trkpt>
      <trkpt lat="49.0772" lon="6.11916">
        <ele>180.8</ele>
      </trkpt>
      <trkpt lat="49.07748" lon="6.11961">
        <ele>181.1</ele>
      </trkpt>
      <trkpt lat="49.0777" lon="6.12013">
        <ele>182.2</ele>
      </trkpt>
      <trkpt lat="49.07789" lon="6.12061">
        <ele>183.2</ele>
      </trkpt>
      <trkpt lat="49.07799" lon="6.12089">
        <ele>184</ele>
      </trkpt>
      <trkpt lat="49.07814" lon="6.12144">
        <ele>184.8</ele>
      </trkpt>
      <trkpt lat="49.07846" lon="6.12217">
        <ele>184.6</ele>
      </trkpt>
      <trkpt lat="49.07873" lon="6.12256">
        <ele>184.6</ele>
      </trkpt>
      <trkpt lat="49.07889" lon="6.12311">
        <ele>185</ele>
      </trkpt>
      <trkpt lat="49.07906" lon="6.12344">
        <ele>184.8</ele>
      </trkpt>
      <trkpt lat="49.07929" lon="6.12388">
        <ele>185.5</ele>
      </trkpt>
      <trkpt lat="49.07961" lon="6.12447">
        <ele>187.1</ele>
      </trkpt>
      <trkpt lat="49.07969" lon="6.12462">
        <ele>187.6</ele>
      </trkpt>
      <trkpt lat="49.07986" lon="6.12494">
        <ele>187.4</ele>
      </trkpt>
      <trkpt lat="49.08007" lon="6.12541">
        <ele>187.9</ele>
      </trkpt>
      <trkpt lat="49.08032" lon="6.12586">
        <ele>188.8</ele>
      </trkpt>
      <trkpt lat="49.0807" lon="6.12654">
        <ele>188.5</ele>
      </trkpt>
      <trkpt lat="49.08082" lon="6.12676">
        <ele>188.4</ele>
      </trkpt>
      <trkpt lat="49.08091" lon="6.12693">
        <ele>188.4</ele>
      </trkpt>
      <trkpt lat="49.08102" lon="6.12707">
        <ele>188.3</ele>
      </trkpt>
      <trkpt lat="49.08136" lon="6.12734">
        <ele>188.1</ele>
      </trkpt>
      <trkpt lat="49.0817" lon="6.12755">
        <ele>186.9</ele>
      </trkpt>
      <trkpt lat="49.08201" lon="6.1277">
        <ele>185.8</ele>
      </trkpt>
      <trkpt lat="49.08217" lon="6.1278">
        <ele>185.2</ele>
      </trkpt>
      <trkpt lat="49.08238" lon="6.12792">
        <ele>184.7</ele>
      </trkpt>
      <trkpt lat="49.08291" lon="6.12833">
        <ele>184</ele>
      </trkpt>
      <trkpt lat="49.0832" lon="6.12875">
        <ele>182.7</ele>
      </trkpt>
      <trkpt lat="49.08346" lon="6.1292">
        <ele>182.7</ele>
      </trkpt>
      <trkpt lat="49.08368" lon="6.12958">
        <ele>183</ele>
      </trkpt>
      <trkpt lat="49.08395" lon="6.12997">
        <ele>183.7</ele>
      </trkpt>
      <trkpt lat="49.08434" lon="6.13057">
        <ele>183.4</ele>
      </trkpt>
      <trkpt lat="49.08461" lon="6.13098">
        <ele>182.7</ele>
      </trkpt>
      <trkpt lat="49.0849" lon="6.1314">
        <ele>182.4</ele>
      </trkpt>
      <trkpt lat="49.08509" lon="6.13165">
        <ele>182.3</ele>
      </trkpt>
      <trkpt lat="49.08534" lon="6.13211">
        <ele>181.6</ele>
      </trkpt>
      <trkpt lat="49.08565" lon="6.1326">
        <ele>181</ele>
      </trkpt>
      <trkpt lat="49.08591" lon="6.13303">
        <ele>182.6</ele>
      </trkpt>
      <trkpt lat="49.08618" lon="6.13344">
        <ele>184</ele>
      </trkpt>
      <trkpt lat="49.08638" lon="6.13378">
        <ele>184.6</ele>
      </trkpt>
      <trkpt lat="49.08665" lon="6.1342">
        <ele>185</ele>
      </trkpt>
      <trkpt lat="49.08705" lon="6.13484">
        <ele>187.2</ele>
      </trkpt>
      <trkpt lat="49.08732" lon="6.13528">
        <ele>188</ele>
      </trkpt>
      <trkpt lat="49.08759" lon="6.13569">
        <ele>188.5</ele>
      </trkpt>
      <trkpt lat="49.08786" lon="6.13611">
        <ele>188.7</ele>
      </trkpt>
      <trkpt lat="49.08803" lon="6.13662">
        <ele>188.9</ele>
      </trkpt>
      <trkpt lat="49.08804" lon="6.13726">
        <ele>189</ele>
      </trkpt>
      <trkpt lat="49.0879" lon="6.13782">
        <ele>189</ele>
      </trkpt>
      <trkpt lat="49.0878" lon="6.13825">
        <ele>189</ele>
      </trkpt>
      <trkpt lat="49.0877" lon="6.13882">
        <ele>189</ele>
      </trkpt>
      <trkpt lat="49.08757" lon="6.13936">
        <ele>189</ele>
      </trkpt>
      <trkpt lat="49.08747" lon="6.13992">
        <ele>189.2</ele>
      </trkpt>
      <trkpt lat="49.08718" lon="6.14028">
        <ele>189.8</ele>
      </trkpt>
      <trkpt lat="49.08689" lon="6.14063">
        <ele>189.7</ele>
      </trkpt>
      <trkpt lat="49.08661" lon="6.14087">
        <ele>189.2</ele>
      </trkpt>
      <trkpt lat="49.08616" lon="6.1412">
        <ele>189</ele>
      </trkpt>
      <trkpt lat="49.08582" lon="6.14144">
        <ele>189</ele>
      </trkpt>
      <trkpt lat="49.08546" lon="6.14165">
        <ele>189</ele>
      </trkpt>
      <trkpt lat="49.08512" lon="6.14191">
        <ele>189</ele>
      </trkpt>
      <trkpt lat="49.08499" lon="6.14202">
        <ele>189</ele>
      </trkpt>
      <trkpt lat="49.08478" lon="6.14224">
        <ele>189</ele>
      </trkpt>
      <trkpt lat="49.08445" lon="6.14259">
        <ele>189</ele>
      </trkpt>
      <trkpt lat="49.08414" lon="6.14297">
        <ele>188.9</ele>
      </trkpt>
      <trkpt lat="49.084" lon="6.14318">
        <ele>189</ele>
      </trkpt>
      <trkpt lat="49.08375" lon="6.14359">
        <ele>188.5</ele>
      </trkpt>
      <trkpt lat="49.08339" lon="6.14426">
        <ele>188</ele>
      </trkpt>
      <trkpt lat="49.08315" lon="6.14476">
        <ele>188</ele>
      </trkpt>
      <trkpt lat="49.08296" lon="6.14517">
        <ele>188</ele>
      </trkpt>
      <trkpt lat="49.08278" lon="6.1457">
        <ele>188</ele>
      </trkpt>
      <trkpt lat="49.08258" lon="6.14622">
        <ele>187.7</ele>
      </trkpt>
      <trkpt lat="49.0825" lon="6.14673">
        <ele>187</ele>
      </trkpt>
      <trkpt lat="49.08245" lon="6.14729">
        <ele>187.2</ele>
      </trkpt>
      <trkpt lat="49.08257" lon="6.14784">
        <ele>187.7</ele>
      </trkpt>
      <trkpt lat="49.08289" lon="6.14818">
        <ele>187.4</ele>
      </trkpt>
      <trkpt lat="49.08325" lon="6.14845">
        <ele>188</ele>
      </trkpt>
      <trkpt lat="49.08365" lon="6.14879">
        <ele>188</ele>
      </trkpt>
      <trkpt lat="49.08399" lon="6.14904">
        <ele>187.8</ele>
      </trkpt>
      <trkpt lat="49.08432" lon="6.1493">
        <ele>187.7</ele>
      </trkpt>
      <trkpt lat="49.08466" lon="6.14955">
        <ele>187.5</ele>
      </trkpt>
      <trkpt lat="49.08501" lon="6.14956">
        <ele>187.4</ele>
      </trkpt>
      <trkpt lat="49.08521" lon="6.14872">
        <ele>187.5</ele>
      </trkpt>
      <trkpt lat="49.08535" lon="6.14816">
        <ele>188</ele>
      </trkpt>
      <trkpt lat="49.08549" lon="6.1476">
        <ele>187.8</ele>
      </trkpt>
      <trkpt lat="49.08557" lon="6.14735">
        <ele>188</ele>
      </trkpt>
      <trkpt lat="49.08577" lon="6.14659">
        <ele>188.8</ele>
      </trkpt>
      <trkpt lat="49.08589" lon="6.14603">
        <ele>189</ele>
      </trkpt>
      <trkpt lat="49.08602" lon="6.14547">
        <ele>189</ele>
      </trkpt>
      <trkpt lat="49.08616" lon="6.14491">
        <ele>189</ele>
      </trkpt>
      <trkpt lat="49.0863" lon="6.14436">
        <ele>189</ele>
      </trkpt>
      <trkpt lat="49.08651" lon="6.14353">
        <ele>189.3</ele>
      </trkpt>
      <trkpt lat="49.08666" lon="6.14298">
        <ele>189</ele>
      </trkpt>
      <trkpt lat="49.08678" lon="6.14241">
        <ele>189.3</ele>
      </trkpt>
      <trkpt lat="49.08692" lon="6.14183">
        <ele>189.9</ele>
      </trkpt>
      <trkpt lat="49.08717" lon="6.14141">
        <ele>189</ele>
      </trkpt>
      <trkpt lat="49.08765" lon="6.14107">
        <ele>189</ele>
      </trkpt>
      <trkpt lat="49.08794" lon="6.14148">
        <ele>189</ele>
      </trkpt>
      <trkpt lat="49.08821" lon="6.14194">
        <ele>189</ele>
      </trkpt>
      <trkpt lat="49.08848" lon="6.14239">
        <ele>189.8</ele>
      </trkpt>
      <trkpt lat="49.08873" lon="6.14275">
        <ele>189.1</ele>
      </trkpt>
      <trkpt lat="49.08915" lon="6.14336">
        <ele>189</ele>
      </trkpt>
      <trkpt lat="49.08939" lon="6.14373">
        <ele>189.1</ele>
      </trkpt>
      <trkpt lat="49.08964" lon="6.14419">
        <ele>189</ele>
      </trkpt>
      <trkpt lat="49.08994" lon="6.14459">
        <ele>189</ele>
      </trkpt>
      <trkpt lat="49.09023" lon="6.14496">
        <ele>189</ele>
      </trkpt>
      <trkpt lat="49.09052" lon="6.14457">
        <ele>188.5</ele>
      </trkpt>
      <trkpt lat="49.09075" lon="6.14425">
        <ele>188</ele>
      </trkpt>
      <trkpt lat="49.09104" lon="6.14458">
        <ele>188</ele>
      </trkpt>
      <trkpt lat="49.0913" lon="6.14498">
        <ele>188</ele>
      </trkpt>
      <trkpt lat="49.09163" lon="6.1451">
        <ele>187.4</ele>
      </trkpt>
      <trkpt lat="49.09212" lon="6.14468">
        <ele>186.4</ele>
      </trkpt>
      <trkpt lat="49.09237" lon="6.14512">
        <ele>186.2</ele>
      </trkpt>
      <trkpt lat="49.09254" lon="6.1455">
        <ele>186.5</ele>
      </trkpt>
      <trkpt lat="49.09271" lon="6.14592">
        <ele>185.6</ele>
      </trkpt>
      <trkpt lat="49.09303" lon="6.14666">
        <ele>185.1</ele>
      </trkpt>
      <trkpt lat="49.09322" lon="6.14715">
        <ele>185.3</ele>
      </trkpt>
      <trkpt lat="49.09332" lon="6.14753">
        <ele>185.2</ele>
      </trkpt>
      <trkpt lat="49.09356" lon="6.14735">
        <ele>184.2</ele>
      </trkpt>
      <trkpt lat="49.09389" lon="6.14703">
        <ele>182.3</ele>
      </trkpt>
      <trkpt lat="49.09427" lon="6.1466">
        <ele>180.4</ele>
      </trkpt>
      <trkpt lat="49.09423" lon="6.14604">
        <ele>179.3</ele>
      </trkpt>
      <trkpt lat="49.09419" lon="6.14549">
        <ele>177.3</ele>
      </trkpt>
      <trkpt lat="49.09415" lon="6.14492">
        <ele>176.9</ele>
      </trkpt>
      <trkpt lat="49.09413" lon="6.14434">
        <ele>175.2</ele>
      </trkpt>
      <trkpt lat="49.09437" lon="6.14374">
        <ele>177.2</ele>
      </trkpt>
      <trkpt lat="49.09503" lon="6.14359">
        <ele>175.4</ele>
      </trkpt>
      <trkpt lat="49.09533" lon="6.1437">
        <ele>177.6</ele>
      </trkpt>
      <trkpt lat="49.09558" lon="6.14358">
        <ele>172.1</ele>
      </trkpt>
      <trkpt lat="49.09581" lon="6.14344">
        <ele>171.8</ele>
      </trkpt>
      <trkpt lat="49.09619" lon="6.14311">
        <ele>170.1</ele>
      </trkpt>
      <trkpt lat="49.0965" lon="6.14288">
        <ele>169.6</ele>
      </trkpt>
      <trkpt lat="49.09658" lon="6.14281">
        <ele>169.7</ele>
      </trkpt>
      <trkpt lat="49.09681" lon="6.1426">
        <ele>170</ele>
      </trkpt>
      <trkpt lat="49.09693" lon="6.14209">
        <ele>170</ele>
      </trkpt>
      <trkpt lat="49.09692" lon="6.14142">
        <ele>169.1</ele>
      </trkpt>
      <trkpt lat="49.09691" lon="6.14083">
        <ele>169.1</ele>
      </trkpt>
      <trkpt lat="49.09689" lon="6.14032">
        <ele>168.2</ele>
      </trkpt>
      <trkpt lat="49.0969" lon="6.13997">
        <ele>168.8</ele>
      </trkpt>
      <trkpt lat="49.09695" lon="6.13977">
        <ele>169</ele>
      </trkpt>
      <trkpt lat="49.09707" lon="6.13913">
        <ele>168.9</ele>
      </trkpt>
      <trkpt lat="49.09727" lon="6.1386">
        <ele>168.8</ele>
      </trkpt>
      <trkpt lat="49.09746" lon="6.13808">
        <ele>168.9</ele>
      </trkpt>
      <trkpt lat="49.0977" lon="6.13762">
        <ele>168.5</ele>
      </trkpt>
      <trkpt lat="49.09796" lon="6.13723">
        <ele>168.7</ele>
      </trkpt>
      <trkpt lat="49.09839" lon="6.13666">
        <ele>168.8</ele>
      </trkpt>
      <trkpt lat="49.09872" lon="6.13637">
        <ele>168</ele>
      </trkpt>
      <trkpt lat="49.09907" lon="6.13617">
        <ele>168</ele>
      </trkpt>
      <trkpt lat="49.09945" lon="6.13602">
        <ele>168</ele>
      </trkpt>
      <trkpt lat="49.10003" lon="6.13581">
        <ele>168</ele>
      </trkpt>
      <trkpt lat="49.10041" lon="6.1358">
        <ele>168.1</ele>
      </trkpt>
      <trkpt lat="49.1008" lon="6.13575">
        <ele>168.3</ele>
      </trkpt>
      <trkpt lat="49.10116" lon="6.13578">
        <ele>169.3</ele>
      </trkpt>
      <trkpt lat="49.10136" lon="6.13609">
        <ele>169</ele>
      </trkpt>
      <trkpt lat="49.10148" lon="6.1367">
        <ele>168.7</ele>
      </trkpt>
      <trkpt lat="49.10164" lon="6.13724">
        <ele>169</ele>
      </trkpt>
      <trkpt lat="49.10178" lon="6.13778">
        <ele>169.4</ele>
      </trkpt>
      <trkpt lat="49.10194" lon="6.13831">
        <ele>169.1</ele>
      </trkpt>
      <trkpt lat="49.1021" lon="6.13886">
        <ele>169.1</ele>
      </trkpt>
      <trkpt lat="49.10228" lon="6.13955">
        <ele>168.9</ele>
      </trkpt>
      <trkpt lat="49.10242" lon="6.14012">
        <ele>169.4</ele>
      </trkpt>
      <trkpt lat="49.10254" lon="6.14047">
        <ele>169.4</ele>
      </trkpt>
      <trkpt lat="49.10265" lon="6.14087">
        <ele>169.1</ele>
      </trkpt>
      <trkpt lat="49.1028" lon="6.1414">
        <ele>169</ele>
      </trkpt>
      <trkpt lat="49.10291" lon="6.14197">
        <ele>169</ele>
      </trkpt>
      <trkpt lat="49.10301" lon="6.1424">
        <ele>169.2</ele>
      </trkpt>
      <trkpt lat="49.10315" lon="6.14295">
        <ele>168.7</ele>
      </trkpt>
      <trkpt lat="49.10329" lon="6.14348">
        <ele>168.7</ele>
      </trkpt>
      <trkpt lat="49.10346" lon="6.14402">
        <ele>168.9</ele>
      </trkpt>
      <trkpt lat="49.10366" lon="6.14483">
        <ele>168.4</ele>
      </trkpt>
      <trkpt lat="49.10382" lon="6.14536">
        <ele>169.3</ele>
      </trkpt>
      <trkpt lat="49.10399" lon="6.14591">
        <ele>168.7</ele>
      </trkpt>
      <trkpt lat="49.10411" lon="6.14645">
        <ele>169.4</ele>
      </trkpt>
      <trkpt lat="49.10423" lon="6.14683">
        <ele>169.2</ele>
      </trkpt>
      <trkpt lat="49.10447" lon="6.14767">
        <ele>169.1</ele>
      </trkpt>
      <trkpt lat="49.10459" lon="6.14823">
        <ele>169</ele>
      </trkpt>
      <trkpt lat="49.10471" lon="6.14879">
        <ele>168.3</ele>
      </trkpt>
      <trkpt lat="49.10486" lon="6.1493">
        <ele>169.5</ele>
      </trkpt>
      <trkpt lat="49.10505" lon="6.14991">
        <ele>169.2</ele>
      </trkpt>
      <trkpt lat="49.10515" lon="6.15027">
        <ele>169.1</ele>
      </trkpt>
      <trkpt lat="49.10526" lon="6.15067">
        <ele>169.4</ele>
      </trkpt>
      <trkpt lat="49.1054" lon="6.15124">
        <ele>168.9</ele>
      </trkpt>
      <trkpt lat="49.10554" lon="6.1518">
        <ele>169.4</ele>
      </trkpt>
      <trkpt lat="49.1057" lon="6.15265">
        <ele>168.6</ele>
      </trkpt>
      <trkpt lat="49.10583" lon="6.15321">
        <ele>168.4</ele>
      </trkpt>
      <trkpt lat="49.10597" lon="6.15374">
        <ele>169</ele>
      </trkpt>
      <trkpt lat="49.10609" lon="6.15428">
        <ele>169</ele>
      </trkpt>
      <trkpt lat="49.1062" lon="6.15486">
        <ele>168.6</ele>
      </trkpt>
      <trkpt lat="49.10636" lon="6.15556">
        <ele>167.9</ele>
      </trkpt>
      <trkpt lat="49.10643" lon="6.15603">
        <ele>168.3</ele>
      </trkpt>
      <trkpt lat="49.10642" lon="6.15663">
        <ele>168.2</ele>
      </trkpt>
      <trkpt lat="49.10645" lon="6.15724">
        <ele>169.2</ele>
      </trkpt>
      <trkpt lat="49.10649" lon="6.15784">
        <ele>169.5</ele>
      </trkpt>
      <trkpt lat="49.10656" lon="6.1586">
        <ele>170</ele>
      </trkpt>
      <trkpt lat="49.10675" lon="6.1591">
        <ele>170.9</ele>
      </trkpt>
      <trkpt lat="49.10704" lon="6.15949">
        <ele>170.8</ele>
      </trkpt>
      <trkpt lat="49.10735" lon="6.15983">
        <ele>170.7</ele>
      </trkpt>
      <trkpt lat="49.10753" lon="6.16007">
        <ele>171.1</ele>
      </trkpt>
      <trkpt lat="49.10784" lon="6.16081">
        <ele>172.5</ele>
      </trkpt>
      <trkpt lat="49.10806" lon="6.16127">
        <ele>174.5</ele>
      </trkpt>
      <trkpt lat="49.10805" lon="6.16171">
        <ele>176.2</ele>
      </trkpt>
      <trkpt lat="49.10779" lon="6.16211">
        <ele>177.6</ele>
      </trkpt>
      <trkpt lat="49.1075" lon="6.1625">
        <ele>179</ele>
      </trkpt>
      <trkpt lat="49.10768" lon="6.16296">
        <ele>179.9</ele>
      </trkpt>
      <trkpt lat="49.10803" lon="6.16321">
        <ele>180</ele>
      </trkpt>
      <trkpt lat="49.10837" lon="6.16352">
        <ele>180</ele>
      </trkpt>
      <trkpt lat="49.10843" lon="6.16359">
        <ele>180</ele>
      </trkpt>
      <trkpt lat="49.10861" lon="6.1638">
        <ele>180</ele>
      </trkpt>
      <trkpt lat="49.10908" lon="6.16435">
        <ele>180.2</ele>
      </trkpt>
      <trkpt lat="49.10924" lon="6.16453">
        <ele>180.2</ele>
      </trkpt>
      <trkpt lat="49.1095" lon="6.16485">
        <ele>180.5</ele>
      </trkpt>
      <trkpt lat="49.10976" lon="6.16528">
        <ele>181</ele>
      </trkpt>
      <trkpt lat="49.10999" lon="6.16586">
        <ele>182</ele>
      </trkpt>
      <trkpt lat="49.11012" lon="6.16643">
        <ele>182.4</ele>
      </trkpt>
      <trkpt lat="49.11018" lon="6.167">
        <ele>181.7</ele>
      </trkpt>
      <trkpt lat="49.11041" lon="6.16733">
        <ele>183</ele>
      </trkpt>
      <trkpt lat="49.11077" lon="6.16753">
        <ele>183</ele>
      </trkpt>
      <trkpt lat="49.11092" lon="6.16764">
        <ele>183</ele>
      </trkpt>
      <trkpt lat="49.11131" lon="6.16784">
        <ele>183</ele>
      </trkpt>
      <trkpt lat="49.11166" lon="6.16809">
        <ele>183</ele>
      </trkpt>
      <trkpt lat="49.11183" lon="6.1682">
        <ele>183</ele>
      </trkpt>
      <trkpt lat="49.11219" lon="6.16842">
        <ele>183</ele>
      </trkpt>
      <trkpt lat="49.11266" lon="6.16891">
        <ele>184</ele>
      </trkpt>
      <trkpt lat="49.11292" lon="6.1693">
        <ele>184.3</ele>
      </trkpt>
      <trkpt lat="49.11323" lon="6.16969">
        <ele>184.1</ele>
      </trkpt>
      <trkpt lat="49.11351" lon="6.17007">
        <ele>183.8</ele>
      </trkpt>
      <trkpt lat="49.11387" lon="6.17032">
        <ele>183.8</ele>
      </trkpt>
      <trkpt lat="49.11438" lon="6.17066">
        <ele>186.4</ele>
      </trkpt>
      <trkpt lat="49.11469" lon="6.17111">
        <ele>182.9</ele>
      </trkpt>
      <trkpt lat="49.11477" lon="6.17143">
        <ele>181.9</ele>
      </trkpt>
      <trkpt lat="49.11476" lon="6.17172">
        <ele>180.9</ele>
      </trkpt>
      <trkpt lat="49.11471" lon="6.17221">
        <ele>180</ele>
      </trkpt>
      <trkpt lat="49.11508" lon="6.17292">
        <ele>178.5</ele>
      </trkpt>
      <trkpt lat="49.11522" lon="6.17307">
        <ele>178</ele>
      </trkpt>
      <trkpt lat="49.11526" lon="6.17313">
        <ele>178</ele>
      </trkpt>
      <trkpt lat="49.11526" lon="6.17314">
        <ele>178</ele>
      </trkpt>
      <trkpt lat="49.11528" lon="6.17315">
        <ele>178</ele>
      </trkpt>
      <trkpt lat="49.11527" lon="6.17313">
        <ele>178</ele>
      </trkpt>
      <trkpt lat="49.11526" lon="6.17311">
        <ele>178</ele>
      </trkpt>
    </trkseg>
  </trk>
</gpx>