<?xml version="1.0" encoding="UTF-8"?>
 <gpx creator="Garmin Connect" version="1.1"
	 xsi:schemaLocation="http://www.topografix.com/GPX/1/1 http://www.topografix.com/GPX/11.xsd"
	 xmlns:ns3="http://www.garmin.com/xmlschemas/TrackPointExtension/v1"
	 xmlns="http://www.topografix.com/GPX/1/1"
	 xmlns:xsi="http://www.w3.org/2001/XMLSchema-instance" xmlns:ns2="http://www.garmin.com/xmlschemas/GpxExtensions/v3">
	 <metadata>
		<name>Big Sur Internation Marathon 2024 - 42.195 km</name>
		 <link href="https://www.goandrace.com">
		 <text>Garmin Connect</text>
		 </link>
	 <time>2026-08-23T23:25:11</time>
	 </metadata>
	 <trk>
		 <name>Big Sur Internation Marathon 2024 - 42.195 km</name>
		 <trkseg>
			 <trkpt lat="36.247529" lon="-121.781781">
				 <ele>75</ele>
			 </trkpt>
			 <trkpt lat="36.24796" lon="-121.78218">
				 <ele>73.7</ele>
			 </trkpt>
			 <trkpt lat="36.24814" lon="-121.78242">
				 <ele>72.8</ele>
			 </trkpt>
			 <trkpt lat="36.24868" lon="-121.7835">
				 <ele>71.6</ele>
			 </trkpt>
			 <trkpt lat="36.24906" lon="-121.78448">
				 <ele>70.6</ele>
			 </trkpt>
			 <trkpt lat="36.24948" lon="-121.78543">
				 <ele>70</ele>
			 </trkpt>
			 <trkpt lat="36.24975" lon="-121.78582">
				 <ele>67.2</ele>
			 </trkpt>
			 <trkpt lat="36.2505" lon="-121.78655">
				 <ele>65.9</ele>
			 </trkpt>
			 <trkpt lat="36.25093" lon="-121.78683">
				 <ele>64.6</ele>
			 </trkpt>
			 <trkpt lat="36.25141" lon="-121.78706">
				 <ele>63.6</ele>
			 </trkpt>
			 <trkpt lat="36.25156" lon="-121.78708">
				 <ele>62.7</ele>
			 </trkpt>
			 <trkpt lat="36.25207" lon="-121.78719">
				 <ele>62.2</ele>
			 </trkpt>
			 <trkpt lat="36.25228" lon="-121.78722">
				 <ele>62</ele>
			 </trkpt>
			 <trkpt lat="36.25282" lon="-121.78723">
				 <ele>62.1</ele>
			 </trkpt>
			 <trkpt lat="36.25351" lon="-121.78727">
				 <ele>63.1</ele>
			 </trkpt>
			 <trkpt lat="36.25408" lon="-121.78744">
				 <ele>64.1</ele>
			 </trkpt>
			 <trkpt lat="36.25419" lon="-121.78752">
				 <ele>64.9</ele>
			 </trkpt>
			 <trkpt lat="36.2549" lon="-121.78796">
				 <ele>65.6</ele>
			 </trkpt>
			 <trkpt lat="36.25509" lon="-121.78806">
				 <ele>66.5</ele>
			 </trkpt>
			 <trkpt lat="36.2556" lon="-121.78822">
				 <ele>67.2</ele>
			 </trkpt>
			 <trkpt lat="36.25703" lon="-121.78825">
				 <ele>67.6</ele>
			 </trkpt>
			 <trkpt lat="36.25762" lon="-121.78824">
				 <ele>68.1</ele>
			 </trkpt>
			 <trkpt lat="36.25846" lon="-121.78833">
				 <ele>68.4</ele>
			 </trkpt>
			 <trkpt lat="36.25882" lon="-121.78847">
				 <ele>68</ele>
			 </trkpt>
			 <trkpt lat="36.25924" lon="-121.78876">
				 <ele>68</ele>
			 </trkpt>
			 <trkpt lat="36.25956" lon="-121.7891">
				 <ele>67.6</ele>
			 </trkpt>
			 <trkpt lat="36.25987" lon="-121.7896">
				 <ele>67.1</ele>
			 </trkpt>
			 <trkpt lat="36.26004" lon="-121.78997">
				 <ele>66.6</ele>
			 </trkpt>
			 <trkpt lat="36.26026" lon="-121.7907">
				 <ele>66.4</ele>
			 </trkpt>
			 <trkpt lat="36.26041" lon="-121.79143">
				 <ele>65.8</ele>
			 </trkpt>
			 <trkpt lat="36.26066" lon="-121.79242">
				 <ele>65.7</ele>
			 </trkpt>
			 <trkpt lat="36.26088" lon="-121.79283">
				 <ele>65.9</ele>
			 </trkpt>
			 <trkpt lat="36.26141" lon="-121.79339">
				 <ele>65.9</ele>
			 </trkpt>
			 <trkpt lat="36.26159" lon="-121.79351">
				 <ele>65.7</ele>
			 </trkpt>
			 <trkpt lat="36.2628" lon="-121.79412">
				 <ele>65.5</ele>
			 </trkpt>
			 <trkpt lat="36.26336" lon="-121.79438">
				 <ele>64.5</ele>
			 </trkpt>
			 <trkpt lat="36.26381" lon="-121.79476">
				 <ele>63.6</ele>
			 </trkpt>
			 <trkpt lat="36.264" lon="-121.795">
				 <ele>62.5</ele>
			 </trkpt>
			 <trkpt lat="36.26433" lon="-121.79574">
				 <ele>61</ele>
			 </trkpt>
			 <trkpt lat="36.2644" lon="-121.79644">
				 <ele>58.9</ele>
			 </trkpt>
			 <trkpt lat="36.26419" lon="-121.79942">
				 <ele>56.5</ele>
			 </trkpt>
			 <trkpt lat="36.2642" lon="-121.8003">
				 <ele>54</ele>
			 </trkpt>
			 <trkpt lat="36.26428" lon="-121.80073">
				 <ele>51.5</ele>
			 </trkpt>
			 <trkpt lat="36.26453" lon="-121.80147">
				 <ele>49.6</ele>
			 </trkpt>
			 <trkpt lat="36.26464" lon="-121.80171">
				 <ele>48.1</ele>
			 </trkpt>
			 <trkpt lat="36.26513" lon="-121.80244">
				 <ele>46.6</ele>
			 </trkpt>
			 <trkpt lat="36.2654" lon="-121.80276">
				 <ele>45.2</ele>
			 </trkpt>
			 <trkpt lat="36.26599" lon="-121.80324">
				 <ele>43.5</ele>
			 </trkpt>
			 <trkpt lat="36.26642" lon="-121.80352">
				 <ele>41.9</ele>
			 </trkpt>
			 <trkpt lat="36.2666" lon="-121.80369">
				 <ele>41.1</ele>
			 </trkpt>
			 <trkpt lat="36.26689" lon="-121.80385">
				 <ele>40.5</ele>
			 </trkpt>
			 <trkpt lat="36.2674" lon="-121.80422">
				 <ele>39.6</ele>
			 </trkpt>
			 <trkpt lat="36.26766" lon="-121.80446">
				 <ele>39.1</ele>
			 </trkpt>
			 <trkpt lat="36.26808" lon="-121.805">
				 <ele>38.6</ele>
			 </trkpt>
			 <trkpt lat="36.26833" lon="-121.80556">
				 <ele>37.7</ele>
			 </trkpt>
			 <trkpt lat="36.26876" lon="-121.80659">
				 <ele>36.8</ele>
			 </trkpt>
			 <trkpt lat="36.26892" lon="-121.80683">
				 <ele>36.6</ele>
			 </trkpt>
			 <trkpt lat="36.26928" lon="-121.80726">
				 <ele>36</ele>
			 </trkpt>
			 <trkpt lat="36.26972" lon="-121.80759">
				 <ele>35.2</ele>
			 </trkpt>
			 <trkpt lat="36.27006" lon="-121.80776">
				 <ele>34.6</ele>
			 </trkpt>
			 <trkpt lat="36.27092" lon="-121.8083">
				 <ele>33.6</ele>
			 </trkpt>
			 <trkpt lat="36.27127" lon="-121.80864">
				 <ele>32.6</ele>
			 </trkpt>
			 <trkpt lat="36.27171" lon="-121.8093">
				 <ele>32.5</ele>
			 </trkpt>
			 <trkpt lat="36.27194" lon="-121.80974">
				 <ele>32</ele>
			 </trkpt>
			 <trkpt lat="36.27274" lon="-121.81188">
				 <ele>31.6</ele>
			 </trkpt>
			 <trkpt lat="36.27279" lon="-121.81215">
				 <ele>31.5</ele>
			 </trkpt>
			 <trkpt lat="36.27286" lon="-121.81282">
				 <ele>31.7</ele>
			 </trkpt>
			 <trkpt lat="36.27285" lon="-121.81329">
				 <ele>31.5</ele>
			 </trkpt>
			 <trkpt lat="36.27261" lon="-121.81466">
				 <ele>31.6</ele>
			 </trkpt>
			 <trkpt lat="36.27257" lon="-121.8152">
				 <ele>31.3</ele>
			 </trkpt>
			 <trkpt lat="36.27264" lon="-121.81602">
				 <ele>30.9</ele>
			 </trkpt>
			 <trkpt lat="36.27279" lon="-121.81656">
				 <ele>30.6</ele>
			 </trkpt>
			 <trkpt lat="36.27307" lon="-121.81718">
				 <ele>30.3</ele>
			 </trkpt>
			 <trkpt lat="36.27329" lon="-121.81752">
				 <ele>29.9</ele>
			 </trkpt>
			 <trkpt lat="36.27374" lon="-121.81803">
				 <ele>29.8</ele>
			 </trkpt>
			 <trkpt lat="36.27397" lon="-121.81821">
				 <ele>29.7</ele>
			 </trkpt>
			 <trkpt lat="36.27455" lon="-121.81871">
				 <ele>28.9</ele>
			 </trkpt>
			 <trkpt lat="36.27483" lon="-121.81903">
				 <ele>28</ele>
			 </trkpt>
			 <trkpt lat="36.27505" lon="-121.81936">
				 <ele>27.4</ele>
			 </trkpt>
			 <trkpt lat="36.27535" lon="-121.82006">
				 <ele>27</ele>
			 </trkpt>
			 <trkpt lat="36.27547" lon="-121.8205">
				 <ele>27.4</ele>
			 </trkpt>
			 <trkpt lat="36.27554" lon="-121.82116">
				 <ele>27.8</ele>
			 </trkpt>
			 <trkpt lat="36.27551" lon="-121.82174">
				 <ele>29.1</ele>
			 </trkpt>
			 <trkpt lat="36.27549" lon="-121.82298">
				 <ele>30.1</ele>
			 </trkpt>
			 <trkpt lat="36.27556" lon="-121.82353">
				 <ele>30.7</ele>
			 </trkpt>
			 <trkpt lat="36.27575" lon="-121.82429">
				 <ele>31.5</ele>
			 </trkpt>
			 <trkpt lat="36.27598" lon="-121.82488">
				 <ele>32.1</ele>
			 </trkpt>
			 <trkpt lat="36.27651" lon="-121.82577">
				 <ele>32.9</ele>
			 </trkpt>
			 <trkpt lat="36.27738" lon="-121.82693">
				 <ele>33.3</ele>
			 </trkpt>
			 <trkpt lat="36.27934" lon="-121.82958">
				 <ele>33.1</ele>
			 </trkpt>
			 <trkpt lat="36.28107" lon="-121.83188">
				 <ele>32.8</ele>
			 </trkpt>
			 <trkpt lat="36.2814" lon="-121.83233">
				 <ele>32.4</ele>
			 </trkpt>
			 <trkpt lat="36.28182" lon="-121.83289">
				 <ele>31.9</ele>
			 </trkpt>
			 <trkpt lat="36.28238" lon="-121.83385">
				 <ele>30.8</ele>
			 </trkpt>
			 <trkpt lat="36.28261" lon="-121.83444">
				 <ele>30.3</ele>
			 </trkpt>
			 <trkpt lat="36.28414" lon="-121.83922">
				 <ele>29.8</ele>
			 </trkpt>
			 <trkpt lat="36.28459" lon="-121.84">
				 <ele>29.8</ele>
			 </trkpt>
			 <trkpt lat="36.28477" lon="-121.84022">
				 <ele>29.5</ele>
			 </trkpt>
			 <trkpt lat="36.28519" lon="-121.84059">
				 <ele>29.9</ele>
			 </trkpt>
			 <trkpt lat="36.28548" lon="-121.84078">
				 <ele>30.3</ele>
			 </trkpt>
			 <trkpt lat="36.28646" lon="-121.84135">
				 <ele>30.6</ele>
			 </trkpt>
			 <trkpt lat="36.28668" lon="-121.84152">
				 <ele>30.8</ele>
			 </trkpt>
			 <trkpt lat="36.28731" lon="-121.84217">
				 <ele>31</ele>
			 </trkpt>
			 <trkpt lat="36.28769" lon="-121.84268">
				 <ele>31.4</ele>
			 </trkpt>
			 <trkpt lat="36.28827" lon="-121.84377">
				 <ele>31.5</ele>
			 </trkpt>
			 <trkpt lat="36.28844" lon="-121.8442">
				 <ele>31.7</ele>
			 </trkpt>
			 <trkpt lat="36.28878" lon="-121.84582">
				 <ele>32</ele>
			 </trkpt>
			 <trkpt lat="36.28886" lon="-121.84638">
				 <ele>31.7</ele>
			 </trkpt>
			 <trkpt lat="36.28892" lon="-121.84782">
				 <ele>31.8</ele>
			 </trkpt>
			 <trkpt lat="36.28891" lon="-121.84848">
				 <ele>31.9</ele>
			 </trkpt>
			 <trkpt lat="36.28878" lon="-121.85161">
				 <ele>32.2</ele>
			 </trkpt>
			 <trkpt lat="36.28882" lon="-121.8523">
				 <ele>32.7</ele>
			 </trkpt>
			 <trkpt lat="36.28898" lon="-121.85317">
				 <ele>33.4</ele>
			 </trkpt>
			 <trkpt lat="36.28907" lon="-121.85345">
				 <ele>33.9</ele>
			 </trkpt>
			 <trkpt lat="36.29019" lon="-121.8559">
				 <ele>34.2</ele>
			 </trkpt>
			 <trkpt lat="36.2932" lon="-121.86207">
				 <ele>34.5</ele>
			 </trkpt>
			 <trkpt lat="36.29522" lon="-121.86621">
				 <ele>34.8</ele>
			 </trkpt>
			 <trkpt lat="36.29967" lon="-121.87538">
				 <ele>35.4</ele>
			 </trkpt>
			 <trkpt lat="36.30008" lon="-121.87616">
				 <ele>36.1</ele>
			 </trkpt>
			 <trkpt lat="36.30089" lon="-121.87754">
				 <ele>36.7</ele>
			 </trkpt>
			 <trkpt lat="36.30132" lon="-121.87816">
				 <ele>37.5</ele>
			 </trkpt>
			 <trkpt lat="36.30221" lon="-121.87928">
				 <ele>38.3</ele>
			 </trkpt>
			 <trkpt lat="36.30287" lon="-121.88">
				 <ele>39.1</ele>
			 </trkpt>
			 <trkpt lat="36.30415" lon="-121.88116">
				 <ele>40.3</ele>
			 </trkpt>
			 <trkpt lat="36.30533" lon="-121.88221">
				 <ele>41.5</ele>
			 </trkpt>
			 <trkpt lat="36.30654" lon="-121.88325">
				 <ele>42.7</ele>
			 </trkpt>
			 <trkpt lat="36.30716" lon="-121.88379">
				 <ele>43.6</ele>
			 </trkpt>
			 <trkpt lat="36.30777" lon="-121.88434">
				 <ele>44.4</ele>
			 </trkpt>
			 <trkpt lat="36.30795" lon="-121.88454">
				 <ele>44.7</ele>
			 </trkpt>
			 <trkpt lat="36.30878" lon="-121.88527">
				 <ele>44.7</ele>
			 </trkpt>
			 <trkpt lat="36.30999" lon="-121.88633">
				 <ele>44.2</ele>
			 </trkpt>
			 <trkpt lat="36.31149" lon="-121.88767">
				 <ele>44</ele>
			 </trkpt>
			 <trkpt lat="36.31227" lon="-121.88836">
				 <ele>43.9</ele>
			 </trkpt>
			 <trkpt lat="36.31492" lon="-121.89069">
				 <ele>43.8</ele>
			 </trkpt>
			 <trkpt lat="36.31583" lon="-121.8913">
				 <ele>43.7</ele>
			 </trkpt>
			 <trkpt lat="36.31621" lon="-121.89149">
				 <ele>43.8</ele>
			 </trkpt>
			 <trkpt lat="36.31701" lon="-121.89177">
				 <ele>44.5</ele>
			 </trkpt>
			 <trkpt lat="36.31768" lon="-121.892">
				 <ele>45.2</ele>
			 </trkpt>
			 <trkpt lat="36.31902" lon="-121.89244">
				 <ele>45.7</ele>
			 </trkpt>
			 <trkpt lat="36.31952" lon="-121.89251">
				 <ele>46.4</ele>
			 </trkpt>
			 <trkpt lat="36.32034" lon="-121.89247">
				 <ele>47</ele>
			 </trkpt>
			 <trkpt lat="36.32044" lon="-121.89248">
				 <ele>48.2</ele>
			 </trkpt>
			 <trkpt lat="36.32091" lon="-121.89261">
				 <ele>48.5</ele>
			 </trkpt>
			 <trkpt lat="36.32132" lon="-121.89282">
				 <ele>48.5</ele>
			 </trkpt>
			 <trkpt lat="36.32203" lon="-121.89314">
				 <ele>48.6</ele>
			 </trkpt>
			 <trkpt lat="36.32217" lon="-121.89315">
				 <ele>48.5</ele>
			 </trkpt>
			 <trkpt lat="36.32265" lon="-121.89305">
				 <ele>48.5</ele>
			 </trkpt>
			 <trkpt lat="36.32298" lon="-121.89296">
				 <ele>48.2</ele>
			 </trkpt>
			 <trkpt lat="36.32337" lon="-121.89307">
				 <ele>48</ele>
			 </trkpt>
			 <trkpt lat="36.32351" lon="-121.89318">
				 <ele>48</ele>
			 </trkpt>
			 <trkpt lat="36.32388" lon="-121.89366">
				 <ele>48</ele>
			 </trkpt>
			 <trkpt lat="36.324" lon="-121.89375">
				 <ele>48.1</ele>
			 </trkpt>
			 <trkpt lat="36.32435" lon="-121.89387">
				 <ele>48.1</ele>
			 </trkpt>
			 <trkpt lat="36.32477" lon="-121.89381">
				 <ele>48.7</ele>
			 </trkpt>
			 <trkpt lat="36.32518" lon="-121.89366">
				 <ele>49.6</ele>
			 </trkpt>
			 <trkpt lat="36.32546" lon="-121.89366">
				 <ele>50.5</ele>
			 </trkpt>
			 <trkpt lat="36.32573" lon="-121.89376">
				 <ele>51.4</ele>
			 </trkpt>
			 <trkpt lat="36.32626" lon="-121.89414">
				 <ele>52.2</ele>
			 </trkpt>
			 <trkpt lat="36.32645" lon="-121.89424">
				 <ele>53.5</ele>
			 </trkpt>
			 <trkpt lat="36.32688" lon="-121.8943">
				 <ele>54.9</ele>
			 </trkpt>
			 <trkpt lat="36.32716" lon="-121.89424">
				 <ele>56.9</ele>
			 </trkpt>
			 <trkpt lat="36.32826" lon="-121.89348">
				 <ele>59.4</ele>
			 </trkpt>
			 <trkpt lat="36.33091" lon="-121.89158">
				 <ele>62.2</ele>
			 </trkpt>
			 <trkpt lat="36.33176" lon="-121.89092">
				 <ele>65</ele>
			 </trkpt>
			 <trkpt lat="36.33189" lon="-121.89075">
				 <ele>66.9</ele>
			 </trkpt>
			 <trkpt lat="36.33205" lon="-121.89026">
				 <ele>68.5</ele>
			 </trkpt>
			 <trkpt lat="36.33206" lon="-121.89001">
				 <ele>69.3</ele>
			 </trkpt>
			 <trkpt lat="36.33183" lon="-121.88892">
				 <ele>69.5</ele>
			 </trkpt>
			 <trkpt lat="36.33176" lon="-121.88849">
				 <ele>69.1</ele>
			 </trkpt>
			 <trkpt lat="36.3317" lon="-121.88684">
				 <ele>67.9</ele>
			 </trkpt>
			 <trkpt lat="36.33171" lon="-121.88653">
				 <ele>66.1</ele>
			 </trkpt>
			 <trkpt lat="36.33192" lon="-121.88591">
				 <ele>63.5</ele>
			 </trkpt>
			 <trkpt lat="36.3323" lon="-121.88548">
				 <ele>60.4</ele>
			 </trkpt>
			 <trkpt lat="36.33251" lon="-121.88537">
				 <ele>56.9</ele>
			 </trkpt>
			 <trkpt lat="36.33286" lon="-121.88529">
				 <ele>53.5</ele>
			 </trkpt>
			 <trkpt lat="36.33305" lon="-121.8853">
				 <ele>50.5</ele>
			 </trkpt>
			 <trkpt lat="36.33348" lon="-121.88548">
				 <ele>47.6</ele>
			 </trkpt>
			 <trkpt lat="36.33364" lon="-121.88561">
				 <ele>45.4</ele>
			 </trkpt>
			 <trkpt lat="36.33392" lon="-121.88602">
				 <ele>43.1</ele>
			 </trkpt>
			 <trkpt lat="36.33424" lon="-121.88673">
				 <ele>40.8</ele>
			 </trkpt>
			 <trkpt lat="36.33482" lon="-121.88814">
				 <ele>38.4</ele>
			 </trkpt>
			 <trkpt lat="36.33505" lon="-121.88897">
				 <ele>35.8</ele>
			 </trkpt>
			 <trkpt lat="36.33533" lon="-121.88967">
				 <ele>33.3</ele>
			 </trkpt>
			 <trkpt lat="36.33559" lon="-121.89009">
				 <ele>30.4</ele>
			 </trkpt>
			 <trkpt lat="36.3364" lon="-121.89124">
				 <ele>27.9</ele>
			 </trkpt>
			 <trkpt lat="36.33657" lon="-121.8914">
				 <ele>25.8</ele>
			 </trkpt>
			 <trkpt lat="36.33687" lon="-121.89156">
				 <ele>24.5</ele>
			 </trkpt>
			 <trkpt lat="36.337" lon="-121.89158">
				 <ele>23.7</ele>
			 </trkpt>
			 <trkpt lat="36.33741" lon="-121.89156">
				 <ele>23.3</ele>
			 </trkpt>
			 <trkpt lat="36.33776" lon="-121.89145">
				 <ele>23.5</ele>
			 </trkpt>
			 <trkpt lat="36.33826" lon="-121.89119">
				 <ele>24.6</ele>
			 </trkpt>
			 <trkpt lat="36.33874" lon="-121.89123">
				 <ele>26.7</ele>
			 </trkpt>
			 <trkpt lat="36.33899" lon="-121.89121">
				 <ele>29.7</ele>
			 </trkpt>
			 <trkpt lat="36.33985" lon="-121.89098">
				 <ele>33.5</ele>
			 </trkpt>
			 <trkpt lat="36.34025" lon="-121.89077">
				 <ele>38.2</ele>
			 </trkpt>
			 <trkpt lat="36.34083" lon="-121.8907">
				 <ele>42.9</ele>
			 </trkpt>
			 <trkpt lat="36.34103" lon="-121.89073">
				 <ele>48.1</ele>
			 </trkpt>
			 <trkpt lat="36.34138" lon="-121.89104">
				 <ele>52.5</ele>
			 </trkpt>
			 <trkpt lat="36.34152" lon="-121.89114">
				 <ele>57.3</ele>
			 </trkpt>
			 <trkpt lat="36.3422" lon="-121.89136">
				 <ele>62.2</ele>
			 </trkpt>
			 <trkpt lat="36.34238" lon="-121.89149">
				 <ele>66.9</ele>
			 </trkpt>
			 <trkpt lat="36.34276" lon="-121.89183">
				 <ele>71.9</ele>
			 </trkpt>
			 <trkpt lat="36.34291" lon="-121.8919">
				 <ele>76.6</ele>
			 </trkpt>
			 <trkpt lat="36.34316" lon="-121.89192">
				 <ele>81.4</ele>
			 </trkpt>
			 <trkpt lat="36.34339" lon="-121.89186">
				 <ele>86.2</ele>
			 </trkpt>
			 <trkpt lat="36.34369" lon="-121.8918">
				 <ele>91.1</ele>
			 </trkpt>
			 <trkpt lat="36.34394" lon="-121.89184">
				 <ele>96.4</ele>
			 </trkpt>
			 <trkpt lat="36.34429" lon="-121.89207">
				 <ele>100.8</ele>
			 </trkpt>
			 <trkpt lat="36.34438" lon="-121.89222">
				 <ele>105.5</ele>
			 </trkpt>
			 <trkpt lat="36.34475" lon="-121.89299">
				 <ele>110</ele>
			 </trkpt>
			 <trkpt lat="36.34505" lon="-121.89328">
				 <ele>114</ele>
			 </trkpt>
			 <trkpt lat="36.3453" lon="-121.89343">
				 <ele>118.1</ele>
			 </trkpt>
			 <trkpt lat="36.34549" lon="-121.89364">
				 <ele>121.5</ele>
			 </trkpt>
			 <trkpt lat="36.3456" lon="-121.89386">
				 <ele>124.8</ele>
			 </trkpt>
			 <trkpt lat="36.34595" lon="-121.8946">
				 <ele>128.1</ele>
			 </trkpt>
			 <trkpt lat="36.34606" lon="-121.8947">
				 <ele>130.7</ele>
			 </trkpt>
			 <trkpt lat="36.34646" lon="-121.89485">
				 <ele>133.1</ele>
			 </trkpt>
			 <trkpt lat="36.34671" lon="-121.89491">
				 <ele>135</ele>
			 </trkpt>
			 <trkpt lat="36.34694" lon="-121.89507">
				 <ele>137.4</ele>
			 </trkpt>
			 <trkpt lat="36.34709" lon="-121.89532">
				 <ele>139.8</ele>
			 </trkpt>
			 <trkpt lat="36.34745" lon="-121.89591">
				 <ele>142.3</ele>
			 </trkpt>
			 <trkpt lat="36.34767" lon="-121.89609">
				 <ele>144.7</ele>
			 </trkpt>
			 <trkpt lat="36.34854" lon="-121.89657">
				 <ele>147.3</ele>
			 </trkpt>
			 <trkpt lat="36.34916" lon="-121.89675">
				 <ele>150.4</ele>
			 </trkpt>
			 <trkpt lat="36.35005" lon="-121.89712">
				 <ele>153.2</ele>
			 </trkpt>
			 <trkpt lat="36.35026" lon="-121.89726">
				 <ele>156.1</ele>
			 </trkpt>
			 <trkpt lat="36.35076" lon="-121.89768">
				 <ele>159</ele>
			 </trkpt>
			 <trkpt lat="36.35092" lon="-121.89778">
				 <ele>161</ele>
			 </trkpt>
			 <trkpt lat="36.35119" lon="-121.8978">
				 <ele>162.5</ele>
			 </trkpt>
			 <trkpt lat="36.35174" lon="-121.89773">
				 <ele>163.1</ele>
			 </trkpt>
			 <trkpt lat="36.35184" lon="-121.89777">
				 <ele>162.7</ele>
			 </trkpt>
			 <trkpt lat="36.3521" lon="-121.89806">
				 <ele>161.6</ele>
			 </trkpt>
			 <trkpt lat="36.35215" lon="-121.89825">
				 <ele>160</ele>
			 </trkpt>
			 <trkpt lat="36.35227" lon="-121.89951">
				 <ele>157.5</ele>
			 </trkpt>
			 <trkpt lat="36.35232" lon="-121.8997">
				 <ele>154.3</ele>
			 </trkpt>
			 <trkpt lat="36.3527" lon="-121.90015">
				 <ele>150.5</ele>
			 </trkpt>
			 <trkpt lat="36.35292" lon="-121.90033">
				 <ele>145.8</ele>
			 </trkpt>
			 <trkpt lat="36.35314" lon="-121.90068">
				 <ele>140.8</ele>
			 </trkpt>
			 <trkpt lat="36.35331" lon="-121.90107">
				 <ele>136.1</ele>
			 </trkpt>
			 <trkpt lat="36.35362" lon="-121.90137">
				 <ele>131.1</ele>
			 </trkpt>
			 <trkpt lat="36.35383" lon="-121.90146">
				 <ele>126.1</ele>
			 </trkpt>
			 <trkpt lat="36.35458" lon="-121.9016">
				 <ele>121.1</ele>
			 </trkpt>
			 <trkpt lat="36.35473" lon="-121.90166">
				 <ele>116.2</ele>
			 </trkpt>
			 <trkpt lat="36.35542" lon="-121.90203">
				 <ele>111.2</ele>
			 </trkpt>
			 <trkpt lat="36.35587" lon="-121.9021">
				 <ele>106.5</ele>
			 </trkpt>
			 <trkpt lat="36.35651" lon="-121.90245">
				 <ele>101.9</ele>
			 </trkpt>
			 <trkpt lat="36.3569" lon="-121.90266">
				 <ele>97</ele>
			 </trkpt>
			 <trkpt lat="36.35726" lon="-121.90271">
				 <ele>86.6</ele>
			 </trkpt>
			 <trkpt lat="36.35747" lon="-121.90258">
				 <ele>81.6</ele>
			 </trkpt>
			 <trkpt lat="36.35757" lon="-121.90244">
				 <ele>79.6</ele>
			 </trkpt>
			 <trkpt lat="36.35767" lon="-121.90213">
				 <ele>78</ele>
			 </trkpt>
			 <trkpt lat="36.35774" lon="-121.90177">
				 <ele>76.6</ele>
			 </trkpt>
			 <trkpt lat="36.35786" lon="-121.90126">
				 <ele>75.6</ele>
			 </trkpt>
			 <trkpt lat="36.35793" lon="-121.90106">
				 <ele>74.3</ele>
			 </trkpt>
			 <trkpt lat="36.35817" lon="-121.90066">
				 <ele>73.4</ele>
			 </trkpt>
			 <trkpt lat="36.35836" lon="-121.90046">
				 <ele>71.4</ele>
			 </trkpt>
			 <trkpt lat="36.35871" lon="-121.90025">
				 <ele>69.6</ele>
			 </trkpt>
			 <trkpt lat="36.35889" lon="-121.90019">
				 <ele>68.6</ele>
			 </trkpt>
			 <trkpt lat="36.35929" lon="-121.90017">
				 <ele>73.3</ele>
			 </trkpt>
			 <trkpt lat="36.35944" lon="-121.90019">
				 <ele>72.1</ele>
			 </trkpt>
			 <trkpt lat="36.36003" lon="-121.90049">
				 <ele>65.3</ele>
			 </trkpt>
			 <trkpt lat="36.36017" lon="-121.90054">
				 <ele>61.3</ele>
			 </trkpt>
			 <trkpt lat="36.36089" lon="-121.90058">
				 <ele>57.4</ele>
			 </trkpt>
			 <trkpt lat="36.36187" lon="-121.90043">
				 <ele>53.9</ele>
			 </trkpt>
			 <trkpt lat="36.36298" lon="-121.90014">
				 <ele>51.2</ele>
			 </trkpt>
			 <trkpt lat="36.36319" lon="-121.90004">
				 <ele>49.2</ele>
			 </trkpt>
			 <trkpt lat="36.36412" lon="-121.8995">
				 <ele>48.4</ele>
			 </trkpt>
			 <trkpt lat="36.36455" lon="-121.89937">
				 <ele>47.8</ele>
			 </trkpt>
			 <trkpt lat="36.36478" lon="-121.89938">
				 <ele>47.6</ele>
			 </trkpt>
			 <trkpt lat="36.3654" lon="-121.89952">
				 <ele>48</ele>
			 </trkpt>
			 <trkpt lat="36.36597" lon="-121.89971">
				 <ele>49.5</ele>
			 </trkpt>
			 <trkpt lat="36.36744" lon="-121.90023">
				 <ele>54.5</ele>
			 </trkpt>
			 <trkpt lat="36.36764" lon="-121.90034">
				 <ele>56.8</ele>
			 </trkpt>
			 <trkpt lat="36.36806" lon="-121.90066">
				 <ele>59.5</ele>
			 </trkpt>
			 <trkpt lat="36.36825" lon="-121.90083">
				 <ele>62.4</ele>
			 </trkpt>
			 <trkpt lat="36.36869" lon="-121.90135">
				 <ele>64.5</ele>
			 </trkpt>
			 <trkpt lat="36.36894" lon="-121.90165">
				 <ele>66</ele>
			 </trkpt>
			 <trkpt lat="36.36923" lon="-121.90186">
				 <ele>67.3</ele>
			 </trkpt>
			 <trkpt lat="36.36936" lon="-121.90191">
				 <ele>68.1</ele>
			 </trkpt>
			 <trkpt lat="36.36973" lon="-121.90192">
				 <ele>68.2</ele>
			 </trkpt>
			 <trkpt lat="36.37008" lon="-121.9018">
				 <ele>67.5</ele>
			 </trkpt>
			 <trkpt lat="36.37063" lon="-121.90164">
				 <ele>66.3</ele>
			 </trkpt>
			 <trkpt lat="36.37096" lon="-121.90161">
				 <ele>64.3</ele>
			 </trkpt>
			 <trkpt lat="36.37135" lon="-121.9017">
				 <ele>61.9</ele>
			 </trkpt>
			 <trkpt lat="36.37156" lon="-121.9018">
				 <ele>59</ele>
			 </trkpt>
			 <trkpt lat="36.37197" lon="-121.90208">
				 <ele>55.1</ele>
			 </trkpt>
			 <trkpt lat="36.37239" lon="-121.90253">
				 <ele>51.7</ele>
			 </trkpt>
			 <trkpt lat="36.3725" lon="-121.90272">
				 <ele>48.3</ele>
			 </trkpt>
			 <trkpt lat="36.37289" lon="-121.90376">
				 <ele>45.5</ele>
			 </trkpt>
			 <trkpt lat="36.37309" lon="-121.90429">
				 <ele>43.5</ele>
			 </trkpt>
			 <trkpt lat="36.37336" lon="-121.90471">
				 <ele>42.2</ele>
			 </trkpt>
			 <trkpt lat="36.37351" lon="-121.90482">
				 <ele>41.7</ele>
			 </trkpt>
			 <trkpt lat="36.37393" lon="-121.90496">
				 <ele>41.7</ele>
			 </trkpt>
			 <trkpt lat="36.37409" lon="-121.90495">
				 <ele>42.6</ele>
			 </trkpt>
			 <trkpt lat="36.37463" lon="-121.90473">
				 <ele>44</ele>
			 </trkpt>
			 <trkpt lat="36.37476" lon="-121.90472">
				 <ele>46.1</ele>
			 </trkpt>
			 <trkpt lat="36.37507" lon="-121.90479">
				 <ele>48.5</ele>
			 </trkpt>
			 <trkpt lat="36.37532" lon="-121.90483">
				 <ele>50.5</ele>
			 </trkpt>
			 <trkpt lat="36.37585" lon="-121.90467">
				 <ele>52.3</ele>
			 </trkpt>
			 <trkpt lat="36.37612" lon="-121.90448">
				 <ele>53.3</ele>
			 </trkpt>
			 <trkpt lat="36.37661" lon="-121.90415">
				 <ele>53.7</ele>
			 </trkpt>
			 <trkpt lat="36.37679" lon="-121.90409">
				 <ele>53.6</ele>
			 </trkpt>
			 <trkpt lat="36.37721" lon="-121.90406">
				 <ele>53.1</ele>
			 </trkpt>
			 <trkpt lat="36.37748" lon="-121.90404">
				 <ele>52.2</ele>
			 </trkpt>
			 <trkpt lat="36.37799" lon="-121.90381">
				 <ele>50.6</ele>
			 </trkpt>
			 <trkpt lat="36.37966" lon="-121.90215">
				 <ele>48.6</ele>
			 </trkpt>
			 <trkpt lat="36.37998" lon="-121.90184">
				 <ele>46.4</ele>
			 </trkpt>
			 <trkpt lat="36.38056" lon="-121.90124">
				 <ele>43.9</ele>
			 </trkpt>
			 <trkpt lat="36.38081" lon="-121.90107">
				 <ele>42.2</ele>
			 </trkpt>
			 <trkpt lat="36.38195" lon="-121.90046">
				 <ele>40.7</ele>
			 </trkpt>
			 <trkpt lat="36.38246" lon="-121.9003">
				 <ele>39.5</ele>
			 </trkpt>
			 <trkpt lat="36.38311" lon="-121.90018">
				 <ele>38.2</ele>
			 </trkpt>
			 <trkpt lat="36.38351" lon="-121.90016">
				 <ele>37</ele>
			 </trkpt>
			 <trkpt lat="36.3848" lon="-121.90032">
				 <ele>36</ele>
			 </trkpt>
			 <trkpt lat="36.38578" lon="-121.90055">
				 <ele>35.1</ele>
			 </trkpt>
			 <trkpt lat="36.38754" lon="-121.90096">
				 <ele>34.3</ele>
			 </trkpt>
			 <trkpt lat="36.38931" lon="-121.90137">
				 <ele>31.6</ele>
			 </trkpt>
			 <trkpt lat="36.39293" lon="-121.90225">
				 <ele>30.9</ele>
			 </trkpt>
			 <trkpt lat="36.39411" lon="-121.90252">
				 <ele>30.3</ele>
			 </trkpt>
			 <trkpt lat="36.397" lon="-121.90323">
				 <ele>29.6</ele>
			 </trkpt>
			 <trkpt lat="36.39758" lon="-121.90343">
				 <ele>29.3</ele>
			 </trkpt>
			 <trkpt lat="36.39867" lon="-121.90404">
				 <ele>28.9</ele>
			 </trkpt>
			 <trkpt lat="36.39894" lon="-121.90425">
				 <ele>28.5</ele>
			 </trkpt>
			 <trkpt lat="36.40034" lon="-121.90567">
				 <ele>28.4</ele>
			 </trkpt>
			 <trkpt lat="36.40184" lon="-121.90738">
				 <ele>28.7</ele>
			 </trkpt>
			 <trkpt lat="36.40208" lon="-121.90773">
				 <ele>29.5</ele>
			 </trkpt>
			 <trkpt lat="36.40287" lon="-121.90899">
				 <ele>30.8</ele>
			 </trkpt>
			 <trkpt lat="36.40316" lon="-121.90935">
				 <ele>34.3</ele>
			 </trkpt>
			 <trkpt lat="36.40382" lon="-121.90985">
				 <ele>35.6</ele>
			 </trkpt>
			 <trkpt lat="36.40432" lon="-121.91009">
				 <ele>37.5</ele>
			 </trkpt>
			 <trkpt lat="36.40602" lon="-121.91082">
				 <ele>39.5</ele>
			 </trkpt>
			 <trkpt lat="36.40651" lon="-121.91112">
				 <ele>41.6</ele>
			 </trkpt>
			 <trkpt lat="36.4072" lon="-121.91166">
				 <ele>43.9</ele>
			 </trkpt>
			 <trkpt lat="36.40748" lon="-121.91192">
				 <ele>46.3</ele>
			 </trkpt>
			 <trkpt lat="36.40929" lon="-121.91389">
				 <ele>48.2</ele>
			 </trkpt>
			 <trkpt lat="36.40959" lon="-121.91421">
				 <ele>49.5</ele>
			 </trkpt>
			 <trkpt lat="36.40993" lon="-121.91449">
				 <ele>50.5</ele>
			 </trkpt>
			 <trkpt lat="36.41015" lon="-121.91459">
				 <ele>51</ele>
			 </trkpt>
			 <trkpt lat="36.41057" lon="-121.91466">
				 <ele>50.6</ele>
			 </trkpt>
			 <trkpt lat="36.41074" lon="-121.91464">
				 <ele>50.5</ele>
			 </trkpt>
			 <trkpt lat="36.41114" lon="-121.91449">
				 <ele>49.8</ele>
			 </trkpt>
			 <trkpt lat="36.41144" lon="-121.91431">
				 <ele>48.6</ele>
			 </trkpt>
			 <trkpt lat="36.4119" lon="-121.91401">
				 <ele>46.8</ele>
			 </trkpt>
			 <trkpt lat="36.41245" lon="-121.91393">
				 <ele>43.7</ele>
			 </trkpt>
			 <trkpt lat="36.41273" lon="-121.91396">
				 <ele>42</ele>
			 </trkpt>
			 <trkpt lat="36.41388" lon="-121.91417">
				 <ele>40.5</ele>
			 </trkpt>
			 <trkpt lat="36.41429" lon="-121.91425">
				 <ele>39.2</ele>
			 </trkpt>
			 <trkpt lat="36.41524" lon="-121.91442">
				 <ele>37.9</ele>
			 </trkpt>
			 <trkpt lat="36.41556" lon="-121.9144">
				 <ele>36.7</ele>
			 </trkpt>
			 <trkpt lat="36.41902" lon="-121.91318">
				 <ele>36.1</ele>
			 </trkpt>
			 <trkpt lat="36.42002" lon="-121.91281">
				 <ele>35.2</ele>
			 </trkpt>
			 <trkpt lat="36.42122" lon="-121.9125">
				 <ele>34.1</ele>
			 </trkpt>
			 <trkpt lat="36.42195" lon="-121.91238">
				 <ele>33.4</ele>
			 </trkpt>
			 <trkpt lat="36.42353" lon="-121.91235">
				 <ele>33.5</ele>
			 </trkpt>
			 <trkpt lat="36.42395" lon="-121.91239">
				 <ele>34.9</ele>
			 </trkpt>
			 <trkpt lat="36.42499" lon="-121.91256">
				 <ele>35.4</ele>
			 </trkpt>
			 <trkpt lat="36.42535" lon="-121.91264">
				 <ele>36.2</ele>
			 </trkpt>
			 <trkpt lat="36.42622" lon="-121.91293">
				 <ele>36.8</ele>
			 </trkpt>
			 <trkpt lat="36.42699" lon="-121.91324">
				 <ele>37.4</ele>
			 </trkpt>
			 <trkpt lat="36.42805" lon="-121.91383">
				 <ele>38</ele>
			 </trkpt>
			 <trkpt lat="36.42891" lon="-121.91445">
				 <ele>38.6</ele>
			 </trkpt>
			 <trkpt lat="36.43082" lon="-121.91622">
				 <ele>39.4</ele>
			 </trkpt>
			 <trkpt lat="36.43174" lon="-121.91708">
				 <ele>40.4</ele>
			 </trkpt>
			 <trkpt lat="36.43207" lon="-121.91735">
				 <ele>41.5</ele>
			 </trkpt>
			 <trkpt lat="36.43293" lon="-121.91791">
				 <ele>42.4</ele>
			 </trkpt>
			 <trkpt lat="36.43326" lon="-121.9181">
				 <ele>43.4</ele>
			 </trkpt>
			 <trkpt lat="36.4343" lon="-121.91855">
				 <ele>44.2</ele>
			 </trkpt>
			 <trkpt lat="36.43535" lon="-121.9189">
				 <ele>44</ele>
			 </trkpt>
			 <trkpt lat="36.4362" lon="-121.91925">
				 <ele>43.6</ele>
			 </trkpt>
			 <trkpt lat="36.43649" lon="-121.9194">
				 <ele>42.7</ele>
			 </trkpt>
			 <trkpt lat="36.43785" lon="-121.92013">
				 <ele>41.5</ele>
			 </trkpt>
			 <trkpt lat="36.43867" lon="-121.9206">
				 <ele>40.2</ele>
			 </trkpt>
			 <trkpt lat="36.44158" lon="-121.92227">
				 <ele>38.6</ele>
			 </trkpt>
			 <trkpt lat="36.443" lon="-121.92308">
				 <ele>37.5</ele>
			 </trkpt>
			 <trkpt lat="36.44372" lon="-121.92351">
				 <ele>36.8</ele>
			 </trkpt>
			 <trkpt lat="36.44425" lon="-121.9238">
				 <ele>36.2</ele>
			 </trkpt>
			 <trkpt lat="36.44483" lon="-121.92413">
				 <ele>35.5</ele>
			 </trkpt>
			 <trkpt lat="36.44585" lon="-121.92471">
				 <ele>35.1</ele>
			 </trkpt>
			 <trkpt lat="36.44829" lon="-121.92612">
				 <ele>35.1</ele>
			 </trkpt>
			 <trkpt lat="36.44866" lon="-121.9263">
				 <ele>35.5</ele>
			 </trkpt>
			 <trkpt lat="36.44933" lon="-121.92655">
				 <ele>36.5</ele>
			 </trkpt>
			 <trkpt lat="36.45005" lon="-121.9266">
				 <ele>37.6</ele>
			 </trkpt>
			 <trkpt lat="36.45029" lon="-121.92657">
				 <ele>38.8</ele>
			 </trkpt>
			 <trkpt lat="36.45117" lon="-121.92627">
				 <ele>40.3</ele>
			 </trkpt>
			 <trkpt lat="36.45148" lon="-121.92608">
				 <ele>41.4</ele>
			 </trkpt>
			 <trkpt lat="36.45208" lon="-121.92558">
				 <ele>42</ele>
			 </trkpt>
			 <trkpt lat="36.45268" lon="-121.92498">
				 <ele>42</ele>
			 </trkpt>
			 <trkpt lat="36.45338" lon="-121.92446">
				 <ele>41.3</ele>
			 </trkpt>
			 <trkpt lat="36.45376" lon="-121.92428">
				 <ele>39.7</ele>
			 </trkpt>
			 <trkpt lat="36.45469" lon="-121.92398">
				 <ele>38.5</ele>
			 </trkpt>
			 <trkpt lat="36.45518" lon="-121.92392">
				 <ele>37.5</ele>
			 </trkpt>
			 <trkpt lat="36.45656" lon="-121.92399">
				 <ele>36.2</ele>
			 </trkpt>
			 <trkpt lat="36.458" lon="-121.92413">
				 <ele>35.3</ele>
			 </trkpt>
			 <trkpt lat="36.4594" lon="-121.92443">
				 <ele>34.5</ele>
			 </trkpt>
			 <trkpt lat="36.46006" lon="-121.92465">
				 <ele>33.6</ele>
			 </trkpt>
			 <trkpt lat="36.46133" lon="-121.92525">
				 <ele>32.6</ele>
			 </trkpt>
			 <trkpt lat="36.46174" lon="-121.9255">
				 <ele>31.9</ele>
			 </trkpt>
			 <trkpt lat="36.46388" lon="-121.92698">
				 <ele>31.5</ele>
			 </trkpt>
			 <trkpt lat="36.46527" lon="-121.92798">
				 <ele>31.3</ele>
			 </trkpt>
			 <trkpt lat="36.46699" lon="-121.9292">
				 <ele>31.5</ele>
			 </trkpt>
			 <trkpt lat="36.46777" lon="-121.93011">
				 <ele>31.3</ele>
			 </trkpt>
			 <trkpt lat="36.46828" lon="-121.93098">
				 <ele>31.2</ele>
			 </trkpt>
			 <trkpt lat="36.46899" lon="-121.93211">
				 <ele>31.6</ele>
			 </trkpt>
			 <trkpt lat="36.46941" lon="-121.93263">
				 <ele>32.1</ele>
			 </trkpt>
			 <trkpt lat="36.47048" lon="-121.93373">
				 <ele>32.5</ele>
			 </trkpt>
			 <trkpt lat="36.47108" lon="-121.93432">
				 <ele>32.6</ele>
			 </trkpt>
			 <trkpt lat="36.47167" lon="-121.93476">
				 <ele>32.5</ele>
			 </trkpt>
			 <trkpt lat="36.47193" lon="-121.93492">
				 <ele>32.3</ele>
			 </trkpt>
			 <trkpt lat="36.47258" lon="-121.93522">
				 <ele>31.8</ele>
			 </trkpt>
			 <trkpt lat="36.473" lon="-121.93535">
				 <ele>31.2</ele>
			 </trkpt>
			 <trkpt lat="36.47645" lon="-121.93598">
				 <ele>31.1</ele>
			 </trkpt>
			 <trkpt lat="36.47847" lon="-121.93637">
				 <ele>31.3</ele>
			 </trkpt>
			 <trkpt lat="36.47876" lon="-121.93647">
				 <ele>31.5</ele>
			 </trkpt>
			 <trkpt lat="36.47957" lon="-121.93689">
				 <ele>31.7</ele>
			 </trkpt>
			 <trkpt lat="36.47991" lon="-121.93704">
				 <ele>32.2</ele>
			 </trkpt>
			 <trkpt lat="36.48043" lon="-121.93714">
				 <ele>33.1</ele>
			 </trkpt>
			 <trkpt lat="36.48097" lon="-121.93716">
				 <ele>34.5</ele>
			 </trkpt>
			 <trkpt lat="36.48165" lon="-121.9371">
				 <ele>36.2</ele>
			 </trkpt>
			 <trkpt lat="36.48236" lon="-121.93711">
				 <ele>37.8</ele>
			 </trkpt>
			 <trkpt lat="36.48256" lon="-121.93711">
				 <ele>39.8</ele>
			 </trkpt>
			 <trkpt lat="36.48341" lon="-121.93725">
				 <ele>42.6</ele>
			 </trkpt>
			 <trkpt lat="36.4836" lon="-121.93733">
				 <ele>45.6</ele>
			 </trkpt>
			 <trkpt lat="36.48417" lon="-121.9376">
				 <ele>48.8</ele>
			 </trkpt>
			 <trkpt lat="36.48446" lon="-121.93772">
				 <ele>52</ele>
			 </trkpt>
			 <trkpt lat="36.48519" lon="-121.93784">
				 <ele>54.5</ele>
			 </trkpt>
			 <trkpt lat="36.48587" lon="-121.9378">
				 <ele>56.3</ele>
			 </trkpt>
			 <trkpt lat="36.48783" lon="-121.9377">
				 <ele>57.5</ele>
			 </trkpt>
			 <trkpt lat="36.48828" lon="-121.93776">
				 <ele>57.9</ele>
			 </trkpt>
			 <trkpt lat="36.48911" lon="-121.93797">
				 <ele>58.1</ele>
			 </trkpt>
			 <trkpt lat="36.48975" lon="-121.93816">
				 <ele>57.7</ele>
			 </trkpt>
			 <trkpt lat="36.49098" lon="-121.93827">
				 <ele>56.7</ele>
			 </trkpt>
			 <trkpt lat="36.49131" lon="-121.93827">
				 <ele>54.9</ele>
			 </trkpt>
			 <trkpt lat="36.49197" lon="-121.93814">
				 <ele>52.1</ele>
			 </trkpt>
			 <trkpt lat="36.49236" lon="-121.93791">
				 <ele>48.5</ele>
			 </trkpt>
			 <trkpt lat="36.49295" lon="-121.93767">
				 <ele>45</ele>
			 </trkpt>
			 <trkpt lat="36.49307" lon="-121.93766">
				 <ele>42.3</ele>
			 </trkpt>
			 <trkpt lat="36.49397" lon="-121.93772">
				 <ele>40</ele>
			 </trkpt>
			 <trkpt lat="36.49629" lon="-121.93686">
				 <ele>37.9</ele>
			 </trkpt>
			 <trkpt lat="36.49686" lon="-121.93661">
				 <ele>36.3</ele>
			 </trkpt>
			 <trkpt lat="36.4974" lon="-121.93623">
				 <ele>34.5</ele>
			 </trkpt>
			 <trkpt lat="36.49764" lon="-121.93599">
				 <ele>33.1</ele>
			 </trkpt>
			 <trkpt lat="36.49794" lon="-121.93577">
				 <ele>32</ele>
			 </trkpt>
			 <trkpt lat="36.49817" lon="-121.93567">
				 <ele>31.5</ele>
			 </trkpt>
			 <trkpt lat="36.49843" lon="-121.93564">
				 <ele>32.1</ele>
			 </trkpt>
			 <trkpt lat="36.49861" lon="-121.9357">
				 <ele>33.4</ele>
			 </trkpt>
			 <trkpt lat="36.49913" lon="-121.93617">
				 <ele>34.5</ele>
			 </trkpt>
			 <trkpt lat="36.49958" lon="-121.93677">
				 <ele>35.1</ele>
			 </trkpt>
			 <trkpt lat="36.5" lon="-121.93717">
				 <ele>35.5</ele>
			 </trkpt>
			 <trkpt lat="36.50021" lon="-121.93729">
				 <ele>35.8</ele>
			 </trkpt>
			 <trkpt lat="36.50118" lon="-121.93792">
				 <ele>35.9</ele>
			 </trkpt>
			 <trkpt lat="36.50143" lon="-121.93806">
				 <ele>36</ele>
			 </trkpt>
			 <trkpt lat="36.50171" lon="-121.93812">
				 <ele>36.1</ele>
			 </trkpt>
			 <trkpt lat="36.50188" lon="-121.9381">
				 <ele>36.1</ele>
			 </trkpt>
			 <trkpt lat="36.50251" lon="-121.93779">
				 <ele>35.7</ele>
			 </trkpt>
			 <trkpt lat="36.50274" lon="-121.93768">
				 <ele>34.9</ele>
			 </trkpt>
			 <trkpt lat="36.50311" lon="-121.93767">
				 <ele>33.8</ele>
			 </trkpt>
			 <trkpt lat="36.50346" lon="-121.93782">
				 <ele>32.5</ele>
			 </trkpt>
			 <trkpt lat="36.50359" lon="-121.93784">
				 <ele>31.2</ele>
			 </trkpt>
			 <trkpt lat="36.50391" lon="-121.9378">
				 <ele>29.8</ele>
			 </trkpt>
			 <trkpt lat="36.50408" lon="-121.93772">
				 <ele>28.5</ele>
			 </trkpt>
			 <trkpt lat="36.50492" lon="-121.93692">
				 <ele>27.4</ele>
			 </trkpt>
			 <trkpt lat="36.50535" lon="-121.93648">
				 <ele>26.6</ele>
			 </trkpt>
			 <trkpt lat="36.50586" lon="-121.93612">
				 <ele>26.2</ele>
			 </trkpt>
			 <trkpt lat="36.50605" lon="-121.93608">
				 <ele>25.9</ele>
			 </trkpt>
			 <trkpt lat="36.50691" lon="-121.93597">
				 <ele>25.7</ele>
			 </trkpt>
			 <trkpt lat="36.5074" lon="-121.93592">
				 <ele>25.5</ele>
			 </trkpt>
			 <trkpt lat="36.50783" lon="-121.93602">
				 <ele>25.1</ele>
			 </trkpt>
			 <trkpt lat="36.50801" lon="-121.93614">
				 <ele>24.6</ele>
			 </trkpt>
			 <trkpt lat="36.5084" lon="-121.93663">
				 <ele>24</ele>
			 </trkpt>
			 <trkpt lat="36.50865" lon="-121.937">
				 <ele>23</ele>
			 </trkpt>
			 <trkpt lat="36.50898" lon="-121.93739">
				 <ele>21.6</ele>
			 </trkpt>
			 <trkpt lat="36.50916" lon="-121.93755">
				 <ele>20</ele>
			 </trkpt>
			 <trkpt lat="36.50965" lon="-121.93786">
				 <ele>18.3</ele>
			 </trkpt>
			 <trkpt lat="36.50989" lon="-121.93797">
				 <ele>16.5</ele>
			 </trkpt>
			 <trkpt lat="36.51059" lon="-121.9381">
				 <ele>14.6</ele>
			 </trkpt>
			 <trkpt lat="36.51169" lon="-121.93806">
				 <ele>12.8</ele>
			 </trkpt>
			 <trkpt lat="36.51229" lon="-121.93802">
				 <ele>11.2</ele>
			 </trkpt>
			 <trkpt lat="36.51308" lon="-121.93793">
				 <ele>9.8</ele>
			 </trkpt>
			 <trkpt lat="36.51341" lon="-121.93786">
				 <ele>9</ele>
			 </trkpt>
			 <trkpt lat="36.51431" lon="-121.9376">
				 <ele>8.9</ele>
			 </trkpt>
			 <trkpt lat="36.51508" lon="-121.93721">
				 <ele>9.8</ele>
			 </trkpt>
			 <trkpt lat="36.51643" lon="-121.93641">
				 <ele>11.8</ele>
			 </trkpt>
			 <trkpt lat="36.51694" lon="-121.93601">
				 <ele>14.3</ele>
			 </trkpt>
			 <trkpt lat="36.51713" lon="-121.93587">
				 <ele>16.7</ele>
			 </trkpt>
			 <trkpt lat="36.51736" lon="-121.93565">
				 <ele>18.8</ele>
			 </trkpt>
			 <trkpt lat="36.51846" lon="-121.9344">
				 <ele>20.4</ele>
			 </trkpt>
			 <trkpt lat="36.51891" lon="-121.93375">
				 <ele>21.4</ele>
			 </trkpt>
			 <trkpt lat="36.51963" lon="-121.93241">
				 <ele>21.9</ele>
			 </trkpt>
			 <trkpt lat="36.52076" lon="-121.93014">
				 <ele>22</ele>
			 </trkpt>
			 <trkpt lat="36.52179" lon="-121.92815">
				 <ele>21.5</ele>
			 </trkpt>
			 <trkpt lat="36.52213" lon="-121.92761">
				 <ele>20.5</ele>
			 </trkpt>
			 <trkpt lat="36.52303" lon="-121.92644">
				 <ele>18.8</ele>
			 </trkpt>
			 <trkpt lat="36.52447" lon="-121.92462">
				 <ele>16.6</ele>
			 </trkpt>
			 <trkpt lat="36.5265" lon="-121.92211">
				 <ele>14.3</ele>
			 </trkpt>
			 <trkpt lat="36.52811" lon="-121.92005">
				 <ele>12.2</ele>
			 </trkpt>
			 <trkpt lat="36.5288" lon="-121.91928">
				 <ele>10.3</ele>
			 </trkpt>
			 <trkpt lat="36.53" lon="-121.91806">
				 <ele>8.8</ele>
			 </trkpt>
			 <trkpt lat="36.53072" lon="-121.91743">
				 <ele>8.3</ele>
			 </trkpt>
			 <trkpt lat="36.5326" lon="-121.91583">
				 <ele>8.1</ele>
			 </trkpt>
			 <trkpt lat="36.53394" lon="-121.91473">
				 <ele>7.9</ele>
			 </trkpt>
			 <trkpt lat="36.53473" lon="-121.91402">
				 <ele>7.7</ele>
			 </trkpt>
			 <trkpt lat="36.53664" lon="-121.91198">
				 <ele>7.7</ele>
			 </trkpt>
			 <trkpt lat="36.53728" lon="-121.91154">
				 <ele>7.8</ele>
			 </trkpt>
			 <trkpt lat="36.53745" lon="-121.91146">
				 <ele>7.9</ele>
			 </trkpt>
			 <trkpt lat="36.53808" lon="-121.91116">
				 <ele>8</ele>
			 </trkpt>
			 <trkpt lat="36.5384" lon="-121.91096">
				 <ele>7.9</ele>
			 </trkpt>
			 <trkpt lat="36.53927" lon="-121.91022">
				 <ele>8</ele>
			 </trkpt>
		 </trkseg>
	 </trk>
</gpx>