<?xml version="1.0" encoding="UTF-8" standalone="no" ?>
<gpx xmlns="http://www.topografix.com/GPX/1/1" xmlns:xsi="http://www.w3.org/2001/XMLSchema-instance" xsi:schemaLocation="http://www.topografix.com/GPX/1/1 http://www.topografix.com/GPX/1/1/gpx.xsd" version="1.1" creator="VisuGPX - https://www.visugpx.com">
  <metadata>
    <name>Parcours Marathon Vert Rennes Konica Minolta 2021</name>
    <desc><![CDATA[
Championnat de France  - 10 ans]]></desc>
  </metadata>
  <wpt lat="48.20055" lon="-1.72698">
    <ele>96</ele>
    <name><![CDATA[Départ Cap Malo]]></name>
  </wpt>
  <wpt lat="48.20429" lon="-1.73634">
    <ele>95.8</ele>
    <name><![CDATA[KM 1]]></name>
  </wpt>
  <wpt lat="48.19601" lon="-1.73159">
    <ele>98</ele>
    <name><![CDATA[KM 2]]></name>
  </wpt>
  <wpt lat="48.18935" lon="-1.7345">
    <ele>90.7</ele>
    <name><![CDATA[KM 3]]></name>
  </wpt>
  <wpt lat="48.18312" lon="-1.73599">
    <ele>79.2</ele>
    <name><![CDATA[KM 4]]></name>
  </wpt>
  <wpt lat="48.17519" lon="-1.73386">
    <ele>80.7</ele>
    <name><![CDATA[KM 5]]></name>
  </wpt>
  <wpt lat="48.17776" lon="-1.73383">
    <ele>79.3</ele>
    <name><![CDATA[Ravito 5km]]></name>
  </wpt>
  <wpt lat="48.16637" lon="-1.73335">
    <ele>63</ele>
    <name><![CDATA[KM 6]]></name>
  </wpt>
  <wpt lat="48.15851" lon="-1.726">
    <ele>51.1</ele>
    <name><![CDATA[KM 7]]></name>
  </wpt>
  <wpt lat="48.1554" lon="-1.71696">
    <ele>56.6</ele>
    <name><![CDATA[Relais 1]]></name>
    <desc><![CDATA[à Montgermont]]></desc>
  </wpt>
  <wpt lat="48.15723" lon="-1.71593">
    <ele>49</ele>
    <name><![CDATA[KM 8]]></name>
  </wpt>
  <wpt lat="48.15569" lon="-1.72257">
    <ele>58.5</ele>
    <name><![CDATA[KM 9]]></name>
  </wpt>
  <wpt lat="48.1532" lon="-1.73764">
    <ele>61.5</ele>
    <name><![CDATA[KM 10]]></name>
  </wpt>
  <wpt lat="48.15317" lon="-1.739">
    <ele>62</ele>
    <name><![CDATA[Ravito km10]]></name>
  </wpt>
  <wpt lat="48.15308" lon="-1.75104">
    <ele>59</ele>
    <name><![CDATA[KM 11]]></name>
  </wpt>
  <wpt lat="48.14873" lon="-1.75937">
    <ele>54</ele>
    <name><![CDATA[KM 12]]></name>
  </wpt>
  <wpt lat="48.14607" lon="-1.77054">
    <ele>61.1</ele>
    <name><![CDATA[KM 13]]></name>
  </wpt>
  <wpt lat="48.13983" lon="-1.7615">
    <ele>66.4</ele>
    <name><![CDATA[KM 14]]></name>
  </wpt>
  <wpt lat="48.13967" lon="-1.76019">
    <ele>65.8</ele>
    <name><![CDATA[Relais 2]]></name>
    <desc><![CDATA[à Pacé]]></desc>
  </wpt>
  <wpt lat="48.14444" lon="-1.76002">
    <ele>67</ele>
    <name><![CDATA[KM 15]]></name>
  </wpt>
  <wpt lat="48.14479" lon="-1.75914">
    <ele>66.9</ele>
    <name><![CDATA[Ravito km15]]></name>
  </wpt>
  <wpt lat="48.14646" lon="-1.74669">
    <ele>60.2</ele>
    <name><![CDATA[KM 16]]></name>
  </wpt>
  <wpt lat="48.14162" lon="-1.73483">
    <ele>58.8</ele>
    <name><![CDATA[KM 17]]></name>
  </wpt>
  <wpt lat="48.13887" lon="-1.7256">
    <ele>52.8</ele>
    <name><![CDATA[KM 18]]></name>
  </wpt>
  <wpt lat="48.1443" lon="-1.71908">
    <ele>50.8</ele>
    <name><![CDATA[KM 19]]></name>
  </wpt>
  <wpt lat="48.14576" lon="-1.71">
    <ele>51.3</ele>
    <name><![CDATA[KM 20]]></name>
  </wpt>
  <wpt lat="48.14399" lon="-1.70415">
    <ele>52</ele>
    <name><![CDATA[Ravito km 20]]></name>
  </wpt>
  <wpt lat="48.14115" lon="-1.70076">
    <ele>47</ele>
    <name><![CDATA[KM 21]]></name>
  </wpt>
  <wpt lat="48.14051" lon="-1.70023">
    <ele>47.3</ele>
    <name><![CDATA[Semi-Marathon]]></name>
    <desc><![CDATA[Passage du duo]]></desc>
  </wpt>
  <wpt lat="48.13422" lon="-1.69424">
    <ele>39.8</ele>
    <name><![CDATA[KM 22]]></name>
  </wpt>
  <wpt lat="48.14015" lon="-1.68792">
    <ele>37.3</ele>
    <name><![CDATA[KM 23]]></name>
  </wpt>
  <wpt lat="48.14792" lon="-1.68596">
    <ele>43.5</ele>
    <name><![CDATA[KM 24]]></name>
  </wpt>
  <wpt lat="48.1493" lon="-1.6859">
    <ele>42.1</ele>
    <name><![CDATA[Relais 3]]></name>
    <desc><![CDATA[à Saint-Grégoire]]></desc>
  </wpt>
  <wpt lat="48.15085" lon="-1.68397">
    <ele>38.9</ele>
    <name><![CDATA[Ravito km25]]></name>
  </wpt>
  <wpt lat="48.14983" lon="-1.67743">
    <ele>27.8</ele>
    <name><![CDATA[KM25]]></name>
  </wpt>
  <wpt lat="48.14561" lon="-1.66902">
    <ele>36.3</ele>
    <name><![CDATA[KM26]]></name>
  </wpt>
  <wpt lat="48.1367" lon="-1.67093">
    <ele>31.1</ele>
    <name><![CDATA[KM27]]></name>
  </wpt>
  <wpt lat="48.13452" lon="-1.6589">
    <ele>42.7</ele>
    <name><![CDATA[KM28]]></name>
  </wpt>
  <wpt lat="48.1293" lon="-1.65212">
    <ele>48</ele>
    <name><![CDATA[KM29]]></name>
  </wpt>
  <wpt lat="48.1301" lon="-1.64296">
    <ele>55.9</ele>
    <name><![CDATA[KM30]]></name>
  </wpt>
  <wpt lat="48.13246" lon="-1.63615">
    <ele>57.9</ele>
    <name><![CDATA[Ravito km 30]]></name>
  </wpt>
  <wpt lat="48.13203" lon="-1.63514">
    <ele>57.2</ele>
    <name><![CDATA[KM31]]></name>
  </wpt>
  <wpt lat="48.12613" lon="-1.63137">
    <ele>63.1</ele>
    <name><![CDATA[KM32]]></name>
  </wpt>
  <wpt lat="48.11995" lon="-1.63554">
    <ele>38.2</ele>
    <name><![CDATA[KM33]]></name>
  </wpt>
  <wpt lat="48.12087" lon="-1.63901">
    <ele>37.1</ele>
    <name><![CDATA[Relais 4]]></name>
    <desc><![CDATA[à Beaulieu]]></desc>
  </wpt>
  <wpt lat="48.1189" lon="-1.63833">
    <ele>36</ele>
    <name><![CDATA[KM34]]></name>
  </wpt>
  <wpt lat="48.11482" lon="-1.63857">
    <ele>38.1</ele>
    <name><![CDATA[Ravito km 35]]></name>
  </wpt>
  <wpt lat="48.11431" lon="-1.63689">
    <ele>35</ele>
    <name><![CDATA[KM35]]></name>
  </wpt>
  <wpt lat="48.11415" lon="-1.62287">
    <ele>29.9</ele>
    <name><![CDATA[KM36]]></name>
  </wpt>
  <wpt lat="48.11185" lon="-1.62967">
    <ele>27.4</ele>
    <name><![CDATA[KM37]]></name>
  </wpt>
  <wpt lat="48.11194" lon="-1.64548">
    <ele>28</ele>
    <name><![CDATA[KM38]]></name>
  </wpt>
  <wpt lat="48.11012" lon="-1.65692">
    <ele>27.5</ele>
    <name><![CDATA[KM39]]></name>
  </wpt>
  <wpt lat="48.11225" lon="-1.67227">
    <ele>31.4</ele>
    <name><![CDATA[Ravito km 40]]></name>
  </wpt>
  <wpt lat="48.11239" lon="-1.66806">
    <ele>30</ele>
    <name><![CDATA[KM40]]></name>
  </wpt>
  <wpt lat="48.11183" lon="-1.67923">
    <ele>33.6</ele>
    <name><![CDATA[KM41]]></name>
  </wpt>
  <wpt lat="48.11114" lon="-1.67924">
    <ele>32.1</ele>
    <name><![CDATA[Regroupement MAIRIE]]></name>
  </wpt>
  <wpt lat="48.10591" lon="-1.67408">
    <ele>26.9</ele>
    <name><![CDATA[KM42]]></name>
  </wpt>
  <wpt lat="48.10526" lon="-1.67639">
    <ele>27.9</ele>
    <name><![CDATA[Arrivée Rennes]]></name>
  </wpt>
  <trk>
    <name><![CDATA[parcours 2020]]></name>
    <desc><![CDATA[Championnat de France  - 10 ans]]></desc>
    <trkseg>
      <trkpt lat="48.20055" lon="-1.72698">
        <ele>96</ele>
      </trkpt>
      <trkpt lat="48.20108" lon="-1.72852">
        <ele>93.8</ele>
      </trkpt>
      <trkpt lat="48.20134" lon="-1.72922">
        <ele>93.2</ele>
      </trkpt>
      <trkpt lat="48.20174" lon="-1.72988">
        <ele>92</ele>
      </trkpt>
      <trkpt lat="48.20263" lon="-1.7303">
        <ele>90.5</ele>
      </trkpt>
      <trkpt lat="48.20309" lon="-1.73041">
        <ele>89</ele>
      </trkpt>
      <trkpt lat="48.20338" lon="-1.73032">
        <ele>89</ele>
      </trkpt>
      <trkpt lat="48.20349" lon="-1.73003">
        <ele>88.5</ele>
      </trkpt>
      <trkpt lat="48.20365" lon="-1.72993">
        <ele>88</ele>
      </trkpt>
      <trkpt lat="48.20386" lon="-1.73002">
        <ele>88</ele>
      </trkpt>
      <trkpt lat="48.20396" lon="-1.73027">
        <ele>87.5</ele>
      </trkpt>
      <trkpt lat="48.20389" lon="-1.73069">
        <ele>89</ele>
      </trkpt>
      <trkpt lat="48.20396" lon="-1.73133">
        <ele>88.5</ele>
      </trkpt>
      <trkpt lat="48.20428" lon="-1.73275">
        <ele>91.9</ele>
      </trkpt>
      <trkpt lat="48.20444" lon="-1.73298">
        <ele>92.7</ele>
      </trkpt>
      <trkpt lat="48.20441" lon="-1.73328">
        <ele>93</ele>
      </trkpt>
      <trkpt lat="48.20434" lon="-1.73354">
        <ele>93</ele>
      </trkpt>
      <trkpt lat="48.20439" lon="-1.73446">
        <ele>89.3</ele>
      </trkpt>
      <trkpt lat="48.20429" lon="-1.73682">
        <ele>96</ele>
      </trkpt>
      <trkpt lat="48.20432" lon="-1.73698">
        <ele>96.1</ele>
      </trkpt>
      <trkpt lat="48.20448" lon="-1.73721">
        <ele>96.1</ele>
      </trkpt>
      <trkpt lat="48.2045" lon="-1.73747">
        <ele>96.7</ele>
      </trkpt>
      <trkpt lat="48.20439" lon="-1.73774">
        <ele>96.2</ele>
      </trkpt>
      <trkpt lat="48.20428" lon="-1.73784">
        <ele>95.9</ele>
      </trkpt>
      <trkpt lat="48.20402" lon="-1.73776">
        <ele>95.5</ele>
      </trkpt>
      <trkpt lat="48.20389" lon="-1.7375">
        <ele>96</ele>
      </trkpt>
      <trkpt lat="48.20372" lon="-1.73719">
        <ele>95.4</ele>
      </trkpt>
      <trkpt lat="48.20032" lon="-1.73462">
        <ele>94.9</ele>
      </trkpt>
      <trkpt lat="48.19926" lon="-1.73386">
        <ele>97</ele>
      </trkpt>
      <trkpt lat="48.19719" lon="-1.7325">
        <ele>99</ele>
      </trkpt>
      <trkpt lat="48.19465" lon="-1.73088">
        <ele>97</ele>
      </trkpt>
      <trkpt lat="48.19449" lon="-1.73403">
        <ele>95.6</ele>
      </trkpt>
      <trkpt lat="48.19444" lon="-1.7349">
        <ele>96</ele>
      </trkpt>
      <trkpt lat="48.19436" lon="-1.73507">
        <ele>96</ele>
      </trkpt>
      <trkpt lat="48.19415" lon="-1.73517">
        <ele>96</ele>
      </trkpt>
      <trkpt lat="48.19272" lon="-1.73492">
        <ele>93.9</ele>
      </trkpt>
      <trkpt lat="48.19188" lon="-1.73434">
        <ele>93.1</ele>
      </trkpt>
      <trkpt lat="48.19168" lon="-1.73422">
        <ele>93.2</ele>
      </trkpt>
      <trkpt lat="48.19088" lon="-1.73405">
        <ele>92.5</ele>
      </trkpt>
      <trkpt lat="48.1902" lon="-1.73414">
        <ele>91.7</ele>
      </trkpt>
      <trkpt lat="48.18945" lon="-1.73444">
        <ele>91</ele>
      </trkpt>
      <trkpt lat="48.18909" lon="-1.7346">
        <ele>90</ele>
      </trkpt>
      <trkpt lat="48.18867" lon="-1.73469">
        <ele>90</ele>
      </trkpt>
      <trkpt lat="48.18849" lon="-1.73467">
        <ele>90</ele>
      </trkpt>
      <trkpt lat="48.18824" lon="-1.73451">
        <ele>89.8</ele>
      </trkpt>
      <trkpt lat="48.18752" lon="-1.73356">
        <ele>86.1</ele>
      </trkpt>
      <trkpt lat="48.18734" lon="-1.73342">
        <ele>85.6</ele>
      </trkpt>
      <trkpt lat="48.18695" lon="-1.73335">
        <ele>85.1</ele>
      </trkpt>
      <trkpt lat="48.1865" lon="-1.73335">
        <ele>84.4</ele>
      </trkpt>
      <trkpt lat="48.18585" lon="-1.73374">
        <ele>84.5</ele>
      </trkpt>
      <trkpt lat="48.18384" lon="-1.73525">
        <ele>81.8</ele>
      </trkpt>
      <trkpt lat="48.18249" lon="-1.73715">
        <ele>77</ele>
      </trkpt>
      <trkpt lat="48.18234" lon="-1.73712">
        <ele>76.4</ele>
      </trkpt>
      <trkpt lat="48.17992" lon="-1.73508">
        <ele>68.5</ele>
      </trkpt>
      <trkpt lat="48.17948" lon="-1.7347">
        <ele>69.1</ele>
      </trkpt>
      <trkpt lat="48.17921" lon="-1.73436">
        <ele>71.2</ele>
      </trkpt>
      <trkpt lat="48.17882" lon="-1.73378">
        <ele>74.8</ele>
      </trkpt>
      <trkpt lat="48.17858" lon="-1.73404">
        <ele>76.1</ele>
      </trkpt>
      <trkpt lat="48.17844" lon="-1.73444">
        <ele>76</ele>
      </trkpt>
      <trkpt lat="48.17841" lon="-1.73464">
        <ele>76</ele>
      </trkpt>
      <trkpt lat="48.17811" lon="-1.73487">
        <ele>75.6</ele>
      </trkpt>
      <trkpt lat="48.17802" lon="-1.73428">
        <ele>76.9</ele>
      </trkpt>
      <trkpt lat="48.17792" lon="-1.734">
        <ele>78.6</ele>
      </trkpt>
      <trkpt lat="48.17769" lon="-1.73375">
        <ele>79.8</ele>
      </trkpt>
      <trkpt lat="48.17757" lon="-1.73361">
        <ele>80</ele>
      </trkpt>
      <trkpt lat="48.17746" lon="-1.7335">
        <ele>80.6</ele>
      </trkpt>
      <trkpt lat="48.17742" lon="-1.73346">
        <ele>80.9</ele>
      </trkpt>
      <trkpt lat="48.17735" lon="-1.73337">
        <ele>81.5</ele>
      </trkpt>
      <trkpt lat="48.17688" lon="-1.73278">
        <ele>83</ele>
      </trkpt>
      <trkpt lat="48.17657" lon="-1.7329">
        <ele>83</ele>
      </trkpt>
      <trkpt lat="48.17565" lon="-1.73355">
        <ele>81.2</ele>
      </trkpt>
      <trkpt lat="48.175" lon="-1.73401">
        <ele>80</ele>
      </trkpt>
      <trkpt lat="48.17489" lon="-1.73413">
        <ele>80</ele>
      </trkpt>
      <trkpt lat="48.17467" lon="-1.73457">
        <ele>78.9</ele>
      </trkpt>
      <trkpt lat="48.17411" lon="-1.73521">
        <ele>78</ele>
      </trkpt>
      <trkpt lat="48.17274" lon="-1.73621">
        <ele>77</ele>
      </trkpt>
      <trkpt lat="48.17233" lon="-1.73636">
        <ele>77</ele>
      </trkpt>
      <trkpt lat="48.17194" lon="-1.73643">
        <ele>76</ele>
      </trkpt>
      <trkpt lat="48.17136" lon="-1.73655">
        <ele>74.9</ele>
      </trkpt>
      <trkpt lat="48.17097" lon="-1.73655">
        <ele>73.8</ele>
      </trkpt>
      <trkpt lat="48.16786" lon="-1.73508">
        <ele>64.5</ele>
      </trkpt>
      <trkpt lat="48.1661" lon="-1.73311">
        <ele>63</ele>
      </trkpt>
      <trkpt lat="48.16326" lon="-1.73114">
        <ele>58.7</ele>
      </trkpt>
      <trkpt lat="48.16171" lon="-1.72954">
        <ele>56.1</ele>
      </trkpt>
      <trkpt lat="48.1607" lon="-1.72904">
        <ele>52.8</ele>
      </trkpt>
      <trkpt lat="48.15963" lon="-1.7281">
        <ele>49.7</ele>
      </trkpt>
      <trkpt lat="48.15826" lon="-1.72549">
        <ele>52.5</ele>
      </trkpt>
      <trkpt lat="48.15701" lon="-1.72305">
        <ele>58.8</ele>
      </trkpt>
      <trkpt lat="48.15689" lon="-1.7228">
        <ele>59.2</ele>
      </trkpt>
      <trkpt lat="48.15701" lon="-1.72252">
        <ele>58.8</ele>
      </trkpt>
      <trkpt lat="48.15694" lon="-1.72151">
        <ele>57</ele>
      </trkpt>
      <trkpt lat="48.15699" lon="-1.71967">
        <ele>54.7</ele>
      </trkpt>
      <trkpt lat="48.15716" lon="-1.71906">
        <ele>53.2</ele>
      </trkpt>
      <trkpt lat="48.15719" lon="-1.71857">
        <ele>52.1</ele>
      </trkpt>
      <trkpt lat="48.15695" lon="-1.7177">
        <ele>51</ele>
      </trkpt>
      <trkpt lat="48.15712" lon="-1.71737">
        <ele>50.6</ele>
      </trkpt>
      <trkpt lat="48.15723" lon="-1.71722">
        <ele>49</ele>
      </trkpt>
      <trkpt lat="48.15738" lon="-1.71602">
        <ele>48.4</ele>
      </trkpt>
      <trkpt lat="48.15711" lon="-1.71587">
        <ele>49.4</ele>
      </trkpt>
      <trkpt lat="48.15688" lon="-1.7156">
        <ele>50.3</ele>
      </trkpt>
      <trkpt lat="48.15675" lon="-1.71551">
        <ele>50.7</ele>
      </trkpt>
      <trkpt lat="48.15614" lon="-1.7155">
        <ele>52.7</ele>
      </trkpt>
      <trkpt lat="48.15604" lon="-1.71563">
        <ele>53.5</ele>
      </trkpt>
      <trkpt lat="48.15595" lon="-1.71644">
        <ele>55.2</ele>
      </trkpt>
      <trkpt lat="48.15588" lon="-1.71656">
        <ele>55.8</ele>
      </trkpt>
      <trkpt lat="48.15547" lon="-1.7167">
        <ele>56.3</ele>
      </trkpt>
      <trkpt lat="48.15541" lon="-1.71685">
        <ele>56.5</ele>
      </trkpt>
      <trkpt lat="48.15541" lon="-1.71795">
        <ele>56.5</ele>
      </trkpt>
      <trkpt lat="48.15554" lon="-1.71982">
        <ele>56</ele>
      </trkpt>
      <trkpt lat="48.15567" lon="-1.72039">
        <ele>56.6</ele>
      </trkpt>
      <trkpt lat="48.15566" lon="-1.7209">
        <ele>57</ele>
      </trkpt>
      <trkpt lat="48.15564" lon="-1.72148">
        <ele>57.4</ele>
      </trkpt>
      <trkpt lat="48.15568" lon="-1.72305">
        <ele>58.9</ele>
      </trkpt>
      <trkpt lat="48.15579" lon="-1.72431">
        <ele>59.8</ele>
      </trkpt>
      <trkpt lat="48.156" lon="-1.7263">
        <ele>59.6</ele>
      </trkpt>
      <trkpt lat="48.15599" lon="-1.72743">
        <ele>59.6</ele>
      </trkpt>
      <trkpt lat="48.15606" lon="-1.7284">
        <ele>58.8</ele>
      </trkpt>
      <trkpt lat="48.15579" lon="-1.73">
        <ele>57</ele>
      </trkpt>
      <trkpt lat="48.15575" lon="-1.73104">
        <ele>56</ele>
      </trkpt>
      <trkpt lat="48.15487" lon="-1.7326">
        <ele>58.2</ele>
      </trkpt>
      <trkpt lat="48.1547" lon="-1.73392">
        <ele>59.1</ele>
      </trkpt>
      <trkpt lat="48.1543" lon="-1.73512">
        <ele>59</ele>
      </trkpt>
      <trkpt lat="48.15415" lon="-1.73535">
        <ele>59</ele>
      </trkpt>
      <trkpt lat="48.15373" lon="-1.73548">
        <ele>59</ele>
      </trkpt>
      <trkpt lat="48.15339" lon="-1.73578">
        <ele>59.2</ele>
      </trkpt>
      <trkpt lat="48.15322" lon="-1.7362">
        <ele>59.6</ele>
      </trkpt>
      <trkpt lat="48.15318" lon="-1.73712">
        <ele>61</ele>
      </trkpt>
      <trkpt lat="48.15318" lon="-1.73957">
        <ele>62</ele>
      </trkpt>
      <trkpt lat="48.15326" lon="-1.73963">
        <ele>62</ele>
      </trkpt>
      <trkpt lat="48.15429" lon="-1.73941">
        <ele>62</ele>
      </trkpt>
      <trkpt lat="48.15437" lon="-1.73955">
        <ele>62</ele>
      </trkpt>
      <trkpt lat="48.15439" lon="-1.74124">
        <ele>61</ele>
      </trkpt>
      <trkpt lat="48.15432" lon="-1.7427">
        <ele>59</ele>
      </trkpt>
      <trkpt lat="48.15406" lon="-1.74484">
        <ele>54.6</ele>
      </trkpt>
      <trkpt lat="48.15329" lon="-1.74675">
        <ele>54.1</ele>
      </trkpt>
      <trkpt lat="48.15305" lon="-1.74806">
        <ele>56</ele>
      </trkpt>
      <trkpt lat="48.1531" lon="-1.75053">
        <ele>58.8</ele>
      </trkpt>
      <trkpt lat="48.15305" lon="-1.75159">
        <ele>59</ele>
      </trkpt>
      <trkpt lat="48.14965" lon="-1.7527">
        <ele>62.3</ele>
      </trkpt>
      <trkpt lat="48.14948" lon="-1.75304">
        <ele>62.2</ele>
      </trkpt>
      <trkpt lat="48.14932" lon="-1.75385">
        <ele>62.4</ele>
      </trkpt>
      <trkpt lat="48.14892" lon="-1.75743">
        <ele>56.1</ele>
      </trkpt>
      <trkpt lat="48.14875" lon="-1.75775">
        <ele>55.5</ele>
      </trkpt>
      <trkpt lat="48.14872" lon="-1.75789">
        <ele>55.2</ele>
      </trkpt>
      <trkpt lat="48.14878" lon="-1.7589">
        <ele>54</ele>
      </trkpt>
      <trkpt lat="48.14855" lon="-1.76127">
        <ele>53</ele>
      </trkpt>
      <trkpt lat="48.14824" lon="-1.76432">
        <ele>54</ele>
      </trkpt>
      <trkpt lat="48.14798" lon="-1.76712">
        <ele>56.3</ele>
      </trkpt>
      <trkpt lat="48.14778" lon="-1.7684">
        <ele>58</ele>
      </trkpt>
      <trkpt lat="48.14743" lon="-1.76926">
        <ele>58.3</ele>
      </trkpt>
      <trkpt lat="48.14669" lon="-1.77019">
        <ele>59.9</ele>
      </trkpt>
      <trkpt lat="48.14628" lon="-1.77052">
        <ele>60.5</ele>
      </trkpt>
      <trkpt lat="48.14595" lon="-1.77057">
        <ele>61.6</ele>
      </trkpt>
      <trkpt lat="48.14513" lon="-1.77067">
        <ele>63.5</ele>
      </trkpt>
      <trkpt lat="48.14374" lon="-1.7706">
        <ele>67.6</ele>
      </trkpt>
      <trkpt lat="48.14342" lon="-1.77049">
        <ele>68.5</ele>
      </trkpt>
      <trkpt lat="48.14312" lon="-1.77032">
        <ele>68.8</ele>
      </trkpt>
      <trkpt lat="48.14248" lon="-1.76982">
        <ele>69</ele>
      </trkpt>
      <trkpt lat="48.14214" lon="-1.76942">
        <ele>68</ele>
      </trkpt>
      <trkpt lat="48.14204" lon="-1.76904">
        <ele>68</ele>
      </trkpt>
      <trkpt lat="48.14192" lon="-1.76876">
        <ele>68</ele>
      </trkpt>
      <trkpt lat="48.14164" lon="-1.76874">
        <ele>68.4</ele>
      </trkpt>
      <trkpt lat="48.14147" lon="-1.76833">
        <ele>68</ele>
      </trkpt>
      <trkpt lat="48.14117" lon="-1.76699">
        <ele>67</ele>
      </trkpt>
      <trkpt lat="48.14117" lon="-1.76684">
        <ele>66.9</ele>
      </trkpt>
      <trkpt lat="48.14117" lon="-1.76671">
        <ele>66.8</ele>
      </trkpt>
      <trkpt lat="48.14107" lon="-1.76658">
        <ele>67</ele>
      </trkpt>
      <trkpt lat="48.14102" lon="-1.76637">
        <ele>67</ele>
      </trkpt>
      <trkpt lat="48.14023" lon="-1.76304">
        <ele>67</ele>
      </trkpt>
      <trkpt lat="48.14022" lon="-1.76281">
        <ele>67</ele>
      </trkpt>
      <trkpt lat="48.14013" lon="-1.7626">
        <ele>67</ele>
      </trkpt>
      <trkpt lat="48.14" lon="-1.76256">
        <ele>67</ele>
      </trkpt>
      <trkpt lat="48.13953" lon="-1.76052">
        <ele>65.3</ele>
      </trkpt>
      <trkpt lat="48.1396" lon="-1.76037">
        <ele>65.6</ele>
      </trkpt>
      <trkpt lat="48.13967" lon="-1.76019">
        <ele>65.8</ele>
      </trkpt>
      <trkpt lat="48.14134" lon="-1.7593">
        <ele>66.6</ele>
      </trkpt>
      <trkpt lat="48.14174" lon="-1.75929">
        <ele>66</ele>
      </trkpt>
      <trkpt lat="48.14186" lon="-1.75943">
        <ele>66</ele>
      </trkpt>
      <trkpt lat="48.14225" lon="-1.76143">
        <ele>69</ele>
      </trkpt>
      <trkpt lat="48.14245" lon="-1.76176">
        <ele>69.3</ele>
      </trkpt>
      <trkpt lat="48.14328" lon="-1.76191">
        <ele>69</ele>
      </trkpt>
      <trkpt lat="48.14362" lon="-1.76187">
        <ele>68</ele>
      </trkpt>
      <trkpt lat="48.14375" lon="-1.76163">
        <ele>68</ele>
      </trkpt>
      <trkpt lat="48.1454" lon="-1.7576">
        <ele>64.2</ele>
      </trkpt>
      <trkpt lat="48.14538" lon="-1.75739">
        <ele>63.6</ele>
      </trkpt>
      <trkpt lat="48.1455" lon="-1.75722">
        <ele>63</ele>
      </trkpt>
      <trkpt lat="48.14664" lon="-1.75478">
        <ele>62</ele>
      </trkpt>
      <trkpt lat="48.14667" lon="-1.75452">
        <ele>62</ele>
      </trkpt>
      <trkpt lat="48.14668" lon="-1.75437">
        <ele>62.3</ele>
      </trkpt>
      <trkpt lat="48.14589" lon="-1.75253">
        <ele>60.2</ele>
      </trkpt>
      <trkpt lat="48.14576" lon="-1.75201">
        <ele>60</ele>
      </trkpt>
      <trkpt lat="48.14593" lon="-1.74921">
        <ele>60.4</ele>
      </trkpt>
      <trkpt lat="48.14643" lon="-1.74736">
        <ele>60</ele>
      </trkpt>
      <trkpt lat="48.14646" lon="-1.74669">
        <ele>60.2</ele>
      </trkpt>
      <trkpt lat="48.14641" lon="-1.74599">
        <ele>60.1</ele>
      </trkpt>
      <trkpt lat="48.14619" lon="-1.74499">
        <ele>60</ele>
      </trkpt>
      <trkpt lat="48.14573" lon="-1.74349">
        <ele>59.3</ele>
      </trkpt>
      <trkpt lat="48.14551" lon="-1.74281">
        <ele>59</ele>
      </trkpt>
      <trkpt lat="48.14529" lon="-1.73994">
        <ele>57</ele>
      </trkpt>
      <trkpt lat="48.1451" lon="-1.73843">
        <ele>56.7</ele>
      </trkpt>
      <trkpt lat="48.14496" lon="-1.73813">
        <ele>56.8</ele>
      </trkpt>
      <trkpt lat="48.14392" lon="-1.73716">
        <ele>57</ele>
      </trkpt>
      <trkpt lat="48.14374" lon="-1.73651">
        <ele>57.5</ele>
      </trkpt>
      <trkpt lat="48.14349" lon="-1.73541">
        <ele>58.2</ele>
      </trkpt>
      <trkpt lat="48.14329" lon="-1.73509">
        <ele>58.1</ele>
      </trkpt>
      <trkpt lat="48.14294" lon="-1.73495">
        <ele>58.2</ele>
      </trkpt>
      <trkpt lat="48.14146" lon="-1.73486">
        <ele>58.2</ele>
      </trkpt>
      <trkpt lat="48.14125" lon="-1.73473">
        <ele>58</ele>
      </trkpt>
      <trkpt lat="48.14104" lon="-1.73425">
        <ele>57.6</ele>
      </trkpt>
      <trkpt lat="48.14086" lon="-1.73295">
        <ele>55.8</ele>
      </trkpt>
      <trkpt lat="48.14067" lon="-1.73229">
        <ele>54.9</ele>
      </trkpt>
      <trkpt lat="48.14051" lon="-1.73179">
        <ele>53.4</ele>
      </trkpt>
      <trkpt lat="48.14039" lon="-1.73078">
        <ele>51.5</ele>
      </trkpt>
      <trkpt lat="48.14045" lon="-1.72963">
        <ele>50.9</ele>
      </trkpt>
      <trkpt lat="48.14031" lon="-1.7288">
        <ele>49.2</ele>
      </trkpt>
      <trkpt lat="48.14009" lon="-1.72839">
        <ele>49.3</ele>
      </trkpt>
      <trkpt lat="48.13909" lon="-1.72728">
        <ele>49.6</ele>
      </trkpt>
      <trkpt lat="48.13891" lon="-1.72699">
        <ele>49.9</ele>
      </trkpt>
      <trkpt lat="48.13884" lon="-1.72676">
        <ele>49.9</ele>
      </trkpt>
      <trkpt lat="48.13903" lon="-1.72319">
        <ele>58</ele>
      </trkpt>
      <trkpt lat="48.13872" lon="-1.72072">
        <ele>58</ele>
      </trkpt>
      <trkpt lat="48.13869" lon="-1.71989">
        <ele>58</ele>
      </trkpt>
      <trkpt lat="48.13871" lon="-1.71929">
        <ele>57.7</ele>
      </trkpt>
      <trkpt lat="48.14238" lon="-1.71942">
        <ele>52.4</ele>
      </trkpt>
      <trkpt lat="48.14257" lon="-1.71942">
        <ele>51.7</ele>
      </trkpt>
      <trkpt lat="48.14276" lon="-1.71906">
        <ele>51.1</ele>
      </trkpt>
      <trkpt lat="48.14548" lon="-1.71904">
        <ele>50.5</ele>
      </trkpt>
      <trkpt lat="48.1466" lon="-1.71878">
        <ele>48</ele>
      </trkpt>
      <trkpt lat="48.14666" lon="-1.71701">
        <ele>47</ele>
      </trkpt>
      <trkpt lat="48.14632" lon="-1.71395">
        <ele>45</ele>
      </trkpt>
      <trkpt lat="48.14656" lon="-1.71061">
        <ele>48.4</ele>
      </trkpt>
      <trkpt lat="48.14392" lon="-1.70879">
        <ele>53</ele>
      </trkpt>
      <trkpt lat="48.14414" lon="-1.70653">
        <ele>53.6</ele>
      </trkpt>
      <trkpt lat="48.14399" lon="-1.70415">
        <ele>52</ele>
      </trkpt>
      <trkpt lat="48.1441" lon="-1.70267">
        <ele>50.6</ele>
      </trkpt>
      <trkpt lat="48.14385" lon="-1.70251">
        <ele>50</ele>
      </trkpt>
      <trkpt lat="48.1421" lon="-1.70157">
        <ele>48.5</ele>
      </trkpt>
      <trkpt lat="48.14111" lon="-1.70071">
        <ele>47</ele>
      </trkpt>
      <trkpt lat="48.14016" lon="-1.69993">
        <ele>47.3</ele>
      </trkpt>
      <trkpt lat="48.1393" lon="-1.69901">
        <ele>47.2</ele>
      </trkpt>
      <trkpt lat="48.13837" lon="-1.69831">
        <ele>42.9</ele>
      </trkpt>
      <trkpt lat="48.13696" lon="-1.6975">
        <ele>41</ele>
      </trkpt>
      <trkpt lat="48.13577" lon="-1.69627">
        <ele>40.7</ele>
      </trkpt>
      <trkpt lat="48.13437" lon="-1.69468">
        <ele>39.9</ele>
      </trkpt>
      <trkpt lat="48.13422" lon="-1.69424">
        <ele>39.8</ele>
      </trkpt>
      <trkpt lat="48.13421" lon="-1.69403">
        <ele>39.9</ele>
      </trkpt>
      <trkpt lat="48.13484" lon="-1.69319">
        <ele>38.1</ele>
      </trkpt>
      <trkpt lat="48.13497" lon="-1.69304">
        <ele>37.3</ele>
      </trkpt>
      <trkpt lat="48.13506" lon="-1.6931">
        <ele>37.1</ele>
      </trkpt>
      <trkpt lat="48.13516" lon="-1.69314">
        <ele>37.1</ele>
      </trkpt>
      <trkpt lat="48.13599" lon="-1.6928">
        <ele>37</ele>
      </trkpt>
      <trkpt lat="48.13609" lon="-1.69264">
        <ele>37</ele>
      </trkpt>
      <trkpt lat="48.1362" lon="-1.69223">
        <ele>33.6</ele>
      </trkpt>
      <trkpt lat="48.13645" lon="-1.69215">
        <ele>36.6</ele>
      </trkpt>
      <trkpt lat="48.13661" lon="-1.69206">
        <ele>36.7</ele>
      </trkpt>
      <trkpt lat="48.1371" lon="-1.68992">
        <ele>36.6</ele>
      </trkpt>
      <trkpt lat="48.13704" lon="-1.68966">
        <ele>36.4</ele>
      </trkpt>
      <trkpt lat="48.13704" lon="-1.68951">
        <ele>36.4</ele>
      </trkpt>
      <trkpt lat="48.13715" lon="-1.68941">
        <ele>36.7</ele>
      </trkpt>
      <trkpt lat="48.13736" lon="-1.68946">
        <ele>37.5</ele>
      </trkpt>
      <trkpt lat="48.13786" lon="-1.68959">
        <ele>38.3</ele>
      </trkpt>
      <trkpt lat="48.13858" lon="-1.68972">
        <ele>40</ele>
      </trkpt>
      <trkpt lat="48.13912" lon="-1.68981">
        <ele>39.7</ele>
      </trkpt>
      <trkpt lat="48.13941" lon="-1.68987">
        <ele>39.9</ele>
      </trkpt>
      <trkpt lat="48.13967" lon="-1.68987">
        <ele>39.6</ele>
      </trkpt>
      <trkpt lat="48.13992" lon="-1.68964">
        <ele>39.1</ele>
      </trkpt>
      <trkpt lat="48.14006" lon="-1.68931">
        <ele>37.8</ele>
      </trkpt>
      <trkpt lat="48.14015" lon="-1.68792">
        <ele>37.4</ele>
      </trkpt>
      <trkpt lat="48.14027" lon="-1.68685">
        <ele>41.3</ele>
      </trkpt>
      <trkpt lat="48.14024" lon="-1.68652">
        <ele>41.4</ele>
      </trkpt>
      <trkpt lat="48.14048" lon="-1.68654">
        <ele>40.8</ele>
      </trkpt>
      <trkpt lat="48.14332" lon="-1.68646">
        <ele>45</ele>
      </trkpt>
      <trkpt lat="48.14356" lon="-1.6862">
        <ele>45.9</ele>
      </trkpt>
      <trkpt lat="48.14371" lon="-1.68626">
        <ele>45.8</ele>
      </trkpt>
      <trkpt lat="48.14386" lon="-1.68642">
        <ele>45.2</ele>
      </trkpt>
      <trkpt lat="48.14411" lon="-1.68646">
        <ele>45.2</ele>
      </trkpt>
      <trkpt lat="48.146" lon="-1.68626">
        <ele>44.3</ele>
      </trkpt>
      <trkpt lat="48.1504" lon="-1.68569">
        <ele>40.7</ele>
      </trkpt>
      <trkpt lat="48.15084" lon="-1.68549">
        <ele>39.8</ele>
      </trkpt>
      <trkpt lat="48.1508" lon="-1.6848">
        <ele>38.4</ele>
      </trkpt>
      <trkpt lat="48.15069" lon="-1.68462">
        <ele>38.9</ele>
      </trkpt>
      <trkpt lat="48.15097" lon="-1.68356">
        <ele>37.9</ele>
      </trkpt>
      <trkpt lat="48.1515" lon="-1.68329">
        <ele>34.7</ele>
      </trkpt>
      <trkpt lat="48.15117" lon="-1.68228">
        <ele>35.3</ele>
      </trkpt>
      <trkpt lat="48.15071" lon="-1.68183">
        <ele>36.8</ele>
      </trkpt>
      <trkpt lat="48.15042" lon="-1.68078">
        <ele>30.4</ele>
      </trkpt>
      <trkpt lat="48.15026" lon="-1.67861">
        <ele>27.9</ele>
      </trkpt>
      <trkpt lat="48.1495" lon="-1.67644">
        <ele>28</ele>
      </trkpt>
      <trkpt lat="48.14909" lon="-1.67486">
        <ele>28</ele>
      </trkpt>
      <trkpt lat="48.14903" lon="-1.6742">
        <ele>28</ele>
      </trkpt>
      <trkpt lat="48.14894" lon="-1.67407">
        <ele>28</ele>
      </trkpt>
      <trkpt lat="48.14888" lon="-1.67233">
        <ele>29.6</ele>
      </trkpt>
      <trkpt lat="48.14869" lon="-1.67159">
        <ele>31.6</ele>
      </trkpt>
      <trkpt lat="48.14648" lon="-1.66882">
        <ele>36</ele>
      </trkpt>
      <trkpt lat="48.14615" lon="-1.66863">
        <ele>37</ele>
      </trkpt>
      <trkpt lat="48.14594" lon="-1.66867">
        <ele>36.7</ele>
      </trkpt>
      <trkpt lat="48.14355" lon="-1.67096">
        <ele>32.7</ele>
      </trkpt>
      <trkpt lat="48.14311" lon="-1.67128">
        <ele>32.9</ele>
      </trkpt>
      <trkpt lat="48.14212" lon="-1.67176">
        <ele>32.3</ele>
      </trkpt>
      <trkpt lat="48.14146" lon="-1.67181">
        <ele>37</ele>
      </trkpt>
      <trkpt lat="48.14099" lon="-1.67186">
        <ele>37.3</ele>
      </trkpt>
      <trkpt lat="48.13991" lon="-1.67181">
        <ele>41</ele>
      </trkpt>
      <trkpt lat="48.13937" lon="-1.67174">
        <ele>39.1</ele>
      </trkpt>
      <trkpt lat="48.1382" lon="-1.672">
        <ele>33.8</ele>
      </trkpt>
      <trkpt lat="48.13783" lon="-1.67212">
        <ele>32.3</ele>
      </trkpt>
      <trkpt lat="48.13747" lon="-1.67224">
        <ele>30.9</ele>
      </trkpt>
      <trkpt lat="48.13733" lon="-1.6723">
        <ele>30.6</ele>
      </trkpt>
      <trkpt lat="48.13709" lon="-1.6723">
        <ele>30.6</ele>
      </trkpt>
      <trkpt lat="48.13697" lon="-1.67236">
        <ele>30.5</ele>
      </trkpt>
      <trkpt lat="48.13691" lon="-1.67242">
        <ele>30.3</ele>
      </trkpt>
      <trkpt lat="48.13678" lon="-1.67239">
        <ele>30.4</ele>
      </trkpt>
      <trkpt lat="48.13668" lon="-1.67229">
        <ele>30.7</ele>
      </trkpt>
      <trkpt lat="48.13666" lon="-1.67215">
        <ele>31</ele>
      </trkpt>
      <trkpt lat="48.13671" lon="-1.67194">
        <ele>31</ele>
      </trkpt>
      <trkpt lat="48.13669" lon="-1.67005">
        <ele>31.8</ele>
      </trkpt>
      <trkpt lat="48.13663" lon="-1.66995">
        <ele>32</ele>
      </trkpt>
      <trkpt lat="48.13666" lon="-1.66985">
        <ele>32</ele>
      </trkpt>
      <trkpt lat="48.13662" lon="-1.66843">
        <ele>33.1</ele>
      </trkpt>
      <trkpt lat="48.13657" lon="-1.66718">
        <ele>34.3</ele>
      </trkpt>
      <trkpt lat="48.13647" lon="-1.66706">
        <ele>34.3</ele>
      </trkpt>
      <trkpt lat="48.13649" lon="-1.66692">
        <ele>34.1</ele>
      </trkpt>
      <trkpt lat="48.13655" lon="-1.66681">
        <ele>34.2</ele>
      </trkpt>
      <trkpt lat="48.13646" lon="-1.66308">
        <ele>36.5</ele>
      </trkpt>
      <trkpt lat="48.1364" lon="-1.663">
        <ele>36.3</ele>
      </trkpt>
      <trkpt lat="48.13641" lon="-1.66286">
        <ele>36.8</ele>
      </trkpt>
      <trkpt lat="48.13647" lon="-1.66277">
        <ele>37.3</ele>
      </trkpt>
      <trkpt lat="48.13644" lon="-1.66169">
        <ele>38.1</ele>
      </trkpt>
      <trkpt lat="48.13624" lon="-1.66097">
        <ele>38.8</ele>
      </trkpt>
      <trkpt lat="48.13599" lon="-1.66056">
        <ele>39</ele>
      </trkpt>
      <trkpt lat="48.13571" lon="-1.66023">
        <ele>39.1</ele>
      </trkpt>
      <trkpt lat="48.13468" lon="-1.65919">
        <ele>41.3</ele>
      </trkpt>
      <trkpt lat="48.13452" lon="-1.6589">
        <ele>42.7</ele>
      </trkpt>
      <trkpt lat="48.1343" lon="-1.65842">
        <ele>45</ele>
      </trkpt>
      <trkpt lat="48.13389" lon="-1.6576">
        <ele>47</ele>
      </trkpt>
      <trkpt lat="48.13338" lon="-1.657">
        <ele>46.2</ele>
      </trkpt>
      <trkpt lat="48.13243" lon="-1.65662">
        <ele>44</ele>
      </trkpt>
      <trkpt lat="48.13222" lon="-1.65674">
        <ele>44</ele>
      </trkpt>
      <trkpt lat="48.13209" lon="-1.6568">
        <ele>44.5</ele>
      </trkpt>
      <trkpt lat="48.13057" lon="-1.65674">
        <ele>49</ele>
      </trkpt>
      <trkpt lat="48.1305" lon="-1.65658">
        <ele>48.7</ele>
      </trkpt>
      <trkpt lat="48.13045" lon="-1.65648">
        <ele>48.6</ele>
      </trkpt>
      <trkpt lat="48.13042" lon="-1.6564">
        <ele>48.5</ele>
      </trkpt>
      <trkpt lat="48.13045" lon="-1.65611">
        <ele>48.4</ele>
      </trkpt>
      <trkpt lat="48.13137" lon="-1.653">
        <ele>45.3</ele>
      </trkpt>
      <trkpt lat="48.13137" lon="-1.65204">
        <ele>46</ele>
      </trkpt>
      <trkpt lat="48.12885" lon="-1.6521">
        <ele>48.1</ele>
      </trkpt>
      <trkpt lat="48.12863" lon="-1.65199">
        <ele>48.9</ele>
      </trkpt>
      <trkpt lat="48.12785" lon="-1.65198">
        <ele>50.7</ele>
      </trkpt>
      <trkpt lat="48.12769" lon="-1.65156">
        <ele>51.3</ele>
      </trkpt>
      <trkpt lat="48.12768" lon="-1.65122">
        <ele>51.4</ele>
      </trkpt>
      <trkpt lat="48.12843" lon="-1.64766">
        <ele>53.5</ele>
      </trkpt>
      <trkpt lat="48.12969" lon="-1.64304">
        <ele>57</ele>
      </trkpt>
      <trkpt lat="48.13" lon="-1.64308">
        <ele>56.1</ele>
      </trkpt>
      <trkpt lat="48.13099" lon="-1.64191">
        <ele>55</ele>
      </trkpt>
      <trkpt lat="48.13209" lon="-1.64008">
        <ele>54.9</ele>
      </trkpt>
      <trkpt lat="48.13382" lon="-1.63838">
        <ele>59</ele>
      </trkpt>
      <trkpt lat="48.13312" lon="-1.63679">
        <ele>59</ele>
      </trkpt>
      <trkpt lat="48.13196" lon="-1.63553">
        <ele>57</ele>
      </trkpt>
      <trkpt lat="48.13266" lon="-1.63314">
        <ele>56.6</ele>
      </trkpt>
      <trkpt lat="48.13188" lon="-1.6329">
        <ele>53.9</ele>
      </trkpt>
      <trkpt lat="48.1312" lon="-1.63236">
        <ele>52</ele>
      </trkpt>
      <trkpt lat="48.12972" lon="-1.63074">
        <ele>52.4</ele>
      </trkpt>
      <trkpt lat="48.12851" lon="-1.62959">
        <ele>56.2</ele>
      </trkpt>
      <trkpt lat="48.12727" lon="-1.62896">
        <ele>59.7</ele>
      </trkpt>
      <trkpt lat="48.12705" lon="-1.62913">
        <ele>60.5</ele>
      </trkpt>
      <trkpt lat="48.12648" lon="-1.6307">
        <ele>63.3</ele>
      </trkpt>
      <trkpt lat="48.12512" lon="-1.63333">
        <ele>56</ele>
      </trkpt>
      <trkpt lat="48.12486" lon="-1.63333">
        <ele>55.5</ele>
      </trkpt>
      <trkpt lat="48.1243" lon="-1.63311">
        <ele>55</ele>
      </trkpt>
      <trkpt lat="48.12274" lon="-1.63296">
        <ele>61</ele>
      </trkpt>
      <trkpt lat="48.12074" lon="-1.63193">
        <ele>52.7</ele>
      </trkpt>
      <trkpt lat="48.12018" lon="-1.63159">
        <ele>50.2</ele>
      </trkpt>
      <trkpt lat="48.11925" lon="-1.63522">
        <ele>41.8</ele>
      </trkpt>
      <trkpt lat="48.1208" lon="-1.63601">
        <ele>38.3</ele>
      </trkpt>
      <trkpt lat="48.12078" lon="-1.63624">
        <ele>37.5</ele>
      </trkpt>
      <trkpt lat="48.12026" lon="-1.63595">
        <ele>37.6</ele>
      </trkpt>
      <trkpt lat="48.12005" lon="-1.6372">
        <ele>36</ele>
      </trkpt>
      <trkpt lat="48.12178" lon="-1.63831">
        <ele>40.7</ele>
      </trkpt>
      <trkpt lat="48.12179" lon="-1.63846">
        <ele>41.3</ele>
      </trkpt>
      <trkpt lat="48.12155" lon="-1.6394">
        <ele>40.5</ele>
      </trkpt>
      <trkpt lat="48.11924" lon="-1.63805">
        <ele>35</ele>
      </trkpt>
      <trkpt lat="48.11895" lon="-1.63812">
        <ele>35.8</ele>
      </trkpt>
      <trkpt lat="48.11794" lon="-1.64197">
        <ele>33</ele>
      </trkpt>
      <trkpt lat="48.11451" lon="-1.63993">
        <ele>34.4</ele>
      </trkpt>
      <trkpt lat="48.11449" lon="-1.63975">
        <ele>34.9</ele>
      </trkpt>
      <trkpt lat="48.11504" lon="-1.63778">
        <ele>39</ele>
      </trkpt>
      <trkpt lat="48.1148" lon="-1.63693">
        <ele>38.5</ele>
      </trkpt>
      <trkpt lat="48.1146" lon="-1.63655">
        <ele>37.1</ele>
      </trkpt>
      <trkpt lat="48.11431" lon="-1.63689">
        <ele>35</ele>
      </trkpt>
      <trkpt lat="48.11409" lon="-1.63677">
        <ele>33.7</ele>
      </trkpt>
      <trkpt lat="48.11406" lon="-1.63664">
        <ele>33.6</ele>
      </trkpt>
      <trkpt lat="48.11408" lon="-1.63465">
        <ele>35.3</ele>
      </trkpt>
      <trkpt lat="48.11407" lon="-1.63409">
        <ele>35.8</ele>
      </trkpt>
      <trkpt lat="48.114" lon="-1.63402">
        <ele>35.6</ele>
      </trkpt>
      <trkpt lat="48.11395" lon="-1.63383">
        <ele>35.5</ele>
      </trkpt>
      <trkpt lat="48.11395" lon="-1.63364">
        <ele>35.9</ele>
      </trkpt>
      <trkpt lat="48.114" lon="-1.63346">
        <ele>36.2</ele>
      </trkpt>
      <trkpt lat="48.11402" lon="-1.6333">
        <ele>36.4</ele>
      </trkpt>
      <trkpt lat="48.11404" lon="-1.63304">
        <ele>36.1</ele>
      </trkpt>
      <trkpt lat="48.11408" lon="-1.63009">
        <ele>38.5</ele>
      </trkpt>
      <trkpt lat="48.11406" lon="-1.62905">
        <ele>38</ele>
      </trkpt>
      <trkpt lat="48.11399" lon="-1.62881">
        <ele>37.4</ele>
      </trkpt>
      <trkpt lat="48.11398" lon="-1.62867">
        <ele>37.3</ele>
      </trkpt>
      <trkpt lat="48.11402" lon="-1.62856">
        <ele>37.3</ele>
      </trkpt>
      <trkpt lat="48.11406" lon="-1.62838">
        <ele>36.8</ele>
      </trkpt>
      <trkpt lat="48.11408" lon="-1.62821">
        <ele>36.4</ele>
      </trkpt>
      <trkpt lat="48.11414" lon="-1.62316">
        <ele>29.9</ele>
      </trkpt>
      <trkpt lat="48.11415" lon="-1.62287">
        <ele>29.9</ele>
      </trkpt>
      <trkpt lat="48.11414" lon="-1.62255">
        <ele>29.9</ele>
      </trkpt>
      <trkpt lat="48.11414" lon="-1.62227">
        <ele>29.9</ele>
      </trkpt>
      <trkpt lat="48.11415" lon="-1.62223">
        <ele>30</ele>
      </trkpt>
      <trkpt lat="48.11414" lon="-1.62169">
        <ele>29.9</ele>
      </trkpt>
      <trkpt lat="48.11414" lon="-1.6213">
        <ele>29.9</ele>
      </trkpt>
      <trkpt lat="48.1139" lon="-1.62108">
        <ele>29.1</ele>
      </trkpt>
      <trkpt lat="48.11376" lon="-1.62091">
        <ele>29</ele>
      </trkpt>
      <trkpt lat="48.11249" lon="-1.62116">
        <ele>29</ele>
      </trkpt>
      <trkpt lat="48.11219" lon="-1.62124">
        <ele>29.1</ele>
      </trkpt>
      <trkpt lat="48.11187" lon="-1.6216">
        <ele>30.1</ele>
      </trkpt>
      <trkpt lat="48.11164" lon="-1.62215">
        <ele>29.1</ele>
      </trkpt>
      <trkpt lat="48.11151" lon="-1.62279">
        <ele>29.5</ele>
      </trkpt>
      <trkpt lat="48.11146" lon="-1.62486">
        <ele>28.6</ele>
      </trkpt>
      <trkpt lat="48.1115" lon="-1.62504">
        <ele>28.2</ele>
      </trkpt>
      <trkpt lat="48.11156" lon="-1.62513">
        <ele>28</ele>
      </trkpt>
      <trkpt lat="48.11153" lon="-1.62524">
        <ele>28.4</ele>
      </trkpt>
      <trkpt lat="48.11146" lon="-1.62538">
        <ele>28.8</ele>
      </trkpt>
      <trkpt lat="48.11143" lon="-1.62547">
        <ele>28.9</ele>
      </trkpt>
      <trkpt lat="48.11174" lon="-1.62882">
        <ele>27.9</ele>
      </trkpt>
      <trkpt lat="48.11218" lon="-1.63217">
        <ele>28.7</ele>
      </trkpt>
      <trkpt lat="48.11235" lon="-1.63402">
        <ele>27.8</ele>
      </trkpt>
      <trkpt lat="48.11271" lon="-1.63732">
        <ele>29.7</ele>
      </trkpt>
      <trkpt lat="48.11283" lon="-1.63903">
        <ele>29.1</ele>
      </trkpt>
      <trkpt lat="48.11285" lon="-1.63979">
        <ele>30</ele>
      </trkpt>
      <trkpt lat="48.11278" lon="-1.64175">
        <ele>30</ele>
      </trkpt>
      <trkpt lat="48.11265" lon="-1.64254">
        <ele>29</ele>
      </trkpt>
      <trkpt lat="48.11248" lon="-1.64327">
        <ele>28.9</ele>
      </trkpt>
      <trkpt lat="48.1124" lon="-1.64368">
        <ele>29</ele>
      </trkpt>
      <trkpt lat="48.11181" lon="-1.64597">
        <ele>27.7</ele>
      </trkpt>
      <trkpt lat="48.11172" lon="-1.64614">
        <ele>28</ele>
      </trkpt>
      <trkpt lat="48.11164" lon="-1.64638">
        <ele>27.8</ele>
      </trkpt>
      <trkpt lat="48.11085" lon="-1.64973">
        <ele>28</ele>
      </trkpt>
      <trkpt lat="48.11027" lon="-1.65247">
        <ele>28</ele>
      </trkpt>
      <trkpt lat="48.11014" lon="-1.65405">
        <ele>27.5</ele>
      </trkpt>
      <trkpt lat="48.11013" lon="-1.65658">
        <ele>27.8</ele>
      </trkpt>
      <trkpt lat="48.11013" lon="-1.65855">
        <ele>26.1</ele>
      </trkpt>
      <trkpt lat="48.11013" lon="-1.65991">
        <ele>26.3</ele>
      </trkpt>
      <trkpt lat="48.11017" lon="-1.66023">
        <ele>26.1</ele>
      </trkpt>
      <trkpt lat="48.1102" lon="-1.66244">
        <ele>25.3</ele>
      </trkpt>
      <trkpt lat="48.11019" lon="-1.66432">
        <ele>25.5</ele>
      </trkpt>
      <trkpt lat="48.1103" lon="-1.66514">
        <ele>26.5</ele>
      </trkpt>
      <trkpt lat="48.11033" lon="-1.66562">
        <ele>27</ele>
      </trkpt>
      <trkpt lat="48.11248" lon="-1.6662">
        <ele>29.9</ele>
      </trkpt>
      <trkpt lat="48.1122" lon="-1.67071">
        <ele>29.9</ele>
      </trkpt>
      <trkpt lat="48.11222" lon="-1.67117">
        <ele>30</ele>
      </trkpt>
      <trkpt lat="48.1124" lon="-1.67328">
        <ele>36.4</ele>
      </trkpt>
      <trkpt lat="48.11244" lon="-1.67519">
        <ele>38.7</ele>
      </trkpt>
      <trkpt lat="48.11241" lon="-1.67812">
        <ele>35.4</ele>
      </trkpt>
      <trkpt lat="48.11242" lon="-1.67925">
        <ele>36</ele>
      </trkpt>
      <trkpt lat="48.11123" lon="-1.67923">
        <ele>32.4</ele>
      </trkpt>
      <trkpt lat="48.11019" lon="-1.67923">
        <ele>29</ele>
      </trkpt>
      <trkpt lat="48.1102" lon="-1.67787">
        <ele>29</ele>
      </trkpt>
      <trkpt lat="48.10749" lon="-1.67781">
        <ele>27.8</ele>
      </trkpt>
      <trkpt lat="48.10746" lon="-1.6746">
        <ele>27.8</ele>
      </trkpt>
      <trkpt lat="48.10566" lon="-1.67401">
        <ele>27.6</ele>
      </trkpt>
      <trkpt lat="48.10554" lon="-1.6743">
        <ele>28</ele>
      </trkpt>
      <trkpt lat="48.10526" lon="-1.67639">
        <ele>27.9</ele>
      </trkpt>
    </trkseg>
  </trk>
</gpx>