<?xml version="1.0" encoding="UTF-8"?>
 <gpx creator="Garmin Connect" version="1.1"
	 xsi:schemaLocation="http://www.topografix.com/GPX/1/1 http://www.topografix.com/GPX/11.xsd"
	 xmlns:ns3="http://www.garmin.com/xmlschemas/TrackPointExtension/v1"
	 xmlns="http://www.topografix.com/GPX/1/1"
	 xmlns:xsi="http://www.w3.org/2001/XMLSchema-instance" xmlns:ns2="http://www.garmin.com/xmlschemas/GpxExtensions/v3">
	 <metadata>
		<name>Marine Marathon 2024 - 42.195 km</name>
		 <link href="https://www.goandrace.com">
		 <text>Garmin Connect</text>
		 </link>
	 <time>2026-08-23T23:17:44</time>
	 </metadata>
	 <trk>
		 <name>Marine Marathon 2024 - 42.195 km</name>
		 <trkseg>
			 <trkpt lat="38.879659" lon="-77.060122">
				 <ele>8.2</ele>
			 </trkpt>
			 <trkpt lat="38.880508" lon="-77.061023">
				 <ele>8.3</ele>
			 </trkpt>
			 <trkpt lat="38.88229" lon="-77.062533">
				 <ele>8.4</ele>
			 </trkpt>
			 <trkpt lat="38.883975" lon="-77.063691">
				 <ele>8.6</ele>
			 </trkpt>
			 <trkpt lat="38.884718" lon="-77.064003">
				 <ele>8.8</ele>
			 </trkpt>
			 <trkpt lat="38.88471" lon="-77.06404">
				 <ele>9.1</ele>
			 </trkpt>
			 <trkpt lat="38.88652" lon="-77.06512">
				 <ele>9.5</ele>
			 </trkpt>
			 <trkpt lat="38.88742" lon="-77.06562">
				 <ele>10</ele>
			 </trkpt>
			 <trkpt lat="38.88801" lon="-77.06603">
				 <ele>10.5</ele>
			 </trkpt>
			 <trkpt lat="38.88829" lon="-77.06628">
				 <ele>11</ele>
			 </trkpt>
			 <trkpt lat="38.88897" lon="-77.06716">
				 <ele>11.5</ele>
			 </trkpt>
			 <trkpt lat="38.88922" lon="-77.06742">
				 <ele>12</ele>
			 </trkpt>
			 <trkpt lat="38.88949" lon="-77.06762">
				 <ele>12.5</ele>
			 </trkpt>
			 <trkpt lat="38.88971" lon="-77.06771">
				 <ele>13</ele>
			 </trkpt>
			 <trkpt lat="38.89007" lon="-77.06779">
				 <ele>13.4</ele>
			 </trkpt>
			 <trkpt lat="38.89119" lon="-77.06787">
				 <ele>13.7</ele>
			 </trkpt>
			 <trkpt lat="38.89178" lon="-77.06779">
				 <ele>14.2</ele>
			 </trkpt>
			 <trkpt lat="38.89263" lon="-77.06758">
				 <ele>14.6</ele>
			 </trkpt>
			 <trkpt lat="38.89285" lon="-77.0676">
				 <ele>15.2</ele>
			 </trkpt>
			 <trkpt lat="38.89307" lon="-77.06767">
				 <ele>15.9</ele>
			 </trkpt>
			 <trkpt lat="38.89377" lon="-77.06812">
				 <ele>16.7</ele>
			 </trkpt>
			 <trkpt lat="38.89412" lon="-77.0684">
				 <ele>17.5</ele>
			 </trkpt>
			 <trkpt lat="38.89437" lon="-77.06866">
				 <ele>18.4</ele>
			 </trkpt>
			 <trkpt lat="38.89452" lon="-77.06888">
				 <ele>19.3</ele>
			 </trkpt>
			 <trkpt lat="38.89498" lon="-77.06978">
				 <ele>20.5</ele>
			 </trkpt>
			 <trkpt lat="38.89514" lon="-77.07036">
				 <ele>21.6</ele>
			 </trkpt>
			 <trkpt lat="38.89517" lon="-77.07075">
				 <ele>22.8</ele>
			 </trkpt>
			 <trkpt lat="38.89524" lon="-77.0708">
				 <ele>23.8</ele>
			 </trkpt>
			 <trkpt lat="38.8964" lon="-77.07085">
				 <ele>25</ele>
			 </trkpt>
			 <trkpt lat="38.898208" lon="-77.070772">
				 <ele>26.3</ele>
			 </trkpt>
			 <trkpt lat="38.8983" lon="-77.07206">
				 <ele>27.5</ele>
			 </trkpt>
			 <trkpt lat="38.898484" lon="-77.073873">
				 <ele>28.7</ele>
			 </trkpt>
			 <trkpt lat="38.898517" lon="-77.074924">
				 <ele>30.3</ele>
			 </trkpt>
			 <trkpt lat="38.898367" lon="-77.076512">
				 <ele>32.5</ele>
			 </trkpt>
			 <trkpt lat="38.898192" lon="-77.077274">
				 <ele>35</ele>
			 </trkpt>
			 <trkpt lat="38.897908" lon="-77.078261">
				 <ele>37.8</ele>
			 </trkpt>
			 <trkpt lat="38.897616" lon="-77.078947">
				 <ele>40.7</ele>
			 </trkpt>
			 <trkpt lat="38.896639" lon="-77.080975">
				 <ele>43.6</ele>
			 </trkpt>
			 <trkpt lat="38.896371" lon="-77.082177">
				 <ele>46.5</ele>
			 </trkpt>
			 <trkpt lat="38.896313" lon="-77.084934">
				 <ele>49.2</ele>
			 </trkpt>
			 <trkpt lat="38.895043" lon="-77.089795">
				 <ele>51.5</ele>
			 </trkpt>
			 <trkpt lat="38.894676" lon="-77.091767">
				 <ele>53.5</ele>
			 </trkpt>
			 <trkpt lat="38.894584" lon="-77.093108">
				 <ele>55.3</ele>
			 </trkpt>
			 <trkpt lat="38.894701" lon="-77.093935">
				 <ele>56.2</ele>
			 </trkpt>
			 <trkpt lat="38.89501" lon="-77.094632">
				 <ele>56.2</ele>
			 </trkpt>
			 <trkpt lat="38.895361" lon="-77.095211">
				 <ele>55.5</ele>
			 </trkpt>
			 <trkpt lat="38.895795" lon="-77.096123">
				 <ele>54.3</ele>
			 </trkpt>
			 <trkpt lat="38.896171" lon="-77.095748">
				 <ele>52.8</ele>
			 </trkpt>
			 <trkpt lat="38.89829" lon="-77.09354">
				 <ele>51.3</ele>
			 </trkpt>
			 <trkpt lat="38.89859" lon="-77.09294">
				 <ele>49.6</ele>
			 </trkpt>
			 <trkpt lat="38.89866" lon="-77.09272">
				 <ele>47.9</ele>
			 </trkpt>
			 <trkpt lat="38.898885" lon="-77.091268">
				 <ele>46.2</ele>
			 </trkpt>
			 <trkpt lat="38.899039" lon="-77.09077">
				 <ele>44.5</ele>
			 </trkpt>
			 <trkpt lat="38.89908" lon="-77.0908">
				 <ele>42.7</ele>
			 </trkpt>
			 <trkpt lat="38.89928" lon="-77.09039">
				 <ele>41.3</ele>
			 </trkpt>
			 <trkpt lat="38.89972" lon="-77.08969">
				 <ele>39.9</ele>
			 </trkpt>
			 <trkpt lat="38.89982" lon="-77.0895">
				 <ele>38.3</ele>
			 </trkpt>
			 <trkpt lat="38.89995" lon="-77.08905">
				 <ele>36.6</ele>
			 </trkpt>
			 <trkpt lat="38.89998" lon="-77.08865">
				 <ele>34.6</ele>
			 </trkpt>
			 <trkpt lat="38.89987" lon="-77.08733">
				 <ele>32.5</ele>
			 </trkpt>
			 <trkpt lat="38.89986" lon="-77.08686">
				 <ele>30.2</ele>
			 </trkpt>
			 <trkpt lat="38.89998" lon="-77.08623">
				 <ele>27.8</ele>
			 </trkpt>
			 <trkpt lat="38.90006" lon="-77.086">
				 <ele>25.4</ele>
			 </trkpt>
			 <trkpt lat="38.9003" lon="-77.08559">
				 <ele>22.9</ele>
			 </trkpt>
			 <trkpt lat="38.900915" lon="-77.084773">
				 <ele>20.5</ele>
			 </trkpt>
			 <trkpt lat="38.901233" lon="-77.084258">
				 <ele>18.2</ele>
			 </trkpt>
			 <trkpt lat="38.901684" lon="-77.083303">
				 <ele>16</ele>
			 </trkpt>
			 <trkpt lat="38.901976" lon="-77.082337">
				 <ele>14.3</ele>
			 </trkpt>
			 <trkpt lat="38.902143" lon="-77.08134">
				 <ele>12.8</ele>
			 </trkpt>
			 <trkpt lat="38.902151" lon="-77.079221">
				 <ele>11.9</ele>
			 </trkpt>
			 <trkpt lat="38.902068" lon="-77.07847">
				 <ele>11.8</ele>
			 </trkpt>
			 <trkpt lat="38.901876" lon="-77.077453">
				 <ele>11.2</ele>
			 </trkpt>
			 <trkpt lat="38.9013" lon="-77.075822">
				 <ele>10.2</ele>
			 </trkpt>
			 <trkpt lat="38.900615" lon="-77.073544">
				 <ele>9</ele>
			 </trkpt>
			 <trkpt lat="38.900005" lon="-77.07128">
				 <ele>8</ele>
			 </trkpt>
			 <trkpt lat="38.900147" lon="-77.071093">
				 <ele>7.2</ele>
			 </trkpt>
			 <trkpt lat="38.900429" lon="-77.070795">
				 <ele>6.4</ele>
			 </trkpt>
			 <trkpt lat="38.900849" lon="-77.070588">
				 <ele>5.6</ele>
			 </trkpt>
			 <trkpt lat="38.901268" lon="-77.07038">
				 <ele>4.8</ele>
			 </trkpt>
			 <trkpt lat="38.901688" lon="-77.070173">
				 <ele>4</ele>
			 </trkpt>
			 <trkpt lat="38.902108" lon="-77.069965">
				 <ele>3.7</ele>
			 </trkpt>
			 <trkpt lat="38.902501" lon="-77.069771">
				 <ele>3.3</ele>
			 </trkpt>
			 <trkpt lat="38.902927" lon="-77.069588">
				 <ele>4.3</ele>
			 </trkpt>
			 <trkpt lat="38.903354" lon="-77.069406">
				 <ele>6</ele>
			 </trkpt>
			 <trkpt lat="38.90378" lon="-77.069223">
				 <ele>8.1</ele>
			 </trkpt>
			 <trkpt lat="38.904207" lon="-77.06904">
				 <ele>10.2</ele>
			 </trkpt>
			 <trkpt lat="38.904633" lon="-77.068857">
				 <ele>12.2</ele>
			 </trkpt>
			 <trkpt lat="38.904786" lon="-77.068792">
				 <ele>14</ele>
			 </trkpt>
			 <trkpt lat="38.905081" lon="-77.068415">
				 <ele>15.8</ele>
			 </trkpt>
			 <trkpt lat="38.905093" lon="-77.067837">
				 <ele>17.5</ele>
			 </trkpt>
			 <trkpt lat="38.905105" lon="-77.067259">
				 <ele>19.1</ele>
			 </trkpt>
			 <trkpt lat="38.905116" lon="-77.066682">
				 <ele>20.2</ele>
			 </trkpt>
			 <trkpt lat="38.905128" lon="-77.066104">
				 <ele>21</ele>
			 </trkpt>
			 <trkpt lat="38.905139" lon="-77.065526">
				 <ele>21</ele>
			 </trkpt>
			 <trkpt lat="38.905151" lon="-77.064949">
				 <ele>20.6</ele>
			 </trkpt>
			 <trkpt lat="38.905163" lon="-77.064371">
				 <ele>19.4</ele>
			 </trkpt>
			 <trkpt lat="38.905174" lon="-77.063794">
				 <ele>18.5</ele>
			 </trkpt>
			 <trkpt lat="38.905186" lon="-77.063216">
				 <ele>17.5</ele>
			 </trkpt>
			 <trkpt lat="38.905195" lon="-77.062769">
				 <ele>16.4</ele>
			 </trkpt>
			 <trkpt lat="38.904745" lon="-77.062766">
				 <ele>15</ele>
			 </trkpt>
			 <trkpt lat="38.904296" lon="-77.062763">
				 <ele>13.8</ele>
			 </trkpt>
			 <trkpt lat="38.903846" lon="-77.062759">
				 <ele>12.7</ele>
			 </trkpt>
			 <trkpt lat="38.903396" lon="-77.062756">
				 <ele>11.5</ele>
			 </trkpt>
			 <trkpt lat="38.902947" lon="-77.062753">
				 <ele>10.3</ele>
			 </trkpt>
			 <trkpt lat="38.90259" lon="-77.06275">
				 <ele>9.1</ele>
			 </trkpt>
			 <trkpt lat="38.90258" lon="-77.05971">
				 <ele>8.1</ele>
			 </trkpt>
			 <trkpt lat="38.90255" lon="-77.05683">
				 <ele>7.9</ele>
			 </trkpt>
			 <trkpt lat="38.90251" lon="-77.05678">
				 <ele>7.3</ele>
			 </trkpt>
			 <trkpt lat="38.90249" lon="-77.05637">
				 <ele>6.9</ele>
			 </trkpt>
			 <trkpt lat="38.90241" lon="-77.05618">
				 <ele>6.8</ele>
			 </trkpt>
			 <trkpt lat="38.9024" lon="-77.05608">
				 <ele>6.9</ele>
			 </trkpt>
			 <trkpt lat="38.90102" lon="-77.05612">
				 <ele>7</ele>
			 </trkpt>
			 <trkpt lat="38.9008" lon="-77.05616">
				 <ele>6.9</ele>
			 </trkpt>
			 <trkpt lat="38.90076" lon="-77.0562">
				 <ele>6.8</ele>
			 </trkpt>
			 <trkpt lat="38.90072" lon="-77.05629">
				 <ele>6.6</ele>
			 </trkpt>
			 <trkpt lat="38.90068" lon="-77.05653">
				 <ele>6.5</ele>
			 </trkpt>
			 <trkpt lat="38.90097" lon="-77.05713">
				 <ele>6.3</ele>
			 </trkpt>
			 <trkpt lat="38.90137" lon="-77.05719">
				 <ele>6.2</ele>
			 </trkpt>
			 <trkpt lat="38.90189" lon="-77.05711">
				 <ele>6.1</ele>
			 </trkpt>
			 <trkpt lat="38.90317" lon="-77.05664">
				 <ele>6</ele>
			 </trkpt>
			 <trkpt lat="38.90397" lon="-77.0565">
				 <ele>6</ele>
			 </trkpt>
			 <trkpt lat="38.9041" lon="-77.05646">
				 <ele>6</ele>
			 </trkpt>
			 <trkpt lat="38.90447" lon="-77.05625">
				 <ele>6.1</ele>
			 </trkpt>
			 <trkpt lat="38.90535" lon="-77.05561">
				 <ele>6.2</ele>
			 </trkpt>
			 <trkpt lat="38.90764" lon="-77.05452">
				 <ele>6.3</ele>
			 </trkpt>
			 <trkpt lat="38.90797" lon="-77.05432">
				 <ele>6.4</ele>
			 </trkpt>
			 <trkpt lat="38.90842" lon="-77.05393">
				 <ele>6.5</ele>
			 </trkpt>
			 <trkpt lat="38.90877" lon="-77.05344">
				 <ele>6.5</ele>
			 </trkpt>
			 <trkpt lat="38.90889" lon="-77.05319">
				 <ele>6.6</ele>
			 </trkpt>
			 <trkpt lat="38.90902" lon="-77.05268">
				 <ele>6.7</ele>
			 </trkpt>
			 <trkpt lat="38.90897" lon="-77.05152">
				 <ele>6.8</ele>
			 </trkpt>
			 <trkpt lat="38.90899" lon="-77.05129">
				 <ele>6.9</ele>
			 </trkpt>
			 <trkpt lat="38.90902" lon="-77.05113">
				 <ele>7</ele>
			 </trkpt>
			 <trkpt lat="38.90915" lon="-77.05082">
				 <ele>7</ele>
			 </trkpt>
			 <trkpt lat="38.90926" lon="-77.05066">
				 <ele>7</ele>
			 </trkpt>
			 <trkpt lat="38.90952" lon="-77.05043">
				 <ele>7</ele>
			 </trkpt>
			 <trkpt lat="38.90968" lon="-77.05036">
				 <ele>7</ele>
			 </trkpt>
			 <trkpt lat="38.91" lon="-77.05035">
				 <ele>7.1</ele>
			 </trkpt>
			 <trkpt lat="38.91016" lon="-77.0504">
				 <ele>7.2</ele>
			 </trkpt>
			 <trkpt lat="38.91037" lon="-77.05052">
				 <ele>7.3</ele>
			 </trkpt>
			 <trkpt lat="38.91128" lon="-77.05139">
				 <ele>7.3</ele>
			 </trkpt>
			 <trkpt lat="38.9119" lon="-77.05205">
				 <ele>7.4</ele>
			 </trkpt>
			 <trkpt lat="38.91245" lon="-77.05275">
				 <ele>7.5</ele>
			 </trkpt>
			 <trkpt lat="38.91273" lon="-77.05316">
				 <ele>7.5</ele>
			 </trkpt>
			 <trkpt lat="38.91286" lon="-77.05346">
				 <ele>7.7</ele>
			 </trkpt>
			 <trkpt lat="38.91302" lon="-77.05403">
				 <ele>7.9</ele>
			 </trkpt>
			 <trkpt lat="38.91315" lon="-77.05435">
				 <ele>8.1</ele>
			 </trkpt>
			 <trkpt lat="38.9133" lon="-77.05459">
				 <ele>8.3</ele>
			 </trkpt>
			 <trkpt lat="38.91414" lon="-77.05561">
				 <ele>8.4</ele>
			 </trkpt>
			 <trkpt lat="38.9146" lon="-77.05639">
				 <ele>8.5</ele>
			 </trkpt>
			 <trkpt lat="38.91493" lon="-77.05706">
				 <ele>8.6</ele>
			 </trkpt>
			 <trkpt lat="38.91534" lon="-77.0577">
				 <ele>8.9</ele>
			 </trkpt>
			 <trkpt lat="38.91559" lon="-77.05798">
				 <ele>8.7</ele>
			 </trkpt>
			 <trkpt lat="38.91578" lon="-77.05814">
				 <ele>8.5</ele>
			 </trkpt>
			 <trkpt lat="38.91612" lon="-77.05832">
				 <ele>8.4</ele>
			 </trkpt>
			 <trkpt lat="38.9165" lon="-77.0584">
				 <ele>8.2</ele>
			 </trkpt>
			 <trkpt lat="38.91698" lon="-77.05835">
				 <ele>8</ele>
			 </trkpt>
			 <trkpt lat="38.917237" lon="-77.058238">
				 <ele>7.8</ele>
			 </trkpt>
			 <trkpt lat="38.91771" lon="-77.057841">
				 <ele>7.7</ele>
			 </trkpt>
			 <trkpt lat="38.91787" lon="-77.057586">
				 <ele>7.3</ele>
			 </trkpt>
			 <trkpt lat="38.918099" lon="-77.057141">
				 <ele>7.5</ele>
			 </trkpt>
			 <trkpt lat="38.918743" lon="-77.055384">
				 <ele>7.8</ele>
			 </trkpt>
			 <trkpt lat="38.919498" lon="-77.054381">
				 <ele>8.3</ele>
			 </trkpt>
			 <trkpt lat="38.919751" lon="-77.05353">
				 <ele>9.1</ele>
			 </trkpt>
			 <trkpt lat="38.919974" lon="-77.052632">
				 <ele>9.7</ele>
			 </trkpt>
			 <trkpt lat="38.92024" lon="-77.051932">
				 <ele>10.2</ele>
			 </trkpt>
			 <trkpt lat="38.920525" lon="-77.051518">
				 <ele>10.3</ele>
			 </trkpt>
			 <trkpt lat="38.920858" lon="-77.05127">
				 <ele>10.5</ele>
			 </trkpt>
			 <trkpt lat="38.920882" lon="-77.051398">
				 <ele>10.8</ele>
			 </trkpt>
			 <trkpt lat="38.920513" lon="-77.051676">
				 <ele>10.9</ele>
			 </trkpt>
			 <trkpt lat="38.920266" lon="-77.05203">
				 <ele>11.4</ele>
			 </trkpt>
			 <trkpt lat="38.92008" lon="-77.05236">
				 <ele>11.2</ele>
			 </trkpt>
			 <trkpt lat="38.91988" lon="-77.05297">
				 <ele>10.7</ele>
			 </trkpt>
			 <trkpt lat="38.91974" lon="-77.05373">
				 <ele>10.2</ele>
			 </trkpt>
			 <trkpt lat="38.91962" lon="-77.05416">
				 <ele>9.6</ele>
			 </trkpt>
			 <trkpt lat="38.91949" lon="-77.05438">
				 <ele>9.3</ele>
			 </trkpt>
			 <trkpt lat="38.919" lon="-77.05495">
				 <ele>9.1</ele>
			 </trkpt>
			 <trkpt lat="38.9187" lon="-77.05544">
				 <ele>9.2</ele>
			 </trkpt>
			 <trkpt lat="38.9186" lon="-77.05572">
				 <ele>9.1</ele>
			 </trkpt>
			 <trkpt lat="38.91835" lon="-77.05673">
				 <ele>9</ele>
			 </trkpt>
			 <trkpt lat="38.91815" lon="-77.05727">
				 <ele>9</ele>
			 </trkpt>
			 <trkpt lat="38.91804" lon="-77.05749">
				 <ele>9</ele>
			 </trkpt>
			 <trkpt lat="38.91776" lon="-77.0579">
				 <ele>9</ele>
			 </trkpt>
			 <trkpt lat="38.91752" lon="-77.05815">
				 <ele>8.9</ele>
			 </trkpt>
			 <trkpt lat="38.91723" lon="-77.05836">
				 <ele>8.8</ele>
			 </trkpt>
			 <trkpt lat="38.91689" lon="-77.05849">
				 <ele>8.6</ele>
			 </trkpt>
			 <trkpt lat="38.91653" lon="-77.05851">
				 <ele>8.5</ele>
			 </trkpt>
			 <trkpt lat="38.91625" lon="-77.05848">
				 <ele>8.3</ele>
			 </trkpt>
			 <trkpt lat="38.9158" lon="-77.0583">
				 <ele>8.1</ele>
			 </trkpt>
			 <trkpt lat="38.91534" lon="-77.05796">
				 <ele>7.8</ele>
			 </trkpt>
			 <trkpt lat="38.91503" lon="-77.05761">
				 <ele>7.5</ele>
			 </trkpt>
			 <trkpt lat="38.91464" lon="-77.05687">
				 <ele>7.3</ele>
			 </trkpt>
			 <trkpt lat="38.91421" lon="-77.0561">
				 <ele>7</ele>
			 </trkpt>
			 <trkpt lat="38.91386" lon="-77.05567">
				 <ele>6.8</ele>
			 </trkpt>
			 <trkpt lat="38.91324" lon="-77.0551">
				 <ele>6.7</ele>
			 </trkpt>
			 <trkpt lat="38.9131" lon="-77.05493">
				 <ele>6.6</ele>
			 </trkpt>
			 <trkpt lat="38.9128" lon="-77.05426">
				 <ele>6.6</ele>
			 </trkpt>
			 <trkpt lat="38.91251" lon="-77.0533">
				 <ele>6.6</ele>
			 </trkpt>
			 <trkpt lat="38.91208" lon="-77.05243">
				 <ele>6.6</ele>
			 </trkpt>
			 <trkpt lat="38.91186" lon="-77.05211">
				 <ele>6.6</ele>
			 </trkpt>
			 <trkpt lat="38.91145" lon="-77.05166">
				 <ele>6.7</ele>
			 </trkpt>
			 <trkpt lat="38.91037" lon="-77.05062">
				 <ele>6.8</ele>
			 </trkpt>
			 <trkpt lat="38.91012" lon="-77.05046">
				 <ele>6.9</ele>
			 </trkpt>
			 <trkpt lat="38.90983" lon="-77.05046">
				 <ele>7</ele>
			 </trkpt>
			 <trkpt lat="38.90963" lon="-77.05051">
				 <ele>7</ele>
			 </trkpt>
			 <trkpt lat="38.90928" lon="-77.05076">
				 <ele>7</ele>
			 </trkpt>
			 <trkpt lat="38.90917" lon="-77.05094">
				 <ele>7</ele>
			 </trkpt>
			 <trkpt lat="38.90908" lon="-77.05119">
				 <ele>7</ele>
			 </trkpt>
			 <trkpt lat="38.90904" lon="-77.05141">
				 <ele>7</ele>
			 </trkpt>
			 <trkpt lat="38.90909" lon="-77.05248">
				 <ele>7</ele>
			 </trkpt>
			 <trkpt lat="38.90908" lon="-77.05277">
				 <ele>6.9</ele>
			 </trkpt>
			 <trkpt lat="38.90903" lon="-77.05301">
				 <ele>6.8</ele>
			 </trkpt>
			 <trkpt lat="38.90883" lon="-77.05349">
				 <ele>6.7</ele>
			 </trkpt>
			 <trkpt lat="38.90862" lon="-77.05381">
				 <ele>6.6</ele>
			 </trkpt>
			 <trkpt lat="38.90828" lon="-77.05417">
				 <ele>6.5</ele>
			 </trkpt>
			 <trkpt lat="38.9079" lon="-77.05447">
				 <ele>6.5</ele>
			 </trkpt>
			 <trkpt lat="38.90572" lon="-77.0555">
				 <ele>6.4</ele>
			 </trkpt>
			 <trkpt lat="38.90527" lon="-77.05576">
				 <ele>6.3</ele>
			 </trkpt>
			 <trkpt lat="38.90442" lon="-77.05639">
				 <ele>6.2</ele>
			 </trkpt>
			 <trkpt lat="38.90411" lon="-77.05656">
				 <ele>6.1</ele>
			 </trkpt>
			 <trkpt lat="38.90391" lon="-77.05662">
				 <ele>5.9</ele>
			 </trkpt>
			 <trkpt lat="38.9032" lon="-77.05673">
				 <ele>5.8</ele>
			 </trkpt>
			 <trkpt lat="38.90181" lon="-77.05724">
				 <ele>5.6</ele>
			 </trkpt>
			 <trkpt lat="38.90163" lon="-77.05728">
				 <ele>5.5</ele>
			 </trkpt>
			 <trkpt lat="38.90126" lon="-77.05729">
				 <ele>5.3</ele>
			 </trkpt>
			 <trkpt lat="38.90097" lon="-77.05724">
				 <ele>5.1</ele>
			 </trkpt>
			 <trkpt lat="38.89884" lon="-77.05649">
				 <ele>4.9</ele>
			 </trkpt>
			 <trkpt lat="38.89853" lon="-77.05642">
				 <ele>4.7</ele>
			 </trkpt>
			 <trkpt lat="38.89823" lon="-77.0564">
				 <ele>4.5</ele>
			 </trkpt>
			 <trkpt lat="38.89695" lon="-77.05652">
				 <ele>4.4</ele>
			 </trkpt>
			 <trkpt lat="38.89491" lon="-77.05652">
				 <ele>4.2</ele>
			 </trkpt>
			 <trkpt lat="38.89467" lon="-77.05649">
				 <ele>4.1</ele>
			 </trkpt>
			 <trkpt lat="38.89423" lon="-77.05633">
				 <ele>4</ele>
			 </trkpt>
			 <trkpt lat="38.89247" lon="-77.05524">
				 <ele>4</ele>
			 </trkpt>
			 <trkpt lat="38.89231" lon="-77.05511">
				 <ele>4</ele>
			 </trkpt>
			 <trkpt lat="38.89218" lon="-77.05487">
				 <ele>4</ele>
			 </trkpt>
			 <trkpt lat="38.8921" lon="-77.05438">
				 <ele>4</ele>
			 </trkpt>
			 <trkpt lat="38.89204" lon="-77.05415">
				 <ele>4</ele>
			 </trkpt>
			 <trkpt lat="38.89194" lon="-77.05392">
				 <ele>3.9</ele>
			 </trkpt>
			 <trkpt lat="38.89143" lon="-77.0531">
				 <ele>3.8</ele>
			 </trkpt>
			 <trkpt lat="38.89112" lon="-77.05234">
				 <ele>3.7</ele>
			 </trkpt>
			 <trkpt lat="38.89099" lon="-77.05219">
				 <ele>3.5</ele>
			 </trkpt>
			 <trkpt lat="38.89089" lon="-77.05213">
				 <ele>3.4</ele>
			 </trkpt>
			 <trkpt lat="38.8907" lon="-77.05211">
				 <ele>3.2</ele>
			 </trkpt>
			 <trkpt lat="38.89049" lon="-77.05216">
				 <ele>3</ele>
			 </trkpt>
			 <trkpt lat="38.88977" lon="-77.05252">
				 <ele>2.8</ele>
			 </trkpt>
			 <trkpt lat="38.88959" lon="-77.05258">
				 <ele>2.7</ele>
			 </trkpt>
			 <trkpt lat="38.88941" lon="-77.05262">
				 <ele>2.6</ele>
			 </trkpt>
			 <trkpt lat="38.88898" lon="-77.05259">
				 <ele>2.5</ele>
			 </trkpt>
			 <trkpt lat="38.8888" lon="-77.05253">
				 <ele>2.5</ele>
			 </trkpt>
			 <trkpt lat="38.88817" lon="-77.05215">
				 <ele>2.5</ele>
			 </trkpt>
			 <trkpt lat="38.88765" lon="-77.05168">
				 <ele>2.5</ele>
			 </trkpt>
			 <trkpt lat="38.8875" lon="-77.05149">
				 <ele>2.6</ele>
			 </trkpt>
			 <trkpt lat="38.88718" lon="-77.05081">
				 <ele>2.7</ele>
			 </trkpt>
			 <trkpt lat="38.8871" lon="-77.05056">
				 <ele>2.8</ele>
			 </trkpt>
			 <trkpt lat="38.88701" lon="-77.04998">
				 <ele>2.8</ele>
			 </trkpt>
			 <trkpt lat="38.88682" lon="-77.04497">
				 <ele>2.8</ele>
			 </trkpt>
			 <trkpt lat="38.886532" lon="-77.04498">
				 <ele>2.8</ele>
			 </trkpt>
			 <trkpt lat="38.886231" lon="-77.044941">
				 <ele>2.8</ele>
			 </trkpt>
			 <trkpt lat="38.885651" lon="-77.045016">
				 <ele>2.9</ele>
			 </trkpt>
			 <trkpt lat="38.885123" lon="-77.044952">
				 <ele>3</ele>
			 </trkpt>
			 <trkpt lat="38.884742" lon="-77.044968">
				 <ele>3.1</ele>
			 </trkpt>
			 <trkpt lat="38.884586" lon="-77.045078">
				 <ele>3.1</ele>
			 </trkpt>
			 <trkpt lat="38.884372" lon="-77.045438">
				 <ele>3.1</ele>
			 </trkpt>
			 <trkpt lat="38.884216" lon="-77.045793">
				 <ele>3.1</ele>
			 </trkpt>
			 <trkpt lat="38.883753" lon="-77.04637">
				 <ele>3.1</ele>
			 </trkpt>
			 <trkpt lat="38.882716" lon="-77.045059">
				 <ele>3.2</ele>
			 </trkpt>
			 <trkpt lat="38.88107" lon="-77.04286">
				 <ele>3.3</ele>
			 </trkpt>
			 <trkpt lat="38.88056" lon="-77.04209">
				 <ele>3.3</ele>
			 </trkpt>
			 <trkpt lat="38.88035" lon="-77.0417">
				 <ele>3.2</ele>
			 </trkpt>
			 <trkpt lat="38.88031" lon="-77.04157">
				 <ele>3</ele>
			 </trkpt>
			 <trkpt lat="38.8803" lon="-77.04126">
				 <ele>2.7</ele>
			 </trkpt>
			 <trkpt lat="38.88037" lon="-77.04081">
				 <ele>2.6</ele>
			 </trkpt>
			 <trkpt lat="38.88034" lon="-77.04065">
				 <ele>2.7</ele>
			 </trkpt>
			 <trkpt lat="38.879955" lon="-77.03989">
				 <ele>2.8</ele>
			 </trkpt>
			 <trkpt lat="38.88007" lon="-77.039426">
				 <ele>2.9</ele>
			 </trkpt>
			 <trkpt lat="38.880106" lon="-77.039109">
				 <ele>3</ele>
			 </trkpt>
			 <trkpt lat="38.879943" lon="-77.038429">
				 <ele>3.1</ele>
			 </trkpt>
			 <trkpt lat="38.879903" lon="-77.038125">
				 <ele>3.1</ele>
			 </trkpt>
			 <trkpt lat="38.879877" lon="-77.036665">
				 <ele>3</ele>
			 </trkpt>
			 <trkpt lat="38.879893" lon="-77.036056">
				 <ele>3</ele>
			 </trkpt>
			 <trkpt lat="38.879855" lon="-77.036066">
				 <ele>3.1</ele>
			 </trkpt>
			 <trkpt lat="38.879869" lon="-77.03801">
				 <ele>3.2</ele>
			 </trkpt>
			 <trkpt lat="38.879905" lon="-77.03838">
				 <ele>3</ele>
			 </trkpt>
			 <trkpt lat="38.880078" lon="-77.039118">
				 <ele>2.7</ele>
			 </trkpt>
			 <trkpt lat="38.880048" lon="-77.039375">
				 <ele>2.4</ele>
			 </trkpt>
			 <trkpt lat="38.879938" lon="-77.039804">
				 <ele>2</ele>
			 </trkpt>
			 <trkpt lat="38.879494" lon="-77.039846">
				 <ele>1.7</ele>
			 </trkpt>
			 <trkpt lat="38.879309" lon="-77.039788">
				 <ele>1.4</ele>
			 </trkpt>
			 <trkpt lat="38.879147" lon="-77.039608">
				 <ele>1.3</ele>
			 </trkpt>
			 <trkpt lat="38.877456" lon="-77.036805">
				 <ele>1.3</ele>
			 </trkpt>
			 <trkpt lat="38.876577" lon="-77.035609">
				 <ele>1.3</ele>
			 </trkpt>
			 <trkpt lat="38.874924" lon="-77.033644">
				 <ele>1.2</ele>
			 </trkpt>
			 <trkpt lat="38.87242" lon="-77.03126">
				 <ele>1.2</ele>
			 </trkpt>
			 <trkpt lat="38.87168" lon="-77.03066">
				 <ele>1.3</ele>
			 </trkpt>
			 <trkpt lat="38.87035" lon="-77.0297">
				 <ele>1.4</ele>
			 </trkpt>
			 <trkpt lat="38.86798" lon="-77.02827">
				 <ele>1.5</ele>
			 </trkpt>
			 <trkpt lat="38.86551" lon="-77.02685">
				 <ele>1.6</ele>
			 </trkpt>
			 <trkpt lat="38.86197" lon="-77.02494">
				 <ele>1.6</ele>
			 </trkpt>
			 <trkpt lat="38.86021" lon="-77.02404">
				 <ele>1.7</ele>
			 </trkpt>
			 <trkpt lat="38.85863" lon="-77.02317">
				 <ele>1.6</ele>
			 </trkpt>
			 <trkpt lat="38.85849" lon="-77.02305">
				 <ele>1.5</ele>
			 </trkpt>
			 <trkpt lat="38.85841" lon="-77.0229">
				 <ele>1.4</ele>
			 </trkpt>
			 <trkpt lat="38.85836" lon="-77.02266">
				 <ele>1.2</ele>
			 </trkpt>
			 <trkpt lat="38.85837" lon="-77.02255">
				 <ele>1</ele>
			 </trkpt>
			 <trkpt lat="38.85844" lon="-77.02235">
				 <ele>0.8</ele>
			 </trkpt>
			 <trkpt lat="38.85855" lon="-77.0222">
				 <ele>0.6</ele>
			 </trkpt>
			 <trkpt lat="38.866828" lon="-77.022331">
				 <ele>0.5</ele>
			 </trkpt>
			 <trkpt lat="38.868104" lon="-77.022423">
				 <ele>0.4</ele>
			 </trkpt>
			 <trkpt lat="38.869093" lon="-77.022571">
				 <ele>0.5</ele>
			 </trkpt>
			 <trkpt lat="38.869946" lon="-77.022801">
				 <ele>0.5</ele>
			 </trkpt>
			 <trkpt lat="38.872313" lon="-77.023613">
				 <ele>0.6</ele>
			 </trkpt>
			 <trkpt lat="38.873537" lon="-77.024187">
				 <ele>0.7</ele>
			 </trkpt>
			 <trkpt lat="38.87481" lon="-77.02497">
				 <ele>0.9</ele>
			 </trkpt>
			 <trkpt lat="38.87539" lon="-77.02543">
				 <ele>1.1</ele>
			 </trkpt>
			 <trkpt lat="38.87621" lon="-77.02621">
				 <ele>1.3</ele>
			 </trkpt>
			 <trkpt lat="38.87676" lon="-77.02681">
				 <ele>1.5</ele>
			 </trkpt>
			 <trkpt lat="38.87735" lon="-77.02752">
				 <ele>1.5</ele>
			 </trkpt>
			 <trkpt lat="38.87837" lon="-77.02882">
				 <ele>1.5</ele>
			 </trkpt>
			 <trkpt lat="38.88134" lon="-77.03293">
				 <ele>1.8</ele>
			 </trkpt>
			 <trkpt lat="38.8818" lon="-77.03351">
				 <ele>2</ele>
			 </trkpt>
			 <trkpt lat="38.882225" lon="-77.033511">
				 <ele>2.1</ele>
			 </trkpt>
			 <trkpt lat="38.8826" lon="-77.033192">
				 <ele>2.2</ele>
			 </trkpt>
			 <trkpt lat="38.882723" lon="-77.033086">
				 <ele>2.2</ele>
			 </trkpt>
			 <trkpt lat="38.883137" lon="-77.03286">
				 <ele>2.2</ele>
			 </trkpt>
			 <trkpt lat="38.883231" lon="-77.032808">
				 <ele>2.4</ele>
			 </trkpt>
			 <trkpt lat="38.883639" lon="-77.033053">
				 <ele>2.7</ele>
			 </trkpt>
			 <trkpt lat="38.883982" lon="-77.03326">
				 <ele>3.1</ele>
			 </trkpt>
			 <trkpt lat="38.884341" lon="-77.033609">
				 <ele>3.9</ele>
			 </trkpt>
			 <trkpt lat="38.884639" lon="-77.033667">
				 <ele>4.7</ele>
			 </trkpt>
			 <trkpt lat="38.885088" lon="-77.033663">
				 <ele>5.3</ele>
			 </trkpt>
			 <trkpt lat="38.885538" lon="-77.033659">
				 <ele>5.6</ele>
			 </trkpt>
			 <trkpt lat="38.885987" lon="-77.033655">
				 <ele>6</ele>
			 </trkpt>
			 <trkpt lat="38.886437" lon="-77.03365">
				 <ele>6.3</ele>
			 </trkpt>
			 <trkpt lat="38.886887" lon="-77.033646">
				 <ele>6.5</ele>
			 </trkpt>
			 <trkpt lat="38.887336" lon="-77.033642">
				 <ele>6.8</ele>
			 </trkpt>
			 <trkpt lat="38.887657" lon="-77.033639">
				 <ele>6.9</ele>
			 </trkpt>
			 <trkpt lat="38.887555" lon="-77.034202">
				 <ele>6.6</ele>
			 </trkpt>
			 <trkpt lat="38.887453" lon="-77.034764">
				 <ele>6.1</ele>
			 </trkpt>
			 <trkpt lat="38.887352" lon="-77.035327">
				 <ele>5.4</ele>
			 </trkpt>
			 <trkpt lat="38.88725" lon="-77.03589">
				 <ele>4.5</ele>
			 </trkpt>
			 <trkpt lat="38.887148" lon="-77.036453">
				 <ele>3.7</ele>
			 </trkpt>
			 <trkpt lat="38.887046" lon="-77.037015">
				 <ele>3</ele>
			 </trkpt>
			 <trkpt lat="38.886945" lon="-77.037578">
				 <ele>2.4</ele>
			 </trkpt>
			 <trkpt lat="38.886914" lon="-77.03775">
				 <ele>1.8</ele>
			 </trkpt>
			 <trkpt lat="38.886921" lon="-77.038327">
				 <ele>1.4</ele>
			 </trkpt>
			 <trkpt lat="38.886929" lon="-77.038905">
				 <ele>0.9</ele>
			 </trkpt>
			 <trkpt lat="38.886936" lon="-77.039483">
				 <ele>0.5</ele>
			 </trkpt>
			 <trkpt lat="38.886944" lon="-77.04006">
				 <ele>0.4</ele>
			 </trkpt>
			 <trkpt lat="38.886946" lon="-77.040265">
				 <ele>0.4</ele>
			 </trkpt>
			 <trkpt lat="38.88694" lon="-77.040843">
				 <ele>0.4</ele>
			 </trkpt>
			 <trkpt lat="38.886936" lon="-77.041178">
				 <ele>0.4</ele>
			 </trkpt>
			 <trkpt lat="38.887165" lon="-77.041347">
				 <ele>0.4</ele>
			 </trkpt>
			 <trkpt lat="38.88741" lon="-77.04134">
				 <ele>0.4</ele>
			 </trkpt>
			 <trkpt lat="38.887697" lon="-77.040896">
				 <ele>0.4</ele>
			 </trkpt>
			 <trkpt lat="38.887778" lon="-77.040771">
				 <ele>0.5</ele>
			 </trkpt>
			 <trkpt lat="38.887871" lon="-77.040206">
				 <ele>0.6</ele>
			 </trkpt>
			 <trkpt lat="38.887964" lon="-77.039647">
				 <ele>0.8</ele>
			 </trkpt>
			 <trkpt lat="38.887925" lon="-77.039071">
				 <ele>1</ele>
			 </trkpt>
			 <trkpt lat="38.887898" lon="-77.038663">
				 <ele>1.3</ele>
			 </trkpt>
			 <trkpt lat="38.887812" lon="-77.038096">
				 <ele>1.5</ele>
			 </trkpt>
			 <trkpt lat="38.887727" lon="-77.037529">
				 <ele>1.9</ele>
			 </trkpt>
			 <trkpt lat="38.88769" lon="-77.037286">
				 <ele>2.4</ele>
			 </trkpt>
			 <trkpt lat="38.887712" lon="-77.036836">
				 <ele>2.9</ele>
			 </trkpt>
			 <trkpt lat="38.887625" lon="-77.036269">
				 <ele>3.5</ele>
			 </trkpt>
			 <trkpt lat="38.88757" lon="-77.035909">
				 <ele>4.1</ele>
			 </trkpt>
			 <trkpt lat="38.887599" lon="-77.035333">
				 <ele>4.6</ele>
			 </trkpt>
			 <trkpt lat="38.887614" lon="-77.035038">
				 <ele>5.1</ele>
			 </trkpt>
			 <trkpt lat="38.8877" lon="-77.034471">
				 <ele>5.5</ele>
			 </trkpt>
			 <trkpt lat="38.887728" lon="-77.034285">
				 <ele>5.9</ele>
			 </trkpt>
			 <trkpt lat="38.887803" lon="-77.033873">
				 <ele>6.2</ele>
			 </trkpt>
			 <trkpt lat="38.887854" lon="-77.033687">
				 <ele>6.5</ele>
			 </trkpt>
			 <trkpt lat="38.888168" lon="-77.033573">
				 <ele>6.6</ele>
			 </trkpt>
			 <trkpt lat="38.88853" lon="-77.03323">
				 <ele>6.7</ele>
			 </trkpt>
			 <trkpt lat="38.888721" lon="-77.033081">
				 <ele>6.7</ele>
			 </trkpt>
			 <trkpt lat="38.8889" lon="-77.03299">
				 <ele>6.7</ele>
			 </trkpt>
			 <trkpt lat="38.889157" lon="-77.03292">
				 <ele>6.6</ele>
			 </trkpt>
			 <trkpt lat="38.889575" lon="-77.032873">
				 <ele>6.4</ele>
			 </trkpt>
			 <trkpt lat="38.890014" lon="-77.032995">
				 <ele>6.1</ele>
			 </trkpt>
			 <trkpt lat="38.890118" lon="-77.033024">
				 <ele>5.8</ele>
			 </trkpt>
			 <trkpt lat="38.890265" lon="-77.032478">
				 <ele>5.5</ele>
			 </trkpt>
			 <trkpt lat="38.89039" lon="-77.03201">
				 <ele>5.3</ele>
			 </trkpt>
			 <trkpt lat="38.890559" lon="-77.022119">
				 <ele>5</ele>
			 </trkpt>
			 <trkpt lat="38.890633" lon="-77.015234">
				 <ele>4.7</ele>
			 </trkpt>
			 <trkpt lat="38.891368" lon="-77.015212">
				 <ele>4.5</ele>
			 </trkpt>
			 <trkpt lat="38.89151" lon="-77.015121">
				 <ele>4.4</ele>
			 </trkpt>
			 <trkpt lat="38.890811" lon="-77.01253">
				 <ele>4.2</ele>
			 </trkpt>
			 <trkpt lat="38.890815" lon="-77.012262">
				 <ele>4</ele>
			 </trkpt>
			 <trkpt lat="38.89074" lon="-77.012133">
				 <ele>4</ele>
			 </trkpt>
			 <trkpt lat="38.890652" lon="-77.01209">
				 <ele>4</ele>
			 </trkpt>
			 <trkpt lat="38.89056" lon="-77.012111">
				 <ele>4</ele>
			 </trkpt>
			 <trkpt lat="38.890498" lon="-77.01217">
				 <ele>4</ele>
			 </trkpt>
			 <trkpt lat="38.890439" lon="-77.012374">
				 <ele>4</ele>
			 </trkpt>
			 <trkpt lat="38.890339" lon="-77.012433">
				 <ele>4</ele>
			 </trkpt>
			 <trkpt lat="38.889783" lon="-77.012491">
				 <ele>4</ele>
			 </trkpt>
			 <trkpt lat="38.88924" lon="-77.012394">
				 <ele>4</ele>
			 </trkpt>
			 <trkpt lat="38.889131" lon="-77.012287">
				 <ele>4</ele>
			 </trkpt>
			 <trkpt lat="38.889115" lon="-77.012115">
				 <ele>4.1</ele>
			 </trkpt>
			 <trkpt lat="38.888964" lon="-77.012083">
				 <ele>4.3</ele>
			 </trkpt>
			 <trkpt lat="38.888848" lon="-77.012147">
				 <ele>4.5</ele>
			 </trkpt>
			 <trkpt lat="38.888831" lon="-77.01233">
				 <ele>4.9</ele>
			 </trkpt>
			 <trkpt lat="38.888914" lon="-77.012544">
				 <ele>5.3</ele>
			 </trkpt>
			 <trkpt lat="38.888221" lon="-77.015162">
				 <ele>5.7</ele>
			 </trkpt>
			 <trkpt lat="38.888814" lon="-77.015237">
				 <ele>6.3</ele>
			 </trkpt>
			 <trkpt lat="38.888739" lon="-77.024174">
				 <ele>6.8</ele>
			 </trkpt>
			 <trkpt lat="38.889048" lon="-77.025671">
				 <ele>7.4</ele>
			 </trkpt>
			 <trkpt lat="38.88904" lon="-77.026293">
				 <ele>8.1</ele>
			 </trkpt>
			 <trkpt lat="38.888926" lon="-77.026874">
				 <ele>8.7</ele>
			 </trkpt>
			 <trkpt lat="38.888672" lon="-77.027651">
				 <ele>9.2</ele>
			 </trkpt>
			 <trkpt lat="38.888619" lon="-77.031947">
				 <ele>9.5</ele>
			 </trkpt>
			 <trkpt lat="38.888169" lon="-77.031956">
				 <ele>9.6</ele>
			 </trkpt>
			 <trkpt lat="38.88772" lon="-77.031966">
				 <ele>9.7</ele>
			 </trkpt>
			 <trkpt lat="38.88727" lon="-77.031975">
				 <ele>9.7</ele>
			 </trkpt>
			 <trkpt lat="38.886821" lon="-77.031985">
				 <ele>9.5</ele>
			 </trkpt>
			 <trkpt lat="38.886371" lon="-77.031994">
				 <ele>9</ele>
			 </trkpt>
			 <trkpt lat="38.885921" lon="-77.032004">
				 <ele>8.5</ele>
			 </trkpt>
			 <trkpt lat="38.885698" lon="-77.032009">
				 <ele>7.8</ele>
			 </trkpt>
			 <trkpt lat="38.885248" lon="-77.032004">
				 <ele>6.9</ele>
			 </trkpt>
			 <trkpt lat="38.884798" lon="-77.032">
				 <ele>6.4</ele>
			 </trkpt>
			 <trkpt lat="38.884581" lon="-77.031997">
				 <ele>5.8</ele>
			 </trkpt>
			 <trkpt lat="38.884134" lon="-77.032062">
				 <ele>5</ele>
			 </trkpt>
			 <trkpt lat="38.883687" lon="-77.032126">
				 <ele>4.2</ele>
			 </trkpt>
			 <trkpt lat="38.883648" lon="-77.032132">
				 <ele>3.6</ele>
			 </trkpt>
			 <trkpt lat="38.883226" lon="-77.032332">
				 <ele>3.1</ele>
			 </trkpt>
			 <trkpt lat="38.883016" lon="-77.032432">
				 <ele>2.8</ele>
			 </trkpt>
			 <trkpt lat="38.882623" lon="-77.032712">
				 <ele>2.7</ele>
			 </trkpt>
			 <trkpt lat="38.882531" lon="-77.032777">
				 <ele>2.6</ele>
			 </trkpt>
			 <trkpt lat="38.882139" lon="-77.033058">
				 <ele>2.8</ele>
			 </trkpt>
			 <trkpt lat="38.881746" lon="-77.033339">
				 <ele>3</ele>
			 </trkpt>
			 <trkpt lat="38.881353" lon="-77.03362">
				 <ele>2.9</ele>
			 </trkpt>
			 <trkpt lat="38.88096" lon="-77.033902">
				 <ele>2.8</ele>
			 </trkpt>
			 <trkpt lat="38.880644" lon="-77.034128">
				 <ele>3.2</ele>
			 </trkpt>
			 <trkpt lat="38.880281" lon="-77.034468">
				 <ele>3.5</ele>
			 </trkpt>
			 <trkpt lat="38.879918" lon="-77.034809">
				 <ele>3.6</ele>
			 </trkpt>
			 <trkpt lat="38.879762" lon="-77.034955">
				 <ele>3.9</ele>
			 </trkpt>
			 <trkpt lat="38.879537" lon="-77.035277">
				 <ele>3.6</ele>
			 </trkpt>
			 <trkpt lat="38.879336" lon="-77.035792">
				 <ele>3.3</ele>
			 </trkpt>
			 <trkpt lat="38.879136" lon="-77.037005">
				 <ele>2.9</ele>
			 </trkpt>
			 <trkpt lat="38.878952" lon="-77.038399">
				 <ele>2.5</ele>
			 </trkpt>
			 <trkpt lat="38.878651" lon="-77.039032">
				 <ele>2.2</ele>
			 </trkpt>
			 <trkpt lat="38.878297" lon="-77.039388">
				 <ele>1.8</ele>
			 </trkpt>
			 <trkpt lat="38.877943" lon="-77.039744">
				 <ele>1.5</ele>
			 </trkpt>
			 <trkpt lat="38.877589" lon="-77.0401">
				 <ele>1.2</ele>
			 </trkpt>
			 <trkpt lat="38.877235" lon="-77.040456">
				 <ele>0.8</ele>
			 </trkpt>
			 <trkpt lat="38.876881" lon="-77.040813">
				 <ele>0.5</ele>
			 </trkpt>
			 <trkpt lat="38.876527" lon="-77.041169">
				 <ele>0</ele>
			 </trkpt>
			 <trkpt lat="38.876173" lon="-77.041525">
				 <ele>0</ele>
			 </trkpt>
			 <trkpt lat="38.875819" lon="-77.041881">
				 <ele>0</ele>
			 </trkpt>
			 <trkpt lat="38.87561" lon="-77.042091">
				 <ele>0.5</ele>
			 </trkpt>
			 <trkpt lat="38.875247" lon="-77.042432">
				 <ele>1</ele>
			 </trkpt>
			 <trkpt lat="38.874884" lon="-77.042773">
				 <ele>1.5</ele>
			 </trkpt>
			 <trkpt lat="38.874521" lon="-77.043114">
				 <ele>1.9</ele>
			 </trkpt>
			 <trkpt lat="38.874158" lon="-77.043455">
				 <ele>2.5</ele>
			 </trkpt>
			 <trkpt lat="38.873795" lon="-77.043796">
				 <ele>2.9</ele>
			 </trkpt>
			 <trkpt lat="38.873432" lon="-77.044137">
				 <ele>3.5</ele>
			 </trkpt>
			 <trkpt lat="38.873069" lon="-77.044478">
				 <ele>4</ele>
			 </trkpt>
			 <trkpt lat="38.872823" lon="-77.04471">
				 <ele>4.7</ele>
			 </trkpt>
			 <trkpt lat="38.872446" lon="-77.045026">
				 <ele>5.5</ele>
			 </trkpt>
			 <trkpt lat="38.87207" lon="-77.045342">
				 <ele>6.3</ele>
			 </trkpt>
			 <trkpt lat="38.871694" lon="-77.045658">
				 <ele>6.5</ele>
			 </trkpt>
			 <trkpt lat="38.871453" lon="-77.045861">
				 <ele>6.9</ele>
			 </trkpt>
			 <trkpt lat="38.871038" lon="-77.046083">
				 <ele>7.3</ele>
			 </trkpt>
			 <trkpt lat="38.870623" lon="-77.046305">
				 <ele>7.6</ele>
			 </trkpt>
			 <trkpt lat="38.870208" lon="-77.046527">
				 <ele>8.3</ele>
			 </trkpt>
			 <trkpt lat="38.869793" lon="-77.046749">
				 <ele>9</ele>
			 </trkpt>
			 <trkpt lat="38.869378" lon="-77.046971">
				 <ele>9.6</ele>
			 </trkpt>
			 <trkpt lat="38.868962" lon="-77.047193">
				 <ele>10.2</ele>
			 </trkpt>
			 <trkpt lat="38.868924" lon="-77.047214">
				 <ele>10.5</ele>
			 </trkpt>
			 <trkpt lat="38.86853" lon="-77.047492">
				 <ele>10.7</ele>
			 </trkpt>
			 <trkpt lat="38.868136" lon="-77.04777">
				 <ele>11</ele>
			 </trkpt>
			 <trkpt lat="38.867895" lon="-77.047939">
				 <ele>11.3</ele>
			 </trkpt>
			 <trkpt lat="38.867576" lon="-77.048345">
				 <ele>11.4</ele>
			 </trkpt>
			 <trkpt lat="38.867328" lon="-77.048659">
				 <ele>11.5</ele>
			 </trkpt>
			 <trkpt lat="38.866827" lon="-77.049582">
				 <ele>11.8</ele>
			 </trkpt>
			 <trkpt lat="38.866376" lon="-77.050655">
				 <ele>11.6</ele>
			 </trkpt>
			 <trkpt lat="38.865899" lon="-77.052641">
				 <ele>11.5</ele>
			 </trkpt>
			 <trkpt lat="38.865791" lon="-77.053779">
				 <ele>11.3</ele>
			 </trkpt>
			 <trkpt lat="38.865782" lon="-77.054229">
				 <ele>11.1</ele>
			 </trkpt>
			 <trkpt lat="38.86483" lon="-77.05437">
				 <ele>10.9</ele>
			 </trkpt>
			 <trkpt lat="38.86457" lon="-77.05268">
				 <ele>10.8</ele>
			 </trkpt>
			 <trkpt lat="38.8644" lon="-77.05232">
				 <ele>10.7</ele>
			 </trkpt>
			 <trkpt lat="38.86429" lon="-77.05219">
				 <ele>10.5</ele>
			 </trkpt>
			 <trkpt lat="38.86408" lon="-77.05203">
				 <ele>10.4</ele>
			 </trkpt>
			 <trkpt lat="38.86387" lon="-77.05195">
				 <ele>10.2</ele>
			 </trkpt>
			 <trkpt lat="38.86335" lon="-77.05194">
				 <ele>9.9</ele>
			 </trkpt>
			 <trkpt lat="38.86293" lon="-77.05198">
				 <ele>9.8</ele>
			 </trkpt>
			 <trkpt lat="38.86287" lon="-77.05044">
				 <ele>9.7</ele>
			 </trkpt>
			 <trkpt lat="38.86282" lon="-77.05011">
				 <ele>9.6</ele>
			 </trkpt>
			 <trkpt lat="38.86244" lon="-77.04885">
				 <ele>9.6</ele>
			 </trkpt>
			 <trkpt lat="38.86234" lon="-77.04875">
				 <ele>9.3</ele>
			 </trkpt>
			 <trkpt lat="38.86219" lon="-77.04875">
				 <ele>9</ele>
			 </trkpt>
			 <trkpt lat="38.86118" lon="-77.04929">
				 <ele>8.7</ele>
			 </trkpt>
			 <trkpt lat="38.861" lon="-77.04936">
				 <ele>8.6</ele>
			 </trkpt>
			 <trkpt lat="38.86065" lon="-77.04941">
				 <ele>8.5</ele>
			 </trkpt>
			 <trkpt lat="38.860387" lon="-77.049399">
				 <ele>8.5</ele>
			 </trkpt>
			 <trkpt lat="38.859951" lon="-77.049256">
				 <ele>8.4</ele>
			 </trkpt>
			 <trkpt lat="38.859874" lon="-77.049231">
				 <ele>8.2</ele>
			 </trkpt>
			 <trkpt lat="38.859645" lon="-77.049173">
				 <ele>8.1</ele>
			 </trkpt>
			 <trkpt lat="38.859197" lon="-77.049122">
				 <ele>8.1</ele>
			 </trkpt>
			 <trkpt lat="38.858731" lon="-77.049155">
				 <ele>8.1</ele>
			 </trkpt>
			 <trkpt lat="38.858282" lon="-77.049191">
				 <ele>8.5</ele>
			 </trkpt>
			 <trkpt lat="38.857834" lon="-77.049226">
				 <ele>8.8</ele>
			 </trkpt>
			 <trkpt lat="38.857613" lon="-77.049244">
				 <ele>9.2</ele>
			 </trkpt>
			 <trkpt lat="38.857164" lon="-77.049268">
				 <ele>9.5</ele>
			 </trkpt>
			 <trkpt lat="38.856714" lon="-77.049292">
				 <ele>9.6</ele>
			 </trkpt>
			 <trkpt lat="38.856265" lon="-77.049317">
				 <ele>9.8</ele>
			 </trkpt>
			 <trkpt lat="38.855816" lon="-77.049341">
				 <ele>9.9</ele>
			 </trkpt>
			 <trkpt lat="38.855367" lon="-77.049366">
				 <ele>10</ele>
			 </trkpt>
			 <trkpt lat="38.854917" lon="-77.04939">
				 <ele>10</ele>
			 </trkpt>
			 <trkpt lat="38.854468" lon="-77.049414">
				 <ele>9.9</ele>
			 </trkpt>
			 <trkpt lat="38.85418" lon="-77.04943">
				 <ele>9.8</ele>
			 </trkpt>
			 <trkpt lat="38.854152" lon="-77.048968">
				 <ele>9.7</ele>
			 </trkpt>
			 <trkpt lat="38.85416" lon="-77.04887">
				 <ele>9.5</ele>
			 </trkpt>
			 <trkpt lat="38.854188" lon="-77.048803">
				 <ele>9.4</ele>
			 </trkpt>
			 <trkpt lat="38.854281" lon="-77.04877">
				 <ele>9.2</ele>
			 </trkpt>
			 <trkpt lat="38.854406" lon="-77.048759">
				 <ele>9.3</ele>
			 </trkpt>
			 <trkpt lat="38.854856" lon="-77.048733">
				 <ele>9.4</ele>
			 </trkpt>
			 <trkpt lat="38.855193" lon="-77.048713">
				 <ele>9.5</ele>
			 </trkpt>
			 <trkpt lat="38.855254" lon="-77.04875">
				 <ele>9.5</ele>
			 </trkpt>
			 <trkpt lat="38.855289" lon="-77.048844">
				 <ele>9.6</ele>
			 </trkpt>
			 <trkpt lat="38.85531" lon="-77.049321">
				 <ele>9.7</ele>
			 </trkpt>
			 <trkpt lat="38.855768" lon="-77.049319">
				 <ele>9.6</ele>
			 </trkpt>
			 <trkpt lat="38.856217" lon="-77.049293">
				 <ele>9.5</ele>
			 </trkpt>
			 <trkpt lat="38.856666" lon="-77.049267">
				 <ele>9.5</ele>
			 </trkpt>
			 <trkpt lat="38.857115" lon="-77.04924">
				 <ele>9.4</ele>
			 </trkpt>
			 <trkpt lat="38.857564" lon="-77.049214">
				 <ele>9.5</ele>
			 </trkpt>
			 <trkpt lat="38.858014" lon="-77.049188">
				 <ele>9.4</ele>
			 </trkpt>
			 <trkpt lat="38.858463" lon="-77.049162">
				 <ele>9.3</ele>
			 </trkpt>
			 <trkpt lat="38.858912" lon="-77.049135">
				 <ele>9.3</ele>
			 </trkpt>
			 <trkpt lat="38.859348" lon="-77.04911">
				 <ele>9.3</ele>
			 </trkpt>
			 <trkpt lat="38.859726" lon="-77.049145">
				 <ele>9.3</ele>
			 </trkpt>
			 <trkpt lat="38.860448" lon="-77.049392">
				 <ele>9.2</ele>
			 </trkpt>
			 <trkpt lat="38.860958" lon="-77.049366">
				 <ele>9.3</ele>
			 </trkpt>
			 <trkpt lat="38.862221" lon="-77.048718">
				 <ele>9.4</ele>
			 </trkpt>
			 <trkpt lat="38.862405" lon="-77.048769">
				 <ele>9.4</ele>
			 </trkpt>
			 <trkpt lat="38.862651" lon="-77.049472">
				 <ele>9.4</ele>
			 </trkpt>
			 <trkpt lat="38.862814" lon="-77.050115">
				 <ele>9.1</ele>
			 </trkpt>
			 <trkpt lat="38.862889" lon="-77.050566">
				 <ele>8.7</ele>
			 </trkpt>
			 <trkpt lat="38.8629" lon="-77.05122">
				 <ele>8.4</ele>
			 </trkpt>
			 <trkpt lat="38.86341" lon="-77.05118">
				 <ele>7.9</ele>
			 </trkpt>
			 <trkpt lat="38.86387" lon="-77.05106">
				 <ele>7.4</ele>
			 </trkpt>
			 <trkpt lat="38.86429" lon="-77.05087">
				 <ele>6.8</ele>
			 </trkpt>
			 <trkpt lat="38.86423" lon="-77.05066">
				 <ele>6.4</ele>
			 </trkpt>
			 <trkpt lat="38.86363" lon="-77.04975">
				 <ele>5.9</ele>
			 </trkpt>
			 <trkpt lat="38.86475" lon="-77.04847">
				 <ele>5.5</ele>
			 </trkpt>
			 <trkpt lat="38.86564" lon="-77.04976">
				 <ele>5.1</ele>
			 </trkpt>
			 <trkpt lat="38.86596" lon="-77.04929">
				 <ele>4.7</ele>
			 </trkpt>
			 <trkpt lat="38.86601" lon="-77.0491">
				 <ele>4.5</ele>
			 </trkpt>
			 <trkpt lat="38.86667" lon="-77.04812">
				 <ele>4.5</ele>
			 </trkpt>
			 <trkpt lat="38.86729" lon="-77.04704">
				 <ele>4.4</ele>
			 </trkpt>
			 <trkpt lat="38.868155" lon="-77.045655">
				 <ele>4.4</ele>
			 </trkpt>
			 <trkpt lat="38.868406" lon="-77.045376">
				 <ele>4.5</ele>
			 </trkpt>
			 <trkpt lat="38.868706" lon="-77.045172">
				 <ele>4.5</ele>
			 </trkpt>
			 <trkpt lat="38.868961" lon="-77.045091">
				 <ele>4.6</ele>
			 </trkpt>
			 <trkpt lat="38.869263" lon="-77.045194">
				 <ele>4.7</ele>
			 </trkpt>
			 <trkpt lat="38.869547" lon="-77.045473">
				 <ele>4.8</ele>
			 </trkpt>
			 <trkpt lat="38.869635" lon="-77.045607">
				 <ele>4.9</ele>
			 </trkpt>
			 <trkpt lat="38.869744" lon="-77.045682">
				 <ele>5</ele>
			 </trkpt>
			 <trkpt lat="38.869869" lon="-77.045854">
				 <ele>5</ele>
			 </trkpt>
			 <trkpt lat="38.870182" lon="-77.04742">
				 <ele>5</ele>
			 </trkpt>
			 <trkpt lat="38.870357" lon="-77.048117">
				 <ele>5</ele>
			 </trkpt>
			 <trkpt lat="38.870428" lon="-77.048305">
				 <ele>5</ele>
			 </trkpt>
			 <trkpt lat="38.870512" lon="-77.048906">
				 <ele>5</ele>
			 </trkpt>
			 <trkpt lat="38.870732" lon="-77.04961">
				 <ele>5</ele>
			 </trkpt>
			 <trkpt lat="38.871008" lon="-77.050179">
				 <ele>5</ele>
			 </trkpt>
			 <trkpt lat="38.871309" lon="-77.050597">
				 <ele>5</ele>
			 </trkpt>
			 <trkpt lat="38.871629" lon="-77.050812">
				 <ele>5</ele>
			 </trkpt>
			 <trkpt lat="38.87237" lon="-77.05122">
				 <ele>5</ele>
			 </trkpt>
			 <trkpt lat="38.87353" lon="-77.05199">
				 <ele>5</ele>
			 </trkpt>
			 <trkpt lat="38.87379" lon="-77.05214">
				 <ele>5</ele>
			 </trkpt>
			 <trkpt lat="38.87414" lon="-77.05225">
				 <ele>5</ele>
			 </trkpt>
			 <trkpt lat="38.87459" lon="-77.05227">
				 <ele>5</ele>
			 </trkpt>
			 <trkpt lat="38.87542" lon="-77.05203">
				 <ele>5</ele>
			 </trkpt>
			 <trkpt lat="38.87581" lon="-77.05199">
				 <ele>5</ele>
			 </trkpt>
			 <trkpt lat="38.87629" lon="-77.05207">
				 <ele>5</ele>
			 </trkpt>
			 <trkpt lat="38.87665" lon="-77.05225">
				 <ele>5</ele>
			 </trkpt>
			 <trkpt lat="38.87723" lon="-77.05266">
				 <ele>4.9</ele>
			 </trkpt>
			 <trkpt lat="38.87794" lon="-77.05328">
				 <ele>4.8</ele>
			 </trkpt>
			 <trkpt lat="38.87813" lon="-77.05353">
				 <ele>4.7</ele>
			 </trkpt>
			 <trkpt lat="38.87826" lon="-77.05388">
				 <ele>4.7</ele>
			 </trkpt>
			 <trkpt lat="38.87826" lon="-77.05426">
				 <ele>4.8</ele>
			 </trkpt>
			 <trkpt lat="38.87822" lon="-77.05449">
				 <ele>5</ele>
			 </trkpt>
			 <trkpt lat="38.87809" lon="-77.05486">
				 <ele>5.3</ele>
			 </trkpt>
			 <trkpt lat="38.87713" lon="-77.0567">
				 <ele>5.5</ele>
			 </trkpt>
			 <trkpt lat="38.87712" lon="-77.05696">
				 <ele>5.8</ele>
			 </trkpt>
			 <trkpt lat="38.87816" lon="-77.0582">
				 <ele>6.1</ele>
			 </trkpt>
			 <trkpt lat="38.87821" lon="-77.05831">
				 <ele>6.4</ele>
			 </trkpt>
			 <trkpt lat="38.87952" lon="-77.05972">
				 <ele>6.7</ele>
			 </trkpt>
			 <trkpt lat="38.88105" lon="-77.06125">
				 <ele>7.2</ele>
			 </trkpt>
			 <trkpt lat="38.88228" lon="-77.06234">
				 <ele>7.8</ele>
			 </trkpt>
			 <trkpt lat="38.88329" lon="-77.0631">
				 <ele>8.5</ele>
			 </trkpt>
			 <trkpt lat="38.88434" lon="-77.0638">
				 <ele>9.6</ele>
			 </trkpt>
			 <trkpt lat="38.8857" lon="-77.06464">
				 <ele>10.8</ele>
			 </trkpt>
			 <trkpt lat="38.88755" lon="-77.06571">
				 <ele>12</ele>
			 </trkpt>
			 <trkpt lat="38.88813" lon="-77.06613">
				 <ele>13.2</ele>
			 </trkpt>
			 <trkpt lat="38.88808" lon="-77.0663">
				 <ele>13.7</ele>
			 </trkpt>
			 <trkpt lat="38.88796" lon="-77.06771">
				 <ele>14.3</ele>
			 </trkpt>
			 <trkpt lat="38.88872" lon="-77.06779">
				 <ele>15.1</ele>
			 </trkpt>
			 <trkpt lat="38.88906" lon="-77.06793">
				 <ele>16.1</ele>
			 </trkpt>
			 <trkpt lat="38.88923" lon="-77.06805">
				 <ele>17.3</ele>
			 </trkpt>
		 </trkseg>
	 </trk>
</gpx>