<?xml version="1.0" encoding="UTF-8"?>
 <gpx creator="Garmin Connect" version="1.1"
	 xsi:schemaLocation="http://www.topografix.com/GPX/1/1 http://www.topografix.com/GPX/11.xsd"
	 xmlns:ns3="http://www.garmin.com/xmlschemas/TrackPointExtension/v1"
	 xmlns="http://www.topografix.com/GPX/1/1"
	 xmlns:xsi="http://www.w3.org/2001/XMLSchema-instance" xmlns:ns2="http://www.garmin.com/xmlschemas/GpxExtensions/v3">
	 <metadata>
		<name>Schneider Electric Marathon de Paris 2025 - 42.195 km</name>
		 <link href="https://www.goandrace.com">
		 <text>Garmin Connect</text>
		 </link>
	 <time>2026-08-23T23:05:29</time>
	 </metadata>
	 <trk>
		 <name>Schneider Electric Marathon de Paris 2025 - 42.195 km</name>
		 <trkseg>
			 <trkpt lat="48.869599" lon="2.308137">
				 <ele>39</ele>
			 </trkpt>
			 <trkpt lat="48.86563" lon="2.32062">
				 <ele>40</ele>
			 </trkpt>
			 <trkpt lat="48.86619" lon="2.32118">
				 <ele>40.8</ele>
			 </trkpt>
			 <trkpt lat="48.86657" lon="2.32193">
				 <ele>41.7</ele>
			 </trkpt>
			 <trkpt lat="48.86638" lon="2.32317">
				 <ele>42.3</ele>
			 </trkpt>
			 <trkpt lat="48.86632" lon="2.32408">
				 <ele>42.6</ele>
			 </trkpt>
			 <trkpt lat="48.865285" lon="2.327292">
				 <ele>42.5</ele>
			 </trkpt>
			 <trkpt lat="48.865664" lon="2.327661">
				 <ele>43.3</ele>
			 </trkpt>
			 <trkpt lat="48.866042" lon="2.328029">
				 <ele>43.8</ele>
			 </trkpt>
			 <trkpt lat="48.866421" lon="2.328398">
				 <ele>43.9</ele>
			 </trkpt>
			 <trkpt lat="48.8668" lon="2.328767">
				 <ele>44.4</ele>
			 </trkpt>
			 <trkpt lat="48.867103" lon="2.329063">
				 <ele>45</ele>
			 </trkpt>
			 <trkpt lat="48.867305" lon="2.329409">
				 <ele>45.5</ele>
			 </trkpt>
			 <trkpt lat="48.86746" lon="2.3296">
				 <ele>46</ele>
			 </trkpt>
			 <trkpt lat="48.867738" lon="2.329802">
				 <ele>46.1</ele>
			 </trkpt>
			 <trkpt lat="48.867886" lon="2.329831">
				 <ele>46.3</ele>
			 </trkpt>
			 <trkpt lat="48.86826" lon="2.330209">
				 <ele>46.3</ele>
			 </trkpt>
			 <trkpt lat="48.868635" lon="2.330588">
				 <ele>46.5</ele>
			 </trkpt>
			 <trkpt lat="48.869009" lon="2.330967">
				 <ele>47.3</ele>
			 </trkpt>
			 <trkpt lat="48.869383" lon="2.331345">
				 <ele>48.3</ele>
			 </trkpt>
			 <trkpt lat="48.869758" lon="2.331724">
				 <ele>49</ele>
			 </trkpt>
			 <trkpt lat="48.870132" lon="2.332103">
				 <ele>49.4</ele>
			 </trkpt>
			 <trkpt lat="48.870262" lon="2.332234">
				 <ele>49.3</ele>
			 </trkpt>
			 <trkpt lat="48.871038" lon="2.331913">
				 <ele>48.5</ele>
			 </trkpt>
			 <trkpt lat="48.871355" lon="2.331428">
				 <ele>47.8</ele>
			 </trkpt>
			 <trkpt lat="48.871597" lon="2.331056">
				 <ele>47.5</ele>
			 </trkpt>
			 <trkpt lat="48.871855" lon="2.330715">
				 <ele>47.5</ele>
			 </trkpt>
			 <trkpt lat="48.872285" lon="2.330912">
				 <ele>48.1</ele>
			 </trkpt>
			 <trkpt lat="48.87269" lon="2.331097">
				 <ele>48.5</ele>
			 </trkpt>
			 <trkpt lat="48.872779" lon="2.33122">
				 <ele>48.5</ele>
			 </trkpt>
			 <trkpt lat="48.872852" lon="2.331498">
				 <ele>48.2</ele>
			 </trkpt>
			 <trkpt lat="48.87276" lon="2.331677">
				 <ele>48.1</ele>
			 </trkpt>
			 <trkpt lat="48.872476" lon="2.332207">
				 <ele>48.3</ele>
			 </trkpt>
			 <trkpt lat="48.872247" lon="2.332637">
				 <ele>48.3</ele>
			 </trkpt>
			 <trkpt lat="48.872058" lon="2.332708">
				 <ele>48.5</ele>
			 </trkpt>
			 <trkpt lat="48.871619" lon="2.332564">
				 <ele>48.7</ele>
			 </trkpt>
			 <trkpt lat="48.871179" lon="2.33242">
				 <ele>48.8</ele>
			 </trkpt>
			 <trkpt lat="48.871137" lon="2.332406">
				 <ele>48.9</ele>
			 </trkpt>
			 <trkpt lat="48.870695" lon="2.332533">
				 <ele>48.7</ele>
			 </trkpt>
			 <trkpt lat="48.870542" lon="2.332578">
				 <ele>48.7</ele>
			 </trkpt>
			 <trkpt lat="48.870311" lon="2.332663">
				 <ele>48.6</ele>
			 </trkpt>
			 <trkpt lat="48.870084" lon="2.332593">
				 <ele>48.8</ele>
			 </trkpt>
			 <trkpt lat="48.86968" lon="2.332738">
				 <ele>48.8</ele>
			 </trkpt>
			 <trkpt lat="48.869248" lon="2.332925">
				 <ele>48.7</ele>
			 </trkpt>
			 <trkpt lat="48.868815" lon="2.333111">
				 <ele>48.9</ele>
			 </trkpt>
			 <trkpt lat="48.868382" lon="2.333298">
				 <ele>49.1</ele>
			 </trkpt>
			 <trkpt lat="48.86795" lon="2.333484">
				 <ele>49.4</ele>
			 </trkpt>
			 <trkpt lat="48.867517" lon="2.333671">
				 <ele>49.5</ele>
			 </trkpt>
			 <trkpt lat="48.867085" lon="2.333858">
				 <ele>49.5</ele>
			 </trkpt>
			 <trkpt lat="48.866652" lon="2.334044">
				 <ele>49.5</ele>
			 </trkpt>
			 <trkpt lat="48.86622" lon="2.334231">
				 <ele>49.4</ele>
			 </trkpt>
			 <trkpt lat="48.865787" lon="2.334418">
				 <ele>49.1</ele>
			 </trkpt>
			 <trkpt lat="48.865354" lon="2.334604">
				 <ele>48.9</ele>
			 </trkpt>
			 <trkpt lat="48.864922" lon="2.334791">
				 <ele>48.7</ele>
			 </trkpt>
			 <trkpt lat="48.864489" lon="2.334977">
				 <ele>48.3</ele>
			 </trkpt>
			 <trkpt lat="48.864043" lon="2.335142">
				 <ele>47.7</ele>
			 </trkpt>
			 <trkpt lat="48.863606" lon="2.335302">
				 <ele>47.1</ele>
			 </trkpt>
			 <trkpt lat="48.863245" lon="2.335434">
				 <ele>46</ele>
			 </trkpt>
			 <trkpt lat="48.86296" lon="2.335463">
				 <ele>44.6</ele>
			 </trkpt>
			 <trkpt lat="48.862579" lon="2.335099">
				 <ele>42.8</ele>
			 </trkpt>
			 <trkpt lat="48.862198" lon="2.334735">
				 <ele>41.1</ele>
			 </trkpt>
			 <trkpt lat="48.861939" lon="2.334487">
				 <ele>40.3</ele>
			 </trkpt>
			 <trkpt lat="48.861725" lon="2.334093">
				 <ele>40.1</ele>
			 </trkpt>
			 <trkpt lat="48.86162" lon="2.333774">
				 <ele>40.1</ele>
			 </trkpt>
			 <trkpt lat="48.861422" lon="2.333703">
				 <ele>40.3</ele>
			 </trkpt>
			 <trkpt lat="48.861182" lon="2.333839">
				 <ele>41.3</ele>
			 </trkpt>
			 <trkpt lat="48.860747" lon="2.333666">
				 <ele>41.5</ele>
			 </trkpt>
			 <trkpt lat="48.860312" lon="2.333493">
				 <ele>41.5</ele>
			 </trkpt>
			 <trkpt lat="48.860104" lon="2.333411">
				 <ele>41.5</ele>
			 </trkpt>
			 <trkpt lat="48.859999" lon="2.33389">
				 <ele>41.6</ele>
			 </trkpt>
			 <trkpt lat="48.859847" lon="2.334534">
				 <ele>42</ele>
			 </trkpt>
			 <trkpt lat="48.859696" lon="2.335177">
				 <ele>42.5</ele>
			 </trkpt>
			 <trkpt lat="48.859545" lon="2.335821">
				 <ele>42.6</ele>
			 </trkpt>
			 <trkpt lat="48.859485" lon="2.336077">
				 <ele>42.8</ele>
			 </trkpt>
			 <trkpt lat="48.859405" lon="2.336749">
				 <ele>43.3</ele>
			 </trkpt>
			 <trkpt lat="48.859324" lon="2.337422">
				 <ele>42.8</ele>
			 </trkpt>
			 <trkpt lat="48.859244" lon="2.338094">
				 <ele>42</ele>
			 </trkpt>
			 <trkpt lat="48.859163" lon="2.338767">
				 <ele>41.7</ele>
			 </trkpt>
			 <trkpt lat="48.859083" lon="2.339439">
				 <ele>42.3</ele>
			 </trkpt>
			 <trkpt lat="48.859026" lon="2.339916">
				 <ele>43</ele>
			 </trkpt>
			 <trkpt lat="48.860899" lon="2.3409">
				 <ele>43.9</ele>
			 </trkpt>
			 <trkpt lat="48.85892" lon="2.34704">
				 <ele>44.5</ele>
			 </trkpt>
			 <trkpt lat="48.8576" lon="2.35124">
				 <ele>44.9</ele>
			 </trkpt>
			 <trkpt lat="48.85566" lon="2.3594">
				 <ele>45.1</ele>
			 </trkpt>
			 <trkpt lat="48.8551" lon="2.36163">
				 <ele>44.9</ele>
			 </trkpt>
			 <trkpt lat="48.85398" lon="2.36476">
				 <ele>44.5</ele>
			 </trkpt>
			 <trkpt lat="48.853825" lon="2.365402">
				 <ele>44.8</ele>
			 </trkpt>
			 <trkpt lat="48.85367" lon="2.366043">
				 <ele>44.9</ele>
			 </trkpt>
			 <trkpt lat="48.85364" lon="2.36617">
				 <ele>45.2</ele>
			 </trkpt>
			 <trkpt lat="48.853539" lon="2.366836">
				 <ele>45.2</ele>
			 </trkpt>
			 <trkpt lat="48.853439" lon="2.367502">
				 <ele>45</ele>
			 </trkpt>
			 <trkpt lat="48.853338" lon="2.368168">
				 <ele>44.7</ele>
			 </trkpt>
			 <trkpt lat="48.853307" lon="2.368374">
				 <ele>44.6</ele>
			 </trkpt>
			 <trkpt lat="48.853329" lon="2.368455">
				 <ele>44.6</ele>
			 </trkpt>
			 <trkpt lat="48.853365" lon="2.368523">
				 <ele>44.7</ele>
			 </trkpt>
			 <trkpt lat="48.853542" lon="2.368776">
				 <ele>44.7</ele>
			 </trkpt>
			 <trkpt lat="48.853606" lon="2.369022">
				 <ele>44.1</ele>
			 </trkpt>
			 <trkpt lat="48.853558" lon="2.369478">
				 <ele>43.5</ele>
			 </trkpt>
			 <trkpt lat="48.853343" lon="2.369842">
				 <ele>43.1</ele>
			 </trkpt>
			 <trkpt lat="48.8533" lon="2.3701">
				 <ele>42.7</ele>
			 </trkpt>
			 <trkpt lat="48.853241" lon="2.370424">
				 <ele>42.4</ele>
			 </trkpt>
			 <trkpt lat="48.852937" lon="2.370927">
				 <ele>42.2</ele>
			 </trkpt>
			 <trkpt lat="48.85287" lon="2.371039">
				 <ele>42.3</ele>
			 </trkpt>
			 <trkpt lat="48.852584" lon="2.371567">
				 <ele>42.5</ele>
			 </trkpt>
			 <trkpt lat="48.852431" lon="2.371967">
				 <ele>42.6</ele>
			 </trkpt>
			 <trkpt lat="48.852218" lon="2.372569">
				 <ele>42.8</ele>
			 </trkpt>
			 <trkpt lat="48.852147" lon="2.372771">
				 <ele>43</ele>
			 </trkpt>
			 <trkpt lat="48.851982" lon="2.373407">
				 <ele>43.4</ele>
			 </trkpt>
			 <trkpt lat="48.851816" lon="2.374042">
				 <ele>43.5</ele>
			 </trkpt>
			 <trkpt lat="48.851651" lon="2.374678">
				 <ele>43.5</ele>
			 </trkpt>
			 <trkpt lat="48.851486" lon="2.375313">
				 <ele>43.5</ele>
			 </trkpt>
			 <trkpt lat="48.85133" lon="2.375954">
				 <ele>43.5</ele>
			 </trkpt>
			 <trkpt lat="48.851174" lon="2.376596">
				 <ele>43.4</ele>
			 </trkpt>
			 <trkpt lat="48.851019" lon="2.377237">
				 <ele>43.3</ele>
			 </trkpt>
			 <trkpt lat="48.850863" lon="2.377878">
				 <ele>43.2</ele>
			 </trkpt>
			 <trkpt lat="48.850707" lon="2.378519">
				 <ele>43.4</ele>
			 </trkpt>
			 <trkpt lat="48.850673" lon="2.37866">
				 <ele>43.3</ele>
			 </trkpt>
			 <trkpt lat="48.850572" lon="2.379326">
				 <ele>43.1</ele>
			 </trkpt>
			 <trkpt lat="48.850472" lon="2.379992">
				 <ele>42.5</ele>
			 </trkpt>
			 <trkpt lat="48.850457" lon="2.380088">
				 <ele>41.7</ele>
			 </trkpt>
			 <trkpt lat="48.850416" lon="2.380769">
				 <ele>41.6</ele>
			 </trkpt>
			 <trkpt lat="48.850374" lon="2.381449">
				 <ele>41.7</ele>
			 </trkpt>
			 <trkpt lat="48.850339" lon="2.382027">
				 <ele>42</ele>
			 </trkpt>
			 <trkpt lat="48.850276" lon="2.382704">
				 <ele>42.5</ele>
			 </trkpt>
			 <trkpt lat="48.850212" lon="2.38338">
				 <ele>42.5</ele>
			 </trkpt>
			 <trkpt lat="48.850148" lon="2.384056">
				 <ele>42.8</ele>
			 </trkpt>
			 <trkpt lat="48.8501" lon="2.38457">
				 <ele>42.8</ele>
			 </trkpt>
			 <trkpt lat="48.849997" lon="2.385235">
				 <ele>43</ele>
			 </trkpt>
			 <trkpt lat="48.849893" lon="2.3859">
				 <ele>43.4</ele>
			 </trkpt>
			 <trkpt lat="48.84979" lon="2.386565">
				 <ele>44.2</ele>
			 </trkpt>
			 <trkpt lat="48.849686" lon="2.38723">
				 <ele>45.2</ele>
			 </trkpt>
			 <trkpt lat="48.849583" lon="2.387895">
				 <ele>45.9</ele>
			 </trkpt>
			 <trkpt lat="48.849479" lon="2.38856">
				 <ele>46.5</ele>
			 </trkpt>
			 <trkpt lat="48.849376" lon="2.389225">
				 <ele>47</ele>
			 </trkpt>
			 <trkpt lat="48.849272" lon="2.38989">
				 <ele>48</ele>
			 </trkpt>
			 <trkpt lat="48.849169" lon="2.390555">
				 <ele>49.2</ele>
			 </trkpt>
			 <trkpt lat="48.849065" lon="2.39122">
				 <ele>49.9</ele>
			 </trkpt>
			 <trkpt lat="48.848962" lon="2.391885">
				 <ele>50.5</ele>
			 </trkpt>
			 <trkpt lat="48.84859" lon="2.392272">
				 <ele>51.6</ele>
			 </trkpt>
			 <trkpt lat="48.848219" lon="2.392657">
				 <ele>52.5</ele>
			 </trkpt>
			 <trkpt lat="48.848168" lon="2.39271">
				 <ele>53.3</ele>
			 </trkpt>
			 <trkpt lat="48.847782" lon="2.393061">
				 <ele>54.1</ele>
			 </trkpt>
			 <trkpt lat="48.847397" lon="2.393412">
				 <ele>54.6</ele>
			 </trkpt>
			 <trkpt lat="48.847011" lon="2.393763">
				 <ele>55.3</ele>
			 </trkpt>
			 <trkpt lat="48.846625" lon="2.394114">
				 <ele>55.8</ele>
			 </trkpt>
			 <trkpt lat="48.846225" lon="2.394493">
				 <ele>55.9</ele>
			 </trkpt>
			 <trkpt lat="48.845844" lon="2.394855">
				 <ele>56</ele>
			 </trkpt>
			 <trkpt lat="48.845599" lon="2.395087">
				 <ele>56</ele>
			 </trkpt>
			 <trkpt lat="48.845574" lon="2.395298">
				 <ele>56</ele>
			 </trkpt>
			 <trkpt lat="48.845472" lon="2.395344">
				 <ele>55.5</ele>
			 </trkpt>
			 <trkpt lat="48.845325" lon="2.395341">
				 <ele>54.9</ele>
			 </trkpt>
			 <trkpt lat="48.844928" lon="2.395662">
				 <ele>54.8</ele>
			 </trkpt>
			 <trkpt lat="48.844532" lon="2.395984">
				 <ele>54.8</ele>
			 </trkpt>
			 <trkpt lat="48.844135" lon="2.396305">
				 <ele>54.9</ele>
			 </trkpt>
			 <trkpt lat="48.843766" lon="2.396604">
				 <ele>54.8</ele>
			 </trkpt>
			 <trkpt lat="48.843373" lon="2.396937">
				 <ele>54.7</ele>
			 </trkpt>
			 <trkpt lat="48.84298" lon="2.39727">
				 <ele>54.7</ele>
			 </trkpt>
			 <trkpt lat="48.842588" lon="2.397602">
				 <ele>54.8</ele>
			 </trkpt>
			 <trkpt lat="48.84233" lon="2.397821">
				 <ele>55.4</ele>
			 </trkpt>
			 <trkpt lat="48.841942" lon="2.398165">
				 <ele>55.8</ele>
			 </trkpt>
			 <trkpt lat="48.841687" lon="2.398391">
				 <ele>56.4</ele>
			 </trkpt>
			 <trkpt lat="48.841299" lon="2.398735">
				 <ele>57</ele>
			 </trkpt>
			 <trkpt lat="48.841097" lon="2.398914">
				 <ele>57.4</ele>
			 </trkpt>
			 <trkpt lat="48.840705" lon="2.399251">
				 <ele>57.5</ele>
			 </trkpt>
			 <trkpt lat="48.840314" lon="2.399588">
				 <ele>57.9</ele>
			 </trkpt>
			 <trkpt lat="48.839937" lon="2.399912">
				 <ele>58.4</ele>
			 </trkpt>
			 <trkpt lat="48.839733" lon="2.3998">
				 <ele>58.6</ele>
			 </trkpt>
			 <trkpt lat="48.839642" lon="2.399591">
				 <ele>58.8</ele>
			 </trkpt>
			 <trkpt lat="48.839617" lon="2.398909">
				 <ele>58.8</ele>
			 </trkpt>
			 <trkpt lat="48.839593" lon="2.398227">
				 <ele>58.7</ele>
			 </trkpt>
			 <trkpt lat="48.839568" lon="2.397544">
				 <ele>58.6</ele>
			 </trkpt>
			 <trkpt lat="48.839544" lon="2.396862">
				 <ele>58.5</ele>
			 </trkpt>
			 <trkpt lat="48.839529" lon="2.396452">
				 <ele>58.5</ele>
			 </trkpt>
			 <trkpt lat="48.839507" lon="2.396169">
				 <ele>58.5</ele>
			 </trkpt>
			 <trkpt lat="48.83938" lon="2.396126">
				 <ele>58.5</ele>
			 </trkpt>
			 <trkpt lat="48.839163" lon="2.396724">
				 <ele>58.1</ele>
			 </trkpt>
			 <trkpt lat="48.838946" lon="2.397322">
				 <ele>57.2</ele>
			 </trkpt>
			 <trkpt lat="48.838729" lon="2.397921">
				 <ele>56.2</ele>
			 </trkpt>
			 <trkpt lat="48.838512" lon="2.398519">
				 <ele>55</ele>
			 </trkpt>
			 <trkpt lat="48.838294" lon="2.399117">
				 <ele>53.8</ele>
			 </trkpt>
			 <trkpt lat="48.838077" lon="2.399715">
				 <ele>52.6</ele>
			 </trkpt>
			 <trkpt lat="48.83786" lon="2.400314">
				 <ele>51.5</ele>
			 </trkpt>
			 <trkpt lat="48.837643" lon="2.400912">
				 <ele>50.1</ele>
			 </trkpt>
			 <trkpt lat="48.837426" lon="2.40151">
				 <ele>48.4</ele>
			 </trkpt>
			 <trkpt lat="48.837209" lon="2.402108">
				 <ele>46.9</ele>
			 </trkpt>
			 <trkpt lat="48.836992" lon="2.402707">
				 <ele>45.6</ele>
			 </trkpt>
			 <trkpt lat="48.836775" lon="2.403305">
				 <ele>44.8</ele>
			 </trkpt>
			 <trkpt lat="48.836558" lon="2.403903">
				 <ele>44.5</ele>
			 </trkpt>
			 <trkpt lat="48.836341" lon="2.404502">
				 <ele>44.5</ele>
			 </trkpt>
			 <trkpt lat="48.836124" lon="2.4051">
				 <ele>45</ele>
			 </trkpt>
			 <trkpt lat="48.835906" lon="2.405698">
				 <ele>45.7</ele>
			 </trkpt>
			 <trkpt lat="48.835689" lon="2.406296">
				 <ele>46.5</ele>
			 </trkpt>
			 <trkpt lat="48.835653" lon="2.406398">
				 <ele>47.2</ele>
			 </trkpt>
			 <trkpt lat="48.835619" lon="2.406874">
				 <ele>48.1</ele>
			 </trkpt>
			 <trkpt lat="48.835397" lon="2.407469">
				 <ele>48.9</ele>
			 </trkpt>
			 <trkpt lat="48.835176" lon="2.408063">
				 <ele>49.4</ele>
			 </trkpt>
			 <trkpt lat="48.835144" lon="2.40815">
				 <ele>49.7</ele>
			 </trkpt>
			 <trkpt lat="48.834942" lon="2.408366">
				 <ele>50</ele>
			 </trkpt>
			 <trkpt lat="48.834739" lon="2.408975">
				 <ele>50.4</ele>
			 </trkpt>
			 <trkpt lat="48.83471" lon="2.40906">
				 <ele>50.5</ele>
			 </trkpt>
			 <trkpt lat="48.834517" lon="2.409677">
				 <ele>50.5</ele>
			 </trkpt>
			 <trkpt lat="48.834325" lon="2.410295">
				 <ele>50.6</ele>
			 </trkpt>
			 <trkpt lat="48.834174" lon="2.41078">
				 <ele>50.8</ele>
			 </trkpt>
			 <trkpt lat="48.833972" lon="2.41139">
				 <ele>51</ele>
			 </trkpt>
			 <trkpt lat="48.833912" lon="2.411574">
				 <ele>51.1</ele>
			 </trkpt>
			 <trkpt lat="48.833804" lon="2.412347">
				 <ele>51.3</ele>
			 </trkpt>
			 <trkpt lat="48.833781" lon="2.412616">
				 <ele>51.7</ele>
			 </trkpt>
			 <trkpt lat="48.83375" lon="2.412975">
				 <ele>52.1</ele>
			 </trkpt>
			 <trkpt lat="48.833715" lon="2.413515">
				 <ele>52.4</ele>
			 </trkpt>
			 <trkpt lat="48.833706" lon="2.413912">
				 <ele>52.6</ele>
			 </trkpt>
			 <trkpt lat="48.833711" lon="2.414311">
				 <ele>53</ele>
			 </trkpt>
			 <trkpt lat="48.833741" lon="2.414923">
				 <ele>53</ele>
			 </trkpt>
			 <trkpt lat="48.833754" lon="2.415085">
				 <ele>52.8</ele>
			 </trkpt>
			 <trkpt lat="48.833833" lon="2.415766">
				 <ele>52.4</ele>
			 </trkpt>
			 <trkpt lat="48.833907" lon="2.416215">
				 <ele>52.2</ele>
			 </trkpt>
			 <trkpt lat="48.833996" lon="2.416638">
				 <ele>52.3</ele>
			 </trkpt>
			 <trkpt lat="48.834147" lon="2.417184">
				 <ele>52.5</ele>
			 </trkpt>
			 <trkpt lat="48.834185" lon="2.417317">
				 <ele>52.5</ele>
			 </trkpt>
			 <trkpt lat="48.834397" lon="2.418018">
				 <ele>52.8</ele>
			 </trkpt>
			 <trkpt lat="48.834618" lon="2.418704">
				 <ele>53.1</ele>
			 </trkpt>
			 <trkpt lat="48.834908" lon="2.419559">
				 <ele>53.3</ele>
			 </trkpt>
			 <trkpt lat="48.834922" lon="2.419602">
				 <ele>53.4</ele>
			 </trkpt>
			 <trkpt lat="48.834979" lon="2.41978">
				 <ele>53.7</ele>
			 </trkpt>
			 <trkpt lat="48.835028" lon="2.419923">
				 <ele>54</ele>
			 </trkpt>
			 <trkpt lat="48.835057" lon="2.420009">
				 <ele>54.1</ele>
			 </trkpt>
			 <trkpt lat="48.835086" lon="2.420095">
				 <ele>54.1</ele>
			 </trkpt>
			 <trkpt lat="48.835334" lon="2.420826">
				 <ele>54.1</ele>
			 </trkpt>
			 <trkpt lat="48.83575" lon="2.421993">
				 <ele>54</ele>
			 </trkpt>
			 <trkpt lat="48.835793" lon="2.422112">
				 <ele>53.8</ele>
			 </trkpt>
			 <trkpt lat="48.836156" lon="2.422967">
				 <ele>53.5</ele>
			 </trkpt>
			 <trkpt lat="48.836709" lon="2.424041">
				 <ele>52.9</ele>
			 </trkpt>
			 <trkpt lat="48.837112" lon="2.424728">
				 <ele>52.1</ele>
			 </trkpt>
			 <trkpt lat="48.837532" lon="2.425343">
				 <ele>51.3</ele>
			 </trkpt>
			 <trkpt lat="48.837743" lon="2.425684">
				 <ele>50.4</ele>
			 </trkpt>
			 <trkpt lat="48.837986" lon="2.426077">
				 <ele>49.6</ele>
			 </trkpt>
			 <trkpt lat="48.838262" lon="2.42665">
				 <ele>49.3</ele>
			 </trkpt>
			 <trkpt lat="48.838509" lon="2.427222">
				 <ele>48.8</ele>
			 </trkpt>
			 <trkpt lat="48.838859" lon="2.428158">
				 <ele>48.3</ele>
			 </trkpt>
			 <trkpt lat="48.839148" lon="2.429109">
				 <ele>47.7</ele>
			 </trkpt>
			 <trkpt lat="48.839321" lon="2.429747">
				 <ele>47.5</ele>
			 </trkpt>
			 <trkpt lat="48.839339" lon="2.429809">
				 <ele>47.3</ele>
			 </trkpt>
			 <trkpt lat="48.839383" lon="2.429981">
				 <ele>47.5</ele>
			 </trkpt>
			 <trkpt lat="48.839418" lon="2.430118">
				 <ele>47.9</ele>
			 </trkpt>
			 <trkpt lat="48.839433" lon="2.430178">
				 <ele>48.4</ele>
			 </trkpt>
			 <trkpt lat="48.839953" lon="2.432162">
				 <ele>48.7</ele>
			 </trkpt>
			 <trkpt lat="48.84" lon="2.432334">
				 <ele>49.1</ele>
			 </trkpt>
			 <trkpt lat="48.840466" lon="2.434092">
				 <ele>49.5</ele>
			 </trkpt>
			 <trkpt lat="48.840475" lon="2.434134">
				 <ele>49.8</ele>
			 </trkpt>
			 <trkpt lat="48.840515" lon="2.434292">
				 <ele>50.2</ele>
			 </trkpt>
			 <trkpt lat="48.840578" lon="2.434522">
				 <ele>50.5</ele>
			 </trkpt>
			 <trkpt lat="48.840628" lon="2.43469">
				 <ele>50.7</ele>
			 </trkpt>
			 <trkpt lat="48.840685" lon="2.434754">
				 <ele>50.8</ele>
			 </trkpt>
			 <trkpt lat="48.840684" lon="2.434903">
				 <ele>50.6</ele>
			 </trkpt>
			 <trkpt lat="48.840656" lon="2.435048">
				 <ele>50.4</ele>
			 </trkpt>
			 <trkpt lat="48.840604" lon="2.435171">
				 <ele>50.1</ele>
			 </trkpt>
			 <trkpt lat="48.840579" lon="2.435219">
				 <ele>49.8</ele>
			 </trkpt>
			 <trkpt lat="48.840516" lon="2.435347">
				 <ele>49.5</ele>
			 </trkpt>
			 <trkpt lat="48.840491" lon="2.435428">
				 <ele>49.4</ele>
			 </trkpt>
			 <trkpt lat="48.840469" lon="2.435552">
				 <ele>49.2</ele>
			 </trkpt>
			 <trkpt lat="48.840468" lon="2.435662">
				 <ele>49</ele>
			 </trkpt>
			 <trkpt lat="48.840476" lon="2.435756">
				 <ele>49</ele>
			 </trkpt>
			 <trkpt lat="48.840507" lon="2.43596">
				 <ele>49</ele>
			 </trkpt>
			 <trkpt lat="48.840522" lon="2.43615">
				 <ele>49.2</ele>
			 </trkpt>
			 <trkpt lat="48.840406" lon="2.436275">
				 <ele>49.4</ele>
			 </trkpt>
			 <trkpt lat="48.840383" lon="2.436313">
				 <ele>49.6</ele>
			 </trkpt>
			 <trkpt lat="48.840094" lon="2.436694">
				 <ele>49.5</ele>
			 </trkpt>
			 <trkpt lat="48.840028" lon="2.436788">
				 <ele>49.5</ele>
			 </trkpt>
			 <trkpt lat="48.839366" lon="2.437693">
				 <ele>49.5</ele>
			 </trkpt>
			 <trkpt lat="48.839304" lon="2.437778">
				 <ele>49.3</ele>
			 </trkpt>
			 <trkpt lat="48.839255" lon="2.437852">
				 <ele>49.1</ele>
			 </trkpt>
			 <trkpt lat="48.837681" lon="2.440035">
				 <ele>49</ele>
			 </trkpt>
			 <trkpt lat="48.837079" lon="2.440866">
				 <ele>48.6</ele>
			 </trkpt>
			 <trkpt lat="48.836913" lon="2.441097">
				 <ele>48.3</ele>
			 </trkpt>
			 <trkpt lat="48.836818" lon="2.441236">
				 <ele>48.1</ele>
			 </trkpt>
			 <trkpt lat="48.836664" lon="2.441445">
				 <ele>48</ele>
			 </trkpt>
			 <trkpt lat="48.836532" lon="2.441631">
				 <ele>47.9</ele>
			 </trkpt>
			 <trkpt lat="48.835795" lon="2.442628">
				 <ele>48.2</ele>
			 </trkpt>
			 <trkpt lat="48.83525" lon="2.44334">
				 <ele>48.5</ele>
			 </trkpt>
			 <trkpt lat="48.834342" lon="2.444485">
				 <ele>48.8</ele>
			 </trkpt>
			 <trkpt lat="48.834162" lon="2.444699">
				 <ele>49.2</ele>
			 </trkpt>
			 <trkpt lat="48.834111" lon="2.444766">
				 <ele>49.5</ele>
			 </trkpt>
			 <trkpt lat="48.833925" lon="2.445007">
				 <ele>49.8</ele>
			 </trkpt>
			 <trkpt lat="48.833882" lon="2.445011">
				 <ele>50.2</ele>
			 </trkpt>
			 <trkpt lat="48.833835" lon="2.44504">
				 <ele>50.6</ele>
			 </trkpt>
			 <trkpt lat="48.833801" lon="2.445096">
				 <ele>50.9</ele>
			 </trkpt>
			 <trkpt lat="48.833785" lon="2.445168">
				 <ele>51.5</ele>
			 </trkpt>
			 <trkpt lat="48.833787" lon="2.445234">
				 <ele>52.1</ele>
			 </trkpt>
			 <trkpt lat="48.833701" lon="2.445291">
				 <ele>52.8</ele>
			 </trkpt>
			 <trkpt lat="48.833581" lon="2.445463">
				 <ele>53.5</ele>
			 </trkpt>
			 <trkpt lat="48.832434" lon="2.447314">
				 <ele>53.7</ele>
			 </trkpt>
			 <trkpt lat="48.831043" lon="2.449176">
				 <ele>54</ele>
			 </trkpt>
			 <trkpt lat="48.829448" lon="2.451227">
				 <ele>54.3</ele>
			 </trkpt>
			 <trkpt lat="48.829045" lon="2.451797">
				 <ele>54.5</ele>
			 </trkpt>
			 <trkpt lat="48.828565" lon="2.452471">
				 <ele>54.8</ele>
			 </trkpt>
			 <trkpt lat="48.827258" lon="2.454194">
				 <ele>55</ele>
			 </trkpt>
			 <trkpt lat="48.827175" lon="2.454312">
				 <ele>55.1</ele>
			 </trkpt>
			 <trkpt lat="48.827129" lon="2.454242">
				 <ele>54.8</ele>
			 </trkpt>
			 <trkpt lat="48.827093" lon="2.454213">
				 <ele>54.6</ele>
			 </trkpt>
			 <trkpt lat="48.827054" lon="2.454197">
				 <ele>54.2</ele>
			 </trkpt>
			 <trkpt lat="48.826997" lon="2.454199">
				 <ele>53.8</ele>
			 </trkpt>
			 <trkpt lat="48.826943" lon="2.454229">
				 <ele>53.7</ele>
			 </trkpt>
			 <trkpt lat="48.826899" lon="2.454284">
				 <ele>53.7</ele>
			 </trkpt>
			 <trkpt lat="48.826868" lon="2.454357">
				 <ele>53.6</ele>
			 </trkpt>
			 <trkpt lat="48.826855" lon="2.454432">
				 <ele>53.5</ele>
			 </trkpt>
			 <trkpt lat="48.826857" lon="2.454509">
				 <ele>53.5</ele>
			 </trkpt>
			 <trkpt lat="48.826873" lon="2.454582">
				 <ele>53.2</ele>
			 </trkpt>
			 <trkpt lat="48.826902" lon="2.454645">
				 <ele>52.9</ele>
			 </trkpt>
			 <trkpt lat="48.826832" lon="2.454723">
				 <ele>52.6</ele>
			 </trkpt>
			 <trkpt lat="48.825512" lon="2.456211">
				 <ele>52.5</ele>
			 </trkpt>
			 <trkpt lat="48.824992" lon="2.456765">
				 <ele>52.4</ele>
			 </trkpt>
			 <trkpt lat="48.824459" lon="2.457298">
				 <ele>52.3</ele>
			 </trkpt>
			 <trkpt lat="48.824073" lon="2.457637">
				 <ele>52.2</ele>
			 </trkpt>
			 <trkpt lat="48.824039" lon="2.457667">
				 <ele>52</ele>
			 </trkpt>
			 <trkpt lat="48.823945" lon="2.457748">
				 <ele>51.9</ele>
			 </trkpt>
			 <trkpt lat="48.823927" lon="2.457717">
				 <ele>52.1</ele>
			 </trkpt>
			 <trkpt lat="48.823883" lon="2.457687">
				 <ele>52.1</ele>
			 </trkpt>
			 <trkpt lat="48.82384" lon="2.457692">
				 <ele>52.9</ele>
			 </trkpt>
			 <trkpt lat="48.823815" lon="2.457712">
				 <ele>53.7</ele>
			 </trkpt>
			 <trkpt lat="48.823752" lon="2.45759">
				 <ele>54.7</ele>
			 </trkpt>
			 <trkpt lat="48.823519" lon="2.457196">
				 <ele>56.2</ele>
			 </trkpt>
			 <trkpt lat="48.823081" lon="2.456359">
				 <ele>57.6</ele>
			 </trkpt>
			 <trkpt lat="48.822048" lon="2.454222">
				 <ele>59</ele>
			 </trkpt>
			 <trkpt lat="48.821738" lon="2.453713">
				 <ele>60.4</ele>
			 </trkpt>
			 <trkpt lat="48.82148" lon="2.453329">
				 <ele>61.8</ele>
			 </trkpt>
			 <trkpt lat="48.821188" lon="2.452807">
				 <ele>63.3</ele>
			 </trkpt>
			 <trkpt lat="48.821062" lon="2.452521">
				 <ele>64.5</ele>
			 </trkpt>
			 <trkpt lat="48.820592" lon="2.451416">
				 <ele>65.7</ele>
			 </trkpt>
			 <trkpt lat="48.820464" lon="2.451064">
				 <ele>66.4</ele>
			 </trkpt>
			 <trkpt lat="48.820328" lon="2.450602">
				 <ele>67</ele>
			 </trkpt>
			 <trkpt lat="48.820294" lon="2.450417">
				 <ele>67.5</ele>
			 </trkpt>
			 <trkpt lat="48.820237" lon="2.450053">
				 <ele>67.5</ele>
			 </trkpt>
			 <trkpt lat="48.820214" lon="2.449809">
				 <ele>67.4</ele>
			 </trkpt>
			 <trkpt lat="48.820214" lon="2.449403">
				 <ele>67.8</ele>
			 </trkpt>
			 <trkpt lat="48.820229" lon="2.449063">
				 <ele>68.3</ele>
			 </trkpt>
			 <trkpt lat="48.820252" lon="2.448711">
				 <ele>68.6</ele>
			 </trkpt>
			 <trkpt lat="48.820348" lon="2.447536">
				 <ele>68.9</ele>
			 </trkpt>
			 <trkpt lat="48.820428" lon="2.446728">
				 <ele>69.1</ele>
			 </trkpt>
			 <trkpt lat="48.820593" lon="2.445476">
				 <ele>69.3</ele>
			 </trkpt>
			 <trkpt lat="48.820607" lon="2.445373">
				 <ele>69.5</ele>
			 </trkpt>
			 <trkpt lat="48.820546" lon="2.44532">
				 <ele>69.7</ele>
			 </trkpt>
			 <trkpt lat="48.82047" lon="2.445252">
				 <ele>69.5</ele>
			 </trkpt>
			 <trkpt lat="48.820303" lon="2.445104">
				 <ele>69.1</ele>
			 </trkpt>
			 <trkpt lat="48.820002" lon="2.444857">
				 <ele>68.5</ele>
			 </trkpt>
			 <trkpt lat="48.819681" lon="2.444559">
				 <ele>67.5</ele>
			 </trkpt>
			 <trkpt lat="48.819236" lon="2.444053">
				 <ele>66.3</ele>
			 </trkpt>
			 <trkpt lat="48.818988" lon="2.443687">
				 <ele>65</ele>
			 </trkpt>
			 <trkpt lat="48.818877" lon="2.443474">
				 <ele>63.9</ele>
			 </trkpt>
			 <trkpt lat="48.818753" lon="2.44318">
				 <ele>63</ele>
			 </trkpt>
			 <trkpt lat="48.818731" lon="2.443132">
				 <ele>62</ele>
			 </trkpt>
			 <trkpt lat="48.818623" lon="2.442887">
				 <ele>61.2</ele>
			 </trkpt>
			 <trkpt lat="48.81865" lon="2.44224">
				 <ele>60.5</ele>
			 </trkpt>
			 <trkpt lat="48.818745" lon="2.441139">
				 <ele>60.4</ele>
			 </trkpt>
			 <trkpt lat="48.818816" lon="2.440611">
				 <ele>60.4</ele>
			 </trkpt>
			 <trkpt lat="48.81893" lon="2.439769">
				 <ele>60.7</ele>
			 </trkpt>
			 <trkpt lat="48.819068" lon="2.438978">
				 <ele>61.1</ele>
			 </trkpt>
			 <trkpt lat="48.819169" lon="2.438459">
				 <ele>61.8</ele>
			 </trkpt>
			 <trkpt lat="48.81929" lon="2.437947">
				 <ele>62.5</ele>
			 </trkpt>
			 <trkpt lat="48.819379" lon="2.437606">
				 <ele>63</ele>
			 </trkpt>
			 <trkpt lat="48.819467" lon="2.437273">
				 <ele>63.5</ele>
			 </trkpt>
			 <trkpt lat="48.8195" lon="2.437159">
				 <ele>64.1</ele>
			 </trkpt>
			 <trkpt lat="48.819522" lon="2.437071">
				 <ele>64.5</ele>
			 </trkpt>
			 <trkpt lat="48.81975" lon="2.436398">
				 <ele>64.7</ele>
			 </trkpt>
			 <trkpt lat="48.819764" lon="2.43636">
				 <ele>65</ele>
			 </trkpt>
			 <trkpt lat="48.819818" lon="2.4362">
				 <ele>65.4</ele>
			 </trkpt>
			 <trkpt lat="48.819875" lon="2.43605">
				 <ele>65.5</ele>
			 </trkpt>
			 <trkpt lat="48.820064" lon="2.435584">
				 <ele>65.5</ele>
			 </trkpt>
			 <trkpt lat="48.820111" lon="2.43547">
				 <ele>65.4</ele>
			 </trkpt>
			 <trkpt lat="48.820201" lon="2.435271">
				 <ele>65.5</ele>
			 </trkpt>
			 <trkpt lat="48.820373" lon="2.434901">
				 <ele>65.6</ele>
			 </trkpt>
			 <trkpt lat="48.820724" lon="2.434313">
				 <ele>65.7</ele>
			 </trkpt>
			 <trkpt lat="48.82108" lon="2.433793">
				 <ele>65.7</ele>
			 </trkpt>
			 <trkpt lat="48.821369" lon="2.433441">
				 <ele>65.8</ele>
			 </trkpt>
			 <trkpt lat="48.821859" lon="2.432871">
				 <ele>65.8</ele>
			 </trkpt>
			 <trkpt lat="48.82197" lon="2.432739">
				 <ele>65.5</ele>
			 </trkpt>
			 <trkpt lat="48.822113" lon="2.432546">
				 <ele>65.2</ele>
			 </trkpt>
			 <trkpt lat="48.822355" lon="2.432176">
				 <ele>64.9</ele>
			 </trkpt>
			 <trkpt lat="48.822792" lon="2.431434">
				 <ele>64.8</ele>
			 </trkpt>
			 <trkpt lat="48.822888" lon="2.431245">
				 <ele>64.7</ele>
			 </trkpt>
			 <trkpt lat="48.823156" lon="2.43062">
				 <ele>64.4</ele>
			 </trkpt>
			 <trkpt lat="48.823177" lon="2.430567">
				 <ele>63.8</ele>
			 </trkpt>
			 <trkpt lat="48.823254" lon="2.430365">
				 <ele>63.4</ele>
			 </trkpt>
			 <trkpt lat="48.823406" lon="2.429918">
				 <ele>62.7</ele>
			 </trkpt>
			 <trkpt lat="48.823479" lon="2.429699">
				 <ele>61.8</ele>
			 </trkpt>
			 <trkpt lat="48.82363" lon="2.429169">
				 <ele>60.9</ele>
			 </trkpt>
			 <trkpt lat="48.823788" lon="2.428521">
				 <ele>60.2</ele>
			 </trkpt>
			 <trkpt lat="48.823929" lon="2.427794">
				 <ele>59.5</ele>
			 </trkpt>
			 <trkpt lat="48.824025" lon="2.427137">
				 <ele>59</ele>
			 </trkpt>
			 <trkpt lat="48.824104" lon="2.426438">
				 <ele>58.4</ele>
			 </trkpt>
			 <trkpt lat="48.824172" lon="2.425542">
				 <ele>57.8</ele>
			 </trkpt>
			 <trkpt lat="48.824188" lon="2.424646">
				 <ele>57.4</ele>
			 </trkpt>
			 <trkpt lat="48.824166" lon="2.423778">
				 <ele>56.8</ele>
			 </trkpt>
			 <trkpt lat="48.824155" lon="2.42347">
				 <ele>56.3</ele>
			 </trkpt>
			 <trkpt lat="48.824136" lon="2.423071">
				 <ele>56</ele>
			 </trkpt>
			 <trkpt lat="48.824126" lon="2.422884">
				 <ele>56</ele>
			 </trkpt>
			 <trkpt lat="48.824108" lon="2.422508">
				 <ele>56.2</ele>
			 </trkpt>
			 <trkpt lat="48.824069" lon="2.421822">
				 <ele>56.4</ele>
			 </trkpt>
			 <trkpt lat="48.824066" lon="2.421738">
				 <ele>56.4</ele>
			 </trkpt>
			 <trkpt lat="48.824049" lon="2.421257">
				 <ele>56.3</ele>
			 </trkpt>
			 <trkpt lat="48.824045" lon="2.420897">
				 <ele>56.2</ele>
			 </trkpt>
			 <trkpt lat="48.824061" lon="2.420241">
				 <ele>56</ele>
			 </trkpt>
			 <trkpt lat="48.824062" lon="2.420196">
				 <ele>55.8</ele>
			 </trkpt>
			 <trkpt lat="48.824081" lon="2.419957">
				 <ele>55.7</ele>
			 </trkpt>
			 <trkpt lat="48.824093" lon="2.419817">
				 <ele>55.5</ele>
			 </trkpt>
			 <trkpt lat="48.824101" lon="2.419754">
				 <ele>55.5</ele>
			 </trkpt>
			 <trkpt lat="48.824181" lon="2.419187">
				 <ele>55.3</ele>
			 </trkpt>
			 <trkpt lat="48.824234" lon="2.418918">
				 <ele>55</ele>
			 </trkpt>
			 <trkpt lat="48.824301" lon="2.418637">
				 <ele>54.7</ele>
			 </trkpt>
			 <trkpt lat="48.824452" lon="2.418059">
				 <ele>54.4</ele>
			 </trkpt>
			 <trkpt lat="48.824479" lon="2.417955">
				 <ele>53.9</ele>
			 </trkpt>
			 <trkpt lat="48.824516" lon="2.417793">
				 <ele>53.5</ele>
			 </trkpt>
			 <trkpt lat="48.824524" lon="2.417751">
				 <ele>53.1</ele>
			 </trkpt>
			 <trkpt lat="48.824545" lon="2.417663">
				 <ele>52.9</ele>
			 </trkpt>
			 <trkpt lat="48.824638" lon="2.417169">
				 <ele>52.6</ele>
			 </trkpt>
			 <trkpt lat="48.824677" lon="2.416933">
				 <ele>52.5</ele>
			 </trkpt>
			 <trkpt lat="48.824721" lon="2.416606">
				 <ele>52.2</ele>
			 </trkpt>
			 <trkpt lat="48.824751" lon="2.416295">
				 <ele>51.9</ele>
			 </trkpt>
			 <trkpt lat="48.824773" lon="2.415967">
				 <ele>51.5</ele>
			 </trkpt>
			 <trkpt lat="48.824784" lon="2.415273">
				 <ele>51.3</ele>
			 </trkpt>
			 <trkpt lat="48.824784" lon="2.415167">
				 <ele>51.2</ele>
			 </trkpt>
			 <trkpt lat="48.824782" lon="2.415072">
				 <ele>51.2</ele>
			 </trkpt>
			 <trkpt lat="48.824776" lon="2.414959">
				 <ele>51.2</ele>
			 </trkpt>
			 <trkpt lat="48.824722" lon="2.413881">
				 <ele>51.1</ele>
			 </trkpt>
			 <trkpt lat="48.824715" lon="2.413186">
				 <ele>51</ele>
			 </trkpt>
			 <trkpt lat="48.824725" lon="2.412821">
				 <ele>51.1</ele>
			 </trkpt>
			 <trkpt lat="48.824731" lon="2.412628">
				 <ele>51.2</ele>
			 </trkpt>
			 <trkpt lat="48.824741" lon="2.412421">
				 <ele>51.4</ele>
			 </trkpt>
			 <trkpt lat="48.824809" lon="2.411737">
				 <ele>51.8</ele>
			 </trkpt>
			 <trkpt lat="48.824832" lon="2.411522">
				 <ele>52.5</ele>
			 </trkpt>
			 <trkpt lat="48.824924" lon="2.411027">
				 <ele>52.9</ele>
			 </trkpt>
			 <trkpt lat="48.824964" lon="2.410809">
				 <ele>53.4</ele>
			 </trkpt>
			 <trkpt lat="48.825045" lon="2.410422">
				 <ele>53.8</ele>
			 </trkpt>
			 <trkpt lat="48.825135" lon="2.4101">
				 <ele>54.2</ele>
			 </trkpt>
			 <trkpt lat="48.825234" lon="2.409819">
				 <ele>54.3</ele>
			 </trkpt>
			 <trkpt lat="48.825272" lon="2.409721">
				 <ele>54.2</ele>
			 </trkpt>
			 <trkpt lat="48.825305" lon="2.409634">
				 <ele>54.3</ele>
			 </trkpt>
			 <trkpt lat="48.825331" lon="2.409569">
				 <ele>54.4</ele>
			 </trkpt>
			 <trkpt lat="48.825404" lon="2.409394">
				 <ele>54.4</ele>
			 </trkpt>
			 <trkpt lat="48.825675" lon="2.40884">
				 <ele>54.1</ele>
			 </trkpt>
			 <trkpt lat="48.825943" lon="2.408357">
				 <ele>53.6</ele>
			 </trkpt>
			 <trkpt lat="48.826394" lon="2.407642">
				 <ele>53.5</ele>
			 </trkpt>
			 <trkpt lat="48.82646" lon="2.407537">
				 <ele>53.4</ele>
			 </trkpt>
			 <trkpt lat="48.82648" lon="2.407509">
				 <ele>53.1</ele>
			 </trkpt>
			 <trkpt lat="48.826529" lon="2.40744">
				 <ele>52.9</ele>
			 </trkpt>
			 <trkpt lat="48.826818" lon="2.407029">
				 <ele>52.9</ele>
			 </trkpt>
			 <trkpt lat="48.827309" lon="2.40641">
				 <ele>53</ele>
			 </trkpt>
			 <trkpt lat="48.827773" lon="2.405856">
				 <ele>52.8</ele>
			 </trkpt>
			 <trkpt lat="48.828111" lon="2.405404">
				 <ele>52.7</ele>
			 </trkpt>
			 <trkpt lat="48.828211" lon="2.405258">
				 <ele>52.7</ele>
			 </trkpt>
			 <trkpt lat="48.828301" lon="2.405121">
				 <ele>52.8</ele>
			 </trkpt>
			 <trkpt lat="48.828395" lon="2.404972">
				 <ele>53</ele>
			 </trkpt>
			 <trkpt lat="48.828619" lon="2.40461">
				 <ele>53</ele>
			 </trkpt>
			 <trkpt lat="48.828717" lon="2.404431">
				 <ele>52.9</ele>
			 </trkpt>
			 <trkpt lat="48.828843" lon="2.404179">
				 <ele>53</ele>
			 </trkpt>
			 <trkpt lat="48.829122" lon="2.403842">
				 <ele>53.1</ele>
			 </trkpt>
			 <trkpt lat="48.829184" lon="2.403721">
				 <ele>53.2</ele>
			 </trkpt>
			 <trkpt lat="48.829225" lon="2.403619">
				 <ele>53.2</ele>
			 </trkpt>
			 <trkpt lat="48.829271" lon="2.40343">
				 <ele>53</ele>
			 </trkpt>
			 <trkpt lat="48.829323" lon="2.403092">
				 <ele>52.5</ele>
			 </trkpt>
			 <trkpt lat="48.829444" lon="2.40279">
				 <ele>52</ele>
			 </trkpt>
			 <trkpt lat="48.829561" lon="2.402372">
				 <ele>51.4</ele>
			 </trkpt>
			 <trkpt lat="48.829599" lon="2.402186">
				 <ele>50.7</ele>
			 </trkpt>
			 <trkpt lat="48.829671" lon="2.401742">
				 <ele>50.1</ele>
			 </trkpt>
			 <trkpt lat="48.829756" lon="2.401485">
				 <ele>49.5</ele>
			 </trkpt>
			 <trkpt lat="48.829762" lon="2.401359">
				 <ele>48.8</ele>
			 </trkpt>
			 <trkpt lat="48.829758" lon="2.401278">
				 <ele>48.2</ele>
			 </trkpt>
			 <trkpt lat="48.829747" lon="2.401228">
				 <ele>47.6</ele>
			 </trkpt>
			 <trkpt lat="48.829723" lon="2.401141">
				 <ele>47.3</ele>
			 </trkpt>
			 <trkpt lat="48.829699" lon="2.40107">
				 <ele>47.1</ele>
			 </trkpt>
			 <trkpt lat="48.829766" lon="2.40095">
				 <ele>47.1</ele>
			 </trkpt>
			 <trkpt lat="48.829801" lon="2.400883">
				 <ele>47</ele>
			 </trkpt>
			 <trkpt lat="48.82984" lon="2.400771">
				 <ele>46.9</ele>
			 </trkpt>
			 <trkpt lat="48.830568" lon="2.399644">
				 <ele>46.8</ele>
			 </trkpt>
			 <trkpt lat="48.830597" lon="2.399599">
				 <ele>46.7</ele>
			 </trkpt>
			 <trkpt lat="48.83064" lon="2.399534">
				 <ele>46.8</ele>
			 </trkpt>
			 <trkpt lat="48.830759" lon="2.399352">
				 <ele>46.9</ele>
			 </trkpt>
			 <trkpt lat="48.830801" lon="2.399282">
				 <ele>47</ele>
			 </trkpt>
			 <trkpt lat="48.830832" lon="2.399234">
				 <ele>47</ele>
			 </trkpt>
			 <trkpt lat="48.830957" lon="2.399042">
				 <ele>46.9</ele>
			 </trkpt>
			 <trkpt lat="48.831499" lon="2.398214">
				 <ele>46.8</ele>
			 </trkpt>
			 <trkpt lat="48.831609" lon="2.398103">
				 <ele>46.7</ele>
			 </trkpt>
			 <trkpt lat="48.831629" lon="2.398076">
				 <ele>46.6</ele>
			 </trkpt>
			 <trkpt lat="48.831655" lon="2.39804">
				 <ele>46.5</ele>
			 </trkpt>
			 <trkpt lat="48.831718" lon="2.397942">
				 <ele>46.3</ele>
			 </trkpt>
			 <trkpt lat="48.831768" lon="2.397862">
				 <ele>46</ele>
			 </trkpt>
			 <trkpt lat="48.831792" lon="2.397822">
				 <ele>45.5</ele>
			 </trkpt>
			 <trkpt lat="48.831849" lon="2.397729">
				 <ele>45.1</ele>
			 </trkpt>
			 <trkpt lat="48.831929" lon="2.397664">
				 <ele>44.6</ele>
			 </trkpt>
			 <trkpt lat="48.831957" lon="2.397642">
				 <ele>44.3</ele>
			 </trkpt>
			 <trkpt lat="48.832054" lon="2.39749">
				 <ele>43.9</ele>
			 </trkpt>
			 <trkpt lat="48.83208" lon="2.39745">
				 <ele>43.7</ele>
			 </trkpt>
			 <trkpt lat="48.832091" lon="2.397394">
				 <ele>43.6</ele>
			 </trkpt>
			 <trkpt lat="48.832108" lon="2.397336">
				 <ele>43.6</ele>
			 </trkpt>
			 <trkpt lat="48.832156" lon="2.397257">
				 <ele>43.7</ele>
			 </trkpt>
			 <trkpt lat="48.832309" lon="2.397008">
				 <ele>44.2</ele>
			 </trkpt>
			 <trkpt lat="48.832506" lon="2.396698">
				 <ele>44.4</ele>
			 </trkpt>
			 <trkpt lat="48.832547" lon="2.396634">
				 <ele>44.5</ele>
			 </trkpt>
			 <trkpt lat="48.832567" lon="2.396604">
				 <ele>44.7</ele>
			 </trkpt>
			 <trkpt lat="48.83259" lon="2.396567">
				 <ele>44.9</ele>
			 </trkpt>
			 <trkpt lat="48.833107" lon="2.395764">
				 <ele>45.1</ele>
			 </trkpt>
			 <trkpt lat="48.833603" lon="2.394992">
				 <ele>45.3</ele>
			 </trkpt>
			 <trkpt lat="48.833628" lon="2.394953">
				 <ele>45.8</ele>
			 </trkpt>
			 <trkpt lat="48.83365" lon="2.394917">
				 <ele>46.3</ele>
			 </trkpt>
			 <trkpt lat="48.833673" lon="2.394882">
				 <ele>46.7</ele>
			 </trkpt>
			 <trkpt lat="48.834003" lon="2.394374">
				 <ele>47.2</ele>
			 </trkpt>
			 <trkpt lat="48.834125" lon="2.394173">
				 <ele>47.3</ele>
			 </trkpt>
			 <trkpt lat="48.834471" lon="2.393796">
				 <ele>47.7</ele>
			 </trkpt>
			 <trkpt lat="48.835243" lon="2.392921">
				 <ele>48</ele>
			 </trkpt>
			 <trkpt lat="48.835273" lon="2.392892">
				 <ele>48.1</ele>
			 </trkpt>
			 <trkpt lat="48.835316" lon="2.39285">
				 <ele>48.2</ele>
			 </trkpt>
			 <trkpt lat="48.835346" lon="2.392808">
				 <ele>48.2</ele>
			 </trkpt>
			 <trkpt lat="48.835432" lon="2.392729">
				 <ele>48.2</ele>
			 </trkpt>
			 <trkpt lat="48.835838" lon="2.39243">
				 <ele>47.6</ele>
			 </trkpt>
			 <trkpt lat="48.836049" lon="2.39227">
				 <ele>46.9</ele>
			 </trkpt>
			 <trkpt lat="48.836099" lon="2.392232">
				 <ele>46.1</ele>
			 </trkpt>
			 <trkpt lat="48.836126" lon="2.392211">
				 <ele>45.4</ele>
			 </trkpt>
			 <trkpt lat="48.836163" lon="2.392183">
				 <ele>44.6</ele>
			 </trkpt>
			 <trkpt lat="48.836215" lon="2.392143">
				 <ele>43.9</ele>
			 </trkpt>
			 <trkpt lat="48.836876" lon="2.391634">
				 <ele>43.4</ele>
			 </trkpt>
			 <trkpt lat="48.836955" lon="2.391533">
				 <ele>43</ele>
			 </trkpt>
			 <trkpt lat="48.837021" lon="2.391483">
				 <ele>43.1</ele>
			 </trkpt>
			 <trkpt lat="48.837205" lon="2.391299">
				 <ele>43.3</ele>
			 </trkpt>
			 <trkpt lat="48.837303" lon="2.391203">
				 <ele>43.5</ele>
			 </trkpt>
			 <trkpt lat="48.837438" lon="2.391048">
				 <ele>43.9</ele>
			 </trkpt>
			 <trkpt lat="48.838039" lon="2.390316">
				 <ele>44.5</ele>
			 </trkpt>
			 <trkpt lat="48.838609" lon="2.38963">
				 <ele>45.4</ele>
			 </trkpt>
			 <trkpt lat="48.838654" lon="2.389574">
				 <ele>46.1</ele>
			 </trkpt>
			 <trkpt lat="48.838857" lon="2.389355">
				 <ele>47</ele>
			 </trkpt>
			 <trkpt lat="48.83892" lon="2.389306">
				 <ele>47.9</ele>
			 </trkpt>
			 <trkpt lat="48.838998" lon="2.38925">
				 <ele>48.7</ele>
			 </trkpt>
			 <trkpt lat="48.83906" lon="2.389207">
				 <ele>49.1</ele>
			 </trkpt>
			 <trkpt lat="48.839093" lon="2.389183">
				 <ele>49</ele>
			 </trkpt>
			 <trkpt lat="48.839249" lon="2.389066">
				 <ele>49</ele>
			 </trkpt>
			 <trkpt lat="48.839318" lon="2.389007">
				 <ele>48.8</ele>
			 </trkpt>
			 <trkpt lat="48.839536" lon="2.38882">
				 <ele>48.6</ele>
			 </trkpt>
			 <trkpt lat="48.840241" lon="2.388209">
				 <ele>48.3</ele>
			 </trkpt>
			 <trkpt lat="48.840302" lon="2.388156">
				 <ele>47.8</ele>
			 </trkpt>
			 <trkpt lat="48.840594" lon="2.387891">
				 <ele>47.3</ele>
			 </trkpt>
			 <trkpt lat="48.840849" lon="2.387659">
				 <ele>46.5</ele>
			 </trkpt>
			 <trkpt lat="48.841203" lon="2.387323">
				 <ele>45.4</ele>
			 </trkpt>
			 <trkpt lat="48.841568" lon="2.386924">
				 <ele>44.4</ele>
			 </trkpt>
			 <trkpt lat="48.841717" lon="2.38676">
				 <ele>43.8</ele>
			 </trkpt>
			 <trkpt lat="48.842009" lon="2.38624">
				 <ele>43.3</ele>
			 </trkpt>
			 <trkpt lat="48.842068" lon="2.386134">
				 <ele>42.6</ele>
			 </trkpt>
			 <trkpt lat="48.842345" lon="2.385573">
				 <ele>42</ele>
			 </trkpt>
			 <trkpt lat="48.842425" lon="2.385401">
				 <ele>41.4</ele>
			 </trkpt>
			 <trkpt lat="48.842461" lon="2.38533">
				 <ele>40.8</ele>
			 </trkpt>
			 <trkpt lat="48.842528" lon="2.385187">
				 <ele>40.3</ele>
			 </trkpt>
			 <trkpt lat="48.842648" lon="2.384942">
				 <ele>40</ele>
			 </trkpt>
			 <trkpt lat="48.843099" lon="2.38397">
				 <ele>39.8</ele>
			 </trkpt>
			 <trkpt lat="48.84318" lon="2.383808">
				 <ele>39.8</ele>
			 </trkpt>
			 <trkpt lat="48.843238" lon="2.383687">
				 <ele>39.6</ele>
			 </trkpt>
			 <trkpt lat="48.843276" lon="2.383608">
				 <ele>39.4</ele>
			 </trkpt>
			 <trkpt lat="48.843524" lon="2.383096">
				 <ele>39.1</ele>
			 </trkpt>
			 <trkpt lat="48.843601" lon="2.382937">
				 <ele>38.8</ele>
			 </trkpt>
			 <trkpt lat="48.843917" lon="2.382295">
				 <ele>38.8</ele>
			 </trkpt>
			 <trkpt lat="48.844069" lon="2.381986">
				 <ele>38.8</ele>
			 </trkpt>
			 <trkpt lat="48.844164" lon="2.381795">
				 <ele>38.8</ele>
			 </trkpt>
			 <trkpt lat="48.844279" lon="2.381564">
				 <ele>38.8</ele>
			 </trkpt>
			 <trkpt lat="48.844336" lon="2.381454">
				 <ele>38.6</ele>
			 </trkpt>
			 <trkpt lat="48.844638" lon="2.380806">
				 <ele>38.5</ele>
			 </trkpt>
			 <trkpt lat="48.844815" lon="2.380433">
				 <ele>38.5</ele>
			 </trkpt>
			 <trkpt lat="48.844851" lon="2.380359">
				 <ele>38.9</ele>
			 </trkpt>
			 <trkpt lat="48.844953" lon="2.380144">
				 <ele>39.5</ele>
			 </trkpt>
			 <trkpt lat="48.845285" lon="2.379464">
				 <ele>40.1</ele>
			 </trkpt>
			 <trkpt lat="48.845325" lon="2.37938">
				 <ele>40.8</ele>
			 </trkpt>
			 <trkpt lat="48.845999" lon="2.377998">
				 <ele>41.2</ele>
			 </trkpt>
			 <trkpt lat="48.846143" lon="2.377696">
				 <ele>41.5</ele>
			 </trkpt>
			 <trkpt lat="48.846279" lon="2.377406">
				 <ele>41.6</ele>
			 </trkpt>
			 <trkpt lat="48.846398" lon="2.377161">
				 <ele>41.8</ele>
			 </trkpt>
			 <trkpt lat="48.846416" lon="2.377123">
				 <ele>41.9</ele>
			 </trkpt>
			 <trkpt lat="48.84662" lon="2.376701">
				 <ele>41.9</ele>
			 </trkpt>
			 <trkpt lat="48.84666" lon="2.376617">
				 <ele>41.7</ele>
			 </trkpt>
			 <trkpt lat="48.846887" lon="2.376147">
				 <ele>41.5</ele>
			 </trkpt>
			 <trkpt lat="48.847111" lon="2.375682">
				 <ele>41.2</ele>
			 </trkpt>
			 <trkpt lat="48.84718" lon="2.37554">
				 <ele>40.8</ele>
			 </trkpt>
			 <trkpt lat="48.847275" lon="2.375343">
				 <ele>40.3</ele>
			 </trkpt>
			 <trkpt lat="48.847302" lon="2.37528">
				 <ele>40</ele>
			 </trkpt>
			 <trkpt lat="48.847377" lon="2.375132">
				 <ele>39.6</ele>
			 </trkpt>
			 <trkpt lat="48.84785" lon="2.374152">
				 <ele>39.5</ele>
			 </trkpt>
			 <trkpt lat="48.847948" lon="2.373946">
				 <ele>39.2</ele>
			 </trkpt>
			 <trkpt lat="48.848011" lon="2.373817">
				 <ele>39</ele>
			 </trkpt>
			 <trkpt lat="48.848055" lon="2.373727">
				 <ele>38.8</ele>
			 </trkpt>
			 <trkpt lat="48.848556" lon="2.37269">
				 <ele>38.6</ele>
			 </trkpt>
			 <trkpt lat="48.848595" lon="2.372607">
				 <ele>38.6</ele>
			 </trkpt>
			 <trkpt lat="48.848629" lon="2.372538">
				 <ele>38.5</ele>
			 </trkpt>
			 <trkpt lat="48.848665" lon="2.372462">
				 <ele>38.5</ele>
			 </trkpt>
			 <trkpt lat="48.848871" lon="2.372037">
				 <ele>38.5</ele>
			 </trkpt>
			 <trkpt lat="48.848898" lon="2.37198">
				 <ele>38.5</ele>
			 </trkpt>
			 <trkpt lat="48.849173" lon="2.371428">
				 <ele>38.8</ele>
			 </trkpt>
			 <trkpt lat="48.849233" lon="2.371333">
				 <ele>39.7</ele>
			 </trkpt>
			 <trkpt lat="48.849354" lon="2.37115">
				 <ele>40.4</ele>
			 </trkpt>
			 <trkpt lat="48.849398" lon="2.371089">
				 <ele>41.3</ele>
			 </trkpt>
			 <trkpt lat="48.849498" lon="2.370944">
				 <ele>42.3</ele>
			 </trkpt>
			 <trkpt lat="48.849777" lon="2.37065">
				 <ele>43.5</ele>
			 </trkpt>
			 <trkpt lat="48.850948" lon="2.37011">
				 <ele>44.5</ele>
			 </trkpt>
			 <trkpt lat="48.851436" lon="2.36989">
				 <ele>45.5</ele>
			 </trkpt>
			 <trkpt lat="48.851823" lon="2.369707">
				 <ele>46.5</ele>
			 </trkpt>
			 <trkpt lat="48.85186" lon="2.369691">
				 <ele>47.3</ele>
			 </trkpt>
			 <trkpt lat="48.852166" lon="2.369552">
				 <ele>47.9</ele>
			 </trkpt>
			 <trkpt lat="48.852342" lon="2.36948">
				 <ele>48</ele>
			 </trkpt>
			 <trkpt lat="48.852418" lon="2.369449">
				 <ele>47.5</ele>
			 </trkpt>
			 <trkpt lat="48.852484" lon="2.369426">
				 <ele>47.3</ele>
			 </trkpt>
			 <trkpt lat="48.852545" lon="2.369418">
				 <ele>46.7</ele>
			 </trkpt>
			 <trkpt lat="48.852745" lon="2.369496">
				 <ele>46.2</ele>
			 </trkpt>
			 <trkpt lat="48.853149" lon="2.369696">
				 <ele>45.4</ele>
			 </trkpt>
			 <trkpt lat="48.853224" lon="2.369716">
				 <ele>44.6</ele>
			 </trkpt>
			 <trkpt lat="48.853297" lon="2.369718">
				 <ele>43.8</ele>
			 </trkpt>
			 <trkpt lat="48.853365" lon="2.369681">
				 <ele>43.1</ele>
			 </trkpt>
			 <trkpt lat="48.853416" lon="2.369632">
				 <ele>42.5</ele>
			 </trkpt>
			 <trkpt lat="48.853472" lon="2.369556">
				 <ele>42</ele>
			 </trkpt>
			 <trkpt lat="48.853526" lon="2.369397">
				 <ele>42</ele>
			 </trkpt>
			 <trkpt lat="48.853541" lon="2.369308">
				 <ele>42</ele>
			 </trkpt>
			 <trkpt lat="48.853553" lon="2.369227">
				 <ele>42.2</ele>
			 </trkpt>
			 <trkpt lat="48.853557" lon="2.369136">
				 <ele>42.5</ele>
			 </trkpt>
			 <trkpt lat="48.853554" lon="2.36906">
				 <ele>42.7</ele>
			 </trkpt>
			 <trkpt lat="48.853546" lon="2.368976">
				 <ele>43</ele>
			 </trkpt>
			 <trkpt lat="48.85353" lon="2.368907">
				 <ele>43.3</ele>
			 </trkpt>
			 <trkpt lat="48.853494" lon="2.3688">
				 <ele>43.6</ele>
			 </trkpt>
			 <trkpt lat="48.853463" lon="2.368747">
				 <ele>43.9</ele>
			 </trkpt>
			 <trkpt lat="48.853399" lon="2.368682">
				 <ele>43.9</ele>
			 </trkpt>
			 <trkpt lat="48.853253" lon="2.368596">
				 <ele>43.7</ele>
			 </trkpt>
			 <trkpt lat="48.853158" lon="2.368558">
				 <ele>43.5</ele>
			 </trkpt>
			 <trkpt lat="48.853112" lon="2.368536">
				 <ele>43.2</ele>
			 </trkpt>
			 <trkpt lat="48.853011" lon="2.368494">
				 <ele>42.7</ele>
			 </trkpt>
			 <trkpt lat="48.852851" lon="2.368349">
				 <ele>41.8</ele>
			 </trkpt>
			 <trkpt lat="48.85264" lon="2.36813">
				 <ele>40.9</ele>
			 </trkpt>
			 <trkpt lat="48.852599" lon="2.368089">
				 <ele>40</ele>
			 </trkpt>
			 <trkpt lat="48.852547" lon="2.368032">
				 <ele>39.1</ele>
			 </trkpt>
			 <trkpt lat="48.852504" lon="2.367984">
				 <ele>38.2</ele>
			 </trkpt>
			 <trkpt lat="48.851703" lon="2.367664">
				 <ele>37.4</ele>
			 </trkpt>
			 <trkpt lat="48.851652" lon="2.36764">
				 <ele>37.3</ele>
			 </trkpt>
			 <trkpt lat="48.851012" lon="2.367342">
				 <ele>37.1</ele>
			 </trkpt>
			 <trkpt lat="48.850975" lon="2.367325">
				 <ele>37</ele>
			 </trkpt>
			 <trkpt lat="48.85089" lon="2.367285">
				 <ele>37.3</ele>
			 </trkpt>
			 <trkpt lat="48.850843" lon="2.367264">
				 <ele>36.5</ele>
			 </trkpt>
			 <trkpt lat="48.84976" lon="2.366759">
				 <ele>35.7</ele>
			 </trkpt>
			 <trkpt lat="48.84933" lon="2.366561">
				 <ele>35.9</ele>
			 </trkpt>
			 <trkpt lat="48.848899" lon="2.366363">
				 <ele>36.3</ele>
			 </trkpt>
			 <trkpt lat="48.848469" lon="2.366165">
				 <ele>36.7</ele>
			 </trkpt>
			 <trkpt lat="48.848039" lon="2.365967">
				 <ele>36.7</ele>
			 </trkpt>
			 <trkpt lat="48.847718" lon="2.36582">
				 <ele>37.3</ele>
			 </trkpt>
			 <trkpt lat="48.847385" lon="2.36539">
				 <ele>37.3</ele>
			 </trkpt>
			 <trkpt lat="48.847273" lon="2.365052">
				 <ele>37.7</ele>
			 </trkpt>
			 <trkpt lat="48.847264" lon="2.364664">
				 <ele>38.1</ele>
			 </trkpt>
			 <trkpt lat="48.847748" lon="2.363932">
				 <ele>38</ele>
			 </trkpt>
			 <trkpt lat="48.849301" lon="2.361636">
				 <ele>38.9</ele>
			 </trkpt>
			 <trkpt lat="48.849428" lon="2.361498">
				 <ele>39.9</ele>
			 </trkpt>
			 <trkpt lat="48.849621" lon="2.361351">
				 <ele>39.8</ele>
			 </trkpt>
			 <trkpt lat="48.849749" lon="2.361277">
				 <ele>39.5</ele>
			 </trkpt>
			 <trkpt lat="48.849931" lon="2.361201">
				 <ele>39.1</ele>
			 </trkpt>
			 <trkpt lat="48.850109" lon="2.361166">
				 <ele>39.6</ele>
			 </trkpt>
			 <trkpt lat="48.850396" lon="2.361153">
				 <ele>39.7</ele>
			 </trkpt>
			 <trkpt lat="48.850549" lon="2.361148">
				 <ele>39.9</ele>
			 </trkpt>
			 <trkpt lat="48.850876" lon="2.361137">
				 <ele>39.8</ele>
			 </trkpt>
			 <trkpt lat="48.851069" lon="2.36113">
				 <ele>39.5</ele>
			 </trkpt>
			 <trkpt lat="48.851382" lon="2.36108">
				 <ele>39.2</ele>
			 </trkpt>
			 <trkpt lat="48.851568" lon="2.361027">
				 <ele>38.9</ele>
			 </trkpt>
			 <trkpt lat="48.85171" lon="2.360953">
				 <ele>38.9</ele>
			 </trkpt>
			 <trkpt lat="48.851826" lon="2.360868">
				 <ele>39.2</ele>
			 </trkpt>
			 <trkpt lat="48.851938" lon="2.360729">
				 <ele>39.1</ele>
			 </trkpt>
			 <trkpt lat="48.852023" lon="2.360589">
				 <ele>39</ele>
			 </trkpt>
			 <trkpt lat="48.852099" lon="2.360432">
				 <ele>38.6</ele>
			 </trkpt>
			 <trkpt lat="48.852249" lon="2.360009">
				 <ele>38.3</ele>
			 </trkpt>
			 <trkpt lat="48.852384" lon="2.359633">
				 <ele>37.8</ele>
			 </trkpt>
			 <trkpt lat="48.852852" lon="2.358355">
				 <ele>37.5</ele>
			 </trkpt>
			 <trkpt lat="48.853075" lon="2.357871">
				 <ele>37.1</ele>
			 </trkpt>
			 <trkpt lat="48.853232" lon="2.357509">
				 <ele>36.7</ele>
			 </trkpt>
			 <trkpt lat="48.853343" lon="2.357192">
				 <ele>36.5</ele>
			 </trkpt>
			 <trkpt lat="48.853513" lon="2.356629">
				 <ele>36.1</ele>
			 </trkpt>
			 <trkpt lat="48.853549" lon="2.356518">
				 <ele>35.7</ele>
			 </trkpt>
			 <trkpt lat="48.853692" lon="2.35604">
				 <ele>35.8</ele>
			 </trkpt>
			 <trkpt lat="48.853944" lon="2.355284">
				 <ele>35.5</ele>
			 </trkpt>
			 <trkpt lat="48.854117" lon="2.354821">
				 <ele>34.8</ele>
			 </trkpt>
			 <trkpt lat="48.8542" lon="2.354633">
				 <ele>34.2</ele>
			 </trkpt>
			 <trkpt lat="48.854276" lon="2.354457">
				 <ele>33.4</ele>
			 </trkpt>
			 <trkpt lat="48.854673" lon="2.353588">
				 <ele>32.5</ele>
			 </trkpt>
			 <trkpt lat="48.854918" lon="2.353073">
				 <ele>31.9</ele>
			 </trkpt>
			 <trkpt lat="48.855174" lon="2.352469">
				 <ele>31.5</ele>
			 </trkpt>
			 <trkpt lat="48.855265" lon="2.352094">
				 <ele>31.2</ele>
			 </trkpt>
			 <trkpt lat="48.855515" lon="2.351461">
				 <ele>30.9</ele>
			 </trkpt>
			 <trkpt lat="48.855634" lon="2.351269">
				 <ele>31</ele>
			 </trkpt>
			 <trkpt lat="48.855788" lon="2.351027">
				 <ele>31.9</ele>
			 </trkpt>
			 <trkpt lat="48.855921" lon="2.350631">
				 <ele>33.7</ele>
			 </trkpt>
			 <trkpt lat="48.855995" lon="2.350348">
				 <ele>35.3</ele>
			 </trkpt>
			 <trkpt lat="48.856197" lon="2.349746">
				 <ele>36.1</ele>
			 </trkpt>
			 <trkpt lat="48.856301" lon="2.349483">
				 <ele>36.9</ele>
			 </trkpt>
			 <trkpt lat="48.856488" lon="2.349013">
				 <ele>37.5</ele>
			 </trkpt>
			 <trkpt lat="48.85664" lon="2.34846">
				 <ele>38.2</ele>
			 </trkpt>
			 <trkpt lat="48.856829" lon="2.347795">
				 <ele>39.3</ele>
			 </trkpt>
			 <trkpt lat="48.856996" lon="2.347208">
				 <ele>40.2</ele>
			 </trkpt>
			 <trkpt lat="48.857047" lon="2.347022">
				 <ele>41.4</ele>
			 </trkpt>
			 <trkpt lat="48.85711" lon="2.346803">
				 <ele>42.2</ele>
			 </trkpt>
			 <trkpt lat="48.857265" lon="2.346267">
				 <ele>43</ele>
			 </trkpt>
			 <trkpt lat="48.857496" lon="2.345244">
				 <ele>44</ele>
			 </trkpt>
			 <trkpt lat="48.857646" lon="2.344736">
				 <ele>44.8</ele>
			 </trkpt>
			 <trkpt lat="48.857807" lon="2.344193">
				 <ele>45.7</ele>
			 </trkpt>
			 <trkpt lat="48.857851" lon="2.344048">
				 <ele>46.8</ele>
			 </trkpt>
			 <trkpt lat="48.858124" lon="2.343095">
				 <ele>48.4</ele>
			 </trkpt>
			 <trkpt lat="48.858325" lon="2.342331">
				 <ele>49.8</ele>
			 </trkpt>
			 <trkpt lat="48.858512" lon="2.341305">
				 <ele>49.8</ele>
			 </trkpt>
			 <trkpt lat="48.858631" lon="2.340648">
				 <ele>49.6</ele>
			 </trkpt>
			 <trkpt lat="48.858641" lon="2.340609">
				 <ele>49.1</ele>
			 </trkpt>
			 <trkpt lat="48.858864" lon="2.340016">
				 <ele>48.1</ele>
			 </trkpt>
			 <trkpt lat="48.858961" lon="2.339759">
				 <ele>46.2</ele>
			 </trkpt>
			 <trkpt lat="48.859044" lon="2.339087">
				 <ele>43.5</ele>
			 </trkpt>
			 <trkpt lat="48.859126" lon="2.338415">
				 <ele>41.8</ele>
			 </trkpt>
			 <trkpt lat="48.859178" lon="2.337993">
				 <ele>40.6</ele>
			 </trkpt>
			 <trkpt lat="48.85924" lon="2.337316">
				 <ele>40.1</ele>
			 </trkpt>
			 <trkpt lat="48.859249" lon="2.337207">
				 <ele>40.2</ele>
			 </trkpt>
			 <trkpt lat="48.859336" lon="2.33654">
				 <ele>40.1</ele>
			 </trkpt>
			 <trkpt lat="48.859465" lon="2.335886">
				 <ele>40.7</ele>
			 </trkpt>
			 <trkpt lat="48.859474" lon="2.335839">
				 <ele>42</ele>
			 </trkpt>
			 <trkpt lat="48.85962" lon="2.335193">
				 <ele>42.5</ele>
			 </trkpt>
			 <trkpt lat="48.859766" lon="2.334546">
				 <ele>42.9</ele>
			 </trkpt>
			 <trkpt lat="48.859912" lon="2.3339">
				 <ele>43.5</ele>
			 </trkpt>
			 <trkpt lat="48.860058" lon="2.333253">
				 <ele>44.4</ele>
			 </trkpt>
			 <trkpt lat="48.860172" lon="2.332747">
				 <ele>45.2</ele>
			 </trkpt>
			 <trkpt lat="48.860321" lon="2.332103">
				 <ele>44.9</ele>
			 </trkpt>
			 <trkpt lat="48.860471" lon="2.331458">
				 <ele>43.5</ele>
			 </trkpt>
			 <trkpt lat="48.860621" lon="2.330814">
				 <ele>41.6</ele>
			 </trkpt>
			 <trkpt lat="48.860708" lon="2.33044">
				 <ele>39.9</ele>
			 </trkpt>
			 <trkpt lat="48.860915" lon="2.329833">
				 <ele>38.2</ele>
			 </trkpt>
			 <trkpt lat="48.861121" lon="2.329226">
				 <ele>36.4</ele>
			 </trkpt>
			 <trkpt lat="48.861328" lon="2.328619">
				 <ele>35.5</ele>
			 </trkpt>
			 <trkpt lat="48.861535" lon="2.328013">
				 <ele>34.5</ele>
			 </trkpt>
			 <trkpt lat="48.861742" lon="2.327406">
				 <ele>33.5</ele>
			 </trkpt>
			 <trkpt lat="48.861836" lon="2.32713">
				 <ele>32.2</ele>
			 </trkpt>
			 <trkpt lat="48.862043" lon="2.326524">
				 <ele>30.6</ele>
			 </trkpt>
			 <trkpt lat="48.86225" lon="2.325917">
				 <ele>30.5</ele>
			 </trkpt>
			 <trkpt lat="48.862458" lon="2.325311">
				 <ele>30.8</ele>
			 </trkpt>
			 <trkpt lat="48.862665" lon="2.324704">
				 <ele>30.7</ele>
			 </trkpt>
			 <trkpt lat="48.862872" lon="2.324098">
				 <ele>30.6</ele>
			 </trkpt>
			 <trkpt lat="48.86308" lon="2.323491">
				 <ele>30.7</ele>
			 </trkpt>
			 <trkpt lat="48.863287" lon="2.322884">
				 <ele>30.6</ele>
			 </trkpt>
			 <trkpt lat="48.863495" lon="2.322278">
				 <ele>30.2</ele>
			 </trkpt>
			 <trkpt lat="48.863702" lon="2.321671">
				 <ele>30.3</ele>
			 </trkpt>
			 <trkpt lat="48.863909" lon="2.321065">
				 <ele>30.5</ele>
			 </trkpt>
			 <trkpt lat="48.864117" lon="2.320458">
				 <ele>31</ele>
			 </trkpt>
			 <trkpt lat="48.864324" lon="2.319852">
				 <ele>31.1</ele>
			 </trkpt>
			 <trkpt lat="48.864531" lon="2.319245">
				 <ele>30.8</ele>
			 </trkpt>
			 <trkpt lat="48.864739" lon="2.318639">
				 <ele>30</ele>
			 </trkpt>
			 <trkpt lat="48.864821" lon="2.318399">
				 <ele>29.9</ele>
			 </trkpt>
			 <trkpt lat="48.864879" lon="2.317939">
				 <ele>30.9</ele>
			 </trkpt>
			 <trkpt lat="48.864901" lon="2.317257">
				 <ele>31.4</ele>
			 </trkpt>
			 <trkpt lat="48.864904" lon="2.317154">
				 <ele>31.5</ele>
			 </trkpt>
			 <trkpt lat="48.864884" lon="2.316471">
				 <ele>32.3</ele>
			 </trkpt>
			 <trkpt lat="48.864864" lon="2.315788">
				 <ele>32.9</ele>
			 </trkpt>
			 <trkpt lat="48.864848" lon="2.315226">
				 <ele>33.3</ele>
			 </trkpt>
			 <trkpt lat="48.864834" lon="2.314543">
				 <ele>33</ele>
			 </trkpt>
			 <trkpt lat="48.86482" lon="2.31386">
				 <ele>33.3</ele>
			 </trkpt>
			 <trkpt lat="48.864806" lon="2.313177">
				 <ele>34.1</ele>
			 </trkpt>
			 <trkpt lat="48.864792" lon="2.312494">
				 <ele>35.4</ele>
			 </trkpt>
			 <trkpt lat="48.864778" lon="2.31181">
				 <ele>35.9</ele>
			 </trkpt>
			 <trkpt lat="48.864764" lon="2.311127">
				 <ele>35.5</ele>
			 </trkpt>
			 <trkpt lat="48.86475" lon="2.310444">
				 <ele>35.4</ele>
			 </trkpt>
			 <trkpt lat="48.864736" lon="2.309761">
				 <ele>36.3</ele>
			 </trkpt>
			 <trkpt lat="48.864731" lon="2.309538">
				 <ele>36.5</ele>
			 </trkpt>
			 <trkpt lat="48.86471" lon="2.308855">
				 <ele>36.5</ele>
			 </trkpt>
			 <trkpt lat="48.864689" lon="2.308173">
				 <ele>36.5</ele>
			 </trkpt>
			 <trkpt lat="48.864668" lon="2.30749">
				 <ele>37.1</ele>
			 </trkpt>
			 <trkpt lat="48.864648" lon="2.306807">
				 <ele>37.6</ele>
			 </trkpt>
			 <trkpt lat="48.864627" lon="2.306124">
				 <ele>37.5</ele>
			 </trkpt>
			 <trkpt lat="48.864606" lon="2.305441">
				 <ele>37</ele>
			 </trkpt>
			 <trkpt lat="48.864605" lon="2.305399">
				 <ele>36.4</ele>
			 </trkpt>
			 <trkpt lat="48.864584" lon="2.304717">
				 <ele>35</ele>
			 </trkpt>
			 <trkpt lat="48.864564" lon="2.304034">
				 <ele>34.4</ele>
			 </trkpt>
			 <trkpt lat="48.864552" lon="2.303648">
				 <ele>34.6</ele>
			 </trkpt>
			 <trkpt lat="48.864459" lon="2.30298">
				 <ele>35.4</ele>
			 </trkpt>
			 <trkpt lat="48.864365" lon="2.302311">
				 <ele>36.2</ele>
			 </trkpt>
			 <trkpt lat="48.864272" lon="2.301643">
				 <ele>36.2</ele>
			 </trkpt>
			 <trkpt lat="48.864178" lon="2.300974">
				 <ele>36.4</ele>
			 </trkpt>
			 <trkpt lat="48.864085" lon="2.300306">
				 <ele>36.2</ele>
			 </trkpt>
			 <trkpt lat="48.863991" lon="2.299637">
				 <ele>36</ele>
			 </trkpt>
			 <trkpt lat="48.863947" lon="2.299319">
				 <ele>36.2</ele>
			 </trkpt>
			 <trkpt lat="48.863825" lon="2.298661">
				 <ele>36.5</ele>
			 </trkpt>
			 <trkpt lat="48.863703" lon="2.298003">
				 <ele>37.5</ele>
			 </trkpt>
			 <trkpt lat="48.863638" lon="2.297651">
				 <ele>37.9</ele>
			 </trkpt>
			 <trkpt lat="48.863469" lon="2.297017">
				 <ele>37.1</ele>
			 </trkpt>
			 <trkpt lat="48.8633" lon="2.296384">
				 <ele>36.3</ele>
			 </trkpt>
			 <trkpt lat="48.86313" lon="2.295751">
				 <ele>35.4</ele>
			 </trkpt>
			 <trkpt lat="48.862939" lon="2.295121">
				 <ele>34.9</ele>
			 </trkpt>
			 <trkpt lat="48.862842" lon="2.294802">
				 <ele>34.6</ele>
			 </trkpt>
			 <trkpt lat="48.862631" lon="2.294199">
				 <ele>34.3</ele>
			 </trkpt>
			 <trkpt lat="48.86242" lon="2.293595">
				 <ele>33.9</ele>
			 </trkpt>
			 <trkpt lat="48.86213" lon="2.293202">
				 <ele>33.5</ele>
			 </trkpt>
			 <trkpt lat="48.861781" lon="2.292771">
				 <ele>33.4</ele>
			 </trkpt>
			 <trkpt lat="48.861432" lon="2.292339">
				 <ele>33.5</ele>
			 </trkpt>
			 <trkpt lat="48.861084" lon="2.291908">
				 <ele>33.7</ele>
			 </trkpt>
			 <trkpt lat="48.86098" lon="2.291779">
				 <ele>33.6</ele>
			 </trkpt>
			 <trkpt lat="48.860634" lon="2.291343">
				 <ele>33.5</ele>
			 </trkpt>
			 <trkpt lat="48.860287" lon="2.290907">
				 <ele>34</ele>
			 </trkpt>
			 <trkpt lat="48.859941" lon="2.290471">
				 <ele>34.9</ele>
			 </trkpt>
			 <trkpt lat="48.859895" lon="2.290412">
				 <ele>35.3</ele>
			 </trkpt>
			 <trkpt lat="48.859934" lon="2.290337">
				 <ele>35.6</ele>
			 </trkpt>
			 <trkpt lat="48.859453" lon="2.289746">
				 <ele>36.3</ele>
			 </trkpt>
			 <trkpt lat="48.858825" lon="2.288967">
				 <ele>37.1</ele>
			 </trkpt>
			 <trkpt lat="48.858555" lon="2.288699">
				 <ele>37.8</ele>
			 </trkpt>
			 <trkpt lat="48.858338" lon="2.288496">
				 <ele>38.9</ele>
			 </trkpt>
			 <trkpt lat="48.858124" lon="2.288205">
				 <ele>39.8</ele>
			 </trkpt>
			 <trkpt lat="48.857933" lon="2.287898">
				 <ele>40.6</ele>
			 </trkpt>
			 <trkpt lat="48.857888" lon="2.287825">
				 <ele>41.3</ele>
			 </trkpt>
			 <trkpt lat="48.85786" lon="2.28779">
				 <ele>41.5</ele>
			 </trkpt>
			 <trkpt lat="48.857576" lon="2.287438">
				 <ele>41.9</ele>
			 </trkpt>
			 <trkpt lat="48.857234" lon="2.286996">
				 <ele>42.3</ele>
			 </trkpt>
			 <trkpt lat="48.85678" lon="2.286417">
				 <ele>42.7</ele>
			 </trkpt>
			 <trkpt lat="48.85674" lon="2.286363">
				 <ele>43</ele>
			 </trkpt>
			 <trkpt lat="48.85657" lon="2.28616">
				 <ele>43.2</ele>
			 </trkpt>
			 <trkpt lat="48.856223" lon="2.285708">
				 <ele>43.7</ele>
			 </trkpt>
			 <trkpt lat="48.855979" lon="2.28541">
				 <ele>43.3</ele>
			 </trkpt>
			 <trkpt lat="48.855958" lon="2.285385">
				 <ele>42.9</ele>
			 </trkpt>
			 <trkpt lat="48.855843" lon="2.285242">
				 <ele>42.5</ele>
			 </trkpt>
			 <trkpt lat="48.855699" lon="2.285053">
				 <ele>42.2</ele>
			 </trkpt>
			 <trkpt lat="48.855191" lon="2.284414">
				 <ele>41.7</ele>
			 </trkpt>
			 <trkpt lat="48.854651" lon="2.283736">
				 <ele>41.2</ele>
			 </trkpt>
			 <trkpt lat="48.854619" lon="2.283698">
				 <ele>40.7</ele>
			 </trkpt>
			 <trkpt lat="48.854537" lon="2.283592">
				 <ele>40.1</ele>
			 </trkpt>
			 <trkpt lat="48.854476" lon="2.283511">
				 <ele>39</ele>
			 </trkpt>
			 <trkpt lat="48.85441" lon="2.283427">
				 <ele>37.7</ele>
			 </trkpt>
			 <trkpt lat="48.854384" lon="2.283396">
				 <ele>36</ele>
			 </trkpt>
			 <trkpt lat="48.854279" lon="2.283269">
				 <ele>35</ele>
			 </trkpt>
			 <trkpt lat="48.85414" lon="2.283086">
				 <ele>34.6</ele>
			 </trkpt>
			 <trkpt lat="48.853964" lon="2.282831">
				 <ele>34.5</ele>
			 </trkpt>
			 <trkpt lat="48.853773" lon="2.282547">
				 <ele>34.5</ele>
			 </trkpt>
			 <trkpt lat="48.853752" lon="2.282511">
				 <ele>34.5</ele>
			 </trkpt>
			 <trkpt lat="48.853628" lon="2.282301">
				 <ele>34.4</ele>
			 </trkpt>
			 <trkpt lat="48.853318" lon="2.281774">
				 <ele>34</ele>
			 </trkpt>
			 <trkpt lat="48.85318" lon="2.281535">
				 <ele>33.8</ele>
			 </trkpt>
			 <trkpt lat="48.852997" lon="2.281219">
				 <ele>34.2</ele>
			 </trkpt>
			 <trkpt lat="48.852966" lon="2.281166">
				 <ele>34.7</ele>
			 </trkpt>
			 <trkpt lat="48.852895" lon="2.281044">
				 <ele>35.2</ele>
			 </trkpt>
			 <trkpt lat="48.852748" lon="2.280752">
				 <ele>35.4</ele>
			 </trkpt>
			 <trkpt lat="48.85271" lon="2.280661">
				 <ele>35.3</ele>
			 </trkpt>
			 <trkpt lat="48.852544" lon="2.280378">
				 <ele>35</ele>
			 </trkpt>
			 <trkpt lat="48.852453" lon="2.280242">
				 <ele>34.5</ele>
			 </trkpt>
			 <trkpt lat="48.85236" lon="2.280192">
				 <ele>34.1</ele>
			 </trkpt>
			 <trkpt lat="48.852243" lon="2.279994">
				 <ele>33.8</ele>
			 </trkpt>
			 <trkpt lat="48.851605" lon="2.278916">
				 <ele>33.8</ele>
			 </trkpt>
			 <trkpt lat="48.851535" lon="2.278799">
				 <ele>34</ele>
			 </trkpt>
			 <trkpt lat="48.851432" lon="2.278631">
				 <ele>34.2</ele>
			 </trkpt>
			 <trkpt lat="48.851393" lon="2.278576">
				 <ele>34.5</ele>
			 </trkpt>
			 <trkpt lat="48.851324" lon="2.278475">
				 <ele>34.9</ele>
			 </trkpt>
			 <trkpt lat="48.851197" lon="2.278251">
				 <ele>35.4</ele>
			 </trkpt>
			 <trkpt lat="48.851094" lon="2.278078">
				 <ele>35.5</ele>
			 </trkpt>
			 <trkpt lat="48.851072" lon="2.278043">
				 <ele>35.5</ele>
			 </trkpt>
			 <trkpt lat="48.851051" lon="2.278008">
				 <ele>36.4</ele>
			 </trkpt>
			 <trkpt lat="48.850938" lon="2.277818">
				 <ele>37.4</ele>
			 </trkpt>
			 <trkpt lat="48.850858" lon="2.277684">
				 <ele>38.3</ele>
			 </trkpt>
			 <trkpt lat="48.850783" lon="2.277558">
				 <ele>39.2</ele>
			 </trkpt>
			 <trkpt lat="48.850763" lon="2.277523">
				 <ele>40</ele>
			 </trkpt>
			 <trkpt lat="48.850273" lon="2.276694">
				 <ele>40.8</ele>
			 </trkpt>
			 <trkpt lat="48.850173" lon="2.27654">
				 <ele>41.5</ele>
			 </trkpt>
			 <trkpt lat="48.850076" lon="2.276415">
				 <ele>42.5</ele>
			 </trkpt>
			 <trkpt lat="48.849996" lon="2.276335">
				 <ele>43.3</ele>
			 </trkpt>
			 <trkpt lat="48.849779" lon="2.276118">
				 <ele>44</ele>
			 </trkpt>
			 <trkpt lat="48.849675" lon="2.27601">
				 <ele>44.6</ele>
			 </trkpt>
			 <trkpt lat="48.849602" lon="2.275937">
				 <ele>44.6</ele>
			 </trkpt>
			 <trkpt lat="48.849103" lon="2.275433">
				 <ele>44.5</ele>
			 </trkpt>
			 <trkpt lat="48.848827" lon="2.275152">
				 <ele>44.7</ele>
			 </trkpt>
			 <trkpt lat="48.848802" lon="2.275127">
				 <ele>44.8</ele>
			 </trkpt>
			 <trkpt lat="48.848725" lon="2.275051">
				 <ele>44.7</ele>
			 </trkpt>
			 <trkpt lat="48.848662" lon="2.274988">
				 <ele>44.5</ele>
			 </trkpt>
			 <trkpt lat="48.848634" lon="2.27496">
				 <ele>44.2</ele>
			 </trkpt>
			 <trkpt lat="48.848192" lon="2.274512">
				 <ele>43.5</ele>
			 </trkpt>
			 <trkpt lat="48.847883" lon="2.274192">
				 <ele>43.1</ele>
			 </trkpt>
			 <trkpt lat="48.847725" lon="2.274024">
				 <ele>42.7</ele>
			 </trkpt>
			 <trkpt lat="48.847603" lon="2.273896">
				 <ele>42.5</ele>
			 </trkpt>
			 <trkpt lat="48.847577" lon="2.273871">
				 <ele>41.8</ele>
			 </trkpt>
			 <trkpt lat="48.847429" lon="2.273715">
				 <ele>41.2</ele>
			 </trkpt>
			 <trkpt lat="48.847235" lon="2.273543">
				 <ele>40.6</ele>
			 </trkpt>
			 <trkpt lat="48.847203" lon="2.27351">
				 <ele>40.3</ele>
			 </trkpt>
			 <trkpt lat="48.847004" lon="2.273305">
				 <ele>40.2</ele>
			 </trkpt>
			 <trkpt lat="48.846201" lon="2.272494">
				 <ele>40.3</ele>
			 </trkpt>
			 <trkpt lat="48.846152" lon="2.272448">
				 <ele>40.4</ele>
			 </trkpt>
			 <trkpt lat="48.84546" lon="2.27175">
				 <ele>40.5</ele>
			 </trkpt>
			 <trkpt lat="48.84537" lon="2.271661">
				 <ele>40.7</ele>
			 </trkpt>
			 <trkpt lat="48.845308" lon="2.271595">
				 <ele>41.2</ele>
			 </trkpt>
			 <trkpt lat="48.845233" lon="2.271517">
				 <ele>41.6</ele>
			 </trkpt>
			 <trkpt lat="48.845202" lon="2.271484">
				 <ele>42.5</ele>
			 </trkpt>
			 <trkpt lat="48.844968" lon="2.271246">
				 <ele>43.4</ele>
			 </trkpt>
			 <trkpt lat="48.843056" lon="2.26931">
				 <ele>44</ele>
			 </trkpt>
			 <trkpt lat="48.842843" lon="2.269075">
				 <ele>44.5</ele>
			 </trkpt>
			 <trkpt lat="48.842819" lon="2.269045">
				 <ele>45.1</ele>
			 </trkpt>
			 <trkpt lat="48.842792" lon="2.269005">
				 <ele>45.5</ele>
			 </trkpt>
			 <trkpt lat="48.84275" lon="2.26895">
				 <ele>45.4</ele>
			 </trkpt>
			 <trkpt lat="48.84271" lon="2.26887">
				 <ele>45.1</ele>
			 </trkpt>
			 <trkpt lat="48.84268" lon="2.2688">
				 <ele>44.6</ele>
			 </trkpt>
			 <trkpt lat="48.84263" lon="2.2687">
				 <ele>44.6</ele>
			 </trkpt>
			 <trkpt lat="48.84254" lon="2.26854">
				 <ele>44.5</ele>
			 </trkpt>
			 <trkpt lat="48.84231" lon="2.26807">
				 <ele>44.5</ele>
			 </trkpt>
			 <trkpt lat="48.84221" lon="2.26789">
				 <ele>44.4</ele>
			 </trkpt>
			 <trkpt lat="48.84207" lon="2.26761">
				 <ele>44.1</ele>
			 </trkpt>
			 <trkpt lat="48.84169" lon="2.26686">
				 <ele>43.9</ele>
			 </trkpt>
			 <trkpt lat="48.84153" lon="2.26656">
				 <ele>43.7</ele>
			 </trkpt>
			 <trkpt lat="48.84132" lon="2.26615">
				 <ele>43.7</ele>
			 </trkpt>
			 <trkpt lat="48.84106" lon="2.26564">
				 <ele>44.8</ele>
			 </trkpt>
			 <trkpt lat="48.84087" lon="2.2653">
				 <ele>46.2</ele>
			 </trkpt>
			 <trkpt lat="48.84082" lon="2.26521">
				 <ele>46.9</ele>
			 </trkpt>
			 <trkpt lat="48.84072" lon="2.26504">
				 <ele>47</ele>
			 </trkpt>
			 <trkpt lat="48.840972" lon="2.264475">
				 <ele>47.2</ele>
			 </trkpt>
			 <trkpt lat="48.841225" lon="2.263909">
				 <ele>47.3</ele>
			 </trkpt>
			 <trkpt lat="48.841477" lon="2.263344">
				 <ele>47.8</ele>
			 </trkpt>
			 <trkpt lat="48.84173" lon="2.262778">
				 <ele>48.5</ele>
			 </trkpt>
			 <trkpt lat="48.841982" lon="2.262213">
				 <ele>49</ele>
			 </trkpt>
			 <trkpt lat="48.842118" lon="2.26191">
				 <ele>49.4</ele>
			 </trkpt>
			 <trkpt lat="48.842376" lon="2.261351">
				 <ele>49.6</ele>
			 </trkpt>
			 <trkpt lat="48.842635" lon="2.260792">
				 <ele>49.4</ele>
			 </trkpt>
			 <trkpt lat="48.842893" lon="2.260233">
				 <ele>48.9</ele>
			 </trkpt>
			 <trkpt lat="48.842913" lon="2.26019">
				 <ele>48.9</ele>
			 </trkpt>
			 <trkpt lat="48.843249" lon="2.259738">
				 <ele>48.5</ele>
			 </trkpt>
			 <trkpt lat="48.84327" lon="2.25971">
				 <ele>48.4</ele>
			 </trkpt>
			 <trkpt lat="48.8435" lon="2.25942">
				 <ele>48.3</ele>
			 </trkpt>
			 <trkpt lat="48.84357" lon="2.25936">
				 <ele>47.9</ele>
			 </trkpt>
			 <trkpt lat="48.84366" lon="2.25927">
				 <ele>47.6</ele>
			 </trkpt>
			 <trkpt lat="48.84401" lon="2.25899">
				 <ele>47.4</ele>
			 </trkpt>
			 <trkpt lat="48.84412" lon="2.25891">
				 <ele>47.1</ele>
			 </trkpt>
			 <trkpt lat="48.84425" lon="2.25883">
				 <ele>46.5</ele>
			 </trkpt>
			 <trkpt lat="48.84438" lon="2.25874">
				 <ele>45.7</ele>
			 </trkpt>
			 <trkpt lat="48.844816" lon="2.258571">
				 <ele>44.8</ele>
			 </trkpt>
			 <trkpt lat="48.844918" lon="2.258532">
				 <ele>43.8</ele>
			 </trkpt>
			 <trkpt lat="48.845331" lon="2.258433">
				 <ele>43.2</ele>
			 </trkpt>
			 <trkpt lat="48.845349" lon="2.25775">
				 <ele>42.4</ele>
			 </trkpt>
			 <trkpt lat="48.845367" lon="2.257067">
				 <ele>41.4</ele>
			 </trkpt>
			 <trkpt lat="48.845385" lon="2.256384">
				 <ele>40.3</ele>
			 </trkpt>
			 <trkpt lat="48.845403" lon="2.255702">
				 <ele>39.4</ele>
			 </trkpt>
			 <trkpt lat="48.845421" lon="2.255019">
				 <ele>38.5</ele>
			 </trkpt>
			 <trkpt lat="48.84544" lon="2.254336">
				 <ele>37.5</ele>
			 </trkpt>
			 <trkpt lat="48.845458" lon="2.253654">
				 <ele>36.8</ele>
			 </trkpt>
			 <trkpt lat="48.845476" lon="2.252971">
				 <ele>36.7</ele>
			 </trkpt>
			 <trkpt lat="48.845494" lon="2.252288">
				 <ele>36.8</ele>
			 </trkpt>
			 <trkpt lat="48.845512" lon="2.251605">
				 <ele>37</ele>
			 </trkpt>
			 <trkpt lat="48.84553" lon="2.250923">
				 <ele>37.2</ele>
			 </trkpt>
			 <trkpt lat="48.845538" lon="2.250637">
				 <ele>37.4</ele>
			 </trkpt>
			 <trkpt lat="48.84588" lon="2.249283">
				 <ele>37.7</ele>
			 </trkpt>
			 <trkpt lat="48.847624" lon="2.242479">
				 <ele>38.1</ele>
			 </trkpt>
			 <trkpt lat="48.847836" lon="2.242248">
				 <ele>38.2</ele>
			 </trkpt>
			 <trkpt lat="48.847855" lon="2.242341">
				 <ele>38.3</ele>
			 </trkpt>
			 <trkpt lat="48.84792" lon="2.242514">
				 <ele>38.5</ele>
			 </trkpt>
			 <trkpt lat="48.848041" lon="2.242713">
				 <ele>38.7</ele>
			 </trkpt>
			 <trkpt lat="48.848092" lon="2.242751">
				 <ele>38.6</ele>
			 </trkpt>
			 <trkpt lat="48.848149" lon="2.242793">
				 <ele>38.5</ele>
			 </trkpt>
			 <trkpt lat="48.848267" lon="2.242795">
				 <ele>38.5</ele>
			 </trkpt>
			 <trkpt lat="48.848346" lon="2.242733">
				 <ele>38.5</ele>
			 </trkpt>
			 <trkpt lat="48.848409" lon="2.242619">
				 <ele>38.6</ele>
			 </trkpt>
			 <trkpt lat="48.848438" lon="2.242486">
				 <ele>39.1</ele>
			 </trkpt>
			 <trkpt lat="48.848439" lon="2.242276">
				 <ele>40.1</ele>
			 </trkpt>
			 <trkpt lat="48.848515" lon="2.242196">
				 <ele>41.1</ele>
			 </trkpt>
			 <trkpt lat="48.848683" lon="2.2421">
				 <ele>42.2</ele>
			 </trkpt>
			 <trkpt lat="48.848948" lon="2.242068">
				 <ele>43</ele>
			 </trkpt>
			 <trkpt lat="48.850209" lon="2.241918">
				 <ele>43.8</ele>
			 </trkpt>
			 <trkpt lat="48.853448" lon="2.24152">
				 <ele>45</ele>
			 </trkpt>
			 <trkpt lat="48.853478" lon="2.241525">
				 <ele>46.2</ele>
			 </trkpt>
			 <trkpt lat="48.853961" lon="2.241826">
				 <ele>47.3</ele>
			 </trkpt>
			 <trkpt lat="48.854832" lon="2.242397">
				 <ele>48.5</ele>
			 </trkpt>
			 <trkpt lat="48.855955" lon="2.243141">
				 <ele>49.5</ele>
			 </trkpt>
			 <trkpt lat="48.856637" lon="2.243594">
				 <ele>50.3</ele>
			 </trkpt>
			 <trkpt lat="48.858474" lon="2.244813">
				 <ele>50.5</ele>
			 </trkpt>
			 <trkpt lat="48.858567" lon="2.244874">
				 <ele>50.7</ele>
			 </trkpt>
			 <trkpt lat="48.858518" lon="2.245041">
				 <ele>50.8</ele>
			 </trkpt>
			 <trkpt lat="48.858468" lon="2.245217">
				 <ele>51</ele>
			 </trkpt>
			 <trkpt lat="48.858343" lon="2.245655">
				 <ele>51</ele>
			 </trkpt>
			 <trkpt lat="48.858197" lon="2.246298">
				 <ele>51</ele>
			 </trkpt>
			 <trkpt lat="48.858088" lon="2.24687">
				 <ele>51</ele>
			 </trkpt>
			 <trkpt lat="48.858059" lon="2.247015">
				 <ele>51</ele>
			 </trkpt>
			 <trkpt lat="48.85794" lon="2.247866">
				 <ele>51.2</ele>
			 </trkpt>
			 <trkpt lat="48.857861" lon="2.248738">
				 <ele>51.3</ele>
			 </trkpt>
			 <trkpt lat="48.857834" lon="2.249664">
				 <ele>51.4</ele>
			 </trkpt>
			 <trkpt lat="48.85784" lon="2.250213">
				 <ele>51.4</ele>
			 </trkpt>
			 <trkpt lat="48.857882" lon="2.251284">
				 <ele>51.3</ele>
			 </trkpt>
			 <trkpt lat="48.857977" lon="2.252689">
				 <ele>51.3</ele>
			 </trkpt>
			 <trkpt lat="48.857984" lon="2.252773">
				 <ele>51.5</ele>
			 </trkpt>
			 <trkpt lat="48.858082" lon="2.253908">
				 <ele>51.9</ele>
			 </trkpt>
			 <trkpt lat="48.858182" lon="2.25479">
				 <ele>52</ele>
			 </trkpt>
			 <trkpt lat="48.858204" lon="2.254981">
				 <ele>52.2</ele>
			 </trkpt>
			 <trkpt lat="48.858219" lon="2.255114">
				 <ele>52.6</ele>
			 </trkpt>
			 <trkpt lat="48.858274" lon="2.255623">
				 <ele>52.7</ele>
			 </trkpt>
			 <trkpt lat="48.85831" lon="2.255978">
				 <ele>52.5</ele>
			 </trkpt>
			 <trkpt lat="48.8584" lon="2.256729">
				 <ele>52.3</ele>
			 </trkpt>
			 <trkpt lat="48.858446" lon="2.257144">
				 <ele>52.2</ele>
			 </trkpt>
			 <trkpt lat="48.858472" lon="2.25743">
				 <ele>52.1</ele>
			 </trkpt>
			 <trkpt lat="48.858479" lon="2.257742">
				 <ele>52.1</ele>
			 </trkpt>
			 <trkpt lat="48.858462" lon="2.258161">
				 <ele>52</ele>
			 </trkpt>
			 <trkpt lat="48.858423" lon="2.258735">
				 <ele>51.8</ele>
			 </trkpt>
			 <trkpt lat="48.858422" lon="2.258784">
				 <ele>51.7</ele>
			 </trkpt>
			 <trkpt lat="48.858418" lon="2.258932">
				 <ele>51.7</ele>
			 </trkpt>
			 <trkpt lat="48.858422" lon="2.259569">
				 <ele>51.6</ele>
			 </trkpt>
			 <trkpt lat="48.858417" lon="2.260145">
				 <ele>51.7</ele>
			 </trkpt>
			 <trkpt lat="48.858377" lon="2.26074">
				 <ele>52.2</ele>
			 </trkpt>
			 <trkpt lat="48.858362" lon="2.260908">
				 <ele>53.2</ele>
			 </trkpt>
			 <trkpt lat="48.857913" lon="2.262602">
				 <ele>54</ele>
			 </trkpt>
			 <trkpt lat="48.85768" lon="2.263423">
				 <ele>54.9</ele>
			 </trkpt>
			 <trkpt lat="48.857669" lon="2.263539">
				 <ele>55.7</ele>
			 </trkpt>
			 <trkpt lat="48.857354" lon="2.264662">
				 <ele>56.7</ele>
			 </trkpt>
			 <trkpt lat="48.857021" lon="2.265908">
				 <ele>56.9</ele>
			 </trkpt>
			 <trkpt lat="48.856999" lon="2.266079">
				 <ele>57.5</ele>
			 </trkpt>
			 <trkpt lat="48.856999" lon="2.266367">
				 <ele>57.8</ele>
			 </trkpt>
			 <trkpt lat="48.857021" lon="2.266547">
				 <ele>58.2</ele>
			 </trkpt>
			 <trkpt lat="48.857064" lon="2.266749">
				 <ele>58.9</ele>
			 </trkpt>
			 <trkpt lat="48.857923" lon="2.269135">
				 <ele>59.8</ele>
			 </trkpt>
			 <trkpt lat="48.85832" lon="2.270237">
				 <ele>60.6</ele>
			 </trkpt>
			 <trkpt lat="48.858353" lon="2.270343">
				 <ele>61.6</ele>
			 </trkpt>
			 <trkpt lat="48.858359" lon="2.270518">
				 <ele>62.3</ele>
			 </trkpt>
			 <trkpt lat="48.858279" lon="2.272207">
				 <ele>62.8</ele>
			 </trkpt>
			 <trkpt lat="48.858315" lon="2.272639">
				 <ele>63.5</ele>
			 </trkpt>
			 <trkpt lat="48.858203" lon="2.273709">
				 <ele>65.5</ele>
			 </trkpt>
			 <trkpt lat="48.858174" lon="2.274403">
				 <ele>67.2</ele>
			 </trkpt>
			 <trkpt lat="48.858307" lon="2.274802">
				 <ele>68.5</ele>
			 </trkpt>
			 <trkpt lat="48.858331" lon="2.274952">
				 <ele>69.6</ele>
			 </trkpt>
			 <trkpt lat="48.859477" lon="2.278012">
				 <ele>70.1</ele>
			 </trkpt>
			 <trkpt lat="48.86002" lon="2.280174">
				 <ele>70.1</ele>
			 </trkpt>
			 <trkpt lat="48.860232" lon="2.281075">
				 <ele>69.5</ele>
			 </trkpt>
			 <trkpt lat="48.86191" lon="2.286116">
				 <ele>68.9</ele>
			 </trkpt>
			 <trkpt lat="48.862089" lon="2.286421">
				 <ele>68.5</ele>
			 </trkpt>
			 <trkpt lat="48.862257" lon="2.286645">
				 <ele>68.3</ele>
			 </trkpt>
			 <trkpt lat="48.862503" lon="2.286881">
				 <ele>67.7</ele>
			 </trkpt>
			 <trkpt lat="48.862749" lon="2.286513">
				 <ele>66.7</ele>
			 </trkpt>
			 <trkpt lat="48.86281" lon="2.28647">
				 <ele>65.7</ele>
			 </trkpt>
			 <trkpt lat="48.862942" lon="2.286443">
				 <ele>65.7</ele>
			 </trkpt>
			 <trkpt lat="48.86311" lon="2.286485">
				 <ele>65.8</ele>
			 </trkpt>
			 <trkpt lat="48.863214" lon="2.286566">
				 <ele>66.4</ele>
			 </trkpt>
			 <trkpt lat="48.863365" lon="2.286791">
				 <ele>67.2</ele>
			 </trkpt>
			 <trkpt lat="48.863407" lon="2.286949">
				 <ele>67.9</ele>
			 </trkpt>
			 <trkpt lat="48.864353" lon="2.286697">
				 <ele>68.3</ele>
			 </trkpt>
			 <trkpt lat="48.869457" lon="2.285395">
				 <ele>68.5</ele>
			 </trkpt>
			 <trkpt lat="48.869732" lon="2.284854">
				 <ele>68.6</ele>
			 </trkpt>
			 <trkpt lat="48.869761" lon="2.284797">
				 <ele>67.9</ele>
			 </trkpt>
			 <trkpt lat="48.869908" lon="2.284151">
				 <ele>67</ele>
			 </trkpt>
			 <trkpt lat="48.870055" lon="2.283505">
				 <ele>66.6</ele>
			 </trkpt>
			 <trkpt lat="48.870202" lon="2.282859">
				 <ele>65.5</ele>
			 </trkpt>
			 <trkpt lat="48.870349" lon="2.282213">
				 <ele>64.1</ele>
			 </trkpt>
			 <trkpt lat="48.870496" lon="2.281567">
				 <ele>62.5</ele>
			 </trkpt>
			 <trkpt lat="48.870643" lon="2.280921">
				 <ele>60.5</ele>
			 </trkpt>
			 <trkpt lat="48.87079" lon="2.280275">
				 <ele>58.3</ele>
			 </trkpt>
			 <trkpt lat="48.870937" lon="2.279629">
				 <ele>56.2</ele>
			 </trkpt>
			 <trkpt lat="48.871083" lon="2.278983">
				 <ele>53.9</ele>
			 </trkpt>
			 <trkpt lat="48.87123" lon="2.278337">
				 <ele>52</ele>
			 </trkpt>
			 <trkpt lat="48.871377" lon="2.27769">
				 <ele>51.5</ele>
			 </trkpt>
			 <trkpt lat="48.871524" lon="2.277044">
				 <ele>51.3</ele>
			 </trkpt>
			 <trkpt lat="48.871636" lon="2.276555">
				 <ele>50.1</ele>
			 </trkpt>
			 <trkpt lat="48.871753" lon="2.276583">
				 <ele>49.3</ele>
			 </trkpt>
			 <trkpt lat="48.871836" lon="2.277254">
				 <ele>48.6</ele>
			 </trkpt>
			 <trkpt lat="48.871919" lon="2.277926">
				 <ele>47.8</ele>
			 </trkpt>
			 <trkpt lat="48.872003" lon="2.278598">
				 <ele>47.3</ele>
			 </trkpt>
			 <trkpt lat="48.872086" lon="2.27927">
				 <ele>47.1</ele>
			 </trkpt>
			 <trkpt lat="48.872133" lon="2.279648">
				 <ele>47.5</ele>
			 </trkpt>
		 </trkseg>
	 </trk>
</gpx>