<?xml version="1.0" encoding="UTF-8"?>
 <gpx creator="Garmin Connect" version="1.1"
	 xsi:schemaLocation="http://www.topografix.com/GPX/1/1 http://www.topografix.com/GPX/11.xsd"
	 xmlns:ns3="http://www.garmin.com/xmlschemas/TrackPointExtension/v1"
	 xmlns="http://www.topografix.com/GPX/1/1"
	 xmlns:xsi="http://www.w3.org/2001/XMLSchema-instance" xmlns:ns2="http://www.garmin.com/xmlschemas/GpxExtensions/v3">
	 <metadata>
		<name>Royal Parks Half Marathon 2025 - 21.098 km</name>
		 <link href="https://www.goandrace.com">
		 <text>Garmin Connect</text>
		 </link>
	 <time>2026-08-23T23:35:27</time>
	 </metadata>
	 <trk>
		 <name>Royal Parks Half Marathon 2025 - 21.098 km</name>
		 <trkseg>
			 <trkpt lat="51.50239" lon="-0.16325">
				 <ele>13.3</ele>
			 </trkpt>
			 <trkpt lat="51.502488" lon="-0.16189">
				 <ele>13.4</ele>
			 </trkpt>
			 <trkpt lat="51.502585" lon="-0.16053">
				 <ele>13.6</ele>
			 </trkpt>
			 <trkpt lat="51.502683" lon="-0.15917">
				 <ele>13.9</ele>
			 </trkpt>
			 <trkpt lat="51.50278" lon="-0.15781">
				 <ele>14.1</ele>
			 </trkpt>
			 <trkpt lat="51.502885" lon="-0.156725">
				 <ele>14.4</ele>
			 </trkpt>
			 <trkpt lat="51.50299" lon="-0.15564">
				 <ele>14.5</ele>
			 </trkpt>
			 <trkpt lat="51.5031" lon="-0.15437">
				 <ele>14.7</ele>
			 </trkpt>
			 <trkpt lat="51.5032" lon="-0.15359">
				 <ele>15.2</ele>
			 </trkpt>
			 <trkpt lat="51.50327" lon="-0.15323">
				 <ele>15.8</ele>
			 </trkpt>
			 <trkpt lat="51.50338" lon="-0.15298">
				 <ele>16.5</ele>
			 </trkpt>
			 <trkpt lat="51.50348" lon="-0.15284">
				 <ele>17</ele>
			 </trkpt>
			 <trkpt lat="51.50363" lon="-0.15267">
				 <ele>17.5</ele>
			 </trkpt>
			 <trkpt lat="51.50394" lon="-0.15254">
				 <ele>17.8</ele>
			 </trkpt>
			 <trkpt lat="51.50397" lon="-0.15242">
				 <ele>18.1</ele>
			 </trkpt>
			 <trkpt lat="51.5041" lon="-0.15212">
				 <ele>18.3</ele>
			 </trkpt>
			 <trkpt lat="51.50412" lon="-0.15197">
				 <ele>18.4</ele>
			 </trkpt>
			 <trkpt lat="51.50408" lon="-0.15161">
				 <ele>18.5</ele>
			 </trkpt>
			 <trkpt lat="51.50402" lon="-0.15142">
				 <ele>18.5</ele>
			 </trkpt>
			 <trkpt lat="51.50391" lon="-0.15129">
				 <ele>18.5</ele>
			 </trkpt>
			 <trkpt lat="51.50341" lon="-0.15112">
				 <ele>18.2</ele>
			 </trkpt>
			 <trkpt lat="51.50337" lon="-0.15112">
				 <ele>17.9</ele>
			 </trkpt>
			 <trkpt lat="51.5033" lon="-0.15117">
				 <ele>17.5</ele>
			 </trkpt>
			 <trkpt lat="51.50323" lon="-0.15132">
				 <ele>17.2</ele>
			 </trkpt>
			 <trkpt lat="51.50308" lon="-0.15211">
				 <ele>16.7</ele>
			 </trkpt>
			 <trkpt lat="51.5029" lon="-0.15223">
				 <ele>16.3</ele>
			 </trkpt>
			 <trkpt lat="51.50286" lon="-0.15195">
				 <ele>15.9</ele>
			 </trkpt>
			 <trkpt lat="51.5026" lon="-0.15179">
				 <ele>15.6</ele>
			 </trkpt>
			 <trkpt lat="51.50257" lon="-0.15165">
				 <ele>15.4</ele>
			 </trkpt>
			 <trkpt lat="51.50254" lon="-0.15095">
				 <ele>15</ele>
			 </trkpt>
			 <trkpt lat="51.50254" lon="-0.15043">
				 <ele>14.8</ele>
			 </trkpt>
			 <trkpt lat="51.50256" lon="-0.15026">
				 <ele>14.6</ele>
			 </trkpt>
			 <trkpt lat="51.50265" lon="-0.15002">
				 <ele>14.5</ele>
			 </trkpt>
			 <trkpt lat="51.50264" lon="-0.14971">
				 <ele>14.2</ele>
			 </trkpt>
			 <trkpt lat="51.50262" lon="-0.14953">
				 <ele>13.7</ele>
			 </trkpt>
			 <trkpt lat="51.50254" lon="-0.14954">
				 <ele>13.3</ele>
			 </trkpt>
			 <trkpt lat="51.50251" lon="-0.14901">
				 <ele>12.6</ele>
			 </trkpt>
			 <trkpt lat="51.50246" lon="-0.14892">
				 <ele>12</ele>
			 </trkpt>
			 <trkpt lat="51.502414" lon="-0.147706">
				 <ele>11.2</ele>
			 </trkpt>
			 <trkpt lat="51.502368" lon="-0.146492">
				 <ele>10.4</ele>
			 </trkpt>
			 <trkpt lat="51.502322" lon="-0.145278">
				 <ele>9.6</ele>
			 </trkpt>
			 <trkpt lat="51.502276" lon="-0.144064">
				 <ele>8.8</ele>
			 </trkpt>
			 <trkpt lat="51.50223" lon="-0.14285">
				 <ele>8.2</ele>
			 </trkpt>
			 <trkpt lat="51.50217" lon="-0.14185">
				 <ele>7.5</ele>
			 </trkpt>
			 <trkpt lat="51.50221" lon="-0.14049">
				 <ele>7.1</ele>
			 </trkpt>
			 <trkpt lat="51.50216" lon="-0.1403">
				 <ele>6.8</ele>
			 </trkpt>
			 <trkpt lat="51.50205" lon="-0.14011">
				 <ele>6.5</ele>
			 </trkpt>
			 <trkpt lat="51.502518" lon="-0.138939">
				 <ele>6.5</ele>
			 </trkpt>
			 <trkpt lat="51.502995" lon="-0.137778">
				 <ele>6.5</ele>
			 </trkpt>
			 <trkpt lat="51.503473" lon="-0.136616">
				 <ele>6.6</ele>
			 </trkpt>
			 <trkpt lat="51.50395" lon="-0.135455">
				 <ele>6.6</ele>
			 </trkpt>
			 <trkpt lat="51.504428" lon="-0.134294">
				 <ele>6.5</ele>
			 </trkpt>
			 <trkpt lat="51.504905" lon="-0.133133">
				 <ele>6.3</ele>
			 </trkpt>
			 <trkpt lat="51.505383" lon="-0.131971">
				 <ele>6</ele>
			 </trkpt>
			 <trkpt lat="51.50586" lon="-0.13081">
				 <ele>5.6</ele>
			 </trkpt>
			 <trkpt lat="51.50557" lon="-0.130225">
				 <ele>5.3</ele>
			 </trkpt>
			 <trkpt lat="51.50528" lon="-0.12964">
				 <ele>4.9</ele>
			 </trkpt>
			 <trkpt lat="51.50518" lon="-0.12948">
				 <ele>4.6</ele>
			 </trkpt>
			 <trkpt lat="51.50509" lon="-0.12942">
				 <ele>4.3</ele>
			 </trkpt>
			 <trkpt lat="51.504455" lon="-0.12921">
				 <ele>3.9</ele>
			 </trkpt>
			 <trkpt lat="51.50382" lon="-0.129">
				 <ele>3.5</ele>
			 </trkpt>
			 <trkpt lat="51.50371" lon="-0.129">
				 <ele>3.4</ele>
			 </trkpt>
			 <trkpt lat="51.50339" lon="-0.12911">
				 <ele>3.4</ele>
			 </trkpt>
			 <trkpt lat="51.50288" lon="-0.12953">
				 <ele>3.5</ele>
			 </trkpt>
			 <trkpt lat="51.50266" lon="-0.12964">
				 <ele>3.5</ele>
			 </trkpt>
			 <trkpt lat="51.50232" lon="-0.12972">
				 <ele>3.5</ele>
			 </trkpt>
			 <trkpt lat="51.50152" lon="-0.12982">
				 <ele>3.6</ele>
			 </trkpt>
			 <trkpt lat="51.50147" lon="-0.12989">
				 <ele>3.7</ele>
			 </trkpt>
			 <trkpt lat="51.50134" lon="-0.12991">
				 <ele>3.8</ele>
			 </trkpt>
			 <trkpt lat="51.5013" lon="-0.13073">
				 <ele>4</ele>
			 </trkpt>
			 <trkpt lat="51.501163" lon="-0.13205">
				 <ele>4.2</ele>
			 </trkpt>
			 <trkpt lat="51.501027" lon="-0.13337">
				 <ele>4.4</ele>
			 </trkpt>
			 <trkpt lat="51.50089" lon="-0.13469">
				 <ele>4.5</ele>
			 </trkpt>
			 <trkpt lat="51.500753" lon="-0.13601">
				 <ele>4.6</ele>
			 </trkpt>
			 <trkpt lat="51.500617" lon="-0.13733">
				 <ele>4.7</ele>
			 </trkpt>
			 <trkpt lat="51.50048" lon="-0.13865">
				 <ele>4.8</ele>
			 </trkpt>
			 <trkpt lat="51.50046" lon="-0.13896">
				 <ele>5</ele>
			 </trkpt>
			 <trkpt lat="51.50048" lon="-0.13905">
				 <ele>5.2</ele>
			 </trkpt>
			 <trkpt lat="51.50045" lon="-0.1391">
				 <ele>5.4</ele>
			 </trkpt>
			 <trkpt lat="51.50057" lon="-0.13932">
				 <ele>5.5</ele>
			 </trkpt>
			 <trkpt lat="51.50086" lon="-0.13965">
				 <ele>5.6</ele>
			 </trkpt>
			 <trkpt lat="51.50124" lon="-0.14004">
				 <ele>5.7</ele>
			 </trkpt>
			 <trkpt lat="51.50127" lon="-0.14016">
				 <ele>5.8</ele>
			 </trkpt>
			 <trkpt lat="51.50127" lon="-0.14027">
				 <ele>5.9</ele>
			 </trkpt>
			 <trkpt lat="51.50115" lon="-0.14046">
				 <ele>5.8</ele>
			 </trkpt>
			 <trkpt lat="51.50098" lon="-0.14056">
				 <ele>5.8</ele>
			 </trkpt>
			 <trkpt lat="51.50038" lon="-0.14084">
				 <ele>5.9</ele>
			 </trkpt>
			 <trkpt lat="51.50019" lon="-0.14087">
				 <ele>5.8</ele>
			 </trkpt>
			 <trkpt lat="51.50027" lon="-0.140145">
				 <ele>5.7</ele>
			 </trkpt>
			 <trkpt lat="51.50035" lon="-0.13942">
				 <ele>5.5</ele>
			 </trkpt>
			 <trkpt lat="51.50037" lon="-0.13902">
				 <ele>5.4</ele>
			 </trkpt>
			 <trkpt lat="51.5004" lon="-0.13895">
				 <ele>5.2</ele>
			 </trkpt>
			 <trkpt lat="51.500542" lon="-0.137562">
				 <ele>5</ele>
			 </trkpt>
			 <trkpt lat="51.500683" lon="-0.136173">
				 <ele>4.8</ele>
			 </trkpt>
			 <trkpt lat="51.500825" lon="-0.134785">
				 <ele>4.7</ele>
			 </trkpt>
			 <trkpt lat="51.500967" lon="-0.133397">
				 <ele>4.7</ele>
			 </trkpt>
			 <trkpt lat="51.501108" lon="-0.132008">
				 <ele>4.7</ele>
			 </trkpt>
			 <trkpt lat="51.50125" lon="-0.13062">
				 <ele>4.6</ele>
			 </trkpt>
			 <trkpt lat="51.50127" lon="-0.13011">
				 <ele>4.6</ele>
			 </trkpt>
			 <trkpt lat="51.50125" lon="-0.12954">
				 <ele>4.6</ele>
			 </trkpt>
			 <trkpt lat="51.50119" lon="-0.128635">
				 <ele>4.7</ele>
			 </trkpt>
			 <trkpt lat="51.50113" lon="-0.12773">
				 <ele>4.8</ele>
			 </trkpt>
			 <trkpt lat="51.50109" lon="-0.12761">
				 <ele>4.9</ele>
			 </trkpt>
			 <trkpt lat="51.50105" lon="-0.12756">
				 <ele>5</ele>
			 </trkpt>
			 <trkpt lat="51.501" lon="-0.12753">
				 <ele>5.1</ele>
			 </trkpt>
			 <trkpt lat="51.50084" lon="-0.12751">
				 <ele>5.1</ele>
			 </trkpt>
			 <trkpt lat="51.50037" lon="-0.12753">
				 <ele>5.1</ele>
			 </trkpt>
			 <trkpt lat="51.50028" lon="-0.12737">
				 <ele>5.1</ele>
			 </trkpt>
			 <trkpt lat="51.50023" lon="-0.12714">
				 <ele>5.2</ele>
			 </trkpt>
			 <trkpt lat="51.50021" lon="-0.12643">
				 <ele>5.3</ele>
			 </trkpt>
			 <trkpt lat="51.50026" lon="-0.1263">
				 <ele>5.4</ele>
			 </trkpt>
			 <trkpt lat="51.50045" lon="-0.12618">
				 <ele>5.4</ele>
			 </trkpt>
			 <trkpt lat="51.50073" lon="-0.12616">
				 <ele>5.4</ele>
			 </trkpt>
			 <trkpt lat="51.50112" lon="-0.12616">
				 <ele>5.4</ele>
			 </trkpt>
			 <trkpt lat="51.50137" lon="-0.12614">
				 <ele>5.4</ele>
			 </trkpt>
			 <trkpt lat="51.50143" lon="-0.1261">
				 <ele>5.4</ele>
			 </trkpt>
			 <trkpt lat="51.5021" lon="-0.12601">
				 <ele>5.4</ele>
			 </trkpt>
			 <trkpt lat="51.50266" lon="-0.12598">
				 <ele>5.4</ele>
			 </trkpt>
			 <trkpt lat="51.50297" lon="-0.126">
				 <ele>5.3</ele>
			 </trkpt>
			 <trkpt lat="51.50358" lon="-0.12607">
				 <ele>5.3</ele>
			 </trkpt>
			 <trkpt lat="51.50419" lon="-0.12614">
				 <ele>5.3</ele>
			 </trkpt>
			 <trkpt lat="51.50469" lon="-0.1263">
				 <ele>5.3</ele>
			 </trkpt>
			 <trkpt lat="51.50524" lon="-0.12653">
				 <ele>5.4</ele>
			 </trkpt>
			 <trkpt lat="51.506" lon="-0.1269">
				 <ele>5.6</ele>
			 </trkpt>
			 <trkpt lat="51.50615" lon="-0.127">
				 <ele>5.9</ele>
			 </trkpt>
			 <trkpt lat="51.50619" lon="-0.12708">
				 <ele>6.2</ele>
			 </trkpt>
			 <trkpt lat="51.50664" lon="-0.12731">
				 <ele>6.5</ele>
			 </trkpt>
			 <trkpt lat="51.50685" lon="-0.1274">
				 <ele>7</ele>
			 </trkpt>
			 <trkpt lat="51.5072" lon="-0.12744">
				 <ele>7.5</ele>
			 </trkpt>
			 <trkpt lat="51.50725" lon="-0.12742">
				 <ele>8</ele>
			 </trkpt>
			 <trkpt lat="51.5073" lon="-0.12735">
				 <ele>8.6</ele>
			 </trkpt>
			 <trkpt lat="51.50746" lon="-0.12729">
				 <ele>9.4</ele>
			 </trkpt>
			 <trkpt lat="51.50768" lon="-0.12706">
				 <ele>10.2</ele>
			 </trkpt>
			 <trkpt lat="51.50787" lon="-0.12675">
				 <ele>10.9</ele>
			 </trkpt>
			 <trkpt lat="51.50815" lon="-0.12615">
				 <ele>11.5</ele>
			 </trkpt>
			 <trkpt lat="51.50865" lon="-0.12528">
				 <ele>12</ele>
			 </trkpt>
			 <trkpt lat="51.50913" lon="-0.124335">
				 <ele>12.5</ele>
			 </trkpt>
			 <trkpt lat="51.50961" lon="-0.12339">
				 <ele>12.8</ele>
			 </trkpt>
			 <trkpt lat="51.50931" lon="-0.12399">
				 <ele>12.9</ele>
			 </trkpt>
			 <trkpt lat="51.50929" lon="-0.12403">
				 <ele>12.9</ele>
			 </trkpt>
			 <trkpt lat="51.50934" lon="-0.12409">
				 <ele>12.7</ele>
			 </trkpt>
			 <trkpt lat="51.50883" lon="-0.1251">
				 <ele>12.4</ele>
			 </trkpt>
			 <trkpt lat="51.50853" lon="-0.12564">
				 <ele>11.8</ele>
			 </trkpt>
			 <trkpt lat="51.50823" lon="-0.12618">
				 <ele>11.2</ele>
			 </trkpt>
			 <trkpt lat="51.5078" lon="-0.12702">
				 <ele>10.6</ele>
			 </trkpt>
			 <trkpt lat="51.50757" lon="-0.12772">
				 <ele>10.1</ele>
			 </trkpt>
			 <trkpt lat="51.50754" lon="-0.12783">
				 <ele>9.5</ele>
			 </trkpt>
			 <trkpt lat="51.5075" lon="-0.12794">
				 <ele>9.1</ele>
			 </trkpt>
			 <trkpt lat="51.50744" lon="-0.128">
				 <ele>8.6</ele>
			 </trkpt>
			 <trkpt lat="51.50736" lon="-0.12803">
				 <ele>8.4</ele>
			 </trkpt>
			 <trkpt lat="51.50727" lon="-0.12801">
				 <ele>8.1</ele>
			 </trkpt>
			 <trkpt lat="51.50715" lon="-0.12806">
				 <ele>7.9</ele>
			 </trkpt>
			 <trkpt lat="51.50701" lon="-0.12821">
				 <ele>7.7</ele>
			 </trkpt>
			 <trkpt lat="51.50695" lon="-0.12824">
				 <ele>7.6</ele>
			 </trkpt>
			 <trkpt lat="51.50655" lon="-0.12909">
				 <ele>7.5</ele>
			 </trkpt>
			 <trkpt lat="51.50617" lon="-0.130035">
				 <ele>7.4</ele>
			 </trkpt>
			 <trkpt lat="51.50579" lon="-0.13098">
				 <ele>7.3</ele>
			 </trkpt>
			 <trkpt lat="51.505326" lon="-0.132109">
				 <ele>7.2</ele>
			 </trkpt>
			 <trkpt lat="51.504863" lon="-0.133238">
				 <ele>7.1</ele>
			 </trkpt>
			 <trkpt lat="51.504399" lon="-0.134366">
				 <ele>6.9</ele>
			 </trkpt>
			 <trkpt lat="51.503935" lon="-0.135495">
				 <ele>6.7</ele>
			 </trkpt>
			 <trkpt lat="51.503471" lon="-0.136624">
				 <ele>6.6</ele>
			 </trkpt>
			 <trkpt lat="51.503008" lon="-0.137753">
				 <ele>6.5</ele>
			 </trkpt>
			 <trkpt lat="51.502544" lon="-0.138881">
				 <ele>6.5</ele>
			 </trkpt>
			 <trkpt lat="51.50208" lon="-0.14001">
				 <ele>6.4</ele>
			 </trkpt>
			 <trkpt lat="51.50219" lon="-0.14018">
				 <ele>6.4</ele>
			 </trkpt>
			 <trkpt lat="51.50225" lon="-0.14035">
				 <ele>6.3</ele>
			 </trkpt>
			 <trkpt lat="51.50228" lon="-0.14049">
				 <ele>6.3</ele>
			 </trkpt>
			 <trkpt lat="51.50223" lon="-0.14146">
				 <ele>6.4</ele>
			 </trkpt>
			 <trkpt lat="51.50227" lon="-0.14213">
				 <ele>6.6</ele>
			 </trkpt>
			 <trkpt lat="51.50228" lon="-0.14218">
				 <ele>7.1</ele>
			 </trkpt>
			 <trkpt lat="51.50232" lon="-0.14221">
				 <ele>7.8</ele>
			 </trkpt>
			 <trkpt lat="51.502374" lon="-0.143616">
				 <ele>8.5</ele>
			 </trkpt>
			 <trkpt lat="51.502428" lon="-0.145022">
				 <ele>9.3</ele>
			 </trkpt>
			 <trkpt lat="51.502482" lon="-0.146428">
				 <ele>10.1</ele>
			 </trkpt>
			 <trkpt lat="51.502536" lon="-0.147834">
				 <ele>11</ele>
			 </trkpt>
			 <trkpt lat="51.50259" lon="-0.14924">
				 <ele>12</ele>
			 </trkpt>
			 <trkpt lat="51.50259" lon="-0.14943">
				 <ele>13</ele>
			 </trkpt>
			 <trkpt lat="51.50262" lon="-0.14953">
				 <ele>13.9</ele>
			 </trkpt>
			 <trkpt lat="51.50264" lon="-0.14985">
				 <ele>14.7</ele>
			 </trkpt>
			 <trkpt lat="51.50274" lon="-0.14984">
				 <ele>15.4</ele>
			 </trkpt>
			 <trkpt lat="51.503" lon="-0.14977">
				 <ele>16</ele>
			 </trkpt>
			 <trkpt lat="51.50312" lon="-0.14981">
				 <ele>16.4</ele>
			 </trkpt>
			 <trkpt lat="51.5032" lon="-0.1499">
				 <ele>16.8</ele>
			 </trkpt>
			 <trkpt lat="51.50326" lon="-0.15004">
				 <ele>17.3</ele>
			 </trkpt>
			 <trkpt lat="51.50328" lon="-0.15018">
				 <ele>17.7</ele>
			 </trkpt>
			 <trkpt lat="51.50331" lon="-0.15081">
				 <ele>18.1</ele>
			 </trkpt>
			 <trkpt lat="51.50341" lon="-0.1509">
				 <ele>18.4</ele>
			 </trkpt>
			 <trkpt lat="51.50397" lon="-0.15109">
				 <ele>18.6</ele>
			 </trkpt>
			 <trkpt lat="51.50414" lon="-0.15109">
				 <ele>18.9</ele>
			 </trkpt>
			 <trkpt lat="51.50449" lon="-0.15101">
				 <ele>19.2</ele>
			 </trkpt>
			 <trkpt lat="51.50453" lon="-0.15101">
				 <ele>19.5</ele>
			 </trkpt>
			 <trkpt lat="51.50459" lon="-0.15104">
				 <ele>19.6</ele>
			 </trkpt>
			 <trkpt lat="51.50466" lon="-0.15115">
				 <ele>19.8</ele>
			 </trkpt>
			 <trkpt lat="51.50469" lon="-0.15129">
				 <ele>19.8</ele>
			 </trkpt>
			 <trkpt lat="51.50474" lon="-0.15164">
				 <ele>19.8</ele>
			 </trkpt>
			 <trkpt lat="51.50474" lon="-0.15195">
				 <ele>19.6</ele>
			 </trkpt>
			 <trkpt lat="51.50464" lon="-0.15206">
				 <ele>19.5</ele>
			 </trkpt>
			 <trkpt lat="51.50434" lon="-0.15216">
				 <ele>19.3</ele>
			 </trkpt>
			 <trkpt lat="51.50429" lon="-0.15216">
				 <ele>19.1</ele>
			 </trkpt>
			 <trkpt lat="51.504" lon="-0.15258">
				 <ele>18.9</ele>
			 </trkpt>
			 <trkpt lat="51.50394" lon="-0.15254">
				 <ele>18.6</ele>
			 </trkpt>
			 <trkpt lat="51.50391" lon="-0.15255">
				 <ele>18.3</ele>
			 </trkpt>
			 <trkpt lat="51.50402" lon="-0.15311">
				 <ele>17.9</ele>
			 </trkpt>
			 <trkpt lat="51.50418" lon="-0.15427">
				 <ele>17.5</ele>
			 </trkpt>
			 <trkpt lat="51.504425" lon="-0.155655">
				 <ele>17.3</ele>
			 </trkpt>
			 <trkpt lat="51.50467" lon="-0.15704">
				 <ele>17</ele>
			 </trkpt>
			 <trkpt lat="51.504895" lon="-0.1582">
				 <ele>16.8</ele>
			 </trkpt>
			 <trkpt lat="51.50512" lon="-0.15936">
				 <ele>16.6</ele>
			 </trkpt>
			 <trkpt lat="51.505375" lon="-0.160485">
				 <ele>16.5</ele>
			 </trkpt>
			 <trkpt lat="51.50563" lon="-0.16161">
				 <ele>16.2</ele>
			 </trkpt>
			 <trkpt lat="51.505765" lon="-0.162325">
				 <ele>15.9</ele>
			 </trkpt>
			 <trkpt lat="51.5059" lon="-0.16304">
				 <ele>15.8</ele>
			 </trkpt>
			 <trkpt lat="51.50602" lon="-0.16414">
				 <ele>15.8</ele>
			 </trkpt>
			 <trkpt lat="51.50601" lon="-0.16488">
				 <ele>15.8</ele>
			 </trkpt>
			 <trkpt lat="51.50597" lon="-0.16584">
				 <ele>15.8</ele>
			 </trkpt>
			 <trkpt lat="51.505983" lon="-0.166807">
				 <ele>15.8</ele>
			 </trkpt>
			 <trkpt lat="51.505997" lon="-0.167773">
				 <ele>16</ele>
			 </trkpt>
			 <trkpt lat="51.50601" lon="-0.16874">
				 <ele>16.2</ele>
			 </trkpt>
			 <trkpt lat="51.50603" lon="-0.16918">
				 <ele>16.5</ele>
			 </trkpt>
			 <trkpt lat="51.50605" lon="-0.16947">
				 <ele>16.7</ele>
			 </trkpt>
			 <trkpt lat="51.50615" lon="-0.16997">
				 <ele>17.1</ele>
			 </trkpt>
			 <trkpt lat="51.50645" lon="-0.17106">
				 <ele>17.5</ele>
			 </trkpt>
			 <trkpt lat="51.50652" lon="-0.17125">
				 <ele>17.8</ele>
			 </trkpt>
			 <trkpt lat="51.50657" lon="-0.17128">
				 <ele>18.3</ele>
			 </trkpt>
			 <trkpt lat="51.50667" lon="-0.17127">
				 <ele>18.7</ele>
			 </trkpt>
			 <trkpt lat="51.50671" lon="-0.17106">
				 <ele>19.2</ele>
			 </trkpt>
			 <trkpt lat="51.50688" lon="-0.17083">
				 <ele>19.8</ele>
			 </trkpt>
			 <trkpt lat="51.50709" lon="-0.17059">
				 <ele>20.4</ele>
			 </trkpt>
			 <trkpt lat="51.50725" lon="-0.17046">
				 <ele>21</ele>
			 </trkpt>
			 <trkpt lat="51.50735" lon="-0.1704">
				 <ele>21.5</ele>
			 </trkpt>
			 <trkpt lat="51.50759" lon="-0.1704">
				 <ele>22.1</ele>
			 </trkpt>
			 <trkpt lat="51.508247" lon="-0.17047">
				 <ele>22.6</ele>
			 </trkpt>
			 <trkpt lat="51.508903" lon="-0.17054">
				 <ele>23.2</ele>
			 </trkpt>
			 <trkpt lat="51.50956" lon="-0.17061">
				 <ele>23.6</ele>
			 </trkpt>
			 <trkpt lat="51.50997" lon="-0.17069">
				 <ele>24</ele>
			 </trkpt>
			 <trkpt lat="51.51005" lon="-0.17074">
				 <ele>24.4</ele>
			 </trkpt>
			 <trkpt lat="51.51026" lon="-0.17096">
				 <ele>24.7</ele>
			 </trkpt>
			 <trkpt lat="51.51036" lon="-0.17114">
				 <ele>24.9</ele>
			 </trkpt>
			 <trkpt lat="51.51061" lon="-0.1717">
				 <ele>25</ele>
			 </trkpt>
			 <trkpt lat="51.511" lon="-0.17263">
				 <ele>25</ele>
			 </trkpt>
			 <trkpt lat="51.51105" lon="-0.17271">
				 <ele>25</ele>
			 </trkpt>
			 <trkpt lat="51.51121" lon="-0.17277">
				 <ele>25</ele>
			 </trkpt>
			 <trkpt lat="51.51127" lon="-0.17277">
				 <ele>25</ele>
			 </trkpt>
			 <trkpt lat="51.51138" lon="-0.17269">
				 <ele>25</ele>
			 </trkpt>
			 <trkpt lat="51.5115" lon="-0.17252">
				 <ele>25</ele>
			 </trkpt>
			 <trkpt lat="51.51153" lon="-0.17236">
				 <ele>24.9</ele>
			 </trkpt>
			 <trkpt lat="51.51156" lon="-0.17231">
				 <ele>24.7</ele>
			 </trkpt>
			 <trkpt lat="51.51152" lon="-0.17223">
				 <ele>24.5</ele>
			 </trkpt>
			 <trkpt lat="51.51155" lon="-0.1721">
				 <ele>24.4</ele>
			 </trkpt>
			 <trkpt lat="51.511595" lon="-0.17105">
				 <ele>24.2</ele>
			 </trkpt>
			 <trkpt lat="51.51164" lon="-0.17">
				 <ele>23.9</ele>
			 </trkpt>
			 <trkpt lat="51.51179" lon="-0.16868">
				 <ele>23.6</ele>
			 </trkpt>
			 <trkpt lat="51.511945" lon="-0.167555">
				 <ele>23.5</ele>
			 </trkpt>
			 <trkpt lat="51.5121" lon="-0.16643">
				 <ele>23.4</ele>
			 </trkpt>
			 <trkpt lat="51.51212" lon="-0.16618">
				 <ele>23.3</ele>
			 </trkpt>
			 <trkpt lat="51.512195" lon="-0.165115">
				 <ele>23.2</ele>
			 </trkpt>
			 <trkpt lat="51.51227" lon="-0.16405">
				 <ele>23.3</ele>
			 </trkpt>
			 <trkpt lat="51.51227" lon="-0.16353">
				 <ele>23.5</ele>
			 </trkpt>
			 <trkpt lat="51.5122" lon="-0.16251">
				 <ele>23.7</ele>
			 </trkpt>
			 <trkpt lat="51.51205" lon="-0.16251">
				 <ele>24</ele>
			 </trkpt>
			 <trkpt lat="51.51201" lon="-0.16235">
				 <ele>24.3</ele>
			 </trkpt>
			 <trkpt lat="51.51125" lon="-0.16204">
				 <ele>24.5</ele>
			 </trkpt>
			 <trkpt lat="51.51049" lon="-0.16173">
				 <ele>24.8</ele>
			 </trkpt>
			 <trkpt lat="51.509925" lon="-0.161485">
				 <ele>24.9</ele>
			 </trkpt>
			 <trkpt lat="51.50936" lon="-0.16124">
				 <ele>24.9</ele>
			 </trkpt>
			 <trkpt lat="51.50899" lon="-0.16112">
				 <ele>25</ele>
			 </trkpt>
			 <trkpt lat="51.50871" lon="-0.16017">
				 <ele>25</ele>
			 </trkpt>
			 <trkpt lat="51.50843" lon="-0.15922">
				 <ele>24.8</ele>
			 </trkpt>
			 <trkpt lat="51.50815" lon="-0.15836">
				 <ele>24.6</ele>
			 </trkpt>
			 <trkpt lat="51.507925" lon="-0.15759">
				 <ele>24.5</ele>
			 </trkpt>
			 <trkpt lat="51.5077" lon="-0.15682">
				 <ele>24.5</ele>
			 </trkpt>
			 <trkpt lat="51.50728" lon="-0.157255">
				 <ele>24.5</ele>
			 </trkpt>
			 <trkpt lat="51.50686" lon="-0.15769">
				 <ele>24.5</ele>
			 </trkpt>
			 <trkpt lat="51.50728" lon="-0.158475">
				 <ele>24.6</ele>
			 </trkpt>
			 <trkpt lat="51.5077" lon="-0.15926">
				 <ele>24.8</ele>
			 </trkpt>
			 <trkpt lat="51.50829" lon="-0.16025">
				 <ele>24.9</ele>
			 </trkpt>
			 <trkpt lat="51.50886" lon="-0.16107">
				 <ele>24.9</ele>
			 </trkpt>
			 <trkpt lat="51.50912" lon="-0.16117">
				 <ele>24.9</ele>
			 </trkpt>
			 <trkpt lat="51.50905" lon="-0.16138">
				 <ele>24.9</ele>
			 </trkpt>
			 <trkpt lat="51.50907" lon="-0.1615">
				 <ele>24.8</ele>
			 </trkpt>
			 <trkpt lat="51.508955" lon="-0.162415">
				 <ele>24.5</ele>
			 </trkpt>
			 <trkpt lat="51.50884" lon="-0.16333">
				 <ele>23.9</ele>
			 </trkpt>
			 <trkpt lat="51.508675" lon="-0.16417">
				 <ele>23.2</ele>
			 </trkpt>
			 <trkpt lat="51.50851" lon="-0.16501">
				 <ele>22.5</ele>
			 </trkpt>
			 <trkpt lat="51.50852" lon="-0.16524">
				 <ele>22.1</ele>
			 </trkpt>
			 <trkpt lat="51.50841" lon="-0.16525">
				 <ele>21.6</ele>
			 </trkpt>
			 <trkpt lat="51.50826" lon="-0.16632">
				 <ele>21.3</ele>
			 </trkpt>
			 <trkpt lat="51.50815" lon="-0.16676">
				 <ele>20.9</ele>
			 </trkpt>
			 <trkpt lat="51.50806" lon="-0.16732">
				 <ele>20.6</ele>
			 </trkpt>
			 <trkpt lat="51.507833" lon="-0.168243">
				 <ele>20.3</ele>
			 </trkpt>
			 <trkpt lat="51.507607" lon="-0.169167">
				 <ele>20</ele>
			 </trkpt>
			 <trkpt lat="51.50738" lon="-0.17009">
				 <ele>19.7</ele>
			 </trkpt>
			 <trkpt lat="51.50736" lon="-0.1703">
				 <ele>19.7</ele>
			 </trkpt>
			 <trkpt lat="51.50721" lon="-0.17038">
				 <ele>19.6</ele>
			 </trkpt>
			 <trkpt lat="51.50689" lon="-0.17071">
				 <ele>19.5</ele>
			 </trkpt>
			 <trkpt lat="51.50665" lon="-0.17105">
				 <ele>19</ele>
			 </trkpt>
			 <trkpt lat="51.5066" lon="-0.17114">
				 <ele>18.5</ele>
			 </trkpt>
			 <trkpt lat="51.50655" lon="-0.17103">
				 <ele>18.1</ele>
			 </trkpt>
			 <trkpt lat="51.50627" lon="-0.17008">
				 <ele>17.5</ele>
			 </trkpt>
			 <trkpt lat="51.50625" lon="-0.16989">
				 <ele>17</ele>
			 </trkpt>
			 <trkpt lat="51.50605" lon="-0.16947">
				 <ele>16.6</ele>
			 </trkpt>
			 <trkpt lat="51.50613" lon="-0.16935">
				 <ele>16.4</ele>
			 </trkpt>
			 <trkpt lat="51.50611" lon="-0.16906">
				 <ele>16.1</ele>
			 </trkpt>
			 <trkpt lat="51.506093" lon="-0.16806">
				 <ele>15.9</ele>
			 </trkpt>
			 <trkpt lat="51.506077" lon="-0.16706">
				 <ele>15.8</ele>
			 </trkpt>
			 <trkpt lat="51.50606" lon="-0.16606">
				 <ele>15.7</ele>
			 </trkpt>
			 <trkpt lat="51.50615" lon="-0.1649">
				 <ele>15.7</ele>
			 </trkpt>
			 <trkpt lat="51.50615" lon="-0.16417">
				 <ele>15.7</ele>
			 </trkpt>
			 <trkpt lat="51.5061" lon="-0.1635">
				 <ele>15.8</ele>
			 </trkpt>
			 <trkpt lat="51.50603" lon="-0.16298">
				 <ele>16</ele>
			 </trkpt>
			 <trkpt lat="51.50579" lon="-0.16169">
				 <ele>16.3</ele>
			 </trkpt>
			 <trkpt lat="51.50549" lon="-0.16047">
				 <ele>16.5</ele>
			 </trkpt>
			 <trkpt lat="51.50528" lon="-0.159377">
				 <ele>16.7</ele>
			 </trkpt>
			 <trkpt lat="51.50507" lon="-0.158283">
				 <ele>16.9</ele>
			 </trkpt>
			 <trkpt lat="51.50486" lon="-0.15719">
				 <ele>17.1</ele>
			 </trkpt>
			 <trkpt lat="51.50461" lon="-0.15584">
				 <ele>17.4</ele>
			 </trkpt>
			 <trkpt lat="51.50447" lon="-0.15498">
				 <ele>17.8</ele>
			 </trkpt>
			 <trkpt lat="51.50433" lon="-0.15412">
				 <ele>18.5</ele>
			 </trkpt>
			 <trkpt lat="51.50423" lon="-0.15342">
				 <ele>19.2</ele>
			 </trkpt>
			 <trkpt lat="51.50423" lon="-0.15313">
				 <ele>19.9</ele>
			 </trkpt>
			 <trkpt lat="51.50435" lon="-0.15319">
				 <ele>20.7</ele>
			 </trkpt>
			 <trkpt lat="51.505113" lon="-0.153845">
				 <ele>21.5</ele>
			 </trkpt>
			 <trkpt lat="51.505875" lon="-0.1545">
				 <ele>22.2</ele>
			 </trkpt>
			 <trkpt lat="51.506638" lon="-0.155155">
				 <ele>23</ele>
			 </trkpt>
			 <trkpt lat="51.5074" lon="-0.15581">
				 <ele>23.8</ele>
			 </trkpt>
			 <trkpt lat="51.50792" lon="-0.15625">
				 <ele>24.6</ele>
			 </trkpt>
			 <trkpt lat="51.50844" lon="-0.15669">
				 <ele>25.4</ele>
			 </trkpt>
			 <trkpt lat="51.50893" lon="-0.157085">
				 <ele>25.9</ele>
			 </trkpt>
			 <trkpt lat="51.50942" lon="-0.15748">
				 <ele>26.3</ele>
			 </trkpt>
			 <trkpt lat="51.50966" lon="-0.15764">
				 <ele>26.5</ele>
			 </trkpt>
			 <trkpt lat="51.510355" lon="-0.15805">
				 <ele>26.5</ele>
			 </trkpt>
			 <trkpt lat="51.51105" lon="-0.15846">
				 <ele>26.4</ele>
			 </trkpt>
			 <trkpt lat="51.51139" lon="-0.15907">
				 <ele>26.2</ele>
			 </trkpt>
			 <trkpt lat="51.51166" lon="-0.15961">
				 <ele>26</ele>
			 </trkpt>
			 <trkpt lat="51.51198" lon="-0.16046">
				 <ele>25.7</ele>
			 </trkpt>
			 <trkpt lat="51.51206" lon="-0.16085">
				 <ele>25.5</ele>
			 </trkpt>
			 <trkpt lat="51.51208" lon="-0.16119">
				 <ele>25.2</ele>
			 </trkpt>
			 <trkpt lat="51.51206" lon="-0.16203">
				 <ele>24.8</ele>
			 </trkpt>
			 <trkpt lat="51.5121" lon="-0.1622">
				 <ele>24.4</ele>
			 </trkpt>
			 <trkpt lat="51.51215" lon="-0.16228">
				 <ele>24</ele>
			 </trkpt>
			 <trkpt lat="51.5122" lon="-0.16233">
				 <ele>23.7</ele>
			 </trkpt>
			 <trkpt lat="51.51226" lon="-0.16232">
				 <ele>23.5</ele>
			 </trkpt>
			 <trkpt lat="51.51232" lon="-0.16323">
				 <ele>23.4</ele>
			 </trkpt>
			 <trkpt lat="51.51233" lon="-0.1638">
				 <ele>23.4</ele>
			 </trkpt>
			 <trkpt lat="51.51224" lon="-0.16512">
				 <ele>23.4</ele>
			 </trkpt>
			 <trkpt lat="51.51215" lon="-0.16644">
				 <ele>23.5</ele>
			 </trkpt>
			 <trkpt lat="51.511995" lon="-0.16757">
				 <ele>23.5</ele>
			 </trkpt>
			 <trkpt lat="51.51184" lon="-0.1687">
				 <ele>23.6</ele>
			 </trkpt>
			 <trkpt lat="51.51176" lon="-0.169475">
				 <ele>23.8</ele>
			 </trkpt>
			 <trkpt lat="51.51168" lon="-0.17025">
				 <ele>24.1</ele>
			 </trkpt>
			 <trkpt lat="51.511655" lon="-0.17101">
				 <ele>24.3</ele>
			 </trkpt>
			 <trkpt lat="51.51163" lon="-0.17177">
				 <ele>24.5</ele>
			 </trkpt>
			 <trkpt lat="51.51168" lon="-0.17219">
				 <ele>24.6</ele>
			 </trkpt>
			 <trkpt lat="51.51166" lon="-0.17236">
				 <ele>24.8</ele>
			 </trkpt>
			 <trkpt lat="51.51161" lon="-0.17243">
				 <ele>24.7</ele>
			 </trkpt>
			 <trkpt lat="51.51165" lon="-0.17249">
				 <ele>24.5</ele>
			 </trkpt>
			 <trkpt lat="51.51148" lon="-0.17274">
				 <ele>23.8</ele>
			 </trkpt>
			 <trkpt lat="51.51145" lon="-0.17288">
				 <ele>23.1</ele>
			 </trkpt>
			 <trkpt lat="51.51144" lon="-0.17307">
				 <ele>22.5</ele>
			 </trkpt>
			 <trkpt lat="51.51153" lon="-0.17404">
				 <ele>22</ele>
			 </trkpt>
			 <trkpt lat="51.5114" lon="-0.17458">
				 <ele>21.7</ele>
			 </trkpt>
			 <trkpt lat="51.511235" lon="-0.175335">
				 <ele>21.5</ele>
			 </trkpt>
			 <trkpt lat="51.51107" lon="-0.17609">
				 <ele>21.5</ele>
			 </trkpt>
			 <trkpt lat="51.51094" lon="-0.17683">
				 <ele>21.5</ele>
			 </trkpt>
			 <trkpt lat="51.51081" lon="-0.17757">
				 <ele>21.5</ele>
			 </trkpt>
			 <trkpt lat="51.51068" lon="-0.17851">
				 <ele>21.8</ele>
			 </trkpt>
			 <trkpt lat="51.51058" lon="-0.17942">
				 <ele>22.4</ele>
			 </trkpt>
			 <trkpt lat="51.510453" lon="-0.180797">
				 <ele>23.3</ele>
			 </trkpt>
			 <trkpt lat="51.510327" lon="-0.182173">
				 <ele>24.3</ele>
			 </trkpt>
			 <trkpt lat="51.5102" lon="-0.18355">
				 <ele>25.2</ele>
			 </trkpt>
			 <trkpt lat="51.510087" lon="-0.184937">
				 <ele>25.9</ele>
			 </trkpt>
			 <trkpt lat="51.509973" lon="-0.186323">
				 <ele>26.4</ele>
			 </trkpt>
			 <trkpt lat="51.50986" lon="-0.18771">
				 <ele>26.6</ele>
			 </trkpt>
			 <trkpt lat="51.50907" lon="-0.18738">
				 <ele>26.7</ele>
			 </trkpt>
			 <trkpt lat="51.508298" lon="-0.187038">
				 <ele>26.7</ele>
			 </trkpt>
			 <trkpt lat="51.507526" lon="-0.186696">
				 <ele>26.8</ele>
			 </trkpt>
			 <trkpt lat="51.506754" lon="-0.186354">
				 <ele>26.9</ele>
			 </trkpt>
			 <trkpt lat="51.505982" lon="-0.186012">
				 <ele>26.9</ele>
			 </trkpt>
			 <trkpt lat="51.50521" lon="-0.18567">
				 <ele>26.8</ele>
			 </trkpt>
			 <trkpt lat="51.505793" lon="-0.185927">
				 <ele>26.7</ele>
			 </trkpt>
			 <trkpt lat="51.506377" lon="-0.186183">
				 <ele>26.6</ele>
			 </trkpt>
			 <trkpt lat="51.50696" lon="-0.18644">
				 <ele>26.5</ele>
			 </trkpt>
			 <trkpt lat="51.50722" lon="-0.18601">
				 <ele>26.5</ele>
			 </trkpt>
			 <trkpt lat="51.50732" lon="-0.1858">
				 <ele>26.5</ele>
			 </trkpt>
			 <trkpt lat="51.50739" lon="-0.18556">
				 <ele>26.5</ele>
			 </trkpt>
			 <trkpt lat="51.50749" lon="-0.18531">
				 <ele>26.6</ele>
			 </trkpt>
			 <trkpt lat="51.50764" lon="-0.18456">
				 <ele>26.5</ele>
			 </trkpt>
			 <trkpt lat="51.50767" lon="-0.1842">
				 <ele>26.3</ele>
			 </trkpt>
			 <trkpt lat="51.50767" lon="-0.18352">
				 <ele>26.1</ele>
			 </trkpt>
			 <trkpt lat="51.50765" lon="-0.18329">
				 <ele>25.8</ele>
			 </trkpt>
			 <trkpt lat="51.50758" lon="-0.18296">
				 <ele>25.5</ele>
			 </trkpt>
			 <trkpt lat="51.50741" lon="-0.18249">
				 <ele>25</ele>
			 </trkpt>
			 <trkpt lat="51.50773" lon="-0.18188">
				 <ele>24.3</ele>
			 </trkpt>
			 <trkpt lat="51.50805" lon="-0.18127">
				 <ele>23.5</ele>
			 </trkpt>
			 <trkpt lat="51.508634" lon="-0.180228">
				 <ele>22.6</ele>
			 </trkpt>
			 <trkpt lat="51.509218" lon="-0.179186">
				 <ele>22</ele>
			 </trkpt>
			 <trkpt lat="51.509802" lon="-0.178144">
				 <ele>21.5</ele>
			 </trkpt>
			 <trkpt lat="51.510386" lon="-0.177102">
				 <ele>21.3</ele>
			 </trkpt>
			 <trkpt lat="51.51097" lon="-0.17606">
				 <ele>21.1</ele>
			 </trkpt>
			 <trkpt lat="51.51011" lon="-0.1763">
				 <ele>20.9</ele>
			 </trkpt>
			 <trkpt lat="51.509338" lon="-0.17676">
				 <ele>20.8</ele>
			 </trkpt>
			 <trkpt lat="51.508565" lon="-0.17722">
				 <ele>20.8</ele>
			 </trkpt>
			 <trkpt lat="51.507793" lon="-0.17768">
				 <ele>20.9</ele>
			 </trkpt>
			 <trkpt lat="51.50702" lon="-0.17814">
				 <ele>21.3</ele>
			 </trkpt>
			 <trkpt lat="51.50687" lon="-0.17827">
				 <ele>21.8</ele>
			 </trkpt>
			 <trkpt lat="51.50668" lon="-0.17822">
				 <ele>22.4</ele>
			 </trkpt>
			 <trkpt lat="51.50657" lon="-0.17825">
				 <ele>22.7</ele>
			 </trkpt>
			 <trkpt lat="51.50583" lon="-0.17822">
				 <ele>22.8</ele>
			 </trkpt>
			 <trkpt lat="51.50543" lon="-0.17818">
				 <ele>22.7</ele>
			 </trkpt>
			 <trkpt lat="51.50472" lon="-0.17804">
				 <ele>22.5</ele>
			 </trkpt>
			 <trkpt lat="51.50398" lon="-0.177945">
				 <ele>22.1</ele>
			 </trkpt>
			 <trkpt lat="51.50324" lon="-0.17785">
				 <ele>21.5</ele>
			 </trkpt>
			 <trkpt lat="51.503097" lon="-0.178833">
				 <ele>20.8</ele>
			 </trkpt>
			 <trkpt lat="51.502953" lon="-0.179817">
				 <ele>20.1</ele>
			 </trkpt>
			 <trkpt lat="51.50281" lon="-0.1808">
				 <ele>19.4</ele>
			 </trkpt>
			 <trkpt lat="51.5027" lon="-0.1814">
				 <ele>18.6</ele>
			 </trkpt>
			 <trkpt lat="51.50254" lon="-0.182485">
				 <ele>17.9</ele>
			 </trkpt>
			 <trkpt lat="51.50238" lon="-0.18357">
				 <ele>17.2</ele>
			 </trkpt>
			 <trkpt lat="51.50223" lon="-0.18437">
				 <ele>16.5</ele>
			 </trkpt>
			 <trkpt lat="51.50202" lon="-0.18424">
				 <ele>16.1</ele>
			 </trkpt>
			 <trkpt lat="51.50204" lon="-0.18411">
				 <ele>15.8</ele>
			 </trkpt>
			 <trkpt lat="51.5019" lon="-0.18337">
				 <ele>15.8</ele>
			 </trkpt>
			 <trkpt lat="51.50176" lon="-0.18263">
				 <ele>16.1</ele>
			 </trkpt>
			 <trkpt lat="51.50181" lon="-0.18157">
				 <ele>16.6</ele>
			 </trkpt>
			 <trkpt lat="51.50178" lon="-0.18109">
				 <ele>16.8</ele>
			 </trkpt>
			 <trkpt lat="51.50178" lon="-0.18038">
				 <ele>17</ele>
			 </trkpt>
			 <trkpt lat="51.50187" lon="-0.17917">
				 <ele>17.3</ele>
			 </trkpt>
			 <trkpt lat="51.50196" lon="-0.17796">
				 <ele>17.6</ele>
			 </trkpt>
			 <trkpt lat="51.50205" lon="-0.17675">
				 <ele>18</ele>
			 </trkpt>
		 </trkseg>
	 </trk>
</gpx>