<?xml version="1.0" encoding="UTF-8"?>
 <gpx creator="Garmin Connect" version="1.1"
	 xsi:schemaLocation="http://www.topografix.com/GPX/1/1 http://www.topografix.com/GPX/11.xsd"
	 xmlns:ns3="http://www.garmin.com/xmlschemas/TrackPointExtension/v1"
	 xmlns="http://www.topografix.com/GPX/1/1"
	 xmlns:xsi="http://www.w3.org/2001/XMLSchema-instance" xmlns:ns2="http://www.garmin.com/xmlschemas/GpxExtensions/v3">
	 <metadata>
		<name>Bay to Breakers 2023 - 12 km</name>
		 <link href="https://www.goandrace.com">
		 <text>Garmin Connect</text>
		 </link>
	 <time>2026-08-23T23:52:11</time>
	 </metadata>
	 <trk>
		 <name>Bay to Breakers 2023 - 12 km</name>
		 <trkseg>
			 <trkpt lat="37.790640780939" lon="-122.39341966997">
				 <ele>2.8340525627136</ele>
			 </trkpt>
			 <trkpt lat="37.785190683561" lon="-122.40029841626">
				 <ele>4.0417165756226</ele>
			 </trkpt>
			 <trkpt lat="37.774994932955" lon="-122.41313188462">
				 <ele>5.8541841506958</ele>
			 </trkpt>
			 <trkpt lat="37.77766618316" lon="-122.41657584099">
				 <ele>7.0930557250977</ele>
			 </trkpt>
			 <trkpt lat="37.777242354673" lon="-122.42004585635">
				 <ele>8.2867765426636</ele>
			 </trkpt>
			 <trkpt lat="37.775002606708" lon="-122.43784026937">
				 <ele>8.7740879058838</ele>
			 </trkpt>
			 <trkpt lat="37.774097775921" lon="-122.43766190897">
				 <ele>8.6545028686523</ele>
			 </trkpt>
			 <trkpt lat="37.772464963989" lon="-122.44987090917">
				 <ele>6.9689564704895</ele>
			 </trkpt>
			 <trkpt lat="37.772146092844" lon="-122.45233453142">
				 <ele>6.3666005134583</ele>
			 </trkpt>
			 <trkpt lat="37.770924870692" lon="-122.45546735155">
				 <ele>5.8009548187256</ele>
			 </trkpt>
			 <trkpt lat="37.770967352089" lon="-122.45668276332">
				 <ele>6.5084109306335</ele>
			 </trkpt>
			 <trkpt lat="37.771761148118" lon="-122.46202572368">
				 <ele>7.859338760376</ele>
			 </trkpt>
			 <trkpt lat="37.772509772767" lon="-122.46500699381">
				 <ele>9.1308889389038</ele>
			 </trkpt>
			 <trkpt lat="37.772577617517" lon="-122.46577947001">
				 <ele>13.49870300293</ele>
			 </trkpt>
			 <trkpt lat="37.772506380321" lon="-122.46831147532">
				 <ele>15.596454620361</ele>
			 </trkpt>
			 <trkpt lat="37.772341092106" lon="-122.46890232857">
				 <ele>17.227437973022</ele>
			 </trkpt>
			 <trkpt lat="37.77095025784" lon="-122.47119829948">
				 <ele>16.731441497803</ele>
			 </trkpt>
			 <trkpt lat="37.770746718923" lon="-122.47197077568">
				 <ele>18.010311126709</ele>
			 </trkpt>
			 <trkpt lat="37.770814565291" lon="-122.47249628341">
				 <ele>19.528444290161</ele>
			 </trkpt>
			 <trkpt lat="37.771611755448" lon="-122.47503111431">
				 <ele>21.319217681885</ele>
			 </trkpt>
			 <trkpt lat="37.771679601022" lon="-122.47556755611">
				 <ele>26.583154678345</ele>
			 </trkpt>
			 <trkpt lat="37.771560871227" lon="-122.47668335506">
				 <ele>38.670372009277</ele>
			 </trkpt>
			 <trkpt lat="37.771289488122" lon="-122.47780988285">
				 <ele>54.481903076172</ele>
			 </trkpt>
			 <trkpt lat="37.770377462259" lon="-122.48027517">
				 <ele>73.450622558594</ele>
			 </trkpt>
			 <trkpt lat="37.770055189553" lon="-122.4816062829">
				 <ele>68.426635742188</ele>
			 </trkpt>
			 <trkpt lat="37.770038227792" lon="-122.48255042048">
				 <ele>58.076637268066</ele>
			 </trkpt>
			 <trkpt lat="37.770173921766" lon="-122.48323706598">
				 <ele>58.327842712402</ele>
			 </trkpt>
			 <trkpt lat="37.770156960033" lon="-122.4838378808">
				 <ele>63.695308685303</ele>
			 </trkpt>
			 <trkpt lat="37.769987342488" lon="-122.48463181467">
				 <ele>65.426605224609</ele>
			 </trkpt>
			 <trkpt lat="37.770052081861" lon="-122.48506805062">
				 <ele>68.208465576172</ele>
			 </trkpt>
			 <trkpt lat="37.770705106701" lon="-122.48634478211">
				 <ele>72.455078125</ele>
			 </trkpt>
			 <trkpt lat="37.770840799451" lon="-122.4869348681">
				 <ele>73.481506347656</ele>
			 </trkpt>
			 <trkpt lat="37.770840799451" lon="-122.48752495408">
				 <ele>74.812286376953</ele>
			 </trkpt>
			 <trkpt lat="37.770739029912" lon="-122.48868366837">
				 <ele>75.335472106934</ele>
			 </trkpt>
			 <trkpt lat="37.770798395493" lon="-122.48934885621">
				 <ele>74.826560974121</ele>
			 </trkpt>
			 <trkpt lat="37.770976491951" lon="-122.49034663796">
				 <ele>74.92879486084</ele>
			 </trkpt>
			 <trkpt lat="37.770976491951" lon="-122.49102255464">
				 <ele>73.703300476074</ele>
			 </trkpt>
			 <trkpt lat="37.770891684167" lon="-122.49147316575">
				 <ele>73.558143615723</ele>
			 </trkpt>
			 <trkpt lat="37.770594856159" lon="-122.49275773739">
				 <ele>72.149604797363</ele>
			 </trkpt>
			 <trkpt lat="37.770308544752" lon="-122.49360273857">
				 <ele>72.184478759766</ele>
			 </trkpt>
			 <trkpt lat="37.770094746619" lon="-122.49409075379">
				 <ele>73.893630981445</ele>
			 </trkpt>
			 <trkpt lat="37.770179555316" lon="-122.49469156861">
				 <ele>71.506904602051</ele>
			 </trkpt>
			 <trkpt lat="37.770077784867" lon="-122.49514217972">
				 <ele>70.567855834961</ele>
			 </trkpt>
			 <trkpt lat="37.769653739823" lon="-122.49562497735">
				 <ele>74.052841186523</ele>
			 </trkpt>
			 <trkpt lat="37.769414383998" lon="-122.49589682547">
				 <ele>74.39525604248</ele>
			 </trkpt>
			 <trkpt lat="37.769261726693" lon="-122.49632597891">
				 <ele>76.491546630859</ele>
			 </trkpt>
			 <trkpt lat="37.769015778149" lon="-122.49761343924">
				 <ele>68.207420349121</ele>
			 </trkpt>
			 <trkpt lat="37.768175363063" lon="-122.50046419801">
				 <ele>56.657165527344</ele>
			 </trkpt>
			 <trkpt lat="37.76758160178" lon="-122.50227880191">
				 <ele>53.140384674072</ele>
			 </trkpt>
			 <trkpt lat="37.767019899119" lon="-122.50475716304">
				 <ele>46.491302490234</ele>
			 </trkpt>
			 <trkpt lat="37.766697571578" lon="-122.50622449666">
				 <ele>41.620002746582</ele>
			 </trkpt>
			 <trkpt lat="37.766544908664" lon="-122.50616012364">
				 <ele>38.526851654053</ele>
			 </trkpt>
			 <trkpt lat="37.766333103039" lon="-122.50585270656">
				 <ele>40.301979064941</ele>
			 </trkpt>
			 <trkpt lat="37.76575637198" lon="-122.50466180576">
				 <ele>38.343383789062</ele>
			 </trkpt>
			 <trkpt lat="37.765544337371" lon="-122.50462961925">
				 <ele>34.357574462891</ele>
			 </trkpt>
			 <trkpt lat="37.765476486168" lon="-122.50513387454">
				 <ele>31.046703338623</ele>
			 </trkpt>
			 <trkpt lat="37.765378781408" lon="-122.50639832841">
				 <ele>27.250988006592</ele>
			 </trkpt>
			 <trkpt lat="37.765192190032" lon="-122.50722444879">
				 <ele>27.61964225769</ele>
			 </trkpt>
			 <trkpt lat="37.76506496837" lon="-122.50758922922">
				 <ele>24.325391769409</ele>
			 </trkpt>
			 <trkpt lat="37.764861413254" lon="-122.50826514589">
				 <ele>22.96067237854</ele>
			 </trkpt>
			 <trkpt lat="37.764394930668" lon="-122.50939703809">
				 <ele>22.745239257812</ele>
			 </trkpt>
			 <trkpt lat="37.76407263189" lon="-122.50951505529">
				 <ele>12.612708091736</ele>
			 </trkpt>
			 <trkpt lat="37.764042946406" lon="-122.51036799776">
				 <ele>6.856870174408</ele>
			 </trkpt>
			 <trkpt lat="37.764252442777" lon="-122.5103776844">
				 <ele>7.5416016578674</ele>
			 </trkpt>
		 </trkseg>
	 </trk>
</gpx>