<?xml version="1.0" encoding="UTF-8"?>
<gpx creator="StravaGPX" version="1.1" xmlns="http://www.topografix.com/GPX/1/1" xmlns:xsi="http://www.w3.org/2001/XMLSchema-instance" xsi:schemaLocation="http://www.topografix.com/GPX/1/1 http://www.topografix.com/GPX/1/1/gpx.xsd">
 <metadata>
  <name>10km du Mont-Blanc 2026</name>
  <author>
   <name>Magali Chevalier</name>
   <link href="https://www.strava.com/athletes/34563915"/>
  </author>
  <copyright author="OpenStreetMap contributors">
   <year>2020</year>
   <license>https://www.openstreetmap.org/copyright</license>
  </copyright>
  <link href="https://www.strava.com/routes/3411652340556196036"/>
 </metadata>
 <trk>
  <name>10km du Mont-Blanc 2026</name>
  <link href="https://www.strava.com/routes/3411652340556196036"/>
  <type>running</type>
  <trkseg>
   <trkpt lat="45.930130000000005" lon="6.87645">
    <ele>1043.68</ele>
   </trkpt>
   <trkpt lat="45.93086" lon="6.876740000000001">
    <ele>1047.8500000000001</ele>
   </trkpt>
   <trkpt lat="45.931043342895784" lon="6.877786659789236">
    <ele>1047.7</ele>
   </trkpt>
   <trkpt lat="45.931226676236534" lon="6.8788333264981185">
    <ele>1049.5100000000002</ele>
   </trkpt>
   <trkpt lat="45.93141000000001" lon="6.879880000000001">
    <ele>1050.19</ele>
   </trkpt>
   <trkpt lat="45.93168000525867" lon="6.880653325925615">
    <ele>1052.91</ele>
   </trkpt>
   <trkpt lat="45.93195000530122" lon="6.881426659380739">
    <ele>1054.93</ele>
   </trkpt>
   <trkpt lat="45.93222" lon="6.882200000000001">
    <ele>1053.74</ele>
   </trkpt>
   <trkpt lat="45.932410000000004" lon="6.882700000000001">
    <ele>1052.63</ele>
   </trkpt>
   <trkpt lat="45.93247" lon="6.883240000000001">
    <ele>1052.15</ele>
   </trkpt>
   <trkpt lat="45.932520000000004" lon="6.884480000000001">
    <ele>1054.07</ele>
   </trkpt>
   <trkpt lat="45.933130000000006" lon="6.885420000000001">
    <ele>1057.49</ele>
   </trkpt>
   <trkpt lat="45.93339500131354" lon="6.8859649974332715">
    <ele>1059.2400000000002</ele>
   </trkpt>
   <trkpt lat="45.93366" lon="6.88651">
    <ele>1062.5600000000002</ele>
   </trkpt>
   <trkpt lat="45.93385000000001" lon="6.8874">
    <ele>1066.03</ele>
   </trkpt>
   <trkpt lat="45.93403000000001" lon="6.888120000000001">
    <ele>1066.27</ele>
   </trkpt>
   <trkpt lat="45.93450000000001" lon="6.88867">
    <ele>1064.63</ele>
   </trkpt>
   <trkpt lat="45.93459000000001" lon="6.888960000000001">
    <ele>1063.56</ele>
   </trkpt>
   <trkpt lat="45.934540000000005" lon="6.88933">
    <ele>1064.1000000000001</ele>
   </trkpt>
   <trkpt lat="45.93468000000001" lon="6.88989">
    <ele>1066.21</ele>
   </trkpt>
   <trkpt lat="45.934810000000006" lon="6.8904700000000005">
    <ele>1067.82</ele>
   </trkpt>
   <trkpt lat="45.935190000000006" lon="6.890610000000001">
    <ele>1068.91</ele>
   </trkpt>
   <trkpt lat="45.935370000000006" lon="6.8905400000000006">
    <ele>1069.56</ele>
   </trkpt>
   <trkpt lat="45.935750000000006" lon="6.890420000000001">
    <ele>1071.1200000000001</ele>
   </trkpt>
   <trkpt lat="45.936040000000006" lon="6.89132">
    <ele>1071.96</ele>
   </trkpt>
   <trkpt lat="45.936330000000005" lon="6.891940000000001">
    <ele>1073.17</ele>
   </trkpt>
   <trkpt lat="45.93683" lon="6.8928">
    <ele>1069.6000000000001</ele>
   </trkpt>
   <trkpt lat="45.93719" lon="6.893730000000001">
    <ele>1073.13</ele>
   </trkpt>
   <trkpt lat="45.93766" lon="6.894540000000001">
    <ele>1074.1000000000001</ele>
   </trkpt>
   <trkpt lat="45.937870000000004" lon="6.895230000000001">
    <ele>1074.44</ele>
   </trkpt>
   <trkpt lat="45.93797000000001" lon="6.8956800000000005">
    <ele>1076.7900000000002</ele>
   </trkpt>
   <trkpt lat="45.93827" lon="6.89611">
    <ele>1078.0</ele>
   </trkpt>
   <trkpt lat="45.93856" lon="6.896330000000001">
    <ele>1078.5500000000002</ele>
   </trkpt>
   <trkpt lat="45.938840000000006" lon="6.896770000000001">
    <ele>1080.41</ele>
   </trkpt>
   <trkpt lat="45.939240000000005" lon="6.8972500000000005">
    <ele>1082.0400000000002</ele>
   </trkpt>
   <trkpt lat="45.93967000135189" lon="6.897774996111521">
    <ele>1083.1000000000001</ele>
   </trkpt>
   <trkpt lat="45.9401" lon="6.898300000000001">
    <ele>1084.41</ele>
   </trkpt>
   <trkpt lat="45.94046000085793" lon="6.89871499742863">
    <ele>1088.96</ele>
   </trkpt>
   <trkpt lat="45.94082" lon="6.89913">
    <ele>1092.39</ele>
   </trkpt>
   <trkpt lat="45.94082" lon="6.899140000000001">
    <ele>1092.39</ele>
   </trkpt>
   <trkpt lat="45.941390000000006" lon="6.899780000000001">
    <ele>1095.1200000000001</ele>
   </trkpt>
   <trkpt lat="45.94162" lon="6.90059">
    <ele>1098.0500000000002</ele>
   </trkpt>
   <trkpt lat="45.941790000000005" lon="6.901020000000001">
    <ele>1100.43</ele>
   </trkpt>
   <trkpt lat="45.941930000000006" lon="6.901300000000001">
    <ele>1103.1200000000001</ele>
   </trkpt>
   <trkpt lat="45.941810000000004" lon="6.901960000000001">
    <ele>1105.1000000000001</ele>
   </trkpt>
   <trkpt lat="45.941840000000006" lon="6.90218">
    <ele>1106.15</ele>
   </trkpt>
   <trkpt lat="45.94194" lon="6.902400000000001">
    <ele>1107.5700000000002</ele>
   </trkpt>
   <trkpt lat="45.9418" lon="6.902780000000001">
    <ele>1107.14</ele>
   </trkpt>
   <trkpt lat="45.94149" lon="6.902660000000001">
    <ele>1106.3100000000002</ele>
   </trkpt>
   <trkpt lat="45.941230000000004" lon="6.90268">
    <ele>1108.67</ele>
   </trkpt>
   <trkpt lat="45.94095" lon="6.902900000000001">
    <ele>1113.82</ele>
   </trkpt>
   <trkpt lat="45.94138" lon="6.90378">
    <ele>1112.78</ele>
   </trkpt>
   <trkpt lat="45.94153000000001" lon="6.90427">
    <ele>1117.04</ele>
   </trkpt>
   <trkpt lat="45.94158" lon="6.90488">
    <ele>1126.9</ele>
   </trkpt>
   <trkpt lat="45.94164000000001" lon="6.905590000000001">
    <ele>1136.5700000000002</ele>
   </trkpt>
   <trkpt lat="45.941750000000006" lon="6.906160000000001">
    <ele>1143.07</ele>
   </trkpt>
   <trkpt lat="45.942150000000005" lon="6.906440000000001">
    <ele>1141.78</ele>
   </trkpt>
   <trkpt lat="45.9425" lon="6.906790000000001">
    <ele>1143.31</ele>
   </trkpt>
   <trkpt lat="45.94276000000001" lon="6.907050000000001">
    <ele>1146.3700000000001</ele>
   </trkpt>
   <trkpt lat="45.942840000000004" lon="6.9073">
    <ele>1149.96</ele>
   </trkpt>
   <trkpt lat="45.942930000000004" lon="6.907610000000001">
    <ele>1156.3700000000001</ele>
   </trkpt>
   <trkpt lat="45.943180000000005" lon="6.907640000000001">
    <ele>1153.93</ele>
   </trkpt>
   <trkpt lat="45.94321" lon="6.907470000000001">
    <ele>1149.69</ele>
   </trkpt>
   <trkpt lat="45.943180000000005" lon="6.9069400000000005">
    <ele>1139.48</ele>
   </trkpt>
   <trkpt lat="45.94328" lon="6.90662">
    <ele>1134.1000000000001</ele>
   </trkpt>
   <trkpt lat="45.943780000000004" lon="6.9070800000000006">
    <ele>1134.6900000000003</ele>
   </trkpt>
   <trkpt lat="45.944120000000005" lon="6.90704">
    <ele>1134.38</ele>
   </trkpt>
   <trkpt lat="45.9446" lon="6.907150000000001">
    <ele>1138.25</ele>
   </trkpt>
   <trkpt lat="45.94492" lon="6.907500000000001">
    <ele>1145.17</ele>
   </trkpt>
   <trkpt lat="45.94547" lon="6.907760000000001">
    <ele>1151.37</ele>
   </trkpt>
   <trkpt lat="45.945820000000005" lon="6.907610000000001">
    <ele>1149.5900000000001</ele>
   </trkpt>
   <trkpt lat="45.945870000000006" lon="6.9069400000000005">
    <ele>1143.98</ele>
   </trkpt>
   <trkpt lat="45.946110000000004" lon="6.90669">
    <ele>1144.6000000000001</ele>
   </trkpt>
   <trkpt lat="45.94596000000001" lon="6.90643">
    <ele>1142.68</ele>
   </trkpt>
   <trkpt lat="45.945690000000006" lon="6.9066600000000005">
    <ele>1141.69</ele>
   </trkpt>
   <trkpt lat="45.945510000000006" lon="6.9070100000000005">
    <ele>1142.49</ele>
   </trkpt>
   <trkpt lat="45.945240000000005" lon="6.90711">
    <ele>1141.37</ele>
   </trkpt>
   <trkpt lat="45.94498" lon="6.906890000000001">
    <ele>1138.0100000000002</ele>
   </trkpt>
   <trkpt lat="45.944750000000006" lon="6.906560000000001">
    <ele>1134.2</ele>
   </trkpt>
   <trkpt lat="45.944630000000004" lon="6.9059800000000005">
    <ele>1129.8700000000001</ele>
   </trkpt>
   <trkpt lat="45.944340000000004" lon="6.905550000000001">
    <ele>1126.68</ele>
   </trkpt>
   <trkpt lat="45.944" lon="6.905430000000001">
    <ele>1125.18</ele>
   </trkpt>
   <trkpt lat="45.94388000000001" lon="6.90542">
    <ele>1124.94</ele>
   </trkpt>
   <trkpt lat="45.94377" lon="6.90563">
    <ele>1125.6200000000001</ele>
   </trkpt>
   <trkpt lat="45.9436" lon="6.905690000000001">
    <ele>1125.9800000000002</ele>
   </trkpt>
   <trkpt lat="45.94352000000001" lon="6.905460000000001">
    <ele>1124.98</ele>
   </trkpt>
   <trkpt lat="45.94352000000001" lon="6.90488">
    <ele>1121.2000000000003</ele>
   </trkpt>
   <trkpt lat="45.943360000000006" lon="6.9044300000000005">
    <ele>1117.4700000000003</ele>
   </trkpt>
   <trkpt lat="45.943070000000006" lon="6.9042200000000005">
    <ele>1116.2800000000002</ele>
   </trkpt>
   <trkpt lat="45.942780000000006" lon="6.904070000000001">
    <ele>1114.7600000000002</ele>
   </trkpt>
   <trkpt lat="45.9425" lon="6.903790000000001">
    <ele>1111.9800000000002</ele>
   </trkpt>
   <trkpt lat="45.942220000000006" lon="6.90357">
    <ele>1110.3</ele>
   </trkpt>
   <trkpt lat="45.94191000000001" lon="6.903300000000001">
    <ele>1108.16</ele>
   </trkpt>
   <trkpt lat="45.941790000000005" lon="6.903080000000001">
    <ele>1107.38</ele>
   </trkpt>
   <trkpt lat="45.941990000000004" lon="6.902380000000001">
    <ele>1107.9800000000002</ele>
   </trkpt>
   <trkpt lat="45.94216" lon="6.902080000000001">
    <ele>1107.8400000000001</ele>
   </trkpt>
   <trkpt lat="45.94216" lon="6.9015200000000005">
    <ele>1105.66</ele>
   </trkpt>
   <trkpt lat="45.94225" lon="6.90103">
    <ele>1103.76</ele>
   </trkpt>
   <trkpt lat="45.942460000000004" lon="6.90071">
    <ele>1104.38</ele>
   </trkpt>
   <trkpt lat="45.94256" lon="6.900040000000001">
    <ele>1101.9800000000002</ele>
   </trkpt>
   <trkpt lat="45.94312" lon="6.900370000000001">
    <ele>1107.3500000000001</ele>
   </trkpt>
   <trkpt lat="45.94323000000001" lon="6.90066">
    <ele>1109.78</ele>
   </trkpt>
   <trkpt lat="45.94301" lon="6.90113">
    <ele>1110.21</ele>
   </trkpt>
   <trkpt lat="45.94283" lon="6.90148">
    <ele>1109.85</ele>
   </trkpt>
   <trkpt lat="45.94296000000001" lon="6.901790000000001">
    <ele>1110.44</ele>
   </trkpt>
   <trkpt lat="45.943400000000004" lon="6.902030000000001">
    <ele>1112.2</ele>
   </trkpt>
   <trkpt lat="45.943630000000006" lon="6.902480000000001">
    <ele>1111.8600000000001</ele>
   </trkpt>
   <trkpt lat="45.94402" lon="6.9026700000000005">
    <ele>1114.64</ele>
   </trkpt>
   <trkpt lat="45.944050000000004" lon="6.903230000000001">
    <ele>1114.2500000000002</ele>
   </trkpt>
   <trkpt lat="45.944500000000005" lon="6.903420000000001">
    <ele>1118.64</ele>
   </trkpt>
   <trkpt lat="45.94482000000001" lon="6.903460000000001">
    <ele>1123.0500000000002</ele>
   </trkpt>
   <trkpt lat="45.94509" lon="6.903270000000001">
    <ele>1128.88</ele>
   </trkpt>
   <trkpt lat="45.945550000000004" lon="6.90329">
    <ele>1134.17</ele>
   </trkpt>
   <trkpt lat="45.94606" lon="6.90411">
    <ele>1133.37</ele>
   </trkpt>
   <trkpt lat="45.94651" lon="6.90458">
    <ele>1136.76</ele>
   </trkpt>
   <trkpt lat="45.946940000000005" lon="6.905080000000001">
    <ele>1145.22</ele>
   </trkpt>
   <trkpt lat="45.9474" lon="6.905340000000001">
    <ele>1158.5800000000002</ele>
   </trkpt>
   <trkpt lat="45.9476" lon="6.905850000000001">
    <ele>1168.47</ele>
   </trkpt>
   <trkpt lat="45.94758" lon="6.90627">
    <ele>1167.2</ele>
   </trkpt>
   <trkpt lat="45.947700000000005" lon="6.906720000000001">
    <ele>1174.0600000000002</ele>
   </trkpt>
   <trkpt lat="45.94755000000001" lon="6.9070800000000006">
    <ele>1167.6200000000001</ele>
   </trkpt>
   <trkpt lat="45.9474" lon="6.90723">
    <ele>1162.16</ele>
   </trkpt>
   <trkpt lat="45.94747" lon="6.907610000000001">
    <ele>1165.41</ele>
   </trkpt>
   <trkpt lat="45.94774" lon="6.907760000000001">
    <ele>1178.8700000000001</ele>
   </trkpt>
   <trkpt lat="45.94784000000001" lon="6.9080200000000005">
    <ele>1187.5500000000002</ele>
   </trkpt>
   <trkpt lat="45.94782000000001" lon="6.90833">
    <ele>1186.23</ele>
   </trkpt>
   <trkpt lat="45.94794" lon="6.908500000000001">
    <ele>1195.2800000000002</ele>
   </trkpt>
   <trkpt lat="45.94807" lon="6.908950000000001">
    <ele>1205.94</ele>
   </trkpt>
   <trkpt lat="45.948190000000004" lon="6.90948">
    <ele>1219.84</ele>
   </trkpt>
   <trkpt lat="45.948330000000006" lon="6.91002">
    <ele>1240.28</ele>
   </trkpt>
   <trkpt lat="45.94832" lon="6.910310000000001">
    <ele>1246.3200000000002</ele>
   </trkpt>
   <trkpt lat="45.948190000000004" lon="6.910780000000001">
    <ele>1248.8400000000001</ele>
   </trkpt>
   <trkpt lat="45.948280000000004" lon="6.910830000000001">
    <ele>1256.67</ele>
   </trkpt>
   <trkpt lat="45.9483" lon="6.91091">
    <ele>1257.73</ele>
   </trkpt>
   <trkpt lat="45.94845" lon="6.910800000000001">
    <ele>1266.25</ele>
   </trkpt>
   <trkpt lat="45.94859" lon="6.91061">
    <ele>1273.39</ele>
   </trkpt>
   <trkpt lat="45.948690000000006" lon="6.910360000000001">
    <ele>1275.3000000000002</ele>
   </trkpt>
   <trkpt lat="45.948750000000004" lon="6.91002">
    <ele>1273.3100000000002</ele>
   </trkpt>
   <trkpt lat="45.94877" lon="6.90974">
    <ele>1270.85</ele>
   </trkpt>
   <trkpt lat="45.94887000000001" lon="6.909370000000001">
    <ele>1272.5700000000002</ele>
   </trkpt>
   <trkpt lat="45.94903" lon="6.909000000000001">
    <ele>1277.77</ele>
   </trkpt>
   <trkpt lat="45.94905000000001" lon="6.908670000000001">
    <ele>1272.44</ele>
   </trkpt>
   <trkpt lat="45.9491" lon="6.908480000000001">
    <ele>1271.42</ele>
   </trkpt>
   <trkpt lat="45.94912" lon="6.90824">
    <ele>1267.3700000000001</ele>
   </trkpt>
   <trkpt lat="45.949110000000005" lon="6.907870000000001">
    <ele>1259.12</ele>
   </trkpt>
   <trkpt lat="45.94905000000001" lon="6.907680000000001">
    <ele>1253.3</ele>
   </trkpt>
   <trkpt lat="45.94897" lon="6.90744">
    <ele>1247.46</ele>
   </trkpt>
   <trkpt lat="45.94895" lon="6.907260000000001">
    <ele>1242.3700000000001</ele>
   </trkpt>
   <trkpt lat="45.948890000000006" lon="6.90699">
    <ele>1235.36</ele>
   </trkpt>
   <trkpt lat="45.94885000000001" lon="6.906740000000001">
    <ele>1229.0800000000002</ele>
   </trkpt>
   <trkpt lat="45.94886" lon="6.906530000000001">
    <ele>1224.0900000000001</ele>
   </trkpt>
   <trkpt lat="45.94883" lon="6.906320000000001">
    <ele>1219.7300000000002</ele>
   </trkpt>
   <trkpt lat="45.948780000000006" lon="6.9062600000000005">
    <ele>1217.2900000000002</ele>
   </trkpt>
   <trkpt lat="45.948690000000006" lon="6.906440000000001">
    <ele>1219.48</ele>
   </trkpt>
   <trkpt lat="45.94863" lon="6.9064700000000006">
    <ele>1218.92</ele>
   </trkpt>
   <trkpt lat="45.948570000000004" lon="6.906250000000001">
    <ele>1213.75</ele>
   </trkpt>
   <trkpt lat="45.94852" lon="6.906060000000001">
    <ele>1209.54</ele>
   </trkpt>
   <trkpt lat="45.94847" lon="6.90575">
    <ele>1203.92</ele>
   </trkpt>
   <trkpt lat="45.948510000000006" lon="6.905570000000001">
    <ele>1201.3700000000001</ele>
   </trkpt>
   <trkpt lat="45.94847" lon="6.905460000000001">
    <ele>1199.57</ele>
   </trkpt>
   <trkpt lat="45.948510000000006" lon="6.9052500000000006">
    <ele>1196.66</ele>
   </trkpt>
   <trkpt lat="45.948420000000006" lon="6.904850000000001">
    <ele>1188.97</ele>
   </trkpt>
   <trkpt lat="45.94836" lon="6.90462">
    <ele>1184.7800000000002</ele>
   </trkpt>
   <trkpt lat="45.948260000000005" lon="6.9045000000000005">
    <ele>1182.7800000000002</ele>
   </trkpt>
   <trkpt lat="45.94816" lon="6.904210000000001">
    <ele>1178.66</ele>
   </trkpt>
   <trkpt lat="45.948040000000006" lon="6.904070000000001">
    <ele>1177.2900000000002</ele>
   </trkpt>
   <trkpt lat="45.94791" lon="6.90371">
    <ele>1174.5700000000002</ele>
   </trkpt>
   <trkpt lat="45.94776" lon="6.903490000000001">
    <ele>1172.16</ele>
   </trkpt>
   <trkpt lat="45.947770000000006" lon="6.9040300000000006">
    <ele>1174.92</ele>
   </trkpt>
   <trkpt lat="45.947880000000005" lon="6.904300000000001">
    <ele>1178.0700000000002</ele>
   </trkpt>
   <trkpt lat="45.947860000000006" lon="6.90465">
    <ele>1178.3600000000001</ele>
   </trkpt>
   <trkpt lat="45.947700000000005" lon="6.9049700000000005">
    <ele>1172.8</ele>
   </trkpt>
   <trkpt lat="45.94747" lon="6.9050400000000005">
    <ele>1161.75</ele>
   </trkpt>
   <trkpt lat="45.94742" lon="6.90469">
    <ele>1161.8700000000001</ele>
   </trkpt>
   <trkpt lat="45.947120000000005" lon="6.903950000000001">
    <ele>1155.39</ele>
   </trkpt>
   <trkpt lat="45.94695" lon="6.903390000000001">
    <ele>1154.0600000000002</ele>
   </trkpt>
   <trkpt lat="45.946540000000006" lon="6.90298">
    <ele>1145.48</ele>
   </trkpt>
   <trkpt lat="45.94585000000001" lon="6.902470000000001">
    <ele>1145.81</ele>
   </trkpt>
   <trkpt lat="45.945460000000004" lon="6.902050000000001">
    <ele>1147.0600000000002</ele>
   </trkpt>
   <trkpt lat="45.945060000000005" lon="6.901840000000001">
    <ele>1139.67</ele>
   </trkpt>
   <trkpt lat="45.94476" lon="6.90127">
    <ele>1130.76</ele>
   </trkpt>
   <trkpt lat="45.94446000000001" lon="6.901000000000001">
    <ele>1120.83</ele>
   </trkpt>
   <trkpt lat="45.9442" lon="6.900980000000001">
    <ele>1115.8300000000002</ele>
   </trkpt>
   <trkpt lat="45.943900000000006" lon="6.90099">
    <ele>1112.4900000000002</ele>
   </trkpt>
   <trkpt lat="45.94362" lon="6.9008400000000005">
    <ele>1111.01</ele>
   </trkpt>
   <trkpt lat="45.943310000000004" lon="6.900370000000001">
    <ele>1107.66</ele>
   </trkpt>
   <trkpt lat="45.943070000000006" lon="6.899800000000001">
    <ele>1102.4</ele>
   </trkpt>
   <trkpt lat="45.942710000000005" lon="6.89944">
    <ele>1098.87</ele>
   </trkpt>
   <trkpt lat="45.942040000000006" lon="6.899330000000001">
    <ele>1096.09</ele>
   </trkpt>
   <trkpt lat="45.94164000000001" lon="6.89913">
    <ele>1094.5800000000002</ele>
   </trkpt>
   <trkpt lat="45.941570000000006" lon="6.898930000000001">
    <ele>1094.03</ele>
   </trkpt>
   <trkpt lat="45.94106" lon="6.898460000000001">
    <ele>1091.32</ele>
   </trkpt>
   <trkpt lat="45.94091" lon="6.89773">
    <ele>1088.1000000000001</ele>
   </trkpt>
   <trkpt lat="45.94073" lon="6.897130000000001">
    <ele>1086.67</ele>
   </trkpt>
   <trkpt lat="45.94026" lon="6.896680000000001">
    <ele>1083.55</ele>
   </trkpt>
   <trkpt lat="45.939870000000006" lon="6.896680000000001">
    <ele>1082.3400000000001</ele>
   </trkpt>
   <trkpt lat="45.939260000000004" lon="6.896910000000001">
    <ele>1080.81</ele>
   </trkpt>
   <trkpt lat="45.938880000000005" lon="6.896470000000001">
    <ele>1078.94</ele>
   </trkpt>
   <trkpt lat="45.93847" lon="6.895930000000001">
    <ele>1076.42</ele>
   </trkpt>
   <trkpt lat="45.938230000000004" lon="6.895550000000001">
    <ele>1075.13</ele>
   </trkpt>
   <trkpt lat="45.937810000000006" lon="6.895810000000001">
    <ele>1078.42</ele>
   </trkpt>
   <trkpt lat="45.937400000000004" lon="6.89604">
    <ele>1082.02</ele>
   </trkpt>
   <trkpt lat="45.93706" lon="6.8956100000000005">
    <ele>1081.32</ele>
   </trkpt>
   <trkpt lat="45.936730000000004" lon="6.89522">
    <ele>1080.4</ele>
   </trkpt>
   <trkpt lat="45.9363" lon="6.894940000000001">
    <ele>1081.2700000000002</ele>
   </trkpt>
   <trkpt lat="45.936060000000005" lon="6.89461">
    <ele>1079.89</ele>
   </trkpt>
   <trkpt lat="45.93612" lon="6.893580000000001">
    <ele>1074.6200000000001</ele>
   </trkpt>
   <trkpt lat="45.936040000000006" lon="6.893140000000001">
    <ele>1073.05</ele>
   </trkpt>
   <trkpt lat="45.93574" lon="6.892640000000001">
    <ele>1071.42</ele>
   </trkpt>
   <trkpt lat="45.935320000000004" lon="6.8920900000000005">
    <ele>1070.78</ele>
   </trkpt>
   <trkpt lat="45.934990000000006" lon="6.89153">
    <ele>1069.3600000000001</ele>
   </trkpt>
   <trkpt lat="45.934670000000004" lon="6.8908000000000005">
    <ele>1069.2400000000002</ele>
   </trkpt>
   <trkpt lat="45.93453" lon="6.890280000000001">
    <ele>1067.5100000000002</ele>
   </trkpt>
   <trkpt lat="45.93453" lon="6.889920000000001">
    <ele>1066.2</ele>
   </trkpt>
   <trkpt lat="45.93451" lon="6.889550000000001">
    <ele>1064.94</ele>
   </trkpt>
   <trkpt lat="45.93446" lon="6.889200000000001">
    <ele>1063.88</ele>
   </trkpt>
   <trkpt lat="45.93444" lon="6.88879">
    <ele>1064.66</ele>
   </trkpt>
   <trkpt lat="45.9343" lon="6.888590000000001">
    <ele>1065.83</ele>
   </trkpt>
   <trkpt lat="45.934020000000004" lon="6.888260000000001">
    <ele>1066.23</ele>
   </trkpt>
   <trkpt lat="45.933820000000004" lon="6.8878">
    <ele>1066.1900000000003</ele>
   </trkpt>
   <trkpt lat="45.93359" lon="6.887230000000001">
    <ele>1065.2400000000002</ele>
   </trkpt>
   <trkpt lat="45.93321" lon="6.886310000000001">
    <ele>1060.5300000000002</ele>
   </trkpt>
   <trkpt lat="45.93300000000001" lon="6.885720000000001">
    <ele>1058.5600000000002</ele>
   </trkpt>
   <trkpt lat="45.932660000000006" lon="6.88501">
    <ele>1055.76</ele>
   </trkpt>
   <trkpt lat="45.93242" lon="6.8848400000000005">
    <ele>1054.8300000000002</ele>
   </trkpt>
   <trkpt lat="45.932230000000004" lon="6.88454">
    <ele>1053.8</ele>
   </trkpt>
   <trkpt lat="45.932230000000004" lon="6.883780000000001">
    <ele>1051.8899999999999</ele>
   </trkpt>
   <trkpt lat="45.93211" lon="6.88339">
    <ele>1051.1200000000001</ele>
   </trkpt>
   <trkpt lat="45.93175" lon="6.882810000000001">
    <ele>1050.8300000000002</ele>
   </trkpt>
   <trkpt lat="45.931520000000006" lon="6.8821200000000005">
    <ele>1049.96</ele>
   </trkpt>
   <trkpt lat="45.931250000000006" lon="6.881060000000001">
    <ele>1049.74</ele>
   </trkpt>
   <trkpt lat="45.930910000000004" lon="6.880230000000001">
    <ele>1048.0200000000002</ele>
   </trkpt>
   <trkpt lat="45.93057" lon="6.879580000000001">
    <ele>1046.72</ele>
   </trkpt>
   <trkpt lat="45.930440000000004" lon="6.878870000000001">
    <ele>1047.72</ele>
   </trkpt>
   <trkpt lat="45.930220000000006" lon="6.878150000000001">
    <ele>1046.3600000000001</ele>
   </trkpt>
   <trkpt lat="45.929730000000006" lon="6.877800000000001">
    <ele>1043.47</ele>
   </trkpt>
   <trkpt lat="45.92944000000001" lon="6.877350000000001">
    <ele>1041.6000000000001</ele>
   </trkpt>
   <trkpt lat="45.9294" lon="6.876930000000001">
    <ele>1040.46</ele>
   </trkpt>
  </trkseg>
 </trk>
</gpx>
