<?xml version="1.0" encoding="UTF-8"?>
 <gpx creator="Garmin Connect" version="1.1"
	 xsi:schemaLocation="http://www.topografix.com/GPX/1/1 http://www.topografix.com/GPX/11.xsd"
	 xmlns:ns3="http://www.garmin.com/xmlschemas/TrackPointExtension/v1"
	 xmlns="http://www.topografix.com/GPX/1/1"
	 xmlns:xsi="http://www.w3.org/2001/XMLSchema-instance" xmlns:ns2="http://www.garmin.com/xmlschemas/GpxExtensions/v3">
	 <metadata>
		<name>Seattle Marathon 2025 - 42.195 km</name>
		 <link href="https://www.goandrace.com">
		 <text>Garmin Connect</text>
		 </link>
	 <time>2026-08-23T23:05:34</time>
	 </metadata>
	 <trk>
		 <name>Seattle Marathon 2025 - 42.195 km</name>
		 <trkseg>
			 <trkpt lat="47.62207" lon="-122.34785">
				 <ele>28</ele>
			 </trkpt>
			 <trkpt lat="47.62206" lon="-122.347">
				 <ele>27.1</ele>
			 </trkpt>
			 <trkpt lat="47.62205" lon="-122.34615">
				 <ele>26.3</ele>
			 </trkpt>
			 <trkpt lat="47.622057" lon="-122.34489">
				 <ele>25.2</ele>
			 </trkpt>
			 <trkpt lat="47.622063" lon="-122.34363">
				 <ele>24.2</ele>
			 </trkpt>
			 <trkpt lat="47.62207" lon="-122.34237">
				 <ele>23.2</ele>
			 </trkpt>
			 <trkpt lat="47.62205" lon="-122.34189">
				 <ele>21.5</ele>
			 </trkpt>
			 <trkpt lat="47.62205" lon="-122.34083">
				 <ele>19.6</ele>
			 </trkpt>
			 <trkpt lat="47.62205" lon="-122.33977">
				 <ele>17.7</ele>
			 </trkpt>
			 <trkpt lat="47.622887" lon="-122.339763">
				 <ele>16</ele>
			 </trkpt>
			 <trkpt lat="47.623723" lon="-122.339757">
				 <ele>14.5</ele>
			 </trkpt>
			 <trkpt lat="47.62456" lon="-122.33975">
				 <ele>13.3</ele>
			 </trkpt>
			 <trkpt lat="47.62545" lon="-122.33973">
				 <ele>12.1</ele>
			 </trkpt>
			 <trkpt lat="47.62573" lon="-122.3386">
				 <ele>11.2</ele>
			 </trkpt>
			 <trkpt lat="47.62575" lon="-122.3384">
				 <ele>10.5</ele>
			 </trkpt>
			 <trkpt lat="47.62576" lon="-122.33776">
				 <ele>10</ele>
			 </trkpt>
			 <trkpt lat="47.625757" lon="-122.33664">
				 <ele>9.6</ele>
			 </trkpt>
			 <trkpt lat="47.625753" lon="-122.33552">
				 <ele>9.4</ele>
			 </trkpt>
			 <trkpt lat="47.62575" lon="-122.3344">
				 <ele>9.3</ele>
			 </trkpt>
			 <trkpt lat="47.626" lon="-122.33436">
				 <ele>9.5</ele>
			 </trkpt>
			 <trkpt lat="47.62641" lon="-122.33386">
				 <ele>9.8</ele>
			 </trkpt>
			 <trkpt lat="47.626825" lon="-122.333335">
				 <ele>10.6</ele>
			 </trkpt>
			 <trkpt lat="47.62724" lon="-122.33281">
				 <ele>11.9</ele>
			 </trkpt>
			 <trkpt lat="47.62694" lon="-122.33233">
				 <ele>13.8</ele>
			 </trkpt>
			 <trkpt lat="47.62688" lon="-122.33208">
				 <ele>15.9</ele>
			 </trkpt>
			 <trkpt lat="47.62686" lon="-122.33193">
				 <ele>18.4</ele>
			 </trkpt>
			 <trkpt lat="47.626867" lon="-122.331033">
				 <ele>21.3</ele>
			 </trkpt>
			 <trkpt lat="47.626873" lon="-122.330137">
				 <ele>24.2</ele>
			 </trkpt>
			 <trkpt lat="47.62688" lon="-122.32924">
				 <ele>27.1</ele>
			 </trkpt>
			 <trkpt lat="47.626355" lon="-122.32924">
				 <ele>29.9</ele>
			 </trkpt>
			 <trkpt lat="47.62583" lon="-122.32924">
				 <ele>32.5</ele>
			 </trkpt>
			 <trkpt lat="47.6252" lon="-122.32921">
				 <ele>35.5</ele>
			 </trkpt>
			 <trkpt lat="47.62513" lon="-122.32916">
				 <ele>38.3</ele>
			 </trkpt>
			 <trkpt lat="47.62513" lon="-122.32912">
				 <ele>40.6</ele>
			 </trkpt>
			 <trkpt lat="47.62518" lon="-122.32907">
				 <ele>42.5</ele>
			 </trkpt>
			 <trkpt lat="47.62572" lon="-122.32905">
				 <ele>44</ele>
			 </trkpt>
			 <trkpt lat="47.62656" lon="-122.329055">
				 <ele>45.3</ele>
			 </trkpt>
			 <trkpt lat="47.6274" lon="-122.32906">
				 <ele>46.2</ele>
			 </trkpt>
			 <trkpt lat="47.62771" lon="-122.32908">
				 <ele>47.3</ele>
			 </trkpt>
			 <trkpt lat="47.62779" lon="-122.32907">
				 <ele>48.5</ele>
			 </trkpt>
			 <trkpt lat="47.6279" lon="-122.32899">
				 <ele>49.6</ele>
			 </trkpt>
			 <trkpt lat="47.628" lon="-122.32886">
				 <ele>50.7</ele>
			 </trkpt>
			 <trkpt lat="47.62808" lon="-122.32867">
				 <ele>51.2</ele>
			 </trkpt>
			 <trkpt lat="47.62822" lon="-122.327935">
				 <ele>51.4</ele>
			 </trkpt>
			 <trkpt lat="47.62836" lon="-122.3272">
				 <ele>51.5</ele>
			 </trkpt>
			 <trkpt lat="47.62839" lon="-122.32712">
				 <ele>51.8</ele>
			 </trkpt>
			 <trkpt lat="47.62854" lon="-122.32693">
				 <ele>52</ele>
			 </trkpt>
			 <trkpt lat="47.62892" lon="-122.32644">
				 <ele>52.1</ele>
			 </trkpt>
			 <trkpt lat="47.629495" lon="-122.325845">
				 <ele>52</ele>
			 </trkpt>
			 <trkpt lat="47.63007" lon="-122.32525">
				 <ele>51.6</ele>
			 </trkpt>
			 <trkpt lat="47.630645" lon="-122.324655">
				 <ele>51.1</ele>
			 </trkpt>
			 <trkpt lat="47.63122" lon="-122.32406">
				 <ele>50.5</ele>
			 </trkpt>
			 <trkpt lat="47.63141" lon="-122.32397">
				 <ele>49.9</ele>
			 </trkpt>
			 <trkpt lat="47.63189" lon="-122.32393">
				 <ele>49.6</ele>
			 </trkpt>
			 <trkpt lat="47.63207" lon="-122.32384">
				 <ele>49.4</ele>
			 </trkpt>
			 <trkpt lat="47.63228" lon="-122.32366">
				 <ele>49</ele>
			 </trkpt>
			 <trkpt lat="47.63279" lon="-122.32295">
				 <ele>48.4</ele>
			 </trkpt>
			 <trkpt lat="47.63296" lon="-122.32276">
				 <ele>47.8</ele>
			 </trkpt>
			 <trkpt lat="47.63316" lon="-122.32258">
				 <ele>47.5</ele>
			 </trkpt>
			 <trkpt lat="47.63345" lon="-122.32245">
				 <ele>47.3</ele>
			 </trkpt>
			 <trkpt lat="47.63389" lon="-122.32242">
				 <ele>47.2</ele>
			 </trkpt>
			 <trkpt lat="47.63449" lon="-122.322417">
				 <ele>47.4</ele>
			 </trkpt>
			 <trkpt lat="47.63509" lon="-122.322413">
				 <ele>47.5</ele>
			 </trkpt>
			 <trkpt lat="47.63569" lon="-122.32241">
				 <ele>47.7</ele>
			 </trkpt>
			 <trkpt lat="47.63583" lon="-122.32245">
				 <ele>48</ele>
			 </trkpt>
			 <trkpt lat="47.63608" lon="-122.32262">
				 <ele>48.4</ele>
			 </trkpt>
			 <trkpt lat="47.63646" lon="-122.32303">
				 <ele>48.6</ele>
			 </trkpt>
			 <trkpt lat="47.63684" lon="-122.32344">
				 <ele>49</ele>
			 </trkpt>
			 <trkpt lat="47.63695" lon="-122.32349">
				 <ele>49.2</ele>
			 </trkpt>
			 <trkpt lat="47.637755" lon="-122.323485">
				 <ele>49.2</ele>
			 </trkpt>
			 <trkpt lat="47.63856" lon="-122.32348">
				 <ele>49.1</ele>
			 </trkpt>
			 <trkpt lat="47.63918" lon="-122.32349">
				 <ele>48.9</ele>
			 </trkpt>
			 <trkpt lat="47.6398" lon="-122.3235">
				 <ele>48.5</ele>
			 </trkpt>
			 <trkpt lat="47.640547" lon="-122.323493">
				 <ele>48.3</ele>
			 </trkpt>
			 <trkpt lat="47.641293" lon="-122.323487">
				 <ele>48.3</ele>
			 </trkpt>
			 <trkpt lat="47.64204" lon="-122.32348">
				 <ele>48.4</ele>
			 </trkpt>
			 <trkpt lat="47.64255" lon="-122.323465">
				 <ele>48.4</ele>
			 </trkpt>
			 <trkpt lat="47.64306" lon="-122.32345">
				 <ele>48.1</ele>
			 </trkpt>
			 <trkpt lat="47.64319" lon="-122.32341">
				 <ele>47.8</ele>
			 </trkpt>
			 <trkpt lat="47.64319" lon="-122.322342">
				 <ele>47.6</ele>
			 </trkpt>
			 <trkpt lat="47.64319" lon="-122.321275">
				 <ele>47.5</ele>
			 </trkpt>
			 <trkpt lat="47.64319" lon="-122.320207">
				 <ele>47.3</ele>
			 </trkpt>
			 <trkpt lat="47.64319" lon="-122.31914">
				 <ele>47.2</ele>
			 </trkpt>
			 <trkpt lat="47.64316" lon="-122.31898">
				 <ele>47.1</ele>
			 </trkpt>
			 <trkpt lat="47.64302" lon="-122.31871">
				 <ele>47</ele>
			 </trkpt>
			 <trkpt lat="47.64259" lon="-122.31803">
				 <ele>46.7</ele>
			 </trkpt>
			 <trkpt lat="47.64216" lon="-122.31735">
				 <ele>46.5</ele>
			 </trkpt>
			 <trkpt lat="47.64209" lon="-122.31721">
				 <ele>46.4</ele>
			 </trkpt>
			 <trkpt lat="47.64204" lon="-122.31701">
				 <ele>46.6</ele>
			 </trkpt>
			 <trkpt lat="47.64196" lon="-122.31705">
				 <ele>47</ele>
			 </trkpt>
			 <trkpt lat="47.64191" lon="-122.31699">
				 <ele>47.5</ele>
			 </trkpt>
			 <trkpt lat="47.6417" lon="-122.31624">
				 <ele>48.1</ele>
			 </trkpt>
			 <trkpt lat="47.64164" lon="-122.3161">
				 <ele>48.7</ele>
			 </trkpt>
			 <trkpt lat="47.64158" lon="-122.316">
				 <ele>49.4</ele>
			 </trkpt>
			 <trkpt lat="47.64143" lon="-122.31592">
				 <ele>50</ele>
			 </trkpt>
			 <trkpt lat="47.64116" lon="-122.31593">
				 <ele>50.5</ele>
			 </trkpt>
			 <trkpt lat="47.64099" lon="-122.31587">
				 <ele>51</ele>
			 </trkpt>
			 <trkpt lat="47.64088" lon="-122.31578">
				 <ele>51.2</ele>
			 </trkpt>
			 <trkpt lat="47.64067" lon="-122.31557">
				 <ele>51.4</ele>
			 </trkpt>
			 <trkpt lat="47.64056" lon="-122.31551">
				 <ele>51.5</ele>
			 </trkpt>
			 <trkpt lat="47.6402" lon="-122.31542">
				 <ele>51.5</ele>
			 </trkpt>
			 <trkpt lat="47.64008" lon="-122.31526">
				 <ele>51.3</ele>
			 </trkpt>
			 <trkpt lat="47.63987" lon="-122.31481">
				 <ele>51.1</ele>
			 </trkpt>
			 <trkpt lat="47.63977" lon="-122.31471">
				 <ele>50.9</ele>
			 </trkpt>
			 <trkpt lat="47.63946" lon="-122.31443">
				 <ele>50.7</ele>
			 </trkpt>
			 <trkpt lat="47.63924" lon="-122.31427">
				 <ele>50.5</ele>
			 </trkpt>
			 <trkpt lat="47.63907" lon="-122.31404">
				 <ele>50.5</ele>
			 </trkpt>
			 <trkpt lat="47.639" lon="-122.31385">
				 <ele>50.3</ele>
			 </trkpt>
			 <trkpt lat="47.63887" lon="-122.31337">
				 <ele>50.1</ele>
			 </trkpt>
			 <trkpt lat="47.63865" lon="-122.31283">
				 <ele>49.9</ele>
			 </trkpt>
			 <trkpt lat="47.63864" lon="-122.31256">
				 <ele>49.7</ele>
			 </trkpt>
			 <trkpt lat="47.63866" lon="-122.31238">
				 <ele>49.5</ele>
			 </trkpt>
			 <trkpt lat="47.63874" lon="-122.31207">
				 <ele>49.5</ele>
			 </trkpt>
			 <trkpt lat="47.63875" lon="-122.3119">
				 <ele>49.4</ele>
			 </trkpt>
			 <trkpt lat="47.63875" lon="-122.31162">
				 <ele>49.3</ele>
			 </trkpt>
			 <trkpt lat="47.6387" lon="-122.31148">
				 <ele>49.2</ele>
			 </trkpt>
			 <trkpt lat="47.63859" lon="-122.31135">
				 <ele>49</ele>
			 </trkpt>
			 <trkpt lat="47.63835" lon="-122.31114">
				 <ele>48.8</ele>
			 </trkpt>
			 <trkpt lat="47.63812" lon="-122.3109">
				 <ele>48.7</ele>
			 </trkpt>
			 <trkpt lat="47.63804" lon="-122.31086">
				 <ele>48.5</ele>
			 </trkpt>
			 <trkpt lat="47.63796" lon="-122.31086">
				 <ele>48.3</ele>
			 </trkpt>
			 <trkpt lat="47.63782" lon="-122.3109">
				 <ele>48</ele>
			 </trkpt>
			 <trkpt lat="47.63758" lon="-122.31108">
				 <ele>47.7</ele>
			 </trkpt>
			 <trkpt lat="47.63742" lon="-122.31113">
				 <ele>47.5</ele>
			 </trkpt>
			 <trkpt lat="47.63719" lon="-122.31117">
				 <ele>47.2</ele>
			 </trkpt>
			 <trkpt lat="47.63686" lon="-122.31113">
				 <ele>46.8</ele>
			 </trkpt>
			 <trkpt lat="47.6367" lon="-122.31104">
				 <ele>46.5</ele>
			 </trkpt>
			 <trkpt lat="47.6366" lon="-122.31095">
				 <ele>46.2</ele>
			 </trkpt>
			 <trkpt lat="47.63655" lon="-122.3108">
				 <ele>46</ele>
			 </trkpt>
			 <trkpt lat="47.63654" lon="-122.31068">
				 <ele>45.8</ele>
			 </trkpt>
			 <trkpt lat="47.63656" lon="-122.31058">
				 <ele>45.7</ele>
			 </trkpt>
			 <trkpt lat="47.63666" lon="-122.31038">
				 <ele>45.7</ele>
			 </trkpt>
			 <trkpt lat="47.63672" lon="-122.31033">
				 <ele>45.7</ele>
			 </trkpt>
			 <trkpt lat="47.63702" lon="-122.31024">
				 <ele>45.7</ele>
			 </trkpt>
			 <trkpt lat="47.63709" lon="-122.31019">
				 <ele>45.7</ele>
			 </trkpt>
			 <trkpt lat="47.63723" lon="-122.30996">
				 <ele>45.7</ele>
			 </trkpt>
			 <trkpt lat="47.63737" lon="-122.30954">
				 <ele>45.8</ele>
			 </trkpt>
			 <trkpt lat="47.63749" lon="-122.30947">
				 <ele>45.9</ele>
			 </trkpt>
			 <trkpt lat="47.63753" lon="-122.30939">
				 <ele>46</ele>
			 </trkpt>
			 <trkpt lat="47.63753" lon="-122.30935">
				 <ele>46</ele>
			 </trkpt>
			 <trkpt lat="47.63751" lon="-122.30929">
				 <ele>45.9</ele>
			 </trkpt>
			 <trkpt lat="47.63743" lon="-122.3092">
				 <ele>45.8</ele>
			 </trkpt>
			 <trkpt lat="47.63715" lon="-122.3089">
				 <ele>45.7</ele>
			 </trkpt>
			 <trkpt lat="47.63708" lon="-122.3089">
				 <ele>45.6</ele>
			 </trkpt>
			 <trkpt lat="47.63697" lon="-122.30881">
				 <ele>45.5</ele>
			 </trkpt>
			 <trkpt lat="47.63668" lon="-122.30863">
				 <ele>45.5</ele>
			 </trkpt>
			 <trkpt lat="47.63641" lon="-122.30854">
				 <ele>45.4</ele>
			 </trkpt>
			 <trkpt lat="47.63619" lon="-122.30861">
				 <ele>45.3</ele>
			 </trkpt>
			 <trkpt lat="47.63588" lon="-122.3088">
				 <ele>45.2</ele>
			 </trkpt>
			 <trkpt lat="47.63573" lon="-122.3088">
				 <ele>45.1</ele>
			 </trkpt>
			 <trkpt lat="47.63569" lon="-122.30875">
				 <ele>45</ele>
			 </trkpt>
			 <trkpt lat="47.63567" lon="-122.30866">
				 <ele>45</ele>
			 </trkpt>
			 <trkpt lat="47.63571" lon="-122.30849">
				 <ele>45</ele>
			 </trkpt>
			 <trkpt lat="47.63599" lon="-122.30814">
				 <ele>45</ele>
			 </trkpt>
			 <trkpt lat="47.6361" lon="-122.30796">
				 <ele>45</ele>
			 </trkpt>
			 <trkpt lat="47.63618" lon="-122.30786">
				 <ele>45</ele>
			 </trkpt>
			 <trkpt lat="47.63634" lon="-122.30777">
				 <ele>45</ele>
			 </trkpt>
			 <trkpt lat="47.63643" lon="-122.30763">
				 <ele>45</ele>
			 </trkpt>
			 <trkpt lat="47.63641" lon="-122.30745">
				 <ele>45</ele>
			 </trkpt>
			 <trkpt lat="47.63638" lon="-122.30736">
				 <ele>45</ele>
			 </trkpt>
			 <trkpt lat="47.63615" lon="-122.30692">
				 <ele>45</ele>
			 </trkpt>
			 <trkpt lat="47.63601" lon="-122.3066">
				 <ele>45</ele>
			 </trkpt>
			 <trkpt lat="47.63599" lon="-122.30644">
				 <ele>45</ele>
			 </trkpt>
			 <trkpt lat="47.63598" lon="-122.30604">
				 <ele>44.9</ele>
			 </trkpt>
			 <trkpt lat="47.63597" lon="-122.30595">
				 <ele>44.8</ele>
			 </trkpt>
			 <trkpt lat="47.63592" lon="-122.3058">
				 <ele>44.7</ele>
			 </trkpt>
			 <trkpt lat="47.63579" lon="-122.3057">
				 <ele>44.6</ele>
			 </trkpt>
			 <trkpt lat="47.63569" lon="-122.30566">
				 <ele>44.5</ele>
			 </trkpt>
			 <trkpt lat="47.63538" lon="-122.30566">
				 <ele>44.5</ele>
			 </trkpt>
			 <trkpt lat="47.63529" lon="-122.30562">
				 <ele>44.5</ele>
			 </trkpt>
			 <trkpt lat="47.63521" lon="-122.3054">
				 <ele>44.5</ele>
			 </trkpt>
			 <trkpt lat="47.63523" lon="-122.30526">
				 <ele>44.5</ele>
			 </trkpt>
			 <trkpt lat="47.63526" lon="-122.30522">
				 <ele>44.5</ele>
			 </trkpt>
			 <trkpt lat="47.63548" lon="-122.30508">
				 <ele>44.4</ele>
			 </trkpt>
			 <trkpt lat="47.63576" lon="-122.30468">
				 <ele>44.4</ele>
			 </trkpt>
			 <trkpt lat="47.63588" lon="-122.30437">
				 <ele>44.4</ele>
			 </trkpt>
			 <trkpt lat="47.63591" lon="-122.30423">
				 <ele>44.4</ele>
			 </trkpt>
			 <trkpt lat="47.6359" lon="-122.30414">
				 <ele>44.4</ele>
			 </trkpt>
			 <trkpt lat="47.63579" lon="-122.30385">
				 <ele>44.4</ele>
			 </trkpt>
			 <trkpt lat="47.63571" lon="-122.30378">
				 <ele>44.3</ele>
			 </trkpt>
			 <trkpt lat="47.63563" lon="-122.30356">
				 <ele>44</ele>
			 </trkpt>
			 <trkpt lat="47.6355" lon="-122.30334">
				 <ele>43.7</ele>
			 </trkpt>
			 <trkpt lat="47.63501" lon="-122.30285">
				 <ele>43.5</ele>
			 </trkpt>
			 <trkpt lat="47.63496" lon="-122.30279">
				 <ele>43.1</ele>
			 </trkpt>
			 <trkpt lat="47.63472" lon="-122.30226">
				 <ele>42.8</ele>
			 </trkpt>
			 <trkpt lat="47.63461" lon="-122.30191">
				 <ele>42.5</ele>
			 </trkpt>
			 <trkpt lat="47.63458" lon="-122.30176">
				 <ele>42.2</ele>
			 </trkpt>
			 <trkpt lat="47.63456" lon="-122.30134">
				 <ele>41.7</ele>
			 </trkpt>
			 <trkpt lat="47.6345" lon="-122.30109">
				 <ele>41.3</ele>
			 </trkpt>
			 <trkpt lat="47.63442" lon="-122.30093">
				 <ele>40.5</ele>
			 </trkpt>
			 <trkpt lat="47.63431" lon="-122.30082">
				 <ele>39.8</ele>
			 </trkpt>
			 <trkpt lat="47.63423" lon="-122.30078">
				 <ele>39.2</ele>
			 </trkpt>
			 <trkpt lat="47.63408" lon="-122.30073">
				 <ele>38.5</ele>
			 </trkpt>
			 <trkpt lat="47.63381" lon="-122.30069">
				 <ele>37.5</ele>
			 </trkpt>
			 <trkpt lat="47.63369" lon="-122.30065">
				 <ele>36.5</ele>
			 </trkpt>
			 <trkpt lat="47.63349" lon="-122.30038">
				 <ele>35.5</ele>
			 </trkpt>
			 <trkpt lat="47.63345" lon="-122.3003">
				 <ele>34.4</ele>
			 </trkpt>
			 <trkpt lat="47.6333" lon="-122.2998">
				 <ele>33.2</ele>
			 </trkpt>
			 <trkpt lat="47.63335" lon="-122.29902">
				 <ele>32</ele>
			 </trkpt>
			 <trkpt lat="47.63329" lon="-122.29869">
				 <ele>30.7</ele>
			 </trkpt>
			 <trkpt lat="47.63322" lon="-122.29854">
				 <ele>29.5</ele>
			 </trkpt>
			 <trkpt lat="47.6331" lon="-122.29837">
				 <ele>28.5</ele>
			 </trkpt>
			 <trkpt lat="47.63258" lon="-122.29778">
				 <ele>27.3</ele>
			 </trkpt>
			 <trkpt lat="47.63248" lon="-122.29771">
				 <ele>26.1</ele>
			 </trkpt>
			 <trkpt lat="47.6323" lon="-122.29771">
				 <ele>25</ele>
			 </trkpt>
			 <trkpt lat="47.63206" lon="-122.29776">
				 <ele>24</ele>
			 </trkpt>
			 <trkpt lat="47.63186" lon="-122.29775">
				 <ele>23</ele>
			 </trkpt>
			 <trkpt lat="47.63171" lon="-122.29771">
				 <ele>22.1</ele>
			 </trkpt>
			 <trkpt lat="47.63137" lon="-122.29756">
				 <ele>21.5</ele>
			 </trkpt>
			 <trkpt lat="47.63098" lon="-122.29751">
				 <ele>21</ele>
			 </trkpt>
			 <trkpt lat="47.63091" lon="-122.29743">
				 <ele>20.7</ele>
			 </trkpt>
			 <trkpt lat="47.63087" lon="-122.29724">
				 <ele>20.8</ele>
			 </trkpt>
			 <trkpt lat="47.63063" lon="-122.29717">
				 <ele>20.9</ele>
			 </trkpt>
			 <trkpt lat="47.63038" lon="-122.297">
				 <ele>21.2</ele>
			 </trkpt>
			 <trkpt lat="47.6298" lon="-122.29645">
				 <ele>21.5</ele>
			 </trkpt>
			 <trkpt lat="47.629365" lon="-122.2962">
				 <ele>22.4</ele>
			 </trkpt>
			 <trkpt lat="47.62893" lon="-122.29595">
				 <ele>23.3</ele>
			 </trkpt>
			 <trkpt lat="47.62876" lon="-122.29578">
				 <ele>24.4</ele>
			 </trkpt>
			 <trkpt lat="47.62862" lon="-122.29559">
				 <ele>25.5</ele>
			 </trkpt>
			 <trkpt lat="47.62853" lon="-122.29541">
				 <ele>26.6</ele>
			 </trkpt>
			 <trkpt lat="47.62842" lon="-122.29505">
				 <ele>27.9</ele>
			 </trkpt>
			 <trkpt lat="47.62834" lon="-122.2947">
				 <ele>29.6</ele>
			 </trkpt>
			 <trkpt lat="47.62816" lon="-122.29415">
				 <ele>31.2</ele>
			 </trkpt>
			 <trkpt lat="47.62825" lon="-122.29408">
				 <ele>32.8</ele>
			 </trkpt>
			 <trkpt lat="47.62831" lon="-122.29407">
				 <ele>34.5</ele>
			 </trkpt>
			 <trkpt lat="47.6286" lon="-122.29411">
				 <ele>36.4</ele>
			 </trkpt>
			 <trkpt lat="47.62915" lon="-122.29398">
				 <ele>38</ele>
			 </trkpt>
			 <trkpt lat="47.62931" lon="-122.29398">
				 <ele>39.5</ele>
			 </trkpt>
			 <trkpt lat="47.62948" lon="-122.29402">
				 <ele>40.9</ele>
			 </trkpt>
			 <trkpt lat="47.6298" lon="-122.29416">
				 <ele>42.2</ele>
			 </trkpt>
			 <trkpt lat="47.63003" lon="-122.29422">
				 <ele>43.4</ele>
			 </trkpt>
			 <trkpt lat="47.63016" lon="-122.29429">
				 <ele>44.2</ele>
			 </trkpt>
			 <trkpt lat="47.6304" lon="-122.29452">
				 <ele>44.5</ele>
			 </trkpt>
			 <trkpt lat="47.6305" lon="-122.29459">
				 <ele>44.7</ele>
			 </trkpt>
			 <trkpt lat="47.63067" lon="-122.29464">
				 <ele>44.7</ele>
			 </trkpt>
			 <trkpt lat="47.63109" lon="-122.29461">
				 <ele>44.5</ele>
			 </trkpt>
			 <trkpt lat="47.63128" lon="-122.29443">
				 <ele>44.2</ele>
			 </trkpt>
			 <trkpt lat="47.63138" lon="-122.29427">
				 <ele>43.7</ele>
			 </trkpt>
			 <trkpt lat="47.63149" lon="-122.29402">
				 <ele>43.3</ele>
			 </trkpt>
			 <trkpt lat="47.63166" lon="-122.29344">
				 <ele>42.7</ele>
			 </trkpt>
			 <trkpt lat="47.63175" lon="-122.29326">
				 <ele>42.2</ele>
			 </trkpt>
			 <trkpt lat="47.63193" lon="-122.29308">
				 <ele>41.6</ele>
			 </trkpt>
			 <trkpt lat="47.63205" lon="-122.29303">
				 <ele>41.2</ele>
			 </trkpt>
			 <trkpt lat="47.6322" lon="-122.29299">
				 <ele>40.6</ele>
			 </trkpt>
			 <trkpt lat="47.63229" lon="-122.29299">
				 <ele>40.2</ele>
			 </trkpt>
			 <trkpt lat="47.63241" lon="-122.29304">
				 <ele>40.1</ele>
			 </trkpt>
			 <trkpt lat="47.63252" lon="-122.29313">
				 <ele>40.1</ele>
			 </trkpt>
			 <trkpt lat="47.63264" lon="-122.29327">
				 <ele>40</ele>
			 </trkpt>
			 <trkpt lat="47.63277" lon="-122.29367">
				 <ele>40</ele>
			 </trkpt>
			 <trkpt lat="47.63285" lon="-122.2938">
				 <ele>39.8</ele>
			 </trkpt>
			 <trkpt lat="47.63333" lon="-122.29425">
				 <ele>39.5</ele>
			 </trkpt>
			 <trkpt lat="47.63383" lon="-122.29474">
				 <ele>38.9</ele>
			 </trkpt>
			 <trkpt lat="47.63448" lon="-122.29514">
				 <ele>38.4</ele>
			 </trkpt>
			 <trkpt lat="47.63456" lon="-122.29514">
				 <ele>37.7</ele>
			 </trkpt>
			 <trkpt lat="47.63529" lon="-122.29492">
				 <ele>36.6</ele>
			 </trkpt>
			 <trkpt lat="47.635735" lon="-122.29467">
				 <ele>35.3</ele>
			 </trkpt>
			 <trkpt lat="47.63618" lon="-122.29442">
				 <ele>33.7</ele>
			 </trkpt>
			 <trkpt lat="47.63633" lon="-122.29439">
				 <ele>32.2</ele>
			 </trkpt>
			 <trkpt lat="47.63657" lon="-122.29443">
				 <ele>30.9</ele>
			 </trkpt>
			 <trkpt lat="47.63696" lon="-122.29457">
				 <ele>29.7</ele>
			 </trkpt>
			 <trkpt lat="47.63718" lon="-122.29461">
				 <ele>28.6</ele>
			 </trkpt>
			 <trkpt lat="47.63729" lon="-122.2946">
				 <ele>27.5</ele>
			 </trkpt>
			 <trkpt lat="47.637745" lon="-122.29431">
				 <ele>26.5</ele>
			 </trkpt>
			 <trkpt lat="47.6382" lon="-122.29402">
				 <ele>25.6</ele>
			 </trkpt>
			 <trkpt lat="47.63824" lon="-122.29403">
				 <ele>24.7</ele>
			 </trkpt>
			 <trkpt lat="47.63836" lon="-122.29416">
				 <ele>24</ele>
			 </trkpt>
			 <trkpt lat="47.63861" lon="-122.29452">
				 <ele>23.4</ele>
			 </trkpt>
			 <trkpt lat="47.63879" lon="-122.2947">
				 <ele>22.7</ele>
			 </trkpt>
			 <trkpt lat="47.63883" lon="-122.29474">
				 <ele>22</ele>
			 </trkpt>
			 <trkpt lat="47.63895" lon="-122.29478">
				 <ele>20.6</ele>
			 </trkpt>
			 <trkpt lat="47.63965" lon="-122.29472">
				 <ele>19.2</ele>
			 </trkpt>
			 <trkpt lat="47.63985" lon="-122.29472">
				 <ele>17.8</ele>
			 </trkpt>
			 <trkpt lat="47.64009" lon="-122.29468">
				 <ele>16.7</ele>
			 </trkpt>
			 <trkpt lat="47.64025" lon="-122.29459">
				 <ele>15.6</ele>
			 </trkpt>
			 <trkpt lat="47.64068" lon="-122.29438">
				 <ele>14.5</ele>
			 </trkpt>
			 <trkpt lat="47.64075" lon="-122.29447">
				 <ele>13.5</ele>
			 </trkpt>
			 <trkpt lat="47.64088" lon="-122.29456">
				 <ele>12.9</ele>
			 </trkpt>
			 <trkpt lat="47.64098" lon="-122.2947">
				 <ele>12.4</ele>
			 </trkpt>
			 <trkpt lat="47.64114" lon="-122.29514">
				 <ele>11.8</ele>
			 </trkpt>
			 <trkpt lat="47.64116" lon="-122.2953">
				 <ele>11.4</ele>
			 </trkpt>
			 <trkpt lat="47.64109" lon="-122.29564">
				 <ele>11.4</ele>
			 </trkpt>
			 <trkpt lat="47.64082" lon="-122.29618">
				 <ele>11.5</ele>
			 </trkpt>
			 <trkpt lat="47.64069" lon="-122.29635">
				 <ele>11.6</ele>
			 </trkpt>
			 <trkpt lat="47.64061" lon="-122.2964">
				 <ele>11.8</ele>
			 </trkpt>
			 <trkpt lat="47.64048" lon="-122.29641">
				 <ele>12.3</ele>
			 </trkpt>
			 <trkpt lat="47.64037" lon="-122.29644">
				 <ele>12.7</ele>
			 </trkpt>
			 <trkpt lat="47.64002" lon="-122.29658">
				 <ele>13.2</ele>
			 </trkpt>
			 <trkpt lat="47.63992" lon="-122.29658">
				 <ele>13.5</ele>
			 </trkpt>
			 <trkpt lat="47.63978" lon="-122.29653">
				 <ele>13.9</ele>
			 </trkpt>
			 <trkpt lat="47.63952" lon="-122.29638">
				 <ele>14.3</ele>
			 </trkpt>
			 <trkpt lat="47.63935" lon="-122.29635">
				 <ele>14.6</ele>
			 </trkpt>
			 <trkpt lat="47.63927" lon="-122.29635">
				 <ele>14.9</ele>
			 </trkpt>
			 <trkpt lat="47.63906" lon="-122.29658">
				 <ele>15.1</ele>
			 </trkpt>
			 <trkpt lat="47.63887" lon="-122.29671">
				 <ele>15.3</ele>
			 </trkpt>
			 <trkpt lat="47.6388" lon="-122.29673">
				 <ele>15.4</ele>
			 </trkpt>
			 <trkpt lat="47.63872" lon="-122.29671">
				 <ele>15.3</ele>
			 </trkpt>
			 <trkpt lat="47.63864" lon="-122.29667">
				 <ele>15.1</ele>
			 </trkpt>
			 <trkpt lat="47.63853" lon="-122.29663">
				 <ele>14.9</ele>
			 </trkpt>
			 <trkpt lat="47.6384" lon="-122.29667">
				 <ele>14.8</ele>
			 </trkpt>
			 <trkpt lat="47.63818" lon="-122.29675">
				 <ele>14.8</ele>
			 </trkpt>
			 <trkpt lat="47.63804" lon="-122.29675">
				 <ele>14.9</ele>
			 </trkpt>
			 <trkpt lat="47.63788" lon="-122.29672">
				 <ele>15</ele>
			 </trkpt>
			 <trkpt lat="47.63778" lon="-122.2968">
				 <ele>15.1</ele>
			 </trkpt>
			 <trkpt lat="47.63757" lon="-122.29684">
				 <ele>15.2</ele>
			 </trkpt>
			 <trkpt lat="47.6371" lon="-122.29702">
				 <ele>15.2</ele>
			 </trkpt>
			 <trkpt lat="47.63679" lon="-122.29711">
				 <ele>15.4</ele>
			 </trkpt>
			 <trkpt lat="47.6367" lon="-122.29716">
				 <ele>15.5</ele>
			 </trkpt>
			 <trkpt lat="47.6366" lon="-122.29729">
				 <ele>15.8</ele>
			 </trkpt>
			 <trkpt lat="47.63639" lon="-122.29771">
				 <ele>16.1</ele>
			 </trkpt>
			 <trkpt lat="47.63628" lon="-122.29783">
				 <ele>16.4</ele>
			 </trkpt>
			 <trkpt lat="47.63607" lon="-122.29801">
				 <ele>16.5</ele>
			 </trkpt>
			 <trkpt lat="47.63597" lon="-122.29805">
				 <ele>16.5</ele>
			 </trkpt>
			 <trkpt lat="47.63591" lon="-122.29801">
				 <ele>16.5</ele>
			 </trkpt>
			 <trkpt lat="47.63579" lon="-122.2979">
				 <ele>16.5</ele>
			 </trkpt>
			 <trkpt lat="47.6355" lon="-122.29783">
				 <ele>16.5</ele>
			 </trkpt>
			 <trkpt lat="47.63527" lon="-122.29774">
				 <ele>16.5</ele>
			 </trkpt>
			 <trkpt lat="47.63521" lon="-122.29765">
				 <ele>16.4</ele>
			 </trkpt>
			 <trkpt lat="47.63511" lon="-122.29743">
				 <ele>16.2</ele>
			 </trkpt>
			 <trkpt lat="47.63504" lon="-122.29738">
				 <ele>16</ele>
			 </trkpt>
			 <trkpt lat="47.63457" lon="-122.2972">
				 <ele>15.8</ele>
			 </trkpt>
			 <trkpt lat="47.63428" lon="-122.2972">
				 <ele>15.6</ele>
			 </trkpt>
			 <trkpt lat="47.63419" lon="-122.29724">
				 <ele>15.5</ele>
			 </trkpt>
			 <trkpt lat="47.63393" lon="-122.29742">
				 <ele>15.5</ele>
			 </trkpt>
			 <trkpt lat="47.63378" lon="-122.29747">
				 <ele>15.5</ele>
			 </trkpt>
			 <trkpt lat="47.63372" lon="-122.29747">
				 <ele>15.5</ele>
			 </trkpt>
			 <trkpt lat="47.63363" lon="-122.29744">
				 <ele>15.5</ele>
			 </trkpt>
			 <trkpt lat="47.63338" lon="-122.29703">
				 <ele>15.6</ele>
			 </trkpt>
			 <trkpt lat="47.63333" lon="-122.297">
				 <ele>15.7</ele>
			 </trkpt>
			 <trkpt lat="47.63287" lon="-122.29684">
				 <ele>15.9</ele>
			 </trkpt>
			 <trkpt lat="47.63241" lon="-122.29681">
				 <ele>16.1</ele>
			 </trkpt>
			 <trkpt lat="47.6323" lon="-122.29676">
				 <ele>16.4</ele>
			 </trkpt>
			 <trkpt lat="47.63212" lon="-122.29658">
				 <ele>16.6</ele>
			 </trkpt>
			 <trkpt lat="47.63201" lon="-122.29658">
				 <ele>16.9</ele>
			 </trkpt>
			 <trkpt lat="47.63193" lon="-122.29662">
				 <ele>17.2</ele>
			 </trkpt>
			 <trkpt lat="47.63175" lon="-122.29673">
				 <ele>17.3</ele>
			 </trkpt>
			 <trkpt lat="47.63169" lon="-122.29675">
				 <ele>17.4</ele>
			 </trkpt>
			 <trkpt lat="47.63164" lon="-122.29675">
				 <ele>17.3</ele>
			 </trkpt>
			 <trkpt lat="47.63158" lon="-122.29719">
				 <ele>17.2</ele>
			 </trkpt>
			 <trkpt lat="47.63158" lon="-122.29725">
				 <ele>17.1</ele>
			 </trkpt>
			 <trkpt lat="47.6323" lon="-122.29706">
				 <ele>17.1</ele>
			 </trkpt>
			 <trkpt lat="47.63249" lon="-122.29702">
				 <ele>17.1</ele>
			 </trkpt>
			 <trkpt lat="47.63276" lon="-122.29707">
				 <ele>17</ele>
			 </trkpt>
			 <trkpt lat="47.63295" lon="-122.29716">
				 <ele>16.8</ele>
			 </trkpt>
			 <trkpt lat="47.6331" lon="-122.29729">
				 <ele>16.6</ele>
			 </trkpt>
			 <trkpt lat="47.6335" lon="-122.29778">
				 <ele>16.4</ele>
			 </trkpt>
			 <trkpt lat="47.63359" lon="-122.29784">
				 <ele>16.2</ele>
			 </trkpt>
			 <trkpt lat="47.63379" lon="-122.2979">
				 <ele>16</ele>
			 </trkpt>
			 <trkpt lat="47.6344" lon="-122.29796">
				 <ele>15.8</ele>
			 </trkpt>
			 <trkpt lat="47.63457" lon="-122.29805">
				 <ele>15.6</ele>
			 </trkpt>
			 <trkpt lat="47.63498" lon="-122.29832">
				 <ele>15.4</ele>
			 </trkpt>
			 <trkpt lat="47.63529" lon="-122.29846">
				 <ele>15</ele>
			 </trkpt>
			 <trkpt lat="47.6354" lon="-122.29846">
				 <ele>14.5</ele>
			 </trkpt>
			 <trkpt lat="47.63616" lon="-122.29823">
				 <ele>14.1</ele>
			 </trkpt>
			 <trkpt lat="47.63632" lon="-122.2982">
				 <ele>13.6</ele>
			 </trkpt>
			 <trkpt lat="47.63701" lon="-122.29814">
				 <ele>13.2</ele>
			 </trkpt>
			 <trkpt lat="47.63718" lon="-122.2981">
				 <ele>12.8</ele>
			 </trkpt>
			 <trkpt lat="47.63742" lon="-122.29787">
				 <ele>12.5</ele>
			 </trkpt>
			 <trkpt lat="47.63774" lon="-122.2972">
				 <ele>12.1</ele>
			 </trkpt>
			 <trkpt lat="47.63785" lon="-122.29707">
				 <ele>11.8</ele>
			 </trkpt>
			 <trkpt lat="47.63805" lon="-122.29698">
				 <ele>11.5</ele>
			 </trkpt>
			 <trkpt lat="47.6382" lon="-122.29694">
				 <ele>11.4</ele>
			 </trkpt>
			 <trkpt lat="47.63892" lon="-122.29697">
				 <ele>11.2</ele>
			 </trkpt>
			 <trkpt lat="47.63953" lon="-122.29689">
				 <ele>11.1</ele>
			 </trkpt>
			 <trkpt lat="47.64005" lon="-122.29675">
				 <ele>11</ele>
			 </trkpt>
			 <trkpt lat="47.64017" lon="-122.29674">
				 <ele>11</ele>
			 </trkpt>
			 <trkpt lat="47.64024" lon="-122.29671">
				 <ele>11.1</ele>
			 </trkpt>
			 <trkpt lat="47.64038" lon="-122.29675">
				 <ele>11.2</ele>
			 </trkpt>
			 <trkpt lat="47.64043" lon="-122.29679">
				 <ele>11.4</ele>
			 </trkpt>
			 <trkpt lat="47.64053" lon="-122.29698">
				 <ele>11.5</ele>
			 </trkpt>
			 <trkpt lat="47.64054" lon="-122.2971">
				 <ele>11.7</ele>
			 </trkpt>
			 <trkpt lat="47.64067" lon="-122.29736">
				 <ele>11.9</ele>
			 </trkpt>
			 <trkpt lat="47.64084" lon="-122.29761">
				 <ele>12</ele>
			 </trkpt>
			 <trkpt lat="47.64101" lon="-122.29782">
				 <ele>12</ele>
			 </trkpt>
			 <trkpt lat="47.64108" lon="-122.29793">
				 <ele>12</ele>
			 </trkpt>
			 <trkpt lat="47.64113" lon="-122.29816">
				 <ele>12</ele>
			 </trkpt>
			 <trkpt lat="47.64115" lon="-122.29836">
				 <ele>11.9</ele>
			 </trkpt>
			 <trkpt lat="47.64126" lon="-122.29854">
				 <ele>11.7</ele>
			 </trkpt>
			 <trkpt lat="47.64142" lon="-122.29864">
				 <ele>11.5</ele>
			 </trkpt>
			 <trkpt lat="47.64176" lon="-122.29859">
				 <ele>11.3</ele>
			 </trkpt>
			 <trkpt lat="47.64182" lon="-122.2986">
				 <ele>11.2</ele>
			 </trkpt>
			 <trkpt lat="47.64268" lon="-122.2986">
				 <ele>11.3</ele>
			 </trkpt>
			 <trkpt lat="47.64277" lon="-122.29852">
				 <ele>11.4</ele>
			 </trkpt>
			 <trkpt lat="47.64296" lon="-122.29846">
				 <ele>11.7</ele>
			 </trkpt>
			 <trkpt lat="47.64328" lon="-122.29842">
				 <ele>12.3</ele>
			 </trkpt>
			 <trkpt lat="47.64349" lon="-122.29845">
				 <ele>12.9</ele>
			 </trkpt>
			 <trkpt lat="47.64386" lon="-122.29868">
				 <ele>13.6</ele>
			 </trkpt>
			 <trkpt lat="47.64399" lon="-122.29881">
				 <ele>14.5</ele>
			 </trkpt>
			 <trkpt lat="47.64417" lon="-122.29919">
				 <ele>15.2</ele>
			 </trkpt>
			 <trkpt lat="47.64439" lon="-122.29971">
				 <ele>15.9</ele>
			 </trkpt>
			 <trkpt lat="47.64476" lon="-122.2999">
				 <ele>16.5</ele>
			 </trkpt>
			 <trkpt lat="47.64501" lon="-122.29993">
				 <ele>16.9</ele>
			 </trkpt>
			 <trkpt lat="47.64512" lon="-122.29989">
				 <ele>16.9</ele>
			 </trkpt>
			 <trkpt lat="47.64538" lon="-122.30002">
				 <ele>16.8</ele>
			 </trkpt>
			 <trkpt lat="47.64545" lon="-122.30011">
				 <ele>16.5</ele>
			 </trkpt>
			 <trkpt lat="47.64551" lon="-122.30034">
				 <ele>16.2</ele>
			 </trkpt>
			 <trkpt lat="47.64552" lon="-122.30051">
				 <ele>15.7</ele>
			 </trkpt>
			 <trkpt lat="47.64545" lon="-122.30099">
				 <ele>15.1</ele>
			 </trkpt>
			 <trkpt lat="47.64543" lon="-122.30137">
				 <ele>14.5</ele>
			 </trkpt>
			 <trkpt lat="47.6455" lon="-122.30157">
				 <ele>13.9</ele>
			 </trkpt>
			 <trkpt lat="47.64558" lon="-122.30164">
				 <ele>13.4</ele>
			 </trkpt>
			 <trkpt lat="47.6457" lon="-122.3016">
				 <ele>12.9</ele>
			 </trkpt>
			 <trkpt lat="47.64626" lon="-122.30159">
				 <ele>12.8</ele>
			 </trkpt>
			 <trkpt lat="47.64632" lon="-122.30159">
				 <ele>13.5</ele>
			 </trkpt>
			 <trkpt lat="47.64635" lon="-122.30163">
				 <ele>14.5</ele>
			 </trkpt>
			 <trkpt lat="47.64638" lon="-122.30177">
				 <ele>15.4</ele>
			 </trkpt>
			 <trkpt lat="47.64638" lon="-122.30206">
				 <ele>16.3</ele>
			 </trkpt>
			 <trkpt lat="47.64639" lon="-122.30321">
				 <ele>17.2</ele>
			 </trkpt>
			 <trkpt lat="47.6464" lon="-122.30436">
				 <ele>18.2</ele>
			 </trkpt>
			 <trkpt lat="47.64661" lon="-122.30437">
				 <ele>19.2</ele>
			 </trkpt>
			 <trkpt lat="47.6468" lon="-122.30454">
				 <ele>20</ele>
			 </trkpt>
			 <trkpt lat="47.6469" lon="-122.30452">
				 <ele>20.2</ele>
			 </trkpt>
			 <trkpt lat="47.64776" lon="-122.30453">
				 <ele>20.4</ele>
			 </trkpt>
			 <trkpt lat="47.6478" lon="-122.3045">
				 <ele>20.3</ele>
			 </trkpt>
			 <trkpt lat="47.64786" lon="-122.30449">
				 <ele>19.5</ele>
			 </trkpt>
			 <trkpt lat="47.64777" lon="-122.30392">
				 <ele>18.7</ele>
			 </trkpt>
			 <trkpt lat="47.64767" lon="-122.30262">
				 <ele>17.6</ele>
			 </trkpt>
			 <trkpt lat="47.64775" lon="-122.30259">
				 <ele>16.5</ele>
			 </trkpt>
			 <trkpt lat="47.64781" lon="-122.30248">
				 <ele>15.5</ele>
			 </trkpt>
			 <trkpt lat="47.64782" lon="-122.30218">
				 <ele>14.4</ele>
			 </trkpt>
			 <trkpt lat="47.64779" lon="-122.30208">
				 <ele>13.4</ele>
			 </trkpt>
			 <trkpt lat="47.64777" lon="-122.30119">
				 <ele>12.5</ele>
			 </trkpt>
			 <trkpt lat="47.64779" lon="-122.30109">
				 <ele>12.4</ele>
			 </trkpt>
			 <trkpt lat="47.64786" lon="-122.30092">
				 <ele>12.2</ele>
			 </trkpt>
			 <trkpt lat="47.64799" lon="-122.30079">
				 <ele>12</ele>
			 </trkpt>
			 <trkpt lat="47.64809" lon="-122.30074">
				 <ele>11.7</ele>
			 </trkpt>
			 <trkpt lat="47.64819" lon="-122.30074">
				 <ele>11.5</ele>
			 </trkpt>
			 <trkpt lat="47.64832" lon="-122.30081">
				 <ele>11.6</ele>
			 </trkpt>
			 <trkpt lat="47.64849" lon="-122.30081">
				 <ele>11.6</ele>
			 </trkpt>
			 <trkpt lat="47.64857" lon="-122.30048">
				 <ele>11.6</ele>
			 </trkpt>
			 <trkpt lat="47.6487" lon="-122.30029">
				 <ele>11.6</ele>
			 </trkpt>
			 <trkpt lat="47.64879" lon="-122.30024">
				 <ele>11.5</ele>
			 </trkpt>
			 <trkpt lat="47.64881" lon="-122.30011">
				 <ele>11.3</ele>
			 </trkpt>
			 <trkpt lat="47.64891" lon="-122.29989">
				 <ele>11</ele>
			 </trkpt>
			 <trkpt lat="47.64937" lon="-122.29953">
				 <ele>10.5</ele>
			 </trkpt>
			 <trkpt lat="47.64942" lon="-122.29945">
				 <ele>10.1</ele>
			 </trkpt>
			 <trkpt lat="47.64947" lon="-122.29928">
				 <ele>9.7</ele>
			 </trkpt>
			 <trkpt lat="47.64954" lon="-122.29922">
				 <ele>9.3</ele>
			 </trkpt>
			 <trkpt lat="47.6498" lon="-122.29913">
				 <ele>8.8</ele>
			 </trkpt>
			 <trkpt lat="47.6505" lon="-122.29913">
				 <ele>8.5</ele>
			 </trkpt>
			 <trkpt lat="47.6507" lon="-122.29908">
				 <ele>8.1</ele>
			 </trkpt>
			 <trkpt lat="47.6513" lon="-122.298855">
				 <ele>7.9</ele>
			 </trkpt>
			 <trkpt lat="47.6519" lon="-122.29863">
				 <ele>7.9</ele>
			 </trkpt>
			 <trkpt lat="47.65203" lon="-122.2986">
				 <ele>7.8</ele>
			 </trkpt>
			 <trkpt lat="47.65214" lon="-122.2987">
				 <ele>7.8</ele>
			 </trkpt>
			 <trkpt lat="47.65222" lon="-122.29886">
				 <ele>7.9</ele>
			 </trkpt>
			 <trkpt lat="47.65247" lon="-122.30006">
				 <ele>7.9</ele>
			 </trkpt>
			 <trkpt lat="47.65256" lon="-122.30027">
				 <ele>7.8</ele>
			 </trkpt>
			 <trkpt lat="47.65298" lon="-122.30028">
				 <ele>7.7</ele>
			 </trkpt>
			 <trkpt lat="47.65315" lon="-122.30025">
				 <ele>7.6</ele>
			 </trkpt>
			 <trkpt lat="47.6539" lon="-122.30003">
				 <ele>7.5</ele>
			 </trkpt>
			 <trkpt lat="47.65381" lon="-122.29941">
				 <ele>7.5</ele>
			 </trkpt>
			 <trkpt lat="47.65377" lon="-122.29876">
				 <ele>7.2</ele>
			 </trkpt>
			 <trkpt lat="47.65377" lon="-122.29827">
				 <ele>6.8</ele>
			 </trkpt>
			 <trkpt lat="47.65379" lon="-122.2981">
				 <ele>6.5</ele>
			 </trkpt>
			 <trkpt lat="47.65385" lon="-122.29796">
				 <ele>6.3</ele>
			 </trkpt>
			 <trkpt lat="47.6539" lon="-122.29788">
				 <ele>6.1</ele>
			 </trkpt>
			 <trkpt lat="47.65406" lon="-122.29777">
				 <ele>6</ele>
			 </trkpt>
			 <trkpt lat="47.65455" lon="-122.29752">
				 <ele>6</ele>
			 </trkpt>
			 <trkpt lat="47.65498" lon="-122.29731">
				 <ele>6</ele>
			 </trkpt>
			 <trkpt lat="47.65531" lon="-122.2972">
				 <ele>6</ele>
			 </trkpt>
			 <trkpt lat="47.65574" lon="-122.29711">
				 <ele>6.1</ele>
			 </trkpt>
			 <trkpt lat="47.656" lon="-122.29709">
				 <ele>6.2</ele>
			 </trkpt>
			 <trkpt lat="47.65598" lon="-122.29673">
				 <ele>6.2</ele>
			 </trkpt>
			 <trkpt lat="47.65605" lon="-122.2964">
				 <ele>6.2</ele>
			 </trkpt>
			 <trkpt lat="47.65604" lon="-122.29581">
				 <ele>6.2</ele>
			 </trkpt>
			 <trkpt lat="47.65609" lon="-122.29529">
				 <ele>6.2</ele>
			 </trkpt>
			 <trkpt lat="47.65581" lon="-122.29519">
				 <ele>6.2</ele>
			 </trkpt>
			 <trkpt lat="47.65566" lon="-122.29509">
				 <ele>6.2</ele>
			 </trkpt>
			 <trkpt lat="47.65559" lon="-122.295">
				 <ele>6.2</ele>
			 </trkpt>
			 <trkpt lat="47.65543" lon="-122.29471">
				 <ele>6.2</ele>
			 </trkpt>
			 <trkpt lat="47.65517" lon="-122.29442">
				 <ele>6.2</ele>
			 </trkpt>
			 <trkpt lat="47.65508" lon="-122.29438">
				 <ele>6.1</ele>
			 </trkpt>
			 <trkpt lat="47.65484" lon="-122.29438">
				 <ele>6</ele>
			 </trkpt>
			 <trkpt lat="47.65465" lon="-122.29426">
				 <ele>6</ele>
			 </trkpt>
			 <trkpt lat="47.65454" lon="-122.29438">
				 <ele>6</ele>
			 </trkpt>
			 <trkpt lat="47.65442" lon="-122.29465">
				 <ele>6</ele>
			 </trkpt>
			 <trkpt lat="47.65434" lon="-122.29497">
				 <ele>6.1</ele>
			 </trkpt>
			 <trkpt lat="47.65429" lon="-122.2951">
				 <ele>6.2</ele>
			 </trkpt>
			 <trkpt lat="47.65417" lon="-122.29519">
				 <ele>6.2</ele>
			 </trkpt>
			 <trkpt lat="47.65406" lon="-122.29515">
				 <ele>6.2</ele>
			 </trkpt>
			 <trkpt lat="47.65401" lon="-122.29505">
				 <ele>6.2</ele>
			 </trkpt>
			 <trkpt lat="47.65399" lon="-122.29487">
				 <ele>6.2</ele>
			 </trkpt>
			 <trkpt lat="47.65405" lon="-122.29444">
				 <ele>6.2</ele>
			 </trkpt>
			 <trkpt lat="47.65402" lon="-122.29417">
				 <ele>6.2</ele>
			 </trkpt>
			 <trkpt lat="47.65404" lon="-122.29326">
				 <ele>6.2</ele>
			 </trkpt>
			 <trkpt lat="47.65406" lon="-122.29312">
				 <ele>6.2</ele>
			 </trkpt>
			 <trkpt lat="47.65415" lon="-122.29295">
				 <ele>6.2</ele>
			 </trkpt>
			 <trkpt lat="47.65432" lon="-122.29283">
				 <ele>6.1</ele>
			 </trkpt>
			 <trkpt lat="47.65446" lon="-122.29259">
				 <ele>6</ele>
			 </trkpt>
			 <trkpt lat="47.65449" lon="-122.29247">
				 <ele>6</ele>
			 </trkpt>
			 <trkpt lat="47.65448" lon="-122.29232">
				 <ele>6</ele>
			 </trkpt>
			 <trkpt lat="47.6545" lon="-122.29218">
				 <ele>6</ele>
			 </trkpt>
			 <trkpt lat="47.65469" lon="-122.2917">
				 <ele>6</ele>
			 </trkpt>
			 <trkpt lat="47.6547" lon="-122.29161">
				 <ele>6</ele>
			 </trkpt>
			 <trkpt lat="47.65466" lon="-122.29134">
				 <ele>6</ele>
			 </trkpt>
			 <trkpt lat="47.65466" lon="-122.29107">
				 <ele>6.1</ele>
			 </trkpt>
			 <trkpt lat="47.6547" lon="-122.29085">
				 <ele>6.2</ele>
			 </trkpt>
			 <trkpt lat="47.65477" lon="-122.2907">
				 <ele>6.3</ele>
			 </trkpt>
			 <trkpt lat="47.65509" lon="-122.2906">
				 <ele>6.5</ele>
			 </trkpt>
			 <trkpt lat="47.65516" lon="-122.29062">
				 <ele>6.6</ele>
			 </trkpt>
			 <trkpt lat="47.65545" lon="-122.29081">
				 <ele>6.7</ele>
			 </trkpt>
			 <trkpt lat="47.65567" lon="-122.29086">
				 <ele>6.8</ele>
			 </trkpt>
			 <trkpt lat="47.65572" lon="-122.29089">
				 <ele>6.9</ele>
			 </trkpt>
			 <trkpt lat="47.65595" lon="-122.29134">
				 <ele>7</ele>
			 </trkpt>
			 <trkpt lat="47.65618" lon="-122.29171">
				 <ele>7.1</ele>
			 </trkpt>
			 <trkpt lat="47.65643" lon="-122.29224">
				 <ele>7.2</ele>
			 </trkpt>
			 <trkpt lat="47.65664" lon="-122.2925">
				 <ele>7.3</ele>
			 </trkpt>
			 <trkpt lat="47.65674" lon="-122.29255">
				 <ele>7.3</ele>
			 </trkpt>
			 <trkpt lat="47.6569" lon="-122.29261">
				 <ele>7.4</ele>
			 </trkpt>
			 <trkpt lat="47.65708" lon="-122.29273">
				 <ele>7.5</ele>
			 </trkpt>
			 <trkpt lat="47.6572" lon="-122.29308">
				 <ele>7.5</ele>
			 </trkpt>
			 <trkpt lat="47.65729" lon="-122.29324">
				 <ele>7.7</ele>
			 </trkpt>
			 <trkpt lat="47.65793" lon="-122.29345">
				 <ele>7.8</ele>
			 </trkpt>
			 <trkpt lat="47.65829" lon="-122.29351">
				 <ele>7.8</ele>
			 </trkpt>
			 <trkpt lat="47.6588" lon="-122.29355">
				 <ele>7.7</ele>
			 </trkpt>
			 <trkpt lat="47.6589" lon="-122.29357">
				 <ele>7.7</ele>
			 </trkpt>
			 <trkpt lat="47.65904" lon="-122.29361">
				 <ele>7.7</ele>
			 </trkpt>
			 <trkpt lat="47.65954" lon="-122.29388">
				 <ele>7.6</ele>
			 </trkpt>
			 <trkpt lat="47.659235" lon="-122.29481">
				 <ele>7.6</ele>
			 </trkpt>
			 <trkpt lat="47.65893" lon="-122.29574">
				 <ele>7.5</ele>
			 </trkpt>
			 <trkpt lat="47.65864" lon="-122.29671">
				 <ele>7.4</ele>
			 </trkpt>
			 <trkpt lat="47.65852" lon="-122.29673">
				 <ele>7.2</ele>
			 </trkpt>
			 <trkpt lat="47.65821" lon="-122.29672">
				 <ele>6.9</ele>
			 </trkpt>
			 <trkpt lat="47.65802" lon="-122.29675">
				 <ele>6.7</ele>
			 </trkpt>
			 <trkpt lat="47.65744" lon="-122.29693">
				 <ele>6.6</ele>
			 </trkpt>
			 <trkpt lat="47.65708" lon="-122.29698">
				 <ele>6.6</ele>
			 </trkpt>
			 <trkpt lat="47.65672" lon="-122.29693">
				 <ele>6.5</ele>
			 </trkpt>
			 <trkpt lat="47.6565" lon="-122.29697">
				 <ele>6.5</ele>
			 </trkpt>
			 <trkpt lat="47.656" lon="-122.29709">
				 <ele>6.4</ele>
			 </trkpt>
			 <trkpt lat="47.65574" lon="-122.29711">
				 <ele>6.3</ele>
			 </trkpt>
			 <trkpt lat="47.65531" lon="-122.2972">
				 <ele>6.2</ele>
			 </trkpt>
			 <trkpt lat="47.65498" lon="-122.29731">
				 <ele>6.1</ele>
			 </trkpt>
			 <trkpt lat="47.65455" lon="-122.29752">
				 <ele>6</ele>
			 </trkpt>
			 <trkpt lat="47.65406" lon="-122.29777">
				 <ele>6</ele>
			 </trkpt>
			 <trkpt lat="47.6539" lon="-122.29788">
				 <ele>6.1</ele>
			 </trkpt>
			 <trkpt lat="47.65385" lon="-122.29796">
				 <ele>6.3</ele>
			 </trkpt>
			 <trkpt lat="47.65379" lon="-122.2981">
				 <ele>6.5</ele>
			 </trkpt>
			 <trkpt lat="47.65377" lon="-122.29827">
				 <ele>6.8</ele>
			 </trkpt>
			 <trkpt lat="47.65377" lon="-122.29876">
				 <ele>7.2</ele>
			 </trkpt>
			 <trkpt lat="47.65381" lon="-122.29941">
				 <ele>7.5</ele>
			 </trkpt>
			 <trkpt lat="47.6539" lon="-122.30003">
				 <ele>7.5</ele>
			 </trkpt>
			 <trkpt lat="47.65315" lon="-122.30025">
				 <ele>7.6</ele>
			 </trkpt>
			 <trkpt lat="47.65298" lon="-122.30028">
				 <ele>7.7</ele>
			 </trkpt>
			 <trkpt lat="47.65256" lon="-122.30027">
				 <ele>7.8</ele>
			 </trkpt>
			 <trkpt lat="47.65247" lon="-122.30006">
				 <ele>7.9</ele>
			 </trkpt>
			 <trkpt lat="47.65222" lon="-122.29886">
				 <ele>7.9</ele>
			 </trkpt>
			 <trkpt lat="47.65214" lon="-122.2987">
				 <ele>7.8</ele>
			 </trkpt>
			 <trkpt lat="47.65203" lon="-122.2986">
				 <ele>7.8</ele>
			 </trkpt>
			 <trkpt lat="47.6519" lon="-122.29863">
				 <ele>7.9</ele>
			 </trkpt>
			 <trkpt lat="47.6513" lon="-122.298855">
				 <ele>7.9</ele>
			 </trkpt>
			 <trkpt lat="47.6507" lon="-122.29908">
				 <ele>8.1</ele>
			 </trkpt>
			 <trkpt lat="47.6505" lon="-122.29913">
				 <ele>8.5</ele>
			 </trkpt>
			 <trkpt lat="47.6498" lon="-122.29913">
				 <ele>8.8</ele>
			 </trkpt>
			 <trkpt lat="47.64954" lon="-122.29922">
				 <ele>9.3</ele>
			 </trkpt>
			 <trkpt lat="47.64947" lon="-122.29928">
				 <ele>9.7</ele>
			 </trkpt>
			 <trkpt lat="47.64942" lon="-122.29945">
				 <ele>10.1</ele>
			 </trkpt>
			 <trkpt lat="47.64937" lon="-122.29953">
				 <ele>10.5</ele>
			 </trkpt>
			 <trkpt lat="47.64891" lon="-122.29989">
				 <ele>11</ele>
			 </trkpt>
			 <trkpt lat="47.64881" lon="-122.30011">
				 <ele>11.3</ele>
			 </trkpt>
			 <trkpt lat="47.64879" lon="-122.30024">
				 <ele>11.5</ele>
			 </trkpt>
			 <trkpt lat="47.6487" lon="-122.30029">
				 <ele>11.6</ele>
			 </trkpt>
			 <trkpt lat="47.64857" lon="-122.30048">
				 <ele>12</ele>
			 </trkpt>
			 <trkpt lat="47.64849" lon="-122.30081">
				 <ele>12.4</ele>
			 </trkpt>
			 <trkpt lat="47.64832" lon="-122.30081">
				 <ele>12.7</ele>
			 </trkpt>
			 <trkpt lat="47.64831" lon="-122.30154">
				 <ele>12.9</ele>
			 </trkpt>
			 <trkpt lat="47.64815" lon="-122.30155">
				 <ele>13.1</ele>
			 </trkpt>
			 <trkpt lat="47.64814" lon="-122.30285">
				 <ele>13.4</ele>
			 </trkpt>
			 <trkpt lat="47.64802" lon="-122.30284">
				 <ele>14.2</ele>
			 </trkpt>
			 <trkpt lat="47.64794" lon="-122.30271">
				 <ele>15.2</ele>
			 </trkpt>
			 <trkpt lat="47.64782" lon="-122.30262">
				 <ele>16.2</ele>
			 </trkpt>
			 <trkpt lat="47.64775" lon="-122.30259">
				 <ele>17.1</ele>
			 </trkpt>
			 <trkpt lat="47.64767" lon="-122.30262">
				 <ele>18</ele>
			 </trkpt>
			 <trkpt lat="47.64777" lon="-122.30392">
				 <ele>18.6</ele>
			 </trkpt>
			 <trkpt lat="47.64786" lon="-122.30449">
				 <ele>19.3</ele>
			 </trkpt>
			 <trkpt lat="47.6479" lon="-122.3045">
				 <ele>19.9</ele>
			 </trkpt>
			 <trkpt lat="47.64807" lon="-122.30441">
				 <ele>20.6</ele>
			 </trkpt>
			 <trkpt lat="47.64858" lon="-122.304395">
				 <ele>21.5</ele>
			 </trkpt>
			 <trkpt lat="47.64909" lon="-122.30438">
				 <ele>22.5</ele>
			 </trkpt>
			 <trkpt lat="47.64918" lon="-122.30439">
				 <ele>23.1</ele>
			 </trkpt>
			 <trkpt lat="47.64924" lon="-122.30432">
				 <ele>23.5</ele>
			 </trkpt>
			 <trkpt lat="47.64957" lon="-122.30428">
				 <ele>23.8</ele>
			 </trkpt>
			 <trkpt lat="47.64992" lon="-122.30419">
				 <ele>24.3</ele>
			 </trkpt>
			 <trkpt lat="47.65027" lon="-122.30409">
				 <ele>24.7</ele>
			 </trkpt>
			 <trkpt lat="47.65031" lon="-122.30409">
				 <ele>25.1</ele>
			 </trkpt>
			 <trkpt lat="47.65039" lon="-122.30411">
				 <ele>25.5</ele>
			 </trkpt>
			 <trkpt lat="47.65051" lon="-122.30423">
				 <ele>25.7</ele>
			 </trkpt>
			 <trkpt lat="47.65058" lon="-122.30454">
				 <ele>26</ele>
			 </trkpt>
			 <trkpt lat="47.65056" lon="-122.30468">
				 <ele>26.2</ele>
			 </trkpt>
			 <trkpt lat="47.6504" lon="-122.3052">
				 <ele>26.1</ele>
			 </trkpt>
			 <trkpt lat="47.65057" lon="-122.30539">
				 <ele>25.9</ele>
			 </trkpt>
			 <trkpt lat="47.65061" lon="-122.30559">
				 <ele>25.7</ele>
			 </trkpt>
			 <trkpt lat="47.6507" lon="-122.30565">
				 <ele>25.5</ele>
			 </trkpt>
			 <trkpt lat="47.65079" lon="-122.3056">
				 <ele>25.4</ele>
			 </trkpt>
			 <trkpt lat="47.65091" lon="-122.30557">
				 <ele>25.1</ele>
			 </trkpt>
			 <trkpt lat="47.65107" lon="-122.30565">
				 <ele>24.9</ele>
			 </trkpt>
			 <trkpt lat="47.65114" lon="-122.30571">
				 <ele>24.7</ele>
			 </trkpt>
			 <trkpt lat="47.65118" lon="-122.30544">
				 <ele>24.5</ele>
			 </trkpt>
			 <trkpt lat="47.65115" lon="-122.30523">
				 <ele>24.4</ele>
			 </trkpt>
			 <trkpt lat="47.65112" lon="-122.30514">
				 <ele>24.2</ele>
			 </trkpt>
			 <trkpt lat="47.65098" lon="-122.30489">
				 <ele>24</ele>
			 </trkpt>
			 <trkpt lat="47.65137" lon="-122.30432">
				 <ele>23.7</ele>
			 </trkpt>
			 <trkpt lat="47.65178" lon="-122.30387">
				 <ele>23.4</ele>
			 </trkpt>
			 <trkpt lat="47.65201" lon="-122.3037">
				 <ele>23</ele>
			 </trkpt>
			 <trkpt lat="47.65228" lon="-122.30356">
				 <ele>22.5</ele>
			 </trkpt>
			 <trkpt lat="47.65306" lon="-122.303324">
				 <ele>22.2</ele>
			 </trkpt>
			 <trkpt lat="47.65384" lon="-122.303088">
				 <ele>21.7</ele>
			 </trkpt>
			 <trkpt lat="47.65462" lon="-122.302852">
				 <ele>21.3</ele>
			 </trkpt>
			 <trkpt lat="47.6554" lon="-122.302616">
				 <ele>20.9</ele>
			 </trkpt>
			 <trkpt lat="47.65618" lon="-122.30238">
				 <ele>20.5</ele>
			 </trkpt>
			 <trkpt lat="47.65681" lon="-122.30218">
				 <ele>20.1</ele>
			 </trkpt>
			 <trkpt lat="47.65744" lon="-122.30198">
				 <ele>19.7</ele>
			 </trkpt>
			 <trkpt lat="47.65809" lon="-122.30185">
				 <ele>19.5</ele>
			 </trkpt>
			 <trkpt lat="47.65876" lon="-122.30179">
				 <ele>19.3</ele>
			 </trkpt>
			 <trkpt lat="47.65922" lon="-122.30177">
				 <ele>19.1</ele>
			 </trkpt>
			 <trkpt lat="47.66008" lon="-122.30182">
				 <ele>19.1</ele>
			 </trkpt>
			 <trkpt lat="47.65922" lon="-122.30177">
				 <ele>19.1</ele>
			 </trkpt>
			 <trkpt lat="47.65876" lon="-122.30179">
				 <ele>19.3</ele>
			 </trkpt>
			 <trkpt lat="47.65809" lon="-122.30185">
				 <ele>19.5</ele>
			 </trkpt>
			 <trkpt lat="47.65744" lon="-122.30198">
				 <ele>19.7</ele>
			 </trkpt>
			 <trkpt lat="47.65681" lon="-122.30218">
				 <ele>20.1</ele>
			 </trkpt>
			 <trkpt lat="47.65618" lon="-122.30238">
				 <ele>20.5</ele>
			 </trkpt>
			 <trkpt lat="47.6554" lon="-122.302616">
				 <ele>20.9</ele>
			 </trkpt>
			 <trkpt lat="47.65462" lon="-122.302852">
				 <ele>21.3</ele>
			 </trkpt>
			 <trkpt lat="47.65384" lon="-122.303088">
				 <ele>21.7</ele>
			 </trkpt>
			 <trkpt lat="47.65306" lon="-122.303324">
				 <ele>22.2</ele>
			 </trkpt>
			 <trkpt lat="47.65228" lon="-122.30356">
				 <ele>22.5</ele>
			 </trkpt>
			 <trkpt lat="47.65201" lon="-122.3037">
				 <ele>23</ele>
			 </trkpt>
			 <trkpt lat="47.65178" lon="-122.30387">
				 <ele>23.4</ele>
			 </trkpt>
			 <trkpt lat="47.65137" lon="-122.30432">
				 <ele>23.7</ele>
			 </trkpt>
			 <trkpt lat="47.65099" lon="-122.30489">
				 <ele>24.1</ele>
			 </trkpt>
			 <trkpt lat="47.65112" lon="-122.30514">
				 <ele>24.6</ele>
			 </trkpt>
			 <trkpt lat="47.65115" lon="-122.30523">
				 <ele>25.3</ele>
			 </trkpt>
			 <trkpt lat="47.65118" lon="-122.30544">
				 <ele>26.3</ele>
			 </trkpt>
			 <trkpt lat="47.65114" lon="-122.30571">
				 <ele>27.5</ele>
			 </trkpt>
			 <trkpt lat="47.65167" lon="-122.306065">
				 <ele>28.7</ele>
			 </trkpt>
			 <trkpt lat="47.6522" lon="-122.30642">
				 <ele>29.9</ele>
			 </trkpt>
			 <trkpt lat="47.65228" lon="-122.30647">
				 <ele>31.2</ele>
			 </trkpt>
			 <trkpt lat="47.652985" lon="-122.30694">
				 <ele>32.4</ele>
			 </trkpt>
			 <trkpt lat="47.65367" lon="-122.30741">
				 <ele>33.5</ele>
			 </trkpt>
			 <trkpt lat="47.6538" lon="-122.30737">
				 <ele>35</ele>
			 </trkpt>
			 <trkpt lat="47.65393" lon="-122.3074">
				 <ele>36.6</ele>
			 </trkpt>
			 <trkpt lat="47.65404" lon="-122.30754">
				 <ele>37.7</ele>
			 </trkpt>
			 <trkpt lat="47.6541" lon="-122.30769">
				 <ele>38.5</ele>
			 </trkpt>
			 <trkpt lat="47.65407" lon="-122.308">
				 <ele>38.8</ele>
			 </trkpt>
			 <trkpt lat="47.65458" lon="-122.30834">
				 <ele>38.9</ele>
			 </trkpt>
			 <trkpt lat="47.65509" lon="-122.30868">
				 <ele>39</ele>
			 </trkpt>
			 <trkpt lat="47.65458" lon="-122.30834">
				 <ele>39.1</ele>
			 </trkpt>
			 <trkpt lat="47.65407" lon="-122.308">
				 <ele>39.1</ele>
			 </trkpt>
			 <trkpt lat="47.65398" lon="-122.30817">
				 <ele>39</ele>
			 </trkpt>
			 <trkpt lat="47.6539" lon="-122.30822">
				 <ele>38.6</ele>
			 </trkpt>
			 <trkpt lat="47.65377" lon="-122.30823">
				 <ele>37.5</ele>
			 </trkpt>
			 <trkpt lat="47.65368" lon="-122.30819">
				 <ele>36.2</ele>
			 </trkpt>
			 <trkpt lat="47.65357" lon="-122.30808">
				 <ele>34.9</ele>
			 </trkpt>
			 <trkpt lat="47.65352" lon="-122.30788">
				 <ele>33.7</ele>
			 </trkpt>
			 <trkpt lat="47.652835" lon="-122.30741">
				 <ele>32.5</ele>
			 </trkpt>
			 <trkpt lat="47.65215" lon="-122.30694">
				 <ele>31.4</ele>
			 </trkpt>
			 <trkpt lat="47.65206" lon="-122.30684">
				 <ele>30.1</ele>
			 </trkpt>
			 <trkpt lat="47.65154" lon="-122.30648">
				 <ele>28.8</ele>
			 </trkpt>
			 <trkpt lat="47.65102" lon="-122.30612">
				 <ele>27.5</ele>
			 </trkpt>
			 <trkpt lat="47.65095" lon="-122.30632">
				 <ele>26.4</ele>
			 </trkpt>
			 <trkpt lat="47.65088" lon="-122.30648">
				 <ele>25.5</ele>
			 </trkpt>
			 <trkpt lat="47.65085" lon="-122.30672">
				 <ele>25</ele>
			 </trkpt>
			 <trkpt lat="47.65087" lon="-122.30715">
				 <ele>24.5</ele>
			 </trkpt>
			 <trkpt lat="47.65084" lon="-122.30727">
				 <ele>24.2</ele>
			 </trkpt>
			 <trkpt lat="47.65077" lon="-122.3073">
				 <ele>24</ele>
			 </trkpt>
			 <trkpt lat="47.65097" lon="-122.30805">
				 <ele>23.8</ele>
			 </trkpt>
			 <trkpt lat="47.65103" lon="-122.30819">
				 <ele>23.5</ele>
			 </trkpt>
			 <trkpt lat="47.65145" lon="-122.30905">
				 <ele>23.4</ele>
			 </trkpt>
			 <trkpt lat="47.651875" lon="-122.30986">
				 <ele>23.1</ele>
			 </trkpt>
			 <trkpt lat="47.6523" lon="-122.31067">
				 <ele>22.8</ele>
			 </trkpt>
			 <trkpt lat="47.6526" lon="-122.31135">
				 <ele>22.5</ele>
			 </trkpt>
			 <trkpt lat="47.65295" lon="-122.31205">
				 <ele>22.3</ele>
			 </trkpt>
			 <trkpt lat="47.65344" lon="-122.31289">
				 <ele>22</ele>
			 </trkpt>
			 <trkpt lat="47.65354" lon="-122.31327">
				 <ele>21.6</ele>
			 </trkpt>
			 <trkpt lat="47.65363" lon="-122.31345">
				 <ele>21.4</ele>
			 </trkpt>
			 <trkpt lat="47.65364" lon="-122.3135">
				 <ele>21.2</ele>
			 </trkpt>
			 <trkpt lat="47.65378" lon="-122.31374">
				 <ele>21</ele>
			 </trkpt>
			 <trkpt lat="47.65399" lon="-122.314">
				 <ele>20.9</ele>
			 </trkpt>
			 <trkpt lat="47.65418" lon="-122.31437">
				 <ele>20.8</ele>
			 </trkpt>
			 <trkpt lat="47.65451" lon="-122.31556">
				 <ele>20.8</ele>
			 </trkpt>
			 <trkpt lat="47.65461" lon="-122.31601">
				 <ele>20.7</ele>
			 </trkpt>
			 <trkpt lat="47.65481" lon="-122.31675">
				 <ele>20.6</ele>
			 </trkpt>
			 <trkpt lat="47.654965" lon="-122.31743">
				 <ele>20.5</ele>
			 </trkpt>
			 <trkpt lat="47.65512" lon="-122.31811">
				 <ele>20.3</ele>
			 </trkpt>
			 <trkpt lat="47.65517" lon="-122.31833">
				 <ele>20.2</ele>
			 </trkpt>
			 <trkpt lat="47.655365" lon="-122.319145">
				 <ele>20.1</ele>
			 </trkpt>
			 <trkpt lat="47.65554" lon="-122.31994">
				 <ele>19.8</ele>
			 </trkpt>
			 <trkpt lat="47.65559" lon="-122.32028">
				 <ele>19.5</ele>
			 </trkpt>
			 <trkpt lat="47.65562" lon="-122.32091">
				 <ele>19.1</ele>
			 </trkpt>
			 <trkpt lat="47.65556" lon="-122.32156">
				 <ele>18.7</ele>
			 </trkpt>
			 <trkpt lat="47.6555" lon="-122.32191">
				 <ele>18.4</ele>
			 </trkpt>
			 <trkpt lat="47.655267" lon="-122.32308">
				 <ele>18.1</ele>
			 </trkpt>
			 <trkpt lat="47.655033" lon="-122.32425">
				 <ele>17.8</ele>
			 </trkpt>
			 <trkpt lat="47.6548" lon="-122.32542">
				 <ele>17.5</ele>
			 </trkpt>
			 <trkpt lat="47.65481" lon="-122.32562">
				 <ele>17.2</ele>
			 </trkpt>
			 <trkpt lat="47.65477" lon="-122.3258">
				 <ele>16.8</ele>
			 </trkpt>
			 <trkpt lat="47.65458" lon="-122.32635">
				 <ele>16.4</ele>
			 </trkpt>
			 <trkpt lat="47.65438" lon="-122.32679">
				 <ele>16</ele>
			 </trkpt>
			 <trkpt lat="47.6539" lon="-122.32742">
				 <ele>15.7</ele>
			 </trkpt>
			 <trkpt lat="47.65353" lon="-122.32782">
				 <ele>15.4</ele>
			 </trkpt>
			 <trkpt lat="47.65298" lon="-122.32834">
				 <ele>15</ele>
			 </trkpt>
			 <trkpt lat="47.65253" lon="-122.328815">
				 <ele>14.7</ele>
			 </trkpt>
			 <trkpt lat="47.65208" lon="-122.32929">
				 <ele>14.5</ele>
			 </trkpt>
			 <trkpt lat="47.65197" lon="-122.32943">
				 <ele>14.2</ele>
			 </trkpt>
			 <trkpt lat="47.651645" lon="-122.3299">
				 <ele>14</ele>
			 </trkpt>
			 <trkpt lat="47.65132" lon="-122.33037">
				 <ele>13.9</ele>
			 </trkpt>
			 <trkpt lat="47.65066" lon="-122.3312">
				 <ele>13.7</ele>
			 </trkpt>
			 <trkpt lat="47.65058" lon="-122.33136">
				 <ele>13.6</ele>
			 </trkpt>
			 <trkpt lat="47.65055" lon="-122.33143">
				 <ele>13.5</ele>
			 </trkpt>
			 <trkpt lat="47.65045" lon="-122.3315">
				 <ele>13.4</ele>
			 </trkpt>
			 <trkpt lat="47.65043" lon="-122.33155">
				 <ele>13.2</ele>
			 </trkpt>
			 <trkpt lat="47.649767" lon="-122.331967">
				 <ele>13</ele>
			 </trkpt>
			 <trkpt lat="47.649103" lon="-122.332383">
				 <ele>12.7</ele>
			 </trkpt>
			 <trkpt lat="47.64844" lon="-122.3328">
				 <ele>12.5</ele>
			 </trkpt>
			 <trkpt lat="47.64803" lon="-122.33297">
				 <ele>12.2</ele>
			 </trkpt>
			 <trkpt lat="47.64755" lon="-122.333265">
				 <ele>11.9</ele>
			 </trkpt>
			 <trkpt lat="47.64707" lon="-122.33356">
				 <ele>11.5</ele>
			 </trkpt>
			 <trkpt lat="47.64695" lon="-122.33385">
				 <ele>11.2</ele>
			 </trkpt>
			 <trkpt lat="47.64689" lon="-122.33383">
				 <ele>10.8</ele>
			 </trkpt>
			 <trkpt lat="47.6468" lon="-122.33385">
				 <ele>10.5</ele>
			 </trkpt>
			 <trkpt lat="47.64657" lon="-122.33419">
				 <ele>10.4</ele>
			 </trkpt>
			 <trkpt lat="47.64648" lon="-122.33434">
				 <ele>10.3</ele>
			 </trkpt>
			 <trkpt lat="47.64617" lon="-122.33385">
				 <ele>10.2</ele>
			 </trkpt>
			 <trkpt lat="47.64575" lon="-122.33384">
				 <ele>10.1</ele>
			 </trkpt>
			 <trkpt lat="47.64571" lon="-122.33418">
				 <ele>10.1</ele>
			 </trkpt>
			 <trkpt lat="47.64561" lon="-122.33459">
				 <ele>10.1</ele>
			 </trkpt>
			 <trkpt lat="47.64556" lon="-122.33514">
				 <ele>10.1</ele>
			 </trkpt>
			 <trkpt lat="47.64556" lon="-122.33533">
				 <ele>10.1</ele>
			 </trkpt>
			 <trkpt lat="47.64562" lon="-122.33564">
				 <ele>10.2</ele>
			 </trkpt>
			 <trkpt lat="47.64577" lon="-122.33605">
				 <ele>10.3</ele>
			 </trkpt>
			 <trkpt lat="47.64583" lon="-122.33615">
				 <ele>10.3</ele>
			 </trkpt>
			 <trkpt lat="47.64609" lon="-122.33612">
				 <ele>10.3</ele>
			 </trkpt>
			 <trkpt lat="47.64616" lon="-122.33531">
				 <ele>10.4</ele>
			 </trkpt>
			 <trkpt lat="47.64625" lon="-122.33494">
				 <ele>10.4</ele>
			 </trkpt>
			 <trkpt lat="47.64648" lon="-122.33434">
				 <ele>10.4</ele>
			 </trkpt>
			 <trkpt lat="47.64661" lon="-122.33455">
				 <ele>10.3</ele>
			 </trkpt>
			 <trkpt lat="47.64669" lon="-122.33451">
				 <ele>10.2</ele>
			 </trkpt>
			 <trkpt lat="47.64683" lon="-122.3345">
				 <ele>10.1</ele>
			 </trkpt>
			 <trkpt lat="47.646833" lon="-122.335707">
				 <ele>10.1</ele>
			 </trkpt>
			 <trkpt lat="47.646837" lon="-122.336913">
				 <ele>10</ele>
			 </trkpt>
			 <trkpt lat="47.64684" lon="-122.33812">
				 <ele>9.9</ele>
			 </trkpt>
			 <trkpt lat="47.64693" lon="-122.33812">
				 <ele>9.8</ele>
			 </trkpt>
			 <trkpt lat="47.64693" lon="-122.33835">
				 <ele>9.8</ele>
			 </trkpt>
			 <trkpt lat="47.64702" lon="-122.33858">
				 <ele>9.8</ele>
			 </trkpt>
			 <trkpt lat="47.64747" lon="-122.33924">
				 <ele>9.7</ele>
			 </trkpt>
			 <trkpt lat="47.64758" lon="-122.33943">
				 <ele>9.6</ele>
			 </trkpt>
			 <trkpt lat="47.64782" lon="-122.33996">
				 <ele>9.5</ele>
			 </trkpt>
			 <trkpt lat="47.64805" lon="-122.34051">
				 <ele>9.5</ele>
			 </trkpt>
			 <trkpt lat="47.64818" lon="-122.34101">
				 <ele>9.4</ele>
			 </trkpt>
			 <trkpt lat="47.6483" lon="-122.341825">
				 <ele>9.3</ele>
			 </trkpt>
			 <trkpt lat="47.64842" lon="-122.34264">
				 <ele>9.3</ele>
			 </trkpt>
			 <trkpt lat="47.64844" lon="-122.34292">
				 <ele>9.3</ele>
			 </trkpt>
			 <trkpt lat="47.64841" lon="-122.343">
				 <ele>9.3</ele>
			 </trkpt>
			 <trkpt lat="47.64851" lon="-122.34368">
				 <ele>9.2</ele>
			 </trkpt>
			 <trkpt lat="47.64857" lon="-122.34383">
				 <ele>9</ele>
			 </trkpt>
			 <trkpt lat="47.64859" lon="-122.3439">
				 <ele>9</ele>
			 </trkpt>
			 <trkpt lat="47.64873" lon="-122.34478">
				 <ele>8.9</ele>
			 </trkpt>
			 <trkpt lat="47.6489" lon="-122.34587">
				 <ele>8.8</ele>
			 </trkpt>
			 <trkpt lat="47.64907" lon="-122.34696">
				 <ele>8.7</ele>
			 </trkpt>
			 <trkpt lat="47.64903" lon="-122.34708">
				 <ele>8.6</ele>
			 </trkpt>
			 <trkpt lat="47.64893" lon="-122.34713">
				 <ele>8.6</ele>
			 </trkpt>
			 <trkpt lat="47.64856" lon="-122.34717">
				 <ele>8.6</ele>
			 </trkpt>
			 <trkpt lat="47.64849" lon="-122.34725">
				 <ele>8.6</ele>
			 </trkpt>
			 <trkpt lat="47.64844" lon="-122.34734">
				 <ele>8.6</ele>
			 </trkpt>
			 <trkpt lat="47.64843" lon="-122.34739">
				 <ele>8.6</ele>
			 </trkpt>
			 <trkpt lat="47.64842" lon="-122.34806">
				 <ele>8.6</ele>
			 </trkpt>
			 <trkpt lat="47.64855" lon="-122.34891">
				 <ele>8.6</ele>
			 </trkpt>
			 <trkpt lat="47.64856" lon="-122.34952">
				 <ele>8.8</ele>
			 </trkpt>
			 <trkpt lat="47.64859" lon="-122.34963">
				 <ele>9</ele>
			 </trkpt>
			 <trkpt lat="47.6486" lon="-122.34997">
				 <ele>9.1</ele>
			 </trkpt>
			 <trkpt lat="47.64865" lon="-122.35001">
				 <ele>9.2</ele>
			 </trkpt>
			 <trkpt lat="47.64876" lon="-122.35018">
				 <ele>9.1</ele>
			 </trkpt>
			 <trkpt lat="47.649137" lon="-122.35104">
				 <ele>9.1</ele>
			 </trkpt>
			 <trkpt lat="47.649513" lon="-122.3519">
				 <ele>9.1</ele>
			 </trkpt>
			 <trkpt lat="47.64989" lon="-122.35276">
				 <ele>9.1</ele>
			 </trkpt>
			 <trkpt lat="47.65007" lon="-122.353575">
				 <ele>9.1</ele>
			 </trkpt>
			 <trkpt lat="47.65025" lon="-122.35439">
				 <ele>9.1</ele>
			 </trkpt>
			 <trkpt lat="47.65035" lon="-122.35451">
				 <ele>9.4</ele>
			 </trkpt>
			 <trkpt lat="47.65041" lon="-122.3545">
				 <ele>9.7</ele>
			 </trkpt>
			 <trkpt lat="47.65038" lon="-122.3544">
				 <ele>10.1</ele>
			 </trkpt>
			 <trkpt lat="47.65041" lon="-122.3544">
				 <ele>10.7</ele>
			 </trkpt>
			 <trkpt lat="47.650175" lon="-122.35338">
				 <ele>11.4</ele>
			 </trkpt>
			 <trkpt lat="47.64994" lon="-122.35236">
				 <ele>12.1</ele>
			 </trkpt>
			 <trkpt lat="47.64978" lon="-122.35121">
				 <ele>12.8</ele>
			 </trkpt>
			 <trkpt lat="47.64972" lon="-122.35093">
				 <ele>13.5</ele>
			 </trkpt>
			 <trkpt lat="47.6496" lon="-122.35017">
				 <ele>14.2</ele>
			 </trkpt>
			 <trkpt lat="47.64957" lon="-122.34977">
				 <ele>14.8</ele>
			 </trkpt>
			 <trkpt lat="47.648673" lon="-122.34977">
				 <ele>15.5</ele>
			 </trkpt>
			 <trkpt lat="47.647777" lon="-122.34977">
				 <ele>15.8</ele>
			 </trkpt>
			 <trkpt lat="47.64688" lon="-122.34977">
				 <ele>15.7</ele>
			 </trkpt>
			 <trkpt lat="47.646885" lon="-122.350455">
				 <ele>15.6</ele>
			 </trkpt>
			 <trkpt lat="47.64689" lon="-122.35114">
				 <ele>15.4</ele>
			 </trkpt>
			 <trkpt lat="47.64689" lon="-122.35124">
				 <ele>14.7</ele>
			 </trkpt>
			 <trkpt lat="47.64686" lon="-122.35132">
				 <ele>14.1</ele>
			 </trkpt>
			 <trkpt lat="47.6476" lon="-122.3513">
				 <ele>13.4</ele>
			 </trkpt>
			 <trkpt lat="47.64765" lon="-122.35133">
				 <ele>12.5</ele>
			 </trkpt>
			 <trkpt lat="47.6477" lon="-122.3513">
				 <ele>11.8</ele>
			 </trkpt>
			 <trkpt lat="47.64808" lon="-122.35215">
				 <ele>11</ele>
			 </trkpt>
			 <trkpt lat="47.64811" lon="-122.35212">
				 <ele>10.2</ele>
			 </trkpt>
			 <trkpt lat="47.648365" lon="-122.3527">
				 <ele>9.4</ele>
			 </trkpt>
			 <trkpt lat="47.64862" lon="-122.35328">
				 <ele>8.8</ele>
			 </trkpt>
			 <trkpt lat="47.648953" lon="-122.354043">
				 <ele>8.3</ele>
			 </trkpt>
			 <trkpt lat="47.649287" lon="-122.354807">
				 <ele>7.7</ele>
			 </trkpt>
			 <trkpt lat="47.64962" lon="-122.35557">
				 <ele>7.5</ele>
			 </trkpt>
			 <trkpt lat="47.650068" lon="-122.35658">
				 <ele>7.4</ele>
			 </trkpt>
			 <trkpt lat="47.650515" lon="-122.35759">
				 <ele>7.2</ele>
			 </trkpt>
			 <trkpt lat="47.650963" lon="-122.3586">
				 <ele>7</ele>
			 </trkpt>
			 <trkpt lat="47.65141" lon="-122.35961">
				 <ele>6.9</ele>
			 </trkpt>
			 <trkpt lat="47.6515" lon="-122.35987">
				 <ele>6.8</ele>
			 </trkpt>
			 <trkpt lat="47.65176" lon="-122.36095">
				 <ele>6.8</ele>
			 </trkpt>
			 <trkpt lat="47.65198" lon="-122.361937">
				 <ele>6.8</ele>
			 </trkpt>
			 <trkpt lat="47.6522" lon="-122.362923">
				 <ele>6.8</ele>
			 </trkpt>
			 <trkpt lat="47.65242" lon="-122.36391">
				 <ele>6.8</ele>
			 </trkpt>
			 <trkpt lat="47.65266" lon="-122.36507">
				 <ele>6.8</ele>
			 </trkpt>
			 <trkpt lat="47.6528" lon="-122.3656">
				 <ele>6.8</ele>
			 </trkpt>
			 <trkpt lat="47.65309" lon="-122.36657">
				 <ele>6.8</ele>
			 </trkpt>
			 <trkpt lat="47.65324" lon="-122.36696">
				 <ele>6.8</ele>
			 </trkpt>
			 <trkpt lat="47.65344" lon="-122.36741">
				 <ele>6.9</ele>
			 </trkpt>
			 <trkpt lat="47.65358" lon="-122.36768">
				 <ele>6.9</ele>
			 </trkpt>
			 <trkpt lat="47.65406" lon="-122.368475">
				 <ele>6.9</ele>
			 </trkpt>
			 <trkpt lat="47.65454" lon="-122.36927">
				 <ele>6.8</ele>
			 </trkpt>
			 <trkpt lat="47.6547" lon="-122.3696">
				 <ele>6.7</ele>
			 </trkpt>
			 <trkpt lat="47.655075" lon="-122.370245">
				 <ele>6.6</ele>
			 </trkpt>
			 <trkpt lat="47.65545" lon="-122.37089">
				 <ele>6.5</ele>
			 </trkpt>
			 <trkpt lat="47.65582" lon="-122.37175">
				 <ele>6.5</ele>
			 </trkpt>
			 <trkpt lat="47.65594" lon="-122.37211">
				 <ele>6.4</ele>
			 </trkpt>
			 <trkpt lat="47.65601" lon="-122.37248">
				 <ele>6.7</ele>
			 </trkpt>
			 <trkpt lat="47.65606" lon="-122.37283">
				 <ele>7.1</ele>
			 </trkpt>
			 <trkpt lat="47.65609" lon="-122.37331">
				 <ele>7.5</ele>
			 </trkpt>
			 <trkpt lat="47.65608" lon="-122.37347">
				 <ele>7.8</ele>
			 </trkpt>
			 <trkpt lat="47.65606" lon="-122.37357">
				 <ele>8.3</ele>
			 </trkpt>
			 <trkpt lat="47.65558" lon="-122.37356">
				 <ele>8.7</ele>
			 </trkpt>
			 <trkpt lat="47.65549" lon="-122.37359">
				 <ele>9.2</ele>
			 </trkpt>
			 <trkpt lat="47.65552" lon="-122.37376">
				 <ele>9.5</ele>
			 </trkpt>
			 <trkpt lat="47.65548" lon="-122.37421">
				 <ele>9.8</ele>
			 </trkpt>
			 <trkpt lat="47.65541" lon="-122.37461">
				 <ele>10.1</ele>
			 </trkpt>
			 <trkpt lat="47.65529" lon="-122.37501">
				 <ele>10.3</ele>
			 </trkpt>
			 <trkpt lat="47.655" lon="-122.37564">
				 <ele>10.1</ele>
			 </trkpt>
			 <trkpt lat="47.65482" lon="-122.37631">
				 <ele>10</ele>
			 </trkpt>
			 <trkpt lat="47.65476" lon="-122.37645">
				 <ele>10</ele>
			 </trkpt>
			 <trkpt lat="47.65463" lon="-122.37658">
				 <ele>10.5</ele>
			 </trkpt>
			 <trkpt lat="47.65447" lon="-122.37663">
				 <ele>11</ele>
			 </trkpt>
			 <trkpt lat="47.65409" lon="-122.37668">
				 <ele>11.5</ele>
			 </trkpt>
			 <trkpt lat="47.65385" lon="-122.37667">
				 <ele>12.1</ele>
			 </trkpt>
			 <trkpt lat="47.65361" lon="-122.37663">
				 <ele>12.7</ele>
			 </trkpt>
			 <trkpt lat="47.65298" lon="-122.37646">
				 <ele>13.5</ele>
			 </trkpt>
			 <trkpt lat="47.65248" lon="-122.37637">
				 <ele>14.2</ele>
			 </trkpt>
			 <trkpt lat="47.65329" lon="-122.37627">
				 <ele>14.9</ele>
			 </trkpt>
			 <trkpt lat="47.6535" lon="-122.37626">
				 <ele>15.1</ele>
			 </trkpt>
			 <trkpt lat="47.65386" lon="-122.37637">
				 <ele>14.9</ele>
			 </trkpt>
			 <trkpt lat="47.65394" lon="-122.37649">
				 <ele>14.6</ele>
			 </trkpt>
			 <trkpt lat="47.65398" lon="-122.37672">
				 <ele>13.9</ele>
			 </trkpt>
			 <trkpt lat="47.653985" lon="-122.37753">
				 <ele>13.1</ele>
			 </trkpt>
			 <trkpt lat="47.65399" lon="-122.37834">
				 <ele>12.2</ele>
			 </trkpt>
			 <trkpt lat="47.65398" lon="-122.37925">
				 <ele>11.4</ele>
			 </trkpt>
			 <trkpt lat="47.65399" lon="-122.38053">
				 <ele>10.5</ele>
			 </trkpt>
			 <trkpt lat="47.65406" lon="-122.38088">
				 <ele>9.8</ele>
			 </trkpt>
			 <trkpt lat="47.65413" lon="-122.38105">
				 <ele>9.1</ele>
			 </trkpt>
			 <trkpt lat="47.65434" lon="-122.38137">
				 <ele>8.5</ele>
			 </trkpt>
			 <trkpt lat="47.65469" lon="-122.381855">
				 <ele>8.7</ele>
			 </trkpt>
			 <trkpt lat="47.65504" lon="-122.38234">
				 <ele>9.6</ele>
			 </trkpt>
			 <trkpt lat="47.65534" lon="-122.38276">
				 <ele>10.6</ele>
			 </trkpt>
			 <trkpt lat="47.65549" lon="-122.38305">
				 <ele>11.7</ele>
			 </trkpt>
			 <trkpt lat="47.65583" lon="-122.38405">
				 <ele>12.9</ele>
			 </trkpt>
			 <trkpt lat="47.65604" lon="-122.38472">
				 <ele>14.2</ele>
			 </trkpt>
			 <trkpt lat="47.65614" lon="-122.38519">
				 <ele>15.5</ele>
			 </trkpt>
			 <trkpt lat="47.65614" lon="-122.38541">
				 <ele>17.1</ele>
			 </trkpt>
			 <trkpt lat="47.6561" lon="-122.38569">
				 <ele>18.5</ele>
			 </trkpt>
			 <trkpt lat="47.65595" lon="-122.38629">
				 <ele>20.1</ele>
			 </trkpt>
			 <trkpt lat="47.65585" lon="-122.38647">
				 <ele>21.5</ele>
			 </trkpt>
			 <trkpt lat="47.656505" lon="-122.387275">
				 <ele>22.6</ele>
			 </trkpt>
			 <trkpt lat="47.65716" lon="-122.38808">
				 <ele>23.3</ele>
			 </trkpt>
			 <trkpt lat="47.65782" lon="-122.38891">
				 <ele>23.9</ele>
			 </trkpt>
			 <trkpt lat="47.65848" lon="-122.38974">
				 <ele>24.5</ele>
			 </trkpt>
			 <trkpt lat="47.65853" lon="-122.38979">
				 <ele>25</ele>
			 </trkpt>
			 <trkpt lat="47.65857" lon="-122.38973">
				 <ele>25.6</ele>
			 </trkpt>
			 <trkpt lat="47.659095" lon="-122.39039">
				 <ele>25.6</ele>
			 </trkpt>
			 <trkpt lat="47.65962" lon="-122.39105">
				 <ele>25.3</ele>
			 </trkpt>
			 <trkpt lat="47.65996" lon="-122.39155">
				 <ele>24.8</ele>
			 </trkpt>
			 <trkpt lat="47.6603" lon="-122.39205">
				 <ele>24.3</ele>
			 </trkpt>
			 <trkpt lat="47.66069" lon="-122.39272">
				 <ele>23.5</ele>
			 </trkpt>
			 <trkpt lat="47.66113" lon="-122.3922">
				 <ele>22.6</ele>
			 </trkpt>
			 <trkpt lat="47.66123" lon="-122.39204">
				 <ele>21.6</ele>
			 </trkpt>
			 <trkpt lat="47.6613" lon="-122.39177">
				 <ele>20.5</ele>
			 </trkpt>
			 <trkpt lat="47.66132" lon="-122.3916">
				 <ele>19.3</ele>
			 </trkpt>
			 <trkpt lat="47.66132" lon="-122.39105">
				 <ele>17.9</ele>
			 </trkpt>
			 <trkpt lat="47.66179" lon="-122.391065">
				 <ele>16.4</ele>
			 </trkpt>
			 <trkpt lat="47.66226" lon="-122.39108">
				 <ele>15.2</ele>
			 </trkpt>
			 <trkpt lat="47.66195" lon="-122.390303">
				 <ele>14.2</ele>
			 </trkpt>
			 <trkpt lat="47.66164" lon="-122.389527">
				 <ele>13.3</ele>
			 </trkpt>
			 <trkpt lat="47.66133" lon="-122.38875">
				 <ele>12.4</ele>
			 </trkpt>
			 <trkpt lat="47.66108" lon="-122.388045">
				 <ele>11.5</ele>
			 </trkpt>
			 <trkpt lat="47.66083" lon="-122.38734">
				 <ele>11</ele>
			 </trkpt>
			 <trkpt lat="47.66041" lon="-122.386243">
				 <ele>10.5</ele>
			 </trkpt>
			 <trkpt lat="47.65999" lon="-122.385147">
				 <ele>10</ele>
			 </trkpt>
			 <trkpt lat="47.65957" lon="-122.38405">
				 <ele>9.5</ele>
			 </trkpt>
			 <trkpt lat="47.65944" lon="-122.38371">
				 <ele>9.1</ele>
			 </trkpt>
			 <trkpt lat="47.65923" lon="-122.38351">
				 <ele>8.7</ele>
			 </trkpt>
			 <trkpt lat="47.65918" lon="-122.38316">
				 <ele>8.5</ele>
			 </trkpt>
			 <trkpt lat="47.65915" lon="-122.38312">
				 <ele>8.2</ele>
			 </trkpt>
			 <trkpt lat="47.65904" lon="-122.38302">
				 <ele>7.8</ele>
			 </trkpt>
			 <trkpt lat="47.65846" lon="-122.38269">
				 <ele>7.5</ele>
			 </trkpt>
			 <trkpt lat="47.65834" lon="-122.38267">
				 <ele>7.2</ele>
			 </trkpt>
			 <trkpt lat="47.65758" lon="-122.38266">
				 <ele>7</ele>
			 </trkpt>
			 <trkpt lat="47.65682" lon="-122.38265">
				 <ele>6.9</ele>
			 </trkpt>
			 <trkpt lat="47.65675" lon="-122.38263">
				 <ele>6.7</ele>
			 </trkpt>
			 <trkpt lat="47.65664" lon="-122.38253">
				 <ele>6.6</ele>
			 </trkpt>
			 <trkpt lat="47.65602" lon="-122.38254">
				 <ele>6.6</ele>
			 </trkpt>
			 <trkpt lat="47.65592" lon="-122.38255">
				 <ele>6.6</ele>
			 </trkpt>
			 <trkpt lat="47.6558" lon="-122.38264">
				 <ele>6.5</ele>
			 </trkpt>
			 <trkpt lat="47.6558" lon="-122.381427">
				 <ele>6.5</ele>
			 </trkpt>
			 <trkpt lat="47.6558" lon="-122.380213">
				 <ele>6.6</ele>
			 </trkpt>
			 <trkpt lat="47.6558" lon="-122.379">
				 <ele>6.7</ele>
			 </trkpt>
			 <trkpt lat="47.6551" lon="-122.379">
				 <ele>6.8</ele>
			 </trkpt>
			 <trkpt lat="47.65509" lon="-122.37822">
				 <ele>6.8</ele>
			 </trkpt>
			 <trkpt lat="47.65432" lon="-122.37821">
				 <ele>6.8</ele>
			 </trkpt>
			 <trkpt lat="47.65398" lon="-122.37826">
				 <ele>7</ele>
			 </trkpt>
			 <trkpt lat="47.65397" lon="-122.37855">
				 <ele>7.1</ele>
			 </trkpt>
			 <trkpt lat="47.65386" lon="-122.37879">
				 <ele>7.2</ele>
			 </trkpt>
			 <trkpt lat="47.65382" lon="-122.37904">
				 <ele>7.3</ele>
			 </trkpt>
			 <trkpt lat="47.65383" lon="-122.37937">
				 <ele>7.5</ele>
			 </trkpt>
			 <trkpt lat="47.65388" lon="-122.37998">
				 <ele>7.5</ele>
			 </trkpt>
			 <trkpt lat="47.65388" lon="-122.38027">
				 <ele>7.6</ele>
			 </trkpt>
			 <trkpt lat="47.65391" lon="-122.38065">
				 <ele>7.8</ele>
			 </trkpt>
			 <trkpt lat="47.65398" lon="-122.38092">
				 <ele>8</ele>
			 </trkpt>
			 <trkpt lat="47.65408" lon="-122.38116">
				 <ele>8.2</ele>
			 </trkpt>
			 <trkpt lat="47.65464" lon="-122.38194">
				 <ele>8.5</ele>
			 </trkpt>
			 <trkpt lat="47.6552" lon="-122.38272">
				 <ele>9.4</ele>
			 </trkpt>
			 <trkpt lat="47.65542" lon="-122.38311">
				 <ele>10.3</ele>
			 </trkpt>
			 <trkpt lat="47.65561" lon="-122.38365">
				 <ele>11.4</ele>
			 </trkpt>
			 <trkpt lat="47.65564" lon="-122.38365">
				 <ele>12.5</ele>
			 </trkpt>
			 <trkpt lat="47.655845" lon="-122.384325">
				 <ele>13.5</ele>
			 </trkpt>
			 <trkpt lat="47.65605" lon="-122.385">
				 <ele>14.5</ele>
			 </trkpt>
			 <trkpt lat="47.65608" lon="-122.38518">
				 <ele>15.3</ele>
			 </trkpt>
			 <trkpt lat="47.65605" lon="-122.38564">
				 <ele>15.8</ele>
			 </trkpt>
			 <trkpt lat="47.65593" lon="-122.38616">
				 <ele>16.3</ele>
			 </trkpt>
			 <trkpt lat="47.65584" lon="-122.3863">
				 <ele>16.5</ele>
			 </trkpt>
			 <trkpt lat="47.65523" lon="-122.38554">
				 <ele>16.5</ele>
			 </trkpt>
			 <trkpt lat="47.65499" lon="-122.38531">
				 <ele>15.8</ele>
			 </trkpt>
			 <trkpt lat="47.6545" lon="-122.384935">
				 <ele>15.1</ele>
			 </trkpt>
			 <trkpt lat="47.65401" lon="-122.38456">
				 <ele>14.2</ele>
			 </trkpt>
			 <trkpt lat="47.65323" lon="-122.383965">
				 <ele>13.4</ele>
			 </trkpt>
			 <trkpt lat="47.65245" lon="-122.38337">
				 <ele>12.6</ele>
			 </trkpt>
			 <trkpt lat="47.65167" lon="-122.382775">
				 <ele>12.4</ele>
			 </trkpt>
			 <trkpt lat="47.65089" lon="-122.38218">
				 <ele>12.3</ele>
			 </trkpt>
			 <trkpt lat="47.65065" lon="-122.38204">
				 <ele>12.4</ele>
			 </trkpt>
			 <trkpt lat="47.65032" lon="-122.38197">
				 <ele>12.5</ele>
			 </trkpt>
			 <trkpt lat="47.6495" lon="-122.38196">
				 <ele>12.5</ele>
			 </trkpt>
			 <trkpt lat="47.64868" lon="-122.38195">
				 <ele>12.8</ele>
			 </trkpt>
			 <trkpt lat="47.64857" lon="-122.38193">
				 <ele>13.1</ele>
			 </trkpt>
			 <trkpt lat="47.64833" lon="-122.38195">
				 <ele>13.4</ele>
			 </trkpt>
			 <trkpt lat="47.64794" lon="-122.382">
				 <ele>13.3</ele>
			 </trkpt>
			 <trkpt lat="47.64726" lon="-122.382">
				 <ele>12.8</ele>
			 </trkpt>
			 <trkpt lat="47.64658" lon="-122.382">
				 <ele>12.3</ele>
			 </trkpt>
			 <trkpt lat="47.64609" lon="-122.38204">
				 <ele>11.4</ele>
			 </trkpt>
			 <trkpt lat="47.646" lon="-122.382">
				 <ele>10.4</ele>
			 </trkpt>
			 <trkpt lat="47.64535" lon="-122.382">
				 <ele>9.4</ele>
			 </trkpt>
			 <trkpt lat="47.6447" lon="-122.382">
				 <ele>8.4</ele>
			 </trkpt>
			 <trkpt lat="47.644063" lon="-122.381987">
				 <ele>7.5</ele>
			 </trkpt>
			 <trkpt lat="47.643427" lon="-122.381973">
				 <ele>6.8</ele>
			 </trkpt>
			 <trkpt lat="47.64279" lon="-122.38196">
				 <ele>6.1</ele>
			 </trkpt>
			 <trkpt lat="47.64234" lon="-122.381965">
				 <ele>5.4</ele>
			 </trkpt>
			 <trkpt lat="47.64189" lon="-122.38197">
				 <ele>5</ele>
			 </trkpt>
			 <trkpt lat="47.642" lon="-122.38258">
				 <ele>4.9</ele>
			 </trkpt>
			 <trkpt lat="47.64201" lon="-122.38327">
				 <ele>4.8</ele>
			 </trkpt>
			 <trkpt lat="47.64202" lon="-122.3834">
				 <ele>4.8</ele>
			 </trkpt>
			 <trkpt lat="47.64206" lon="-122.3835">
				 <ele>4.8</ele>
			 </trkpt>
			 <trkpt lat="47.64197" lon="-122.38357">
				 <ele>4.8</ele>
			 </trkpt>
			 <trkpt lat="47.64194" lon="-122.38361">
				 <ele>4.9</ele>
			 </trkpt>
			 <trkpt lat="47.64187" lon="-122.38411">
				 <ele>5</ele>
			 </trkpt>
			 <trkpt lat="47.64177" lon="-122.38437">
				 <ele>5</ele>
			 </trkpt>
			 <trkpt lat="47.64165" lon="-122.38455">
				 <ele>5</ele>
			 </trkpt>
			 <trkpt lat="47.64135" lon="-122.38477">
				 <ele>5</ele>
			 </trkpt>
			 <trkpt lat="47.64114" lon="-122.3849">
				 <ele>5</ele>
			 </trkpt>
			 <trkpt lat="47.64106" lon="-122.38491">
				 <ele>5</ele>
			 </trkpt>
			 <trkpt lat="47.641" lon="-122.38491">
				 <ele>5</ele>
			 </trkpt>
			 <trkpt lat="47.64092" lon="-122.38486">
				 <ele>5</ele>
			 </trkpt>
			 <trkpt lat="47.64086" lon="-122.38477">
				 <ele>5</ele>
			 </trkpt>
			 <trkpt lat="47.6407" lon="-122.38446">
				 <ele>5</ele>
			 </trkpt>
			 <trkpt lat="47.6406" lon="-122.38442">
				 <ele>5</ele>
			 </trkpt>
			 <trkpt lat="47.64049" lon="-122.38448">
				 <ele>5</ele>
			 </trkpt>
			 <trkpt lat="47.64045" lon="-122.38455">
				 <ele>5</ele>
			 </trkpt>
			 <trkpt lat="47.64039" lon="-122.38473">
				 <ele>5</ele>
			 </trkpt>
			 <trkpt lat="47.64036" lon="-122.38478">
				 <ele>5</ele>
			 </trkpt>
			 <trkpt lat="47.64024" lon="-122.38483">
				 <ele>5</ele>
			 </trkpt>
			 <trkpt lat="47.64014" lon="-122.38485">
				 <ele>5</ele>
			 </trkpt>
			 <trkpt lat="47.63985" lon="-122.38513">
				 <ele>5</ele>
			 </trkpt>
			 <trkpt lat="47.63964" lon="-122.38531">
				 <ele>5</ele>
			 </trkpt>
			 <trkpt lat="47.63937" lon="-122.38541">
				 <ele>5</ele>
			 </trkpt>
			 <trkpt lat="47.63919" lon="-122.38546">
				 <ele>5</ele>
			 </trkpt>
			 <trkpt lat="47.6389" lon="-122.38545">
				 <ele>5</ele>
			 </trkpt>
			 <trkpt lat="47.6388" lon="-122.38545">
				 <ele>5</ele>
			 </trkpt>
			 <trkpt lat="47.63861" lon="-122.3855">
				 <ele>5</ele>
			 </trkpt>
			 <trkpt lat="47.63814" lon="-122.38545">
				 <ele>5</ele>
			 </trkpt>
			 <trkpt lat="47.63765" lon="-122.38545">
				 <ele>5</ele>
			 </trkpt>
			 <trkpt lat="47.63746" lon="-122.38541">
				 <ele>5</ele>
			 </trkpt>
			 <trkpt lat="47.63702" lon="-122.3854">
				 <ele>5</ele>
			 </trkpt>
			 <trkpt lat="47.63677" lon="-122.38549">
				 <ele>5</ele>
			 </trkpt>
			 <trkpt lat="47.63665" lon="-122.38554">
				 <ele>5</ele>
			 </trkpt>
			 <trkpt lat="47.63654" lon="-122.38567">
				 <ele>5</ele>
			 </trkpt>
			 <trkpt lat="47.636175" lon="-122.386125">
				 <ele>4.9</ele>
			 </trkpt>
			 <trkpt lat="47.63581" lon="-122.38658">
				 <ele>4.8</ele>
			 </trkpt>
			 <trkpt lat="47.63517" lon="-122.38751">
				 <ele>4.7</ele>
			 </trkpt>
			 <trkpt lat="47.63506" lon="-122.38764">
				 <ele>4.7</ele>
			 </trkpt>
			 <trkpt lat="47.63496" lon="-122.38773">
				 <ele>4.7</ele>
			 </trkpt>
			 <trkpt lat="47.63472" lon="-122.38786">
				 <ele>4.6</ele>
			 </trkpt>
			 <trkpt lat="47.63457" lon="-122.38786">
				 <ele>4.5</ele>
			 </trkpt>
			 <trkpt lat="47.63447" lon="-122.38786">
				 <ele>4.5</ele>
			 </trkpt>
			 <trkpt lat="47.63421" lon="-122.38777">
				 <ele>4.5</ele>
			 </trkpt>
			 <trkpt lat="47.63403" lon="-122.38759">
				 <ele>4.5</ele>
			 </trkpt>
			 <trkpt lat="47.63389" lon="-122.38739">
				 <ele>4.5</ele>
			 </trkpt>
			 <trkpt lat="47.63389" lon="-122.38733">
				 <ele>4.5</ele>
			 </trkpt>
			 <trkpt lat="47.6338" lon="-122.38723">
				 <ele>4.6</ele>
			 </trkpt>
			 <trkpt lat="47.63356" lon="-122.38699">
				 <ele>5.2</ele>
			 </trkpt>
			 <trkpt lat="47.63342" lon="-122.38699">
				 <ele>5.7</ele>
			 </trkpt>
			 <trkpt lat="47.63341" lon="-122.38669">
				 <ele>6.3</ele>
			 </trkpt>
			 <trkpt lat="47.63338" lon="-122.38667">
				 <ele>6.9</ele>
			 </trkpt>
			 <trkpt lat="47.633387" lon="-122.385517">
				 <ele>7.5</ele>
			 </trkpt>
			 <trkpt lat="47.633393" lon="-122.384363">
				 <ele>8.2</ele>
			 </trkpt>
			 <trkpt lat="47.6334" lon="-122.38321">
				 <ele>8.7</ele>
			 </trkpt>
			 <trkpt lat="47.63348" lon="-122.38285">
				 <ele>9.4</ele>
			 </trkpt>
			 <trkpt lat="47.63343" lon="-122.38231">
				 <ele>9.9</ele>
			 </trkpt>
			 <trkpt lat="47.63342" lon="-122.38168">
				 <ele>10</ele>
			 </trkpt>
			 <trkpt lat="47.633425" lon="-122.38079">
				 <ele>10</ele>
			 </trkpt>
			 <trkpt lat="47.63343" lon="-122.3799">
				 <ele>9.5</ele>
			 </trkpt>
			 <trkpt lat="47.63349" lon="-122.37923">
				 <ele>9</ele>
			 </trkpt>
			 <trkpt lat="47.633495" lon="-122.37801">
				 <ele>8.5</ele>
			 </trkpt>
			 <trkpt lat="47.6335" lon="-122.37679">
				 <ele>7.9</ele>
			 </trkpt>
			 <trkpt lat="47.63339" lon="-122.37648">
				 <ele>7.4</ele>
			 </trkpt>
			 <trkpt lat="47.6332" lon="-122.37636">
				 <ele>6.8</ele>
			 </trkpt>
			 <trkpt lat="47.63312" lon="-122.37632">
				 <ele>6.3</ele>
			 </trkpt>
			 <trkpt lat="47.63301" lon="-122.37616">
				 <ele>5.6</ele>
			 </trkpt>
			 <trkpt lat="47.63297" lon="-122.37613">
				 <ele>5.1</ele>
			 </trkpt>
			 <trkpt lat="47.63276" lon="-122.37605">
				 <ele>5</ele>
			 </trkpt>
			 <trkpt lat="47.63243" lon="-122.37584">
				 <ele>5</ele>
			 </trkpt>
			 <trkpt lat="47.63211" lon="-122.37552">
				 <ele>5</ele>
			 </trkpt>
			 <trkpt lat="47.6317" lon="-122.37496">
				 <ele>5</ele>
			 </trkpt>
			 <trkpt lat="47.631167" lon="-122.374293">
				 <ele>5</ele>
			 </trkpt>
			 <trkpt lat="47.630633" lon="-122.373627">
				 <ele>5.1</ele>
			 </trkpt>
			 <trkpt lat="47.6301" lon="-122.37296">
				 <ele>5.2</ele>
			 </trkpt>
			 <trkpt lat="47.62963" lon="-122.37236">
				 <ele>5.3</ele>
			 </trkpt>
			 <trkpt lat="47.62916" lon="-122.37176">
				 <ele>5.4</ele>
			 </trkpt>
			 <trkpt lat="47.62869" lon="-122.37116">
				 <ele>5.5</ele>
			 </trkpt>
			 <trkpt lat="47.628173" lon="-122.370475">
				 <ele>5.5</ele>
			 </trkpt>
			 <trkpt lat="47.627655" lon="-122.36979">
				 <ele>5.6</ele>
			 </trkpt>
			 <trkpt lat="47.627138" lon="-122.369105">
				 <ele>5.8</ele>
			 </trkpt>
			 <trkpt lat="47.62662" lon="-122.36842">
				 <ele>6</ele>
			 </trkpt>
			 <trkpt lat="47.626087" lon="-122.367683">
				 <ele>6.2</ele>
			 </trkpt>
			 <trkpt lat="47.625553" lon="-122.366947">
				 <ele>6.4</ele>
			 </trkpt>
			 <trkpt lat="47.62502" lon="-122.36621">
				 <ele>6.5</ele>
			 </trkpt>
			 <trkpt lat="47.62453" lon="-122.36557">
				 <ele>6.5</ele>
			 </trkpt>
			 <trkpt lat="47.624185" lon="-122.36514">
				 <ele>6.6</ele>
			 </trkpt>
			 <trkpt lat="47.62384" lon="-122.36471">
				 <ele>6.7</ele>
			 </trkpt>
			 <trkpt lat="47.623267" lon="-122.36403">
				 <ele>6.8</ele>
			 </trkpt>
			 <trkpt lat="47.622693" lon="-122.36335">
				 <ele>6.9</ele>
			 </trkpt>
			 <trkpt lat="47.62212" lon="-122.36267">
				 <ele>7</ele>
			 </trkpt>
			 <trkpt lat="47.62161" lon="-122.36209">
				 <ele>7</ele>
			 </trkpt>
			 <trkpt lat="47.62095" lon="-122.36129">
				 <ele>7</ele>
			 </trkpt>
			 <trkpt lat="47.6207" lon="-122.36095">
				 <ele>7</ele>
			 </trkpt>
			 <trkpt lat="47.62051" lon="-122.36081">
				 <ele>7</ele>
			 </trkpt>
			 <trkpt lat="47.61994" lon="-122.36015">
				 <ele>7</ele>
			 </trkpt>
			 <trkpt lat="47.61988" lon="-122.36003">
				 <ele>7</ele>
			 </trkpt>
			 <trkpt lat="47.61938" lon="-122.35946">
				 <ele>7</ele>
			 </trkpt>
			 <trkpt lat="47.61912" lon="-122.35917">
				 <ele>7</ele>
			 </trkpt>
			 <trkpt lat="47.6186" lon="-122.3585">
				 <ele>7</ele>
			 </trkpt>
			 <trkpt lat="47.61806" lon="-122.35775">
				 <ele>7.1</ele>
			 </trkpt>
			 <trkpt lat="47.61752" lon="-122.357">
				 <ele>7.7</ele>
			 </trkpt>
			 <trkpt lat="47.61698" lon="-122.35625">
				 <ele>8.4</ele>
			 </trkpt>
			 <trkpt lat="47.61644" lon="-122.3555">
				 <ele>9</ele>
			 </trkpt>
			 <trkpt lat="47.6159" lon="-122.35475">
				 <ele>9.7</ele>
			 </trkpt>
			 <trkpt lat="47.61559" lon="-122.35425">
				 <ele>10.5</ele>
			 </trkpt>
			 <trkpt lat="47.616" lon="-122.3537">
				 <ele>11.2</ele>
			 </trkpt>
			 <trkpt lat="47.61607" lon="-122.35383">
				 <ele>11.7</ele>
			 </trkpt>
			 <trkpt lat="47.61604" lon="-122.35386">
				 <ele>12.2</ele>
			 </trkpt>
			 <trkpt lat="47.61633" lon="-122.35456">
				 <ele>12.6</ele>
			 </trkpt>
			 <trkpt lat="47.61648" lon="-122.35471">
				 <ele>13.1</ele>
			 </trkpt>
			 <trkpt lat="47.61669" lon="-122.35518">
				 <ele>13.5</ele>
			 </trkpt>
			 <trkpt lat="47.61695" lon="-122.35616">
				 <ele>13.3</ele>
			 </trkpt>
			 <trkpt lat="47.617" lon="-122.3564">
				 <ele>13.1</ele>
			 </trkpt>
			 <trkpt lat="47.61698" lon="-122.35643">
				 <ele>12.9</ele>
			 </trkpt>
			 <trkpt lat="47.61688" lon="-122.35634">
				 <ele>12.5</ele>
			 </trkpt>
			 <trkpt lat="47.616455" lon="-122.356005">
				 <ele>11.7</ele>
			 </trkpt>
			 <trkpt lat="47.61603" lon="-122.35567">
				 <ele>10.8</ele>
			 </trkpt>
			 <trkpt lat="47.61593" lon="-122.35562">
				 <ele>10</ele>
			 </trkpt>
			 <trkpt lat="47.61537" lon="-122.35541">
				 <ele>9.3</ele>
			 </trkpt>
			 <trkpt lat="47.61551" lon="-122.35566">
				 <ele>8.5</ele>
			 </trkpt>
			 <trkpt lat="47.6161" lon="-122.35657">
				 <ele>7.8</ele>
			 </trkpt>
			 <trkpt lat="47.61642" lon="-122.35698">
				 <ele>7.1</ele>
			 </trkpt>
			 <trkpt lat="47.61682" lon="-122.3576">
				 <ele>6.4</ele>
			 </trkpt>
			 <trkpt lat="47.61688" lon="-122.35773">
				 <ele>5.7</ele>
			 </trkpt>
			 <trkpt lat="47.616435" lon="-122.35725">
				 <ele>5.1</ele>
			 </trkpt>
			 <trkpt lat="47.61599" lon="-122.35677">
				 <ele>4.5</ele>
			 </trkpt>
			 <trkpt lat="47.61588" lon="-122.35662">
				 <ele>4.2</ele>
			 </trkpt>
			 <trkpt lat="47.6155" lon="-122.355925">
				 <ele>4.2</ele>
			 </trkpt>
			 <trkpt lat="47.61512" lon="-122.35523">
				 <ele>4.2</ele>
			 </trkpt>
			 <trkpt lat="47.61507" lon="-122.35503">
				 <ele>4.2</ele>
			 </trkpt>
			 <trkpt lat="47.61494" lon="-122.35501">
				 <ele>4.2</ele>
			 </trkpt>
			 <trkpt lat="47.61483" lon="-122.35496">
				 <ele>4.3</ele>
			 </trkpt>
			 <trkpt lat="47.61452" lon="-122.35441">
				 <ele>4.4</ele>
			 </trkpt>
			 <trkpt lat="47.613925" lon="-122.353415">
				 <ele>4.4</ele>
			 </trkpt>
			 <trkpt lat="47.61333" lon="-122.35242">
				 <ele>4.3</ele>
			 </trkpt>
			 <trkpt lat="47.61318" lon="-122.35217">
				 <ele>4.3</ele>
			 </trkpt>
			 <trkpt lat="47.61269" lon="-122.351225">
				 <ele>4.3</ele>
			 </trkpt>
			 <trkpt lat="47.6122" lon="-122.35028">
				 <ele>4.3</ele>
			 </trkpt>
		 </trkseg>
	 </trk>
</gpx>