<?xml version="1.0" encoding="UTF-8"?>
 <gpx creator="Garmin Connect" version="1.1"
	 xsi:schemaLocation="http://www.topografix.com/GPX/1/1 http://www.topografix.com/GPX/11.xsd"
	 xmlns:ns3="http://www.garmin.com/xmlschemas/TrackPointExtension/v1"
	 xmlns="http://www.topografix.com/GPX/1/1"
	 xmlns:xsi="http://www.w3.org/2001/XMLSchema-instance" xmlns:ns2="http://www.garmin.com/xmlschemas/GpxExtensions/v3">
	 <metadata>
		<name>The Big Half 2025 - 21.098 km</name>
		 <link href="https://www.goandrace.com">
		 <text>Garmin Connect</text>
		 </link>
	 <time>2026-08-23T23:47:52</time>
	 </metadata>
	 <trk>
		 <name>The Big Half 2025 - 21.098 km</name>
		 <trkseg>
			 <trkpt lat="51.50932" lon="-0.06545">
				 <ele>9</ele>
			 </trkpt>
			 <trkpt lat="51.509315" lon="-0.0646">
				 <ele>9.1</ele>
			 </trkpt>
			 <trkpt lat="51.50931" lon="-0.06375">
				 <ele>9.1</ele>
			 </trkpt>
			 <trkpt lat="51.50932" lon="-0.06304">
				 <ele>9.1</ele>
			 </trkpt>
			 <trkpt lat="51.50936" lon="-0.06282">
				 <ele>9.1</ele>
			 </trkpt>
			 <trkpt lat="51.50933" lon="-0.06256">
				 <ele>9.1</ele>
			 </trkpt>
			 <trkpt lat="51.50935" lon="-0.06182">
				 <ele>9.3</ele>
			 </trkpt>
			 <trkpt lat="51.5094" lon="-0.06094">
				 <ele>9.4</ele>
			 </trkpt>
			 <trkpt lat="51.50945" lon="-0.06063">
				 <ele>9.4</ele>
			 </trkpt>
			 <trkpt lat="51.50949" lon="-0.06014">
				 <ele>9.3</ele>
			 </trkpt>
			 <trkpt lat="51.50949" lon="-0.05992">
				 <ele>9.2</ele>
			 </trkpt>
			 <trkpt lat="51.50961" lon="-0.05877">
				 <ele>9.1</ele>
			 </trkpt>
			 <trkpt lat="51.50964" lon="-0.05862">
				 <ele>9</ele>
			 </trkpt>
			 <trkpt lat="51.50969" lon="-0.05817">
				 <ele>9</ele>
			 </trkpt>
			 <trkpt lat="51.50968" lon="-0.058">
				 <ele>9</ele>
			 </trkpt>
			 <trkpt lat="51.50971" lon="-0.0576">
				 <ele>9.1</ele>
			 </trkpt>
			 <trkpt lat="51.50973" lon="-0.05707">
				 <ele>9.2</ele>
			 </trkpt>
			 <trkpt lat="51.50974" lon="-0.05701">
				 <ele>9.4</ele>
			 </trkpt>
			 <trkpt lat="51.50974" lon="-0.05688">
				 <ele>9.5</ele>
			 </trkpt>
			 <trkpt lat="51.50973" lon="-0.05678">
				 <ele>9.7</ele>
			 </trkpt>
			 <trkpt lat="51.50965" lon="-0.05564">
				 <ele>9.9</ele>
			 </trkpt>
			 <trkpt lat="51.50963" lon="-0.05522">
				 <ele>10</ele>
			 </trkpt>
			 <trkpt lat="51.50964" lon="-0.05461">
				 <ele>10.1</ele>
			 </trkpt>
			 <trkpt lat="51.50965" lon="-0.0542">
				 <ele>10.2</ele>
			 </trkpt>
			 <trkpt lat="51.50967" lon="-0.05401">
				 <ele>10.3</ele>
			 </trkpt>
			 <trkpt lat="51.50966" lon="-0.05375">
				 <ele>10.5</ele>
			 </trkpt>
			 <trkpt lat="51.50969" lon="-0.05289">
				 <ele>10.5</ele>
			 </trkpt>
			 <trkpt lat="51.50972" lon="-0.05203">
				 <ele>10.5</ele>
			 </trkpt>
			 <trkpt lat="51.50976" lon="-0.05122">
				 <ele>10.3</ele>
			 </trkpt>
			 <trkpt lat="51.5098" lon="-0.05041">
				 <ele>10.1</ele>
			 </trkpt>
			 <trkpt lat="51.5098" lon="-0.049305">
				 <ele>9.8</ele>
			 </trkpt>
			 <trkpt lat="51.5098" lon="-0.0482">
				 <ele>9.5</ele>
			 </trkpt>
			 <trkpt lat="51.50986" lon="-0.04753">
				 <ele>9.4</ele>
			 </trkpt>
			 <trkpt lat="51.50985" lon="-0.04724">
				 <ele>9.2</ele>
			 </trkpt>
			 <trkpt lat="51.50991" lon="-0.04699">
				 <ele>8.9</ele>
			 </trkpt>
			 <trkpt lat="51.51015" lon="-0.04612">
				 <ele>8.6</ele>
			 </trkpt>
			 <trkpt lat="51.51024" lon="-0.04576">
				 <ele>8.3</ele>
			 </trkpt>
			 <trkpt lat="51.51028" lon="-0.04524">
				 <ele>8</ele>
			 </trkpt>
			 <trkpt lat="51.51036" lon="-0.04389">
				 <ele>7.7</ele>
			 </trkpt>
			 <trkpt lat="51.51039" lon="-0.04374">
				 <ele>7.5</ele>
			 </trkpt>
			 <trkpt lat="51.51042" lon="-0.04341">
				 <ele>7.4</ele>
			 </trkpt>
			 <trkpt lat="51.51041" lon="-0.04327">
				 <ele>7</ele>
			 </trkpt>
			 <trkpt lat="51.51049" lon="-0.04271">
				 <ele>7.1</ele>
			 </trkpt>
			 <trkpt lat="51.51057" lon="-0.0424">
				 <ele>6.9</ele>
			 </trkpt>
			 <trkpt lat="51.51063" lon="-0.04187">
				 <ele>6.6</ele>
			 </trkpt>
			 <trkpt lat="51.51068" lon="-0.04125">
				 <ele>6.4</ele>
			 </trkpt>
			 <trkpt lat="51.51075" lon="-0.04061">
				 <ele>6.2</ele>
			 </trkpt>
			 <trkpt lat="51.511" lon="-0.03971">
				 <ele>6.2</ele>
			 </trkpt>
			 <trkpt lat="51.51142" lon="-0.03879">
				 <ele>6.2</ele>
			 </trkpt>
			 <trkpt lat="51.51167" lon="-0.03804">
				 <ele>6.2</ele>
			 </trkpt>
			 <trkpt lat="51.51181" lon="-0.03729">
				 <ele>6.1</ele>
			 </trkpt>
			 <trkpt lat="51.51183" lon="-0.03669">
				 <ele>6</ele>
			 </trkpt>
			 <trkpt lat="51.51181" lon="-0.03609">
				 <ele>6.3</ele>
			 </trkpt>
			 <trkpt lat="51.51174" lon="-0.03558">
				 <ele>6</ele>
			 </trkpt>
			 <trkpt lat="51.51163" lon="-0.03514">
				 <ele>6.1</ele>
			 </trkpt>
			 <trkpt lat="51.51152" lon="-0.03478">
				 <ele>6.2</ele>
			 </trkpt>
			 <trkpt lat="51.51132" lon="-0.03433">
				 <ele>6.3</ele>
			 </trkpt>
			 <trkpt lat="51.51105" lon="-0.03388">
				 <ele>6.2</ele>
			 </trkpt>
			 <trkpt lat="51.51072" lon="-0.03352">
				 <ele>6</ele>
			 </trkpt>
			 <trkpt lat="51.51048" lon="-0.03329">
				 <ele>5.4</ele>
			 </trkpt>
			 <trkpt lat="51.510005" lon="-0.03294">
				 <ele>5.2</ele>
			 </trkpt>
			 <trkpt lat="51.50953" lon="-0.03259">
				 <ele>5</ele>
			 </trkpt>
			 <trkpt lat="51.50903" lon="-0.03222">
				 <ele>5</ele>
			 </trkpt>
			 <trkpt lat="51.50853" lon="-0.03185">
				 <ele>4.3</ele>
			 </trkpt>
			 <trkpt lat="51.50823" lon="-0.03148">
				 <ele>3.8</ele>
			 </trkpt>
			 <trkpt lat="51.50805" lon="-0.03116">
				 <ele>3.4</ele>
			 </trkpt>
			 <trkpt lat="51.50782" lon="-0.03047">
				 <ele>3.1</ele>
			 </trkpt>
			 <trkpt lat="51.50769" lon="-0.02969">
				 <ele>2.8</ele>
			 </trkpt>
			 <trkpt lat="51.50772" lon="-0.02896">
				 <ele>2.7</ele>
			 </trkpt>
			 <trkpt lat="51.50779" lon="-0.02846">
				 <ele>2.5</ele>
			 </trkpt>
			 <trkpt lat="51.50791" lon="-0.02804">
				 <ele>3</ele>
			 </trkpt>
			 <trkpt lat="51.50825" lon="-0.02736">
				 <ele>3</ele>
			 </trkpt>
			 <trkpt lat="51.50857" lon="-0.02662">
				 <ele>3</ele>
			 </trkpt>
			 <trkpt lat="51.50872" lon="-0.02628">
				 <ele>2.8</ele>
			 </trkpt>
			 <trkpt lat="51.50884" lon="-0.0259">
				 <ele>3.2</ele>
			 </trkpt>
			 <trkpt lat="51.50898" lon="-0.0253">
				 <ele>2.9</ele>
			 </trkpt>
			 <trkpt lat="51.50897" lon="-0.02464">
				 <ele>2.8</ele>
			 </trkpt>
			 <trkpt lat="51.50892" lon="-0.02402">
				 <ele>2.8</ele>
			 </trkpt>
			 <trkpt lat="51.50884" lon="-0.02364">
				 <ele>3</ele>
			 </trkpt>
			 <trkpt lat="51.50865" lon="-0.02293">
				 <ele>3.1</ele>
			 </trkpt>
			 <trkpt lat="51.50847" lon="-0.02213">
				 <ele>3.2</ele>
			 </trkpt>
			 <trkpt lat="51.50827" lon="-0.02109">
				 <ele>3.1</ele>
			 </trkpt>
			 <trkpt lat="51.50801" lon="-0.02013">
				 <ele>3</ele>
			 </trkpt>
			 <trkpt lat="51.50773" lon="-0.01906">
				 <ele>3</ele>
			 </trkpt>
			 <trkpt lat="51.50759" lon="-0.01822">
				 <ele>3</ele>
			 </trkpt>
			 <trkpt lat="51.50739" lon="-0.01686">
				 <ele>3</ele>
			 </trkpt>
			 <trkpt lat="51.50735" lon="-0.0164">
				 <ele>3.5</ele>
			 </trkpt>
			 <trkpt lat="51.50723" lon="-0.01644">
				 <ele>3.8</ele>
			 </trkpt>
			 <trkpt lat="51.507175" lon="-0.015675">
				 <ele>4</ele>
			 </trkpt>
			 <trkpt lat="51.50712" lon="-0.01491">
				 <ele>4.1</ele>
			 </trkpt>
			 <trkpt lat="51.50711" lon="-0.01348">
				 <ele>4.1</ele>
			 </trkpt>
			 <trkpt lat="51.50715" lon="-0.01222">
				 <ele>4</ele>
			 </trkpt>
			 <trkpt lat="51.507175" lon="-0.01146">
				 <ele>3.9</ele>
			 </trkpt>
			 <trkpt lat="51.5072" lon="-0.0107">
				 <ele>3.8</ele>
			 </trkpt>
			 <trkpt lat="51.50724" lon="-0.01013">
				 <ele>3.7</ele>
			 </trkpt>
			 <trkpt lat="51.5073" lon="-0.00956">
				 <ele>3.7</ele>
			 </trkpt>
			 <trkpt lat="51.50731" lon="-0.0091">
				 <ele>3.9</ele>
			 </trkpt>
			 <trkpt lat="51.50727" lon="-0.0089">
				 <ele>4.1</ele>
			 </trkpt>
			 <trkpt lat="51.50715" lon="-0.00873">
				 <ele>4.3</ele>
			 </trkpt>
			 <trkpt lat="51.50697" lon="-0.00874">
				 <ele>4.4</ele>
			 </trkpt>
			 <trkpt lat="51.50683" lon="-0.00892">
				 <ele>4.5</ele>
			 </trkpt>
			 <trkpt lat="51.50679" lon="-0.00932">
				 <ele>4.6</ele>
			 </trkpt>
			 <trkpt lat="51.50685" lon="-0.00992">
				 <ele>4.9</ele>
			 </trkpt>
			 <trkpt lat="51.5069" lon="-0.01026">
				 <ele>5.2</ele>
			 </trkpt>
			 <trkpt lat="51.50698" lon="-0.01046">
				 <ele>5.5</ele>
			 </trkpt>
			 <trkpt lat="51.50693" lon="-0.01069">
				 <ele>6</ele>
			 </trkpt>
			 <trkpt lat="51.50677" lon="-0.01077">
				 <ele>6.4</ele>
			 </trkpt>
			 <trkpt lat="51.50667" lon="-0.01062">
				 <ele>6.6</ele>
			 </trkpt>
			 <trkpt lat="51.50654" lon="-0.01058">
				 <ele>6.9</ele>
			 </trkpt>
			 <trkpt lat="51.50623" lon="-0.01063">
				 <ele>7.4</ele>
			 </trkpt>
			 <trkpt lat="51.50632" lon="-0.0106">
				 <ele>7.9</ele>
			 </trkpt>
			 <trkpt lat="51.50618" lon="-0.01064">
				 <ele>8.5</ele>
			 </trkpt>
			 <trkpt lat="51.50587" lon="-0.01081">
				 <ele>9.2</ele>
			 </trkpt>
			 <trkpt lat="51.50569" lon="-0.01096">
				 <ele>9.8</ele>
			 </trkpt>
			 <trkpt lat="51.50542" lon="-0.01126">
				 <ele>10.4</ele>
			 </trkpt>
			 <trkpt lat="51.50489" lon="-0.01196">
				 <ele>10.7</ele>
			 </trkpt>
			 <trkpt lat="51.50453" lon="-0.01252">
				 <ele>11</ele>
			 </trkpt>
			 <trkpt lat="51.50432" lon="-0.01288">
				 <ele>11.4</ele>
			 </trkpt>
			 <trkpt lat="51.50428" lon="-0.01305">
				 <ele>11.7</ele>
			 </trkpt>
			 <trkpt lat="51.50427" lon="-0.01331">
				 <ele>12</ele>
			 </trkpt>
			 <trkpt lat="51.50437" lon="-0.01413">
				 <ele>12.1</ele>
			 </trkpt>
			 <trkpt lat="51.50443" lon="-0.01428">
				 <ele>12.2</ele>
			 </trkpt>
			 <trkpt lat="51.50464" lon="-0.0145">
				 <ele>12.2</ele>
			 </trkpt>
			 <trkpt lat="51.50471" lon="-0.0146">
				 <ele>12.1</ele>
			 </trkpt>
			 <trkpt lat="51.50474" lon="-0.01468">
				 <ele>11.9</ele>
			 </trkpt>
			 <trkpt lat="51.50479" lon="-0.01498">
				 <ele>11.8</ele>
			 </trkpt>
			 <trkpt lat="51.50491" lon="-0.01614">
				 <ele>11.8</ele>
			 </trkpt>
			 <trkpt lat="51.505" lon="-0.01698">
				 <ele>11.8</ele>
			 </trkpt>
			 <trkpt lat="51.504355" lon="-0.017165">
				 <ele>11.6</ele>
			 </trkpt>
			 <trkpt lat="51.50371" lon="-0.01735">
				 <ele>11.5</ele>
			 </trkpt>
			 <trkpt lat="51.50357" lon="-0.01737">
				 <ele>11.2</ele>
			 </trkpt>
			 <trkpt lat="51.50349" lon="-0.01743">
				 <ele>10.8</ele>
			 </trkpt>
			 <trkpt lat="51.50322" lon="-0.01747">
				 <ele>10.3</ele>
			 </trkpt>
			 <trkpt lat="51.50276" lon="-0.01764">
				 <ele>9.6</ele>
			 </trkpt>
			 <trkpt lat="51.50271" lon="-0.0176">
				 <ele>9.1</ele>
			 </trkpt>
			 <trkpt lat="51.50264" lon="-0.0176">
				 <ele>8.9</ele>
			 </trkpt>
			 <trkpt lat="51.50261" lon="-0.01768">
				 <ele>8.7</ele>
			 </trkpt>
			 <trkpt lat="51.50273" lon="-0.018815">
				 <ele>8.5</ele>
			 </trkpt>
			 <trkpt lat="51.50285" lon="-0.01995">
				 <ele>8.5</ele>
			 </trkpt>
			 <trkpt lat="51.50288" lon="-0.01999">
				 <ele>8.5</ele>
			 </trkpt>
			 <trkpt lat="51.50297" lon="-0.01999">
				 <ele>8.6</ele>
			 </trkpt>
			 <trkpt lat="51.50299" lon="-0.01995">
				 <ele>8.8</ele>
			 </trkpt>
			 <trkpt lat="51.50301" lon="-0.01989">
				 <ele>9.1</ele>
			 </trkpt>
			 <trkpt lat="51.502885" lon="-0.018765">
				 <ele>9.5</ele>
			 </trkpt>
			 <trkpt lat="51.50276" lon="-0.01764">
				 <ele>9.9</ele>
			 </trkpt>
			 <trkpt lat="51.50322" lon="-0.01747">
				 <ele>10.4</ele>
			 </trkpt>
			 <trkpt lat="51.50349" lon="-0.01743">
				 <ele>10.5</ele>
			 </trkpt>
			 <trkpt lat="51.50357" lon="-0.01737">
				 <ele>10.7</ele>
			 </trkpt>
			 <trkpt lat="51.50371" lon="-0.01735">
				 <ele>10.9</ele>
			 </trkpt>
			 <trkpt lat="51.50431" lon="-0.01719">
				 <ele>11</ele>
			 </trkpt>
			 <trkpt lat="51.50435" lon="-0.01717">
				 <ele>10.9</ele>
			 </trkpt>
			 <trkpt lat="51.50444" lon="-0.01803">
				 <ele>10.9</ele>
			 </trkpt>
			 <trkpt lat="51.50453" lon="-0.01889">
				 <ele>10.9</ele>
			 </trkpt>
			 <trkpt lat="51.50457" lon="-0.01964">
				 <ele>10.9</ele>
			 </trkpt>
			 <trkpt lat="51.50466" lon="-0.02015">
				 <ele>10.9</ele>
			 </trkpt>
			 <trkpt lat="51.5048" lon="-0.02137">
				 <ele>10.9</ele>
			 </trkpt>
			 <trkpt lat="51.50491" lon="-0.02242">
				 <ele>10.9</ele>
			 </trkpt>
			 <trkpt lat="51.50502" lon="-0.02347">
				 <ele>10.9</ele>
			 </trkpt>
			 <trkpt lat="51.50505" lon="-0.02355">
				 <ele>10.9</ele>
			 </trkpt>
			 <trkpt lat="51.50511" lon="-0.02357">
				 <ele>10.9</ele>
			 </trkpt>
			 <trkpt lat="51.50526" lon="-0.02354">
				 <ele>10.9</ele>
			 </trkpt>
			 <trkpt lat="51.50531" lon="-0.02365">
				 <ele>11</ele>
			 </trkpt>
			 <trkpt lat="51.50533" lon="-0.02379">
				 <ele>10.9</ele>
			 </trkpt>
			 <trkpt lat="51.50541" lon="-0.024555">
				 <ele>10.8</ele>
			 </trkpt>
			 <trkpt lat="51.50549" lon="-0.02532">
				 <ele>10.7</ele>
			 </trkpt>
			 <trkpt lat="51.50558" lon="-0.02589">
				 <ele>10.6</ele>
			 </trkpt>
			 <trkpt lat="51.5056" lon="-0.02639">
				 <ele>10.5</ele>
			 </trkpt>
			 <trkpt lat="51.5056" lon="-0.02632">
				 <ele>10.1</ele>
			 </trkpt>
			 <trkpt lat="51.50543" lon="-0.02694">
				 <ele>9.4</ele>
			 </trkpt>
			 <trkpt lat="51.50558" lon="-0.02736">
				 <ele>8.6</ele>
			 </trkpt>
			 <trkpt lat="51.50584" lon="-0.02735">
				 <ele>7.9</ele>
			 </trkpt>
			 <trkpt lat="51.50614" lon="-0.02714">
				 <ele>7.2</ele>
			 </trkpt>
			 <trkpt lat="51.506705" lon="-0.02734">
				 <ele>6.5</ele>
			 </trkpt>
			 <trkpt lat="51.50727" lon="-0.02754">
				 <ele>5.8</ele>
			 </trkpt>
			 <trkpt lat="51.507895" lon="-0.027315">
				 <ele>5.3</ele>
			 </trkpt>
			 <trkpt lat="51.50852" lon="-0.02709">
				 <ele>4.7</ele>
			 </trkpt>
			 <trkpt lat="51.50895" lon="-0.02676">
				 <ele>4.2</ele>
			 </trkpt>
			 <trkpt lat="51.5093" lon="-0.02693">
				 <ele>3.7</ele>
			 </trkpt>
			 <trkpt lat="51.50933" lon="-0.0271">
				 <ele>3.6</ele>
			 </trkpt>
			 <trkpt lat="51.50925" lon="-0.02743">
				 <ele>3.8</ele>
			 </trkpt>
			 <trkpt lat="51.50926" lon="-0.02799">
				 <ele>4</ele>
			 </trkpt>
			 <trkpt lat="51.50931" lon="-0.02872">
				 <ele>4.2</ele>
			 </trkpt>
			 <trkpt lat="51.50915" lon="-0.02986">
				 <ele>4.4</ele>
			 </trkpt>
			 <trkpt lat="51.50904" lon="-0.03035">
				 <ele>4.5</ele>
			 </trkpt>
			 <trkpt lat="51.50894" lon="-0.03066">
				 <ele>4.7</ele>
			 </trkpt>
			 <trkpt lat="51.5087" lon="-0.03141">
				 <ele>4.8</ele>
			 </trkpt>
			 <trkpt lat="51.50865" lon="-0.03171">
				 <ele>4.9</ele>
			 </trkpt>
			 <trkpt lat="51.50864" lon="-0.03205">
				 <ele>5.1</ele>
			 </trkpt>
			 <trkpt lat="51.50866" lon="-0.03228">
				 <ele>5.3</ele>
			 </trkpt>
			 <trkpt lat="51.508805" lon="-0.03303">
				 <ele>5.5</ele>
			 </trkpt>
			 <trkpt lat="51.50895" lon="-0.03378">
				 <ele>5.5</ele>
			 </trkpt>
			 <trkpt lat="51.50929" lon="-0.03498">
				 <ele>5.6</ele>
			 </trkpt>
			 <trkpt lat="51.50943" lon="-0.03582">
				 <ele>5.8</ele>
			 </trkpt>
			 <trkpt lat="51.50967" lon="-0.03699">
				 <ele>5.9</ele>
			 </trkpt>
			 <trkpt lat="51.50982" lon="-0.03788">
				 <ele>6</ele>
			 </trkpt>
			 <trkpt lat="51.50993" lon="-0.03866">
				 <ele>6.2</ele>
			 </trkpt>
			 <trkpt lat="51.50997" lon="-0.03914">
				 <ele>6.4</ele>
			 </trkpt>
			 <trkpt lat="51.51007" lon="-0.04053">
				 <ele>6.5</ele>
			 </trkpt>
			 <trkpt lat="51.51011" lon="-0.04131">
				 <ele>6.6</ele>
			 </trkpt>
			 <trkpt lat="51.51015" lon="-0.04163">
				 <ele>6.7</ele>
			 </trkpt>
			 <trkpt lat="51.51048" lon="-0.04184">
				 <ele>6.8</ele>
			 </trkpt>
			 <trkpt lat="51.51051" lon="-0.04196">
				 <ele>7</ele>
			 </trkpt>
			 <trkpt lat="51.51041" lon="-0.04318">
				 <ele>7.2</ele>
			 </trkpt>
			 <trkpt lat="51.51036" lon="-0.04346">
				 <ele>7.3</ele>
			 </trkpt>
			 <trkpt lat="51.51033" lon="-0.04397">
				 <ele>7.5</ele>
			 </trkpt>
			 <trkpt lat="51.51026" lon="-0.0454">
				 <ele>7.8</ele>
			 </trkpt>
			 <trkpt lat="51.51021" lon="-0.04575">
				 <ele>8</ele>
			 </trkpt>
			 <trkpt lat="51.51016" lon="-0.04602">
				 <ele>8.3</ele>
			 </trkpt>
			 <trkpt lat="51.5101" lon="-0.04625">
				 <ele>8.5</ele>
			 </trkpt>
			 <trkpt lat="51.50999" lon="-0.04658">
				 <ele>9</ele>
			 </trkpt>
			 <trkpt lat="51.50988" lon="-0.04701">
				 <ele>9.3</ele>
			 </trkpt>
			 <trkpt lat="51.50982" lon="-0.0473">
				 <ele>9.5</ele>
			 </trkpt>
			 <trkpt lat="51.50977" lon="-0.04767">
				 <ele>9.7</ele>
			 </trkpt>
			 <trkpt lat="51.50978" lon="-0.04816">
				 <ele>9.9</ele>
			 </trkpt>
			 <trkpt lat="51.50978" lon="-0.049005">
				 <ele>10.1</ele>
			 </trkpt>
			 <trkpt lat="51.50978" lon="-0.04985">
				 <ele>10.2</ele>
			 </trkpt>
			 <trkpt lat="51.50978" lon="-0.04974">
				 <ele>10.4</ele>
			 </trkpt>
			 <trkpt lat="51.50973" lon="-0.05071">
				 <ele>10.5</ele>
			 </trkpt>
			 <trkpt lat="51.50974" lon="-0.05114">
				 <ele>10.6</ele>
			 </trkpt>
			 <trkpt lat="51.50971" lon="-0.05193">
				 <ele>10.7</ele>
			 </trkpt>
			 <trkpt lat="51.50968" lon="-0.05284">
				 <ele>10.6</ele>
			 </trkpt>
			 <trkpt lat="51.50965" lon="-0.05375">
				 <ele>10.5</ele>
			 </trkpt>
			 <trkpt lat="51.50961" lon="-0.05403">
				 <ele>10.4</ele>
			 </trkpt>
			 <trkpt lat="51.50963" lon="-0.05422">
				 <ele>10.2</ele>
			 </trkpt>
			 <trkpt lat="51.50963" lon="-0.05434">
				 <ele>9.9</ele>
			 </trkpt>
			 <trkpt lat="51.50962" lon="-0.05526">
				 <ele>9.5</ele>
			 </trkpt>
			 <trkpt lat="51.50948" lon="-0.05527">
				 <ele>9.1</ele>
			 </trkpt>
			 <trkpt lat="51.50935" lon="-0.05525">
				 <ele>8.5</ele>
			 </trkpt>
			 <trkpt lat="51.508855" lon="-0.055175">
				 <ele>7.7</ele>
			 </trkpt>
			 <trkpt lat="51.50836" lon="-0.0551">
				 <ele>7</ele>
			 </trkpt>
			 <trkpt lat="51.50777" lon="-0.05502">
				 <ele>6.4</ele>
			 </trkpt>
			 <trkpt lat="51.50745" lon="-0.055">
				 <ele>5.7</ele>
			 </trkpt>
			 <trkpt lat="51.50724" lon="-0.05497">
				 <ele>5.2</ele>
			 </trkpt>
			 <trkpt lat="51.50712" lon="-0.05494">
				 <ele>4.7</ele>
			 </trkpt>
			 <trkpt lat="51.50682" lon="-0.05469">
				 <ele>4.4</ele>
			 </trkpt>
			 <trkpt lat="51.50608" lon="-0.05442">
				 <ele>4.1</ele>
			 </trkpt>
			 <trkpt lat="51.50594" lon="-0.0544">
				 <ele>3.9</ele>
			 </trkpt>
			 <trkpt lat="51.50572" lon="-0.05431">
				 <ele>3.8</ele>
			 </trkpt>
			 <trkpt lat="51.50566" lon="-0.05433">
				 <ele>3.8</ele>
			 </trkpt>
			 <trkpt lat="51.50532" lon="-0.05478">
				 <ele>3.9</ele>
			 </trkpt>
			 <trkpt lat="51.50507" lon="-0.05513">
				 <ele>4</ele>
			 </trkpt>
			 <trkpt lat="51.50473" lon="-0.05572">
				 <ele>4</ele>
			 </trkpt>
			 <trkpt lat="51.5044" lon="-0.0562">
				 <ele>4</ele>
			 </trkpt>
			 <trkpt lat="51.50417" lon="-0.05637">
				 <ele>4</ele>
			 </trkpt>
			 <trkpt lat="51.50403" lon="-0.05657">
				 <ele>4</ele>
			 </trkpt>
			 <trkpt lat="51.50391" lon="-0.05682">
				 <ele>4</ele>
			 </trkpt>
			 <trkpt lat="51.50367" lon="-0.05744">
				 <ele>4</ele>
			 </trkpt>
			 <trkpt lat="51.50365" lon="-0.05747">
				 <ele>4</ele>
			 </trkpt>
			 <trkpt lat="51.50353" lon="-0.05784">
				 <ele>4</ele>
			 </trkpt>
			 <trkpt lat="51.50331" lon="-0.05889">
				 <ele>4</ele>
			 </trkpt>
			 <trkpt lat="51.50314" lon="-0.0595">
				 <ele>4.1</ele>
			 </trkpt>
			 <trkpt lat="51.50313" lon="-0.05979">
				 <ele>4.1</ele>
			 </trkpt>
			 <trkpt lat="51.50316" lon="-0.06015">
				 <ele>4</ele>
			 </trkpt>
			 <trkpt lat="51.50323" lon="-0.06053">
				 <ele>3.9</ele>
			 </trkpt>
			 <trkpt lat="51.50342" lon="-0.06157">
				 <ele>3.9</ele>
			 </trkpt>
			 <trkpt lat="51.50363" lon="-0.06271">
				 <ele>4</ele>
			 </trkpt>
			 <trkpt lat="51.50373" lon="-0.06337">
				 <ele>4.1</ele>
			 </trkpt>
			 <trkpt lat="51.50393" lon="-0.0643">
				 <ele>4.2</ele>
			 </trkpt>
			 <trkpt lat="51.50417" lon="-0.06527">
				 <ele>4.3</ele>
			 </trkpt>
			 <trkpt lat="51.50449" lon="-0.06661">
				 <ele>4.4</ele>
			 </trkpt>
			 <trkpt lat="51.50472" lon="-0.06731">
				 <ele>4.5</ele>
			 </trkpt>
			 <trkpt lat="51.50495" lon="-0.06779">
				 <ele>4.5</ele>
			 </trkpt>
			 <trkpt lat="51.50513" lon="-0.06813">
				 <ele>4.5</ele>
			 </trkpt>
			 <trkpt lat="51.50525" lon="-0.06822">
				 <ele>4.7</ele>
			 </trkpt>
			 <trkpt lat="51.50553" lon="-0.06811">
				 <ele>4.9</ele>
			 </trkpt>
			 <trkpt lat="51.50577" lon="-0.06798">
				 <ele>5.1</ele>
			 </trkpt>
			 <trkpt lat="51.506" lon="-0.06771">
				 <ele>5.2</ele>
			 </trkpt>
			 <trkpt lat="51.50627" lon="-0.0674">
				 <ele>5.4</ele>
			 </trkpt>
			 <trkpt lat="51.50638" lon="-0.0674">
				 <ele>5.5</ele>
			 </trkpt>
			 <trkpt lat="51.50667" lon="-0.06776">
				 <ele>5.7</ele>
			 </trkpt>
			 <trkpt lat="51.50733" lon="-0.06828">
				 <ele>5.9</ele>
			 </trkpt>
			 <trkpt lat="51.50745" lon="-0.06834">
				 <ele>6.1</ele>
			 </trkpt>
			 <trkpt lat="51.50772" lon="-0.06843">
				 <ele>6.4</ele>
			 </trkpt>
			 <trkpt lat="51.5078" lon="-0.06847">
				 <ele>6.7</ele>
			 </trkpt>
			 <trkpt lat="51.50788" lon="-0.06856">
				 <ele>7.1</ele>
			 </trkpt>
			 <trkpt lat="51.50812" lon="-0.06888">
				 <ele>7.4</ele>
			 </trkpt>
			 <trkpt lat="51.50844" lon="-0.06919">
				 <ele>7.7</ele>
			 </trkpt>
			 <trkpt lat="51.50851" lon="-0.0693">
				 <ele>8.3</ele>
			 </trkpt>
			 <trkpt lat="51.50844" lon="-0.06982">
				 <ele>8.6</ele>
			 </trkpt>
			 <trkpt lat="51.508395" lon="-0.070585">
				 <ele>9</ele>
			 </trkpt>
			 <trkpt lat="51.50835" lon="-0.07135">
				 <ele>9.4</ele>
			 </trkpt>
			 <trkpt lat="51.50839" lon="-0.07179">
				 <ele>9.7</ele>
			 </trkpt>
			 <trkpt lat="51.50873" lon="-0.07281">
				 <ele>10</ele>
			 </trkpt>
			 <trkpt lat="51.50894" lon="-0.07351">
				 <ele>10.2</ele>
			 </trkpt>
			 <trkpt lat="51.50896" lon="-0.07363">
				 <ele>10.3</ele>
			 </trkpt>
			 <trkpt lat="51.50891" lon="-0.07377">
				 <ele>9.9</ele>
			 </trkpt>
			 <trkpt lat="51.50884" lon="-0.07382">
				 <ele>9.1</ele>
			 </trkpt>
			 <trkpt lat="51.50848" lon="-0.07398">
				 <ele>8.1</ele>
			 </trkpt>
			 <trkpt lat="51.507855" lon="-0.074135">
				 <ele>7</ele>
			 </trkpt>
			 <trkpt lat="51.50723" lon="-0.07429">
				 <ele>6.5</ele>
			 </trkpt>
			 <trkpt lat="51.50676" lon="-0.07457">
				 <ele>6.3</ele>
			 </trkpt>
			 <trkpt lat="51.50629" lon="-0.07485">
				 <ele>5.8</ele>
			 </trkpt>
			 <trkpt lat="51.505614" lon="-0.075294">
				 <ele>5.3</ele>
			 </trkpt>
			 <trkpt lat="51.504938" lon="-0.075738">
				 <ele>4.8</ele>
			 </trkpt>
			 <trkpt lat="51.504262" lon="-0.076182">
				 <ele>4.3</ele>
			 </trkpt>
			 <trkpt lat="51.503586" lon="-0.076626">
				 <ele>3.7</ele>
			 </trkpt>
			 <trkpt lat="51.50291" lon="-0.07707">
				 <ele>3.6</ele>
			 </trkpt>
			 <trkpt lat="51.50258" lon="-0.07724">
				 <ele>4.1</ele>
			 </trkpt>
			 <trkpt lat="51.50242" lon="-0.07735">
				 <ele>4.5</ele>
			 </trkpt>
			 <trkpt lat="51.50232" lon="-0.07732">
				 <ele>4.9</ele>
			 </trkpt>
			 <trkpt lat="51.50209" lon="-0.07711">
				 <ele>4.8</ele>
			 </trkpt>
			 <trkpt lat="51.50158" lon="-0.07633">
				 <ele>4.4</ele>
			 </trkpt>
			 <trkpt lat="51.50139" lon="-0.076">
				 <ele>4.1</ele>
			 </trkpt>
			 <trkpt lat="51.501065" lon="-0.0753">
				 <ele>3.9</ele>
			 </trkpt>
			 <trkpt lat="51.50074" lon="-0.0746">
				 <ele>3.6</ele>
			 </trkpt>
			 <trkpt lat="51.5004" lon="-0.07368">
				 <ele>3.5</ele>
			 </trkpt>
			 <trkpt lat="51.50016" lon="-0.07303">
				 <ele>3.4</ele>
			 </trkpt>
			 <trkpt lat="51.49992" lon="-0.07238">
				 <ele>3.3</ele>
			 </trkpt>
			 <trkpt lat="51.499525" lon="-0.071635">
				 <ele>3.2</ele>
			 </trkpt>
			 <trkpt lat="51.49913" lon="-0.07089">
				 <ele>3.1</ele>
			 </trkpt>
			 <trkpt lat="51.498795" lon="-0.07004">
				 <ele>3</ele>
			 </trkpt>
			 <trkpt lat="51.49846" lon="-0.06919">
				 <ele>2.9</ele>
			 </trkpt>
			 <trkpt lat="51.498275" lon="-0.068355">
				 <ele>2.8</ele>
			 </trkpt>
			 <trkpt lat="51.49809" lon="-0.06752">
				 <ele>2.8</ele>
			 </trkpt>
			 <trkpt lat="51.498035" lon="-0.066705">
				 <ele>2.8</ele>
			 </trkpt>
			 <trkpt lat="51.49798" lon="-0.06589">
				 <ele>2.9</ele>
			 </trkpt>
			 <trkpt lat="51.49806" lon="-0.06506">
				 <ele>3</ele>
			 </trkpt>
			 <trkpt lat="51.49814" lon="-0.06423">
				 <ele>3</ele>
			 </trkpt>
			 <trkpt lat="51.498273" lon="-0.063203">
				 <ele>3</ele>
			 </trkpt>
			 <trkpt lat="51.498407" lon="-0.062167">
				 <ele>3.1</ele>
			 </trkpt>
			 <trkpt lat="51.49854" lon="-0.06113">
				 <ele>3.1</ele>
			 </trkpt>
			 <trkpt lat="51.49868" lon="-0.06038">
				 <ele>3.1</ele>
			 </trkpt>
			 <trkpt lat="51.498795" lon="-0.059165">
				 <ele>3.1</ele>
			 </trkpt>
			 <trkpt lat="51.49891" lon="-0.05795">
				 <ele>3.1</ele>
			 </trkpt>
			 <trkpt lat="51.49899" lon="-0.05716">
				 <ele>3.1</ele>
			 </trkpt>
			 <trkpt lat="51.49902" lon="-0.0565">
				 <ele>3.1</ele>
			 </trkpt>
			 <trkpt lat="51.49903" lon="-0.05608">
				 <ele>3.1</ele>
			 </trkpt>
			 <trkpt lat="51.49914" lon="-0.05573">
				 <ele>3</ele>
			 </trkpt>
			 <trkpt lat="51.49927" lon="-0.05555">
				 <ele>2.9</ele>
			 </trkpt>
			 <trkpt lat="51.49946" lon="-0.05531">
				 <ele>2.8</ele>
			 </trkpt>
			 <trkpt lat="51.49956" lon="-0.05502">
				 <ele>2.6</ele>
			 </trkpt>
			 <trkpt lat="51.49954" lon="-0.05467">
				 <ele>2.5</ele>
			 </trkpt>
			 <trkpt lat="51.49953" lon="-0.05444">
				 <ele>2.5</ele>
			 </trkpt>
			 <trkpt lat="51.49958" lon="-0.05406">
				 <ele>2.5</ele>
			 </trkpt>
			 <trkpt lat="51.49991" lon="-0.05338">
				 <ele>2.5</ele>
			 </trkpt>
			 <trkpt lat="51.500195" lon="-0.05284">
				 <ele>2.4</ele>
			 </trkpt>
			 <trkpt lat="51.50049" lon="-0.05228">
				 <ele>2.4</ele>
			 </trkpt>
			 <trkpt lat="51.500895" lon="-0.05153">
				 <ele>2.5</ele>
			 </trkpt>
			 <trkpt lat="51.5013" lon="-0.05078">
				 <ele>2.8</ele>
			 </trkpt>
			 <trkpt lat="51.50178" lon="-0.05011">
				 <ele>3</ele>
			 </trkpt>
			 <trkpt lat="51.50238" lon="-0.04912">
				 <ele>3.2</ele>
			 </trkpt>
			 <trkpt lat="51.50277" lon="-0.048495">
				 <ele>3.5</ele>
			 </trkpt>
			 <trkpt lat="51.50316" lon="-0.04787">
				 <ele>3.7</ele>
			 </trkpt>
			 <trkpt lat="51.503725" lon="-0.04691">
				 <ele>4.1</ele>
			 </trkpt>
			 <trkpt lat="51.50429" lon="-0.04595">
				 <ele>4.4</ele>
			 </trkpt>
			 <trkpt lat="51.50437" lon="-0.04579">
				 <ele>4.6</ele>
			 </trkpt>
			 <trkpt lat="51.50464" lon="-0.04517">
				 <ele>5</ele>
			 </trkpt>
			 <trkpt lat="51.50489" lon="-0.04452">
				 <ele>5.3</ele>
			 </trkpt>
			 <trkpt lat="51.50517" lon="-0.04358">
				 <ele>5.4</ele>
			 </trkpt>
			 <trkpt lat="51.50539" lon="-0.04263">
				 <ele>5.5</ele>
			 </trkpt>
			 <trkpt lat="51.50548" lon="-0.04202">
				 <ele>5.5</ele>
			 </trkpt>
			 <trkpt lat="51.50555" lon="-0.04162">
				 <ele>5.6</ele>
			 </trkpt>
			 <trkpt lat="51.50561" lon="-0.041">
				 <ele>5.6</ele>
			 </trkpt>
			 <trkpt lat="51.50565" lon="-0.04018">
				 <ele>5.6</ele>
			 </trkpt>
			 <trkpt lat="51.50566" lon="-0.03935">
				 <ele>5.5</ele>
			 </trkpt>
			 <trkpt lat="51.50563" lon="-0.03897">
				 <ele>5.5</ele>
			 </trkpt>
			 <trkpt lat="51.50557" lon="-0.03852">
				 <ele>5.5</ele>
			 </trkpt>
			 <trkpt lat="51.50552" lon="-0.03828">
				 <ele>5.5</ele>
			 </trkpt>
			 <trkpt lat="51.50543" lon="-0.03795">
				 <ele>5.5</ele>
			 </trkpt>
			 <trkpt lat="51.50527" lon="-0.03747">
				 <ele>5.5</ele>
			 </trkpt>
			 <trkpt lat="51.5051" lon="-0.03714">
				 <ele>5.5</ele>
			 </trkpt>
			 <trkpt lat="51.50487" lon="-0.03676">
				 <ele>5.6</ele>
			 </trkpt>
			 <trkpt lat="51.50453" lon="-0.03642">
				 <ele>5.5</ele>
			 </trkpt>
			 <trkpt lat="51.50435" lon="-0.03628">
				 <ele>5.4</ele>
			 </trkpt>
			 <trkpt lat="51.50416" lon="-0.03618">
				 <ele>5.2</ele>
			 </trkpt>
			 <trkpt lat="51.50383" lon="-0.03606">
				 <ele>4.9</ele>
			 </trkpt>
			 <trkpt lat="51.50331" lon="-0.03592">
				 <ele>4.6</ele>
			 </trkpt>
			 <trkpt lat="51.50242" lon="-0.03574">
				 <ele>4.4</ele>
			 </trkpt>
			 <trkpt lat="51.50194" lon="-0.03567">
				 <ele>4.1</ele>
			 </trkpt>
			 <trkpt lat="51.50148" lon="-0.03557">
				 <ele>3.8</ele>
			 </trkpt>
			 <trkpt lat="51.50081" lon="-0.0354">
				 <ele>3.6</ele>
			 </trkpt>
			 <trkpt lat="51.50054" lon="-0.03536">
				 <ele>3.5</ele>
			 </trkpt>
			 <trkpt lat="51.50012" lon="-0.03533">
				 <ele>3.4</ele>
			 </trkpt>
			 <trkpt lat="51.49981" lon="-0.03535">
				 <ele>3.5</ele>
			 </trkpt>
			 <trkpt lat="51.49963" lon="-0.03539">
				 <ele>3.7</ele>
			 </trkpt>
			 <trkpt lat="51.49907" lon="-0.03565">
				 <ele>4</ele>
			 </trkpt>
			 <trkpt lat="51.49894" lon="-0.03574">
				 <ele>4.4</ele>
			 </trkpt>
			 <trkpt lat="51.49866" lon="-0.03607">
				 <ele>4.6</ele>
			 </trkpt>
			 <trkpt lat="51.4983" lon="-0.03656">
				 <ele>4.9</ele>
			 </trkpt>
			 <trkpt lat="51.49781" lon="-0.037305">
				 <ele>5.2</ele>
			 </trkpt>
			 <trkpt lat="51.49732" lon="-0.03805">
				 <ele>5.5</ele>
			 </trkpt>
			 <trkpt lat="51.4968" lon="-0.03895">
				 <ele>5.5</ele>
			 </trkpt>
			 <trkpt lat="51.49656" lon="-0.03948">
				 <ele>5.6</ele>
			 </trkpt>
			 <trkpt lat="51.49639" lon="-0.03998">
				 <ele>5.7</ele>
			 </trkpt>
			 <trkpt lat="51.49623" lon="-0.04064">
				 <ele>5.8</ele>
			 </trkpt>
			 <trkpt lat="51.49625" lon="-0.04093">
				 <ele>5.8</ele>
			 </trkpt>
			 <trkpt lat="51.49636" lon="-0.04109">
				 <ele>5.8</ele>
			 </trkpt>
			 <trkpt lat="51.49645" lon="-0.04117">
				 <ele>5.8</ele>
			 </trkpt>
			 <trkpt lat="51.49696" lon="-0.041275">
				 <ele>5.8</ele>
			 </trkpt>
			 <trkpt lat="51.49747" lon="-0.04138">
				 <ele>5.8</ele>
			 </trkpt>
			 <trkpt lat="51.4982" lon="-0.04159">
				 <ele>5.8</ele>
			 </trkpt>
			 <trkpt lat="51.49832" lon="-0.04166">
				 <ele>5.8</ele>
			 </trkpt>
			 <trkpt lat="51.49844" lon="-0.04184">
				 <ele>5.9</ele>
			 </trkpt>
			 <trkpt lat="51.49884" lon="-0.04284">
				 <ele>6</ele>
			 </trkpt>
			 <trkpt lat="51.49927" lon="-0.04397">
				 <ele>6</ele>
			 </trkpt>
			 <trkpt lat="51.49949" lon="-0.04463">
				 <ele>6</ele>
			 </trkpt>
			 <trkpt lat="51.49949" lon="-0.04479">
				 <ele>6</ele>
			 </trkpt>
			 <trkpt lat="51.4992" lon="-0.04513">
				 <ele>6</ele>
			 </trkpt>
			 <trkpt lat="51.49908" lon="-0.04527">
				 <ele>6</ele>
			 </trkpt>
			 <trkpt lat="51.49896" lon="-0.04536">
				 <ele>6</ele>
			 </trkpt>
			 <trkpt lat="51.49883" lon="-0.04544">
				 <ele>6</ele>
			 </trkpt>
			 <trkpt lat="51.49851" lon="-0.04558">
				 <ele>6</ele>
			 </trkpt>
			 <trkpt lat="51.49819" lon="-0.04596">
				 <ele>6</ele>
			 </trkpt>
			 <trkpt lat="51.49812" lon="-0.04599">
				 <ele>6</ele>
			 </trkpt>
			 <trkpt lat="51.49806" lon="-0.046">
				 <ele>6</ele>
			 </trkpt>
			 <trkpt lat="51.49769" lon="-0.04579">
				 <ele>6</ele>
			 </trkpt>
			 <trkpt lat="51.49749" lon="-0.04574">
				 <ele>6</ele>
			 </trkpt>
			 <trkpt lat="51.49737" lon="-0.04574">
				 <ele>6</ele>
			 </trkpt>
			 <trkpt lat="51.49676" lon="-0.04585">
				 <ele>6</ele>
			 </trkpt>
			 <trkpt lat="51.4965" lon="-0.04595">
				 <ele>5.9</ele>
			 </trkpt>
			 <trkpt lat="51.4962" lon="-0.04608">
				 <ele>5.9</ele>
			 </trkpt>
			 <trkpt lat="51.49609" lon="-0.04608">
				 <ele>5.9</ele>
			 </trkpt>
			 <trkpt lat="51.49586" lon="-0.04601">
				 <ele>5.9</ele>
			 </trkpt>
			 <trkpt lat="51.49569" lon="-0.04592">
				 <ele>6</ele>
			 </trkpt>
			 <trkpt lat="51.49539" lon="-0.0457">
				 <ele>6</ele>
			 </trkpt>
			 <trkpt lat="51.49516" lon="-0.04535">
				 <ele>6</ele>
			 </trkpt>
			 <trkpt lat="51.49508" lon="-0.04518">
				 <ele>5.8</ele>
			 </trkpt>
			 <trkpt lat="51.49494" lon="-0.04462">
				 <ele>5.5</ele>
			 </trkpt>
			 <trkpt lat="51.49481" lon="-0.04453">
				 <ele>5.2</ele>
			 </trkpt>
			 <trkpt lat="51.494325" lon="-0.044925">
				 <ele>4.8</ele>
			 </trkpt>
			 <trkpt lat="51.49384" lon="-0.04532">
				 <ele>4.5</ele>
			 </trkpt>
			 <trkpt lat="51.493525" lon="-0.045975">
				 <ele>4.2</ele>
			 </trkpt>
			 <trkpt lat="51.49321" lon="-0.04663">
				 <ele>3.8</ele>
			 </trkpt>
			 <trkpt lat="51.493" lon="-0.04669">
				 <ele>3.5</ele>
			 </trkpt>
			 <trkpt lat="51.49245" lon="-0.04579">
				 <ele>3</ele>
			 </trkpt>
			 <trkpt lat="51.492025" lon="-0.045055">
				 <ele>2.6</ele>
			 </trkpt>
			 <trkpt lat="51.4916" lon="-0.04432">
				 <ele>2.3</ele>
			 </trkpt>
			 <trkpt lat="51.491123" lon="-0.04365">
				 <ele>2.1</ele>
			 </trkpt>
			 <trkpt lat="51.490647" lon="-0.04298">
				 <ele>2</ele>
			 </trkpt>
			 <trkpt lat="51.49017" lon="-0.04231">
				 <ele>2</ele>
			 </trkpt>
			 <trkpt lat="51.489595" lon="-0.04142">
				 <ele>2.1</ele>
			 </trkpt>
			 <trkpt lat="51.48902" lon="-0.04053">
				 <ele>2.4</ele>
			 </trkpt>
			 <trkpt lat="51.488487" lon="-0.03948">
				 <ele>2.6</ele>
			 </trkpt>
			 <trkpt lat="51.487953" lon="-0.03843">
				 <ele>2.7</ele>
			 </trkpt>
			 <trkpt lat="51.48742" lon="-0.03738">
				 <ele>2.8</ele>
			 </trkpt>
			 <trkpt lat="51.48691" lon="-0.03645">
				 <ele>2.9</ele>
			 </trkpt>
			 <trkpt lat="51.4864" lon="-0.03552">
				 <ele>3.1</ele>
			 </trkpt>
			 <trkpt lat="51.485923" lon="-0.034887">
				 <ele>3.3</ele>
			 </trkpt>
			 <trkpt lat="51.485447" lon="-0.034253">
				 <ele>3.5</ele>
			 </trkpt>
			 <trkpt lat="51.48497" lon="-0.03362">
				 <ele>3.8</ele>
			 </trkpt>
			 <trkpt lat="51.48439" lon="-0.03288">
				 <ele>4.1</ele>
			 </trkpt>
			 <trkpt lat="51.484075" lon="-0.032245">
				 <ele>4.3</ele>
			 </trkpt>
			 <trkpt lat="51.48376" lon="-0.03161">
				 <ele>4.4</ele>
			 </trkpt>
			 <trkpt lat="51.48328" lon="-0.030617">
				 <ele>4.5</ele>
			 </trkpt>
			 <trkpt lat="51.4828" lon="-0.029623">
				 <ele>4.7</ele>
			 </trkpt>
			 <trkpt lat="51.48232" lon="-0.02863">
				 <ele>5</ele>
			 </trkpt>
			 <trkpt lat="51.48197" lon="-0.02773">
				 <ele>5.4</ele>
			 </trkpt>
			 <trkpt lat="51.48162" lon="-0.02683">
				 <ele>5.5</ele>
			 </trkpt>
			 <trkpt lat="51.4815" lon="-0.02635">
				 <ele>5.6</ele>
			 </trkpt>
			 <trkpt lat="51.48132" lon="-0.02547">
				 <ele>5.5</ele>
			 </trkpt>
			 <trkpt lat="51.48133" lon="-0.02552">
				 <ele>5.5</ele>
			 </trkpt>
			 <trkpt lat="51.481075" lon="-0.024275">
				 <ele>5.4</ele>
			 </trkpt>
			 <trkpt lat="51.48082" lon="-0.02303">
				 <ele>5.5</ele>
			 </trkpt>
			 <trkpt lat="51.48092" lon="-0.021775">
				 <ele>5.5</ele>
			 </trkpt>
			 <trkpt lat="51.48102" lon="-0.02052">
				 <ele>5.5</ele>
			 </trkpt>
			 <trkpt lat="51.48114" lon="-0.01912">
				 <ele>5.3</ele>
			 </trkpt>
			 <trkpt lat="51.48126" lon="-0.01772">
				 <ele>5</ele>
			 </trkpt>
			 <trkpt lat="51.481307" lon="-0.016713">
				 <ele>4.7</ele>
			 </trkpt>
			 <trkpt lat="51.481353" lon="-0.015707">
				 <ele>4.6</ele>
			 </trkpt>
			 <trkpt lat="51.4814" lon="-0.0147">
				 <ele>4.6</ele>
			 </trkpt>
			 <trkpt lat="51.48141" lon="-0.013353">
				 <ele>4.7</ele>
			 </trkpt>
			 <trkpt lat="51.48142" lon="-0.012007">
				 <ele>4.8</ele>
			 </trkpt>
			 <trkpt lat="51.48143" lon="-0.01066">
				 <ele>4.9</ele>
			 </trkpt>
			 <trkpt lat="51.48145" lon="-0.01034">
				 <ele>4.8</ele>
			 </trkpt>
			 <trkpt lat="51.48147" lon="-0.01018">
				 <ele>4.6</ele>
			 </trkpt>
			 <trkpt lat="51.48153" lon="-0.01009">
				 <ele>4.6</ele>
			 </trkpt>
			 <trkpt lat="51.48171" lon="-0.01008">
				 <ele>4.7</ele>
			 </trkpt>
			 <trkpt lat="51.48178" lon="-0.01001">
				 <ele>4.9</ele>
			 </trkpt>
			 <trkpt lat="51.48186" lon="-0.01006">
				 <ele>5</ele>
			 </trkpt>
			 <trkpt lat="51.48194" lon="-0.01006">
				 <ele>5</ele>
			 </trkpt>
			 <trkpt lat="51.48211" lon="-0.01001">
				 <ele>5</ele>
			 </trkpt>
			 <trkpt lat="51.4824" lon="-0.0099">
				 <ele>5</ele>
			 </trkpt>
		 </trkseg>
	 </trk>
</gpx>