<?xml version="1.0" encoding="UTF-8"?>
 <gpx creator="Garmin Connect" version="1.1"
	 xsi:schemaLocation="http://www.topografix.com/GPX/1/1 http://www.topografix.com/GPX/11.xsd"
	 xmlns:ns3="http://www.garmin.com/xmlschemas/TrackPointExtension/v1"
	 xmlns="http://www.topografix.com/GPX/1/1"
	 xmlns:xsi="http://www.w3.org/2001/XMLSchema-instance" xmlns:ns2="http://www.garmin.com/xmlschemas/GpxExtensions/v3">
	 <metadata>
		<name>TCS London Marathon 2025 - 42.195 km</name>
		 <link href="https://www.goandrace.com">
		 <text>Garmin Connect</text>
		 </link>
	 <time>2026-08-23T23:06:06</time>
	 </metadata>
	 <trk>
		 <name>TCS London Marathon 2025 - 42.195 km</name>
		 <trkseg>
			 <trkpt lat="51.47309" lon="0.01158">
				 <ele>41</ele>
			 </trkpt>
			 <trkpt lat="51.47325" lon="0.012842">
				 <ele>41</ele>
			 </trkpt>
			 <trkpt lat="51.47341" lon="0.014105">
				 <ele>41.1</ele>
			 </trkpt>
			 <trkpt lat="51.47357" lon="0.015367">
				 <ele>41.3</ele>
			 </trkpt>
			 <trkpt lat="51.47373" lon="0.01663">
				 <ele>41.5</ele>
			 </trkpt>
			 <trkpt lat="51.473843" lon="0.01766">
				 <ele>41.6</ele>
			 </trkpt>
			 <trkpt lat="51.473957" lon="0.01869">
				 <ele>42</ele>
			 </trkpt>
			 <trkpt lat="51.47407" lon="0.01972">
				 <ele>42.4</ele>
			 </trkpt>
			 <trkpt lat="51.474195" lon="0.02057">
				 <ele>42.5</ele>
			 </trkpt>
			 <trkpt lat="51.47432" lon="0.02142">
				 <ele>42.8</ele>
			 </trkpt>
			 <trkpt lat="51.47433" lon="0.02149">
				 <ele>43.2</ele>
			 </trkpt>
			 <trkpt lat="51.47443" lon="0.02195">
				 <ele>43.5</ele>
			 </trkpt>
			 <trkpt lat="51.47443" lon="0.02204">
				 <ele>43.9</ele>
			 </trkpt>
			 <trkpt lat="51.474565" lon="0.022865">
				 <ele>44.2</ele>
			 </trkpt>
			 <trkpt lat="51.4747" lon="0.02369">
				 <ele>44.4</ele>
			 </trkpt>
			 <trkpt lat="51.47475" lon="0.0239">
				 <ele>44.5</ele>
			 </trkpt>
			 <trkpt lat="51.4748" lon="0.02399">
				 <ele>44.7</ele>
			 </trkpt>
			 <trkpt lat="51.47501" lon="0.02415">
				 <ele>44.8</ele>
			 </trkpt>
			 <trkpt lat="51.47507" lon="0.0243">
				 <ele>45</ele>
			 </trkpt>
			 <trkpt lat="51.4751" lon="0.02444">
				 <ele>45.2</ele>
			 </trkpt>
			 <trkpt lat="51.47508" lon="0.02466">
				 <ele>45.4</ele>
			 </trkpt>
			 <trkpt lat="51.47498" lon="0.02495">
				 <ele>45.5</ele>
			 </trkpt>
			 <trkpt lat="51.47497" lon="0.02513">
				 <ele>45.7</ele>
			 </trkpt>
			 <trkpt lat="51.47497" lon="0.02542">
				 <ele>46</ele>
			 </trkpt>
			 <trkpt lat="51.47511" lon="0.02638">
				 <ele>46.3</ele>
			 </trkpt>
			 <trkpt lat="51.47525" lon="0.02734">
				 <ele>46.5</ele>
			 </trkpt>
			 <trkpt lat="51.4753" lon="0.02781">
				 <ele>46.6</ele>
			 </trkpt>
			 <trkpt lat="51.47533" lon="0.02817">
				 <ele>46.7</ele>
			 </trkpt>
			 <trkpt lat="51.47537" lon="0.02918">
				 <ele>46.8</ele>
			 </trkpt>
			 <trkpt lat="51.47538" lon="0.02961">
				 <ele>46.8</ele>
			 </trkpt>
			 <trkpt lat="51.47533" lon="0.03043">
				 <ele>46.8</ele>
			 </trkpt>
			 <trkpt lat="51.47517" lon="0.03166">
				 <ele>46.8</ele>
			 </trkpt>
			 <trkpt lat="51.475055" lon="0.03248">
				 <ele>46.8</ele>
			 </trkpt>
			 <trkpt lat="51.47494" lon="0.0333">
				 <ele>46.8</ele>
			 </trkpt>
			 <trkpt lat="51.47476" lon="0.034467">
				 <ele>46.7</ele>
			 </trkpt>
			 <trkpt lat="51.47458" lon="0.035633">
				 <ele>46.7</ele>
			 </trkpt>
			 <trkpt lat="51.4744" lon="0.0368">
				 <ele>47</ele>
			 </trkpt>
			 <trkpt lat="51.47436" lon="0.03732">
				 <ele>47.3</ele>
			 </trkpt>
			 <trkpt lat="51.47454" lon="0.03752">
				 <ele>47.7</ele>
			 </trkpt>
			 <trkpt lat="51.47519" lon="0.038085">
				 <ele>48.3</ele>
			 </trkpt>
			 <trkpt lat="51.47585" lon="0.03866">
				 <ele>48.8</ele>
			 </trkpt>
			 <trkpt lat="51.47644" lon="0.03919">
				 <ele>49.4</ele>
			 </trkpt>
			 <trkpt lat="51.47655" lon="0.03932">
				 <ele>49.9</ele>
			 </trkpt>
			 <trkpt lat="51.47681" lon="0.03971">
				 <ele>50.4</ele>
			 </trkpt>
			 <trkpt lat="51.47724" lon="0.04052">
				 <ele>50.8</ele>
			 </trkpt>
			 <trkpt lat="51.47734" lon="0.04079">
				 <ele>51.3</ele>
			 </trkpt>
			 <trkpt lat="51.47751" lon="0.04134">
				 <ele>51.6</ele>
			 </trkpt>
			 <trkpt lat="51.47775" lon="0.04191">
				 <ele>51.8</ele>
			 </trkpt>
			 <trkpt lat="51.47813" lon="0.0426">
				 <ele>51.9</ele>
			 </trkpt>
			 <trkpt lat="51.47851" lon="0.04329">
				 <ele>51.9</ele>
			 </trkpt>
			 <trkpt lat="51.47884" lon="0.04398">
				 <ele>51.7</ele>
			 </trkpt>
			 <trkpt lat="51.47891" lon="0.04406">
				 <ele>51.5</ele>
			 </trkpt>
			 <trkpt lat="51.479" lon="0.04476">
				 <ele>51.4</ele>
			 </trkpt>
			 <trkpt lat="51.4791" lon="0.04588">
				 <ele>51</ele>
			 </trkpt>
			 <trkpt lat="51.47914" lon="0.04699">
				 <ele>50.6</ele>
			 </trkpt>
			 <trkpt lat="51.47933" lon="0.04814">
				 <ele>50.4</ele>
			 </trkpt>
			 <trkpt lat="51.47957" lon="0.04898">
				 <ele>50.1</ele>
			 </trkpt>
			 <trkpt lat="51.479835" lon="0.05015">
				 <ele>49.8</ele>
			 </trkpt>
			 <trkpt lat="51.4801" lon="0.05132">
				 <ele>49.5</ele>
			 </trkpt>
			 <trkpt lat="51.48021" lon="0.05231">
				 <ele>49.4</ele>
			 </trkpt>
			 <trkpt lat="51.48034" lon="0.05305">
				 <ele>49.1</ele>
			 </trkpt>
			 <trkpt lat="51.48047" lon="0.053905">
				 <ele>48.8</ele>
			 </trkpt>
			 <trkpt lat="51.4806" lon="0.05476">
				 <ele>48.5</ele>
			 </trkpt>
			 <trkpt lat="51.48082" lon="0.05602">
				 <ele>48.3</ele>
			 </trkpt>
			 <trkpt lat="51.48098" lon="0.05675">
				 <ele>48.1</ele>
			 </trkpt>
			 <trkpt lat="51.481355" lon="0.058015">
				 <ele>48</ele>
			 </trkpt>
			 <trkpt lat="51.48173" lon="0.05928">
				 <ele>47.7</ele>
			 </trkpt>
			 <trkpt lat="51.481995" lon="0.06019">
				 <ele>47.5</ele>
			 </trkpt>
			 <trkpt lat="51.48226" lon="0.0611">
				 <ele>47.2</ele>
			 </trkpt>
			 <trkpt lat="51.48229" lon="0.06117">
				 <ele>46.8</ele>
			 </trkpt>
			 <trkpt lat="51.4825" lon="0.06177">
				 <ele>46.5</ele>
			 </trkpt>
			 <trkpt lat="51.48274" lon="0.062">
				 <ele>46.1</ele>
			 </trkpt>
			 <trkpt lat="51.48293" lon="0.0621">
				 <ele>45.8</ele>
			 </trkpt>
			 <trkpt lat="51.4829" lon="0.0621">
				 <ele>45.5</ele>
			 </trkpt>
			 <trkpt lat="51.48335" lon="0.06218">
				 <ele>45.3</ele>
			 </trkpt>
			 <trkpt lat="51.48341" lon="0.06215">
				 <ele>44.8</ele>
			 </trkpt>
			 <trkpt lat="51.48351" lon="0.06215">
				 <ele>44.3</ele>
			 </trkpt>
			 <trkpt lat="51.48357" lon="0.06217">
				 <ele>43.7</ele>
			 </trkpt>
			 <trkpt lat="51.48373" lon="0.06212">
				 <ele>43.1</ele>
			 </trkpt>
			 <trkpt lat="51.48385" lon="0.06214">
				 <ele>42.2</ele>
			 </trkpt>
			 <trkpt lat="51.484437" lon="0.062347">
				 <ele>41</ele>
			 </trkpt>
			 <trkpt lat="51.485023" lon="0.062553">
				 <ele>39.8</ele>
			 </trkpt>
			 <trkpt lat="51.48561" lon="0.06276">
				 <ele>38.7</ele>
			 </trkpt>
			 <trkpt lat="51.48579" lon="0.06284">
				 <ele>37.6</ele>
			 </trkpt>
			 <trkpt lat="51.4864" lon="0.06314">
				 <ele>36.5</ele>
			 </trkpt>
			 <trkpt lat="51.48694" lon="0.06342">
				 <ele>35.1</ele>
			 </trkpt>
			 <trkpt lat="51.48698" lon="0.06338">
				 <ele>33.8</ele>
			 </trkpt>
			 <trkpt lat="51.48714" lon="0.06341">
				 <ele>32.5</ele>
			 </trkpt>
			 <trkpt lat="51.48723" lon="0.0634">
				 <ele>31.2</ele>
			 </trkpt>
			 <trkpt lat="51.48753" lon="0.0633">
				 <ele>29.8</ele>
			 </trkpt>
			 <trkpt lat="51.48812" lon="0.06296">
				 <ele>28.6</ele>
			 </trkpt>
			 <trkpt lat="51.48871" lon="0.06262">
				 <ele>27.8</ele>
			 </trkpt>
			 <trkpt lat="51.48905" lon="0.06251">
				 <ele>26.7</ele>
			 </trkpt>
			 <trkpt lat="51.489585" lon="0.062395">
				 <ele>25.5</ele>
			 </trkpt>
			 <trkpt lat="51.49012" lon="0.06228">
				 <ele>24.1</ele>
			 </trkpt>
			 <trkpt lat="51.49048" lon="0.06216">
				 <ele>22.7</ele>
			 </trkpt>
			 <trkpt lat="51.49074" lon="0.06205">
				 <ele>21.5</ele>
			 </trkpt>
			 <trkpt lat="51.49135" lon="0.06173">
				 <ele>20.1</ele>
			 </trkpt>
			 <trkpt lat="51.49193" lon="0.06135">
				 <ele>18.7</ele>
			 </trkpt>
			 <trkpt lat="51.49227" lon="0.06109">
				 <ele>17.5</ele>
			 </trkpt>
			 <trkpt lat="51.49251" lon="0.06097">
				 <ele>16.2</ele>
			 </trkpt>
			 <trkpt lat="51.49268" lon="0.06093">
				 <ele>14.9</ele>
			 </trkpt>
			 <trkpt lat="51.49287" lon="0.06093">
				 <ele>13.5</ele>
			 </trkpt>
			 <trkpt lat="51.49301" lon="0.06095">
				 <ele>12.4</ele>
			 </trkpt>
			 <trkpt lat="51.49337" lon="0.06108">
				 <ele>11.4</ele>
			 </trkpt>
			 <trkpt lat="51.49358" lon="0.06081">
				 <ele>10.5</ele>
			 </trkpt>
			 <trkpt lat="51.49364" lon="0.06048">
				 <ele>9.8</ele>
			 </trkpt>
			 <trkpt lat="51.49357" lon="0.0591">
				 <ele>9.3</ele>
			 </trkpt>
			 <trkpt lat="51.49354" lon="0.05846">
				 <ele>9.3</ele>
			 </trkpt>
			 <trkpt lat="51.4935" lon="0.05817">
				 <ele>9.4</ele>
			 </trkpt>
			 <trkpt lat="51.4934" lon="0.05781">
				 <ele>9.5</ele>
			 </trkpt>
			 <trkpt lat="51.49306" lon="0.05708">
				 <ele>9.5</ele>
			 </trkpt>
			 <trkpt lat="51.49301" lon="0.0569">
				 <ele>9.7</ele>
			 </trkpt>
			 <trkpt lat="51.492875" lon="0.055825">
				 <ele>10.1</ele>
			 </trkpt>
			 <trkpt lat="51.49274" lon="0.05475">
				 <ele>10.5</ele>
			 </trkpt>
			 <trkpt lat="51.49273" lon="0.05448">
				 <ele>10.9</ele>
			 </trkpt>
			 <trkpt lat="51.49277" lon="0.05366">
				 <ele>11.2</ele>
			 </trkpt>
			 <trkpt lat="51.49272" lon="0.05299">
				 <ele>11.3</ele>
			 </trkpt>
			 <trkpt lat="51.49261" lon="0.0525">
				 <ele>10.9</ele>
			 </trkpt>
			 <trkpt lat="51.49225" lon="0.0515">
				 <ele>10.3</ele>
			 </trkpt>
			 <trkpt lat="51.49213" lon="0.05089">
				 <ele>9.5</ele>
			 </trkpt>
			 <trkpt lat="51.49212" lon="0.05041">
				 <ele>8.9</ele>
			 </trkpt>
			 <trkpt lat="51.49213" lon="0.05013">
				 <ele>8.4</ele>
			 </trkpt>
			 <trkpt lat="51.49224" lon="0.04892">
				 <ele>7.8</ele>
			 </trkpt>
			 <trkpt lat="51.49235" lon="0.04771">
				 <ele>7.2</ele>
			 </trkpt>
			 <trkpt lat="51.49243" lon="0.04672">
				 <ele>6.5</ele>
			 </trkpt>
			 <trkpt lat="51.49253" lon="0.04606">
				 <ele>6.2</ele>
			 </trkpt>
			 <trkpt lat="51.49256" lon="0.04578">
				 <ele>5.9</ele>
			 </trkpt>
			 <trkpt lat="51.49253" lon="0.04562">
				 <ele>5.5</ele>
			 </trkpt>
			 <trkpt lat="51.49241" lon="0.04515">
				 <ele>5.5</ele>
			 </trkpt>
			 <trkpt lat="51.49221" lon="0.04457">
				 <ele>5.5</ele>
			 </trkpt>
			 <trkpt lat="51.49177" lon="0.04344">
				 <ele>5.4</ele>
			 </trkpt>
			 <trkpt lat="51.49153" lon="0.04247">
				 <ele>5.4</ele>
			 </trkpt>
			 <trkpt lat="51.49136" lon="0.04193">
				 <ele>5.4</ele>
			 </trkpt>
			 <trkpt lat="51.49092" lon="0.04092">
				 <ele>5.4</ele>
			 </trkpt>
			 <trkpt lat="51.49063" lon="0.04039">
				 <ele>5.4</ele>
			 </trkpt>
			 <trkpt lat="51.49053" lon="0.04021">
				 <ele>5.4</ele>
			 </trkpt>
			 <trkpt lat="51.49033" lon="0.03997">
				 <ele>5.2</ele>
			 </trkpt>
			 <trkpt lat="51.49028" lon="0.03995">
				 <ele>4.9</ele>
			 </trkpt>
			 <trkpt lat="51.49024" lon="0.03991">
				 <ele>4.7</ele>
			 </trkpt>
			 <trkpt lat="51.49022" lon="0.03986">
				 <ele>4.7</ele>
			 </trkpt>
			 <trkpt lat="51.4902" lon="0.03973">
				 <ele>4.7</ele>
			 </trkpt>
			 <trkpt lat="51.49015" lon="0.03962">
				 <ele>4.8</ele>
			 </trkpt>
			 <trkpt lat="51.4899" lon="0.038855">
				 <ele>4.8</ele>
			 </trkpt>
			 <trkpt lat="51.48965" lon="0.03809">
				 <ele>4.8</ele>
			 </trkpt>
			 <trkpt lat="51.489295" lon="0.037105">
				 <ele>4.8</ele>
			 </trkpt>
			 <trkpt lat="51.48894" lon="0.03612">
				 <ele>4.7</ele>
			 </trkpt>
			 <trkpt lat="51.48873" lon="0.03532">
				 <ele>4.6</ele>
			 </trkpt>
			 <trkpt lat="51.48862" lon="0.0349">
				 <ele>4.5</ele>
			 </trkpt>
			 <trkpt lat="51.48858" lon="0.03463">
				 <ele>4.5</ele>
			 </trkpt>
			 <trkpt lat="51.48845" lon="0.0342">
				 <ele>4.4</ele>
			 </trkpt>
			 <trkpt lat="51.488237" lon="0.033097">
				 <ele>4.2</ele>
			 </trkpt>
			 <trkpt lat="51.488023" lon="0.031993">
				 <ele>4</ele>
			 </trkpt>
			 <trkpt lat="51.48781" lon="0.03089">
				 <ele>3.8</ele>
			 </trkpt>
			 <trkpt lat="51.4877" lon="0.030165">
				 <ele>3.6</ele>
			 </trkpt>
			 <trkpt lat="51.48759" lon="0.02944">
				 <ele>3.5</ele>
			 </trkpt>
			 <trkpt lat="51.48751" lon="0.02869">
				 <ele>3.3</ele>
			 </trkpt>
			 <trkpt lat="51.48752" lon="0.02858">
				 <ele>3.2</ele>
			 </trkpt>
			 <trkpt lat="51.4874" lon="0.02736">
				 <ele>3.1</ele>
			 </trkpt>
			 <trkpt lat="51.48737" lon="0.0268">
				 <ele>3</ele>
			 </trkpt>
			 <trkpt lat="51.4873" lon="0.02598">
				 <ele>3</ele>
			 </trkpt>
			 <trkpt lat="51.48722" lon="0.025215">
				 <ele>3</ele>
			 </trkpt>
			 <trkpt lat="51.48714" lon="0.02445">
				 <ele>3</ele>
			 </trkpt>
			 <trkpt lat="51.48704" lon="0.0237">
				 <ele>3</ele>
			 </trkpt>
			 <trkpt lat="51.48696" lon="0.02343">
				 <ele>3</ele>
			 </trkpt>
			 <trkpt lat="51.4868" lon="0.023">
				 <ele>3</ele>
			 </trkpt>
			 <trkpt lat="51.4867" lon="0.02269">
				 <ele>3</ele>
			 </trkpt>
			 <trkpt lat="51.48665" lon="0.02238">
				 <ele>3</ele>
			 </trkpt>
			 <trkpt lat="51.48664" lon="0.02192">
				 <ele>3</ele>
			 </trkpt>
			 <trkpt lat="51.48664" lon="0.02167">
				 <ele>3</ele>
			 </trkpt>
			 <trkpt lat="51.48673" lon="0.02052">
				 <ele>3</ele>
			 </trkpt>
			 <trkpt lat="51.48673" lon="0.01996">
				 <ele>3</ele>
			 </trkpt>
			 <trkpt lat="51.4867" lon="0.01936">
				 <ele>3</ele>
			 </trkpt>
			 <trkpt lat="51.48652" lon="0.01835">
				 <ele>3</ele>
			 </trkpt>
			 <trkpt lat="51.48637" lon="0.01818">
				 <ele>3.1</ele>
			 </trkpt>
			 <trkpt lat="51.48637" lon="0.01788">
				 <ele>3.1</ele>
			 </trkpt>
			 <trkpt lat="51.48643" lon="0.01756">
				 <ele>3.1</ele>
			 </trkpt>
			 <trkpt lat="51.48633" lon="0.0167">
				 <ele>3.1</ele>
			 </trkpt>
			 <trkpt lat="51.48634" lon="0.01645">
				 <ele>3.1</ele>
			 </trkpt>
			 <trkpt lat="51.48631" lon="0.01617">
				 <ele>3.1</ele>
			 </trkpt>
			 <trkpt lat="51.48607" lon="0.01499">
				 <ele>3.1</ele>
			 </trkpt>
			 <trkpt lat="51.48602" lon="0.01452">
				 <ele>3.1</ele>
			 </trkpt>
			 <trkpt lat="51.48602" lon="0.01413">
				 <ele>3.1</ele>
			 </trkpt>
			 <trkpt lat="51.48612" lon="0.01313">
				 <ele>3.1</ele>
			 </trkpt>
			 <trkpt lat="51.48614" lon="0.01266">
				 <ele>3.1</ele>
			 </trkpt>
			 <trkpt lat="51.48616" lon="0.0114">
				 <ele>3</ele>
			 </trkpt>
			 <trkpt lat="51.48623" lon="0.01059">
				 <ele>3.1</ele>
			 </trkpt>
			 <trkpt lat="51.48628" lon="0.00956">
				 <ele>3.1</ele>
			 </trkpt>
			 <trkpt lat="51.48629" lon="0.00895">
				 <ele>3.1</ele>
			 </trkpt>
			 <trkpt lat="51.48622" lon="0.00844">
				 <ele>3.1</ele>
			 </trkpt>
			 <trkpt lat="51.48612" lon="0.00805">
				 <ele>3.2</ele>
			 </trkpt>
			 <trkpt lat="51.48577" lon="0.00715">
				 <ele>3.3</ele>
			 </trkpt>
			 <trkpt lat="51.48542" lon="0.00598">
				 <ele>3.5</ele>
			 </trkpt>
			 <trkpt lat="51.48526" lon="0.0053">
				 <ele>3.7</ele>
			 </trkpt>
			 <trkpt lat="51.4851" lon="0.00447">
				 <ele>4</ele>
			 </trkpt>
			 <trkpt lat="51.4849" lon="0.00376">
				 <ele>4.3</ele>
			 </trkpt>
			 <trkpt lat="51.484615" lon="0.002885">
				 <ele>4.6</ele>
			 </trkpt>
			 <trkpt lat="51.48433" lon="0.00201">
				 <ele>4.9</ele>
			 </trkpt>
			 <trkpt lat="51.48391" lon="0.00089">
				 <ele>5.3</ele>
			 </trkpt>
			 <trkpt lat="51.48356" lon="-0.00027">
				 <ele>5.6</ele>
			 </trkpt>
			 <trkpt lat="51.48341" lon="-0.00084">
				 <ele>6</ele>
			 </trkpt>
			 <trkpt lat="51.48318" lon="-0.00198">
				 <ele>6.3</ele>
			 </trkpt>
			 <trkpt lat="51.48297" lon="-0.00276">
				 <ele>6.5</ele>
			 </trkpt>
			 <trkpt lat="51.482605" lon="-0.003845">
				 <ele>6.7</ele>
			 </trkpt>
			 <trkpt lat="51.48224" lon="-0.00493">
				 <ele>6.8</ele>
			 </trkpt>
			 <trkpt lat="51.481875" lon="-0.006015">
				 <ele>6.8</ele>
			 </trkpt>
			 <trkpt lat="51.48151" lon="-0.0071">
				 <ele>6.8</ele>
			 </trkpt>
			 <trkpt lat="51.48132" lon="-0.00765">
				 <ele>6.7</ele>
			 </trkpt>
			 <trkpt lat="51.48126" lon="-0.00784">
				 <ele>6.5</ele>
			 </trkpt>
			 <trkpt lat="51.48128" lon="-0.00802">
				 <ele>6.4</ele>
			 </trkpt>
			 <trkpt lat="51.48152" lon="-0.00835">
				 <ele>6.2</ele>
			 </trkpt>
			 <trkpt lat="51.48212" lon="-0.00885">
				 <ele>6</ele>
			 </trkpt>
			 <trkpt lat="51.48221" lon="-0.00889">
				 <ele>5.8</ele>
			 </trkpt>
			 <trkpt lat="51.482705" lon="-0.00924">
				 <ele>5.6</ele>
			 </trkpt>
			 <trkpt lat="51.4832" lon="-0.00959">
				 <ele>5.5</ele>
			 </trkpt>
			 <trkpt lat="51.48316" lon="-0.00987">
				 <ele>5.3</ele>
			 </trkpt>
			 <trkpt lat="51.48262" lon="-0.00982">
				 <ele>5.1</ele>
			 </trkpt>
			 <trkpt lat="51.48202" lon="-0.01008">
				 <ele>4.9</ele>
			 </trkpt>
			 <trkpt lat="51.48165" lon="-0.01013">
				 <ele>4.7</ele>
			 </trkpt>
			 <trkpt lat="51.48152" lon="-0.01017">
				 <ele>4.7</ele>
			 </trkpt>
			 <trkpt lat="51.48144" lon="-0.01032">
				 <ele>4.9</ele>
			 </trkpt>
			 <trkpt lat="51.48143" lon="-0.01108">
				 <ele>5.1</ele>
			 </trkpt>
			 <trkpt lat="51.481427" lon="-0.01228">
				 <ele>5.3</ele>
			 </trkpt>
			 <trkpt lat="51.481423" lon="-0.01347">
				 <ele>5.3</ele>
			 </trkpt>
			 <trkpt lat="51.48142" lon="-0.01466">
				 <ele>5.2</ele>
			 </trkpt>
			 <trkpt lat="51.48137" lon="-0.01579">
				 <ele>5.1</ele>
			 </trkpt>
			 <trkpt lat="51.48134" lon="-0.01591">
				 <ele>5</ele>
			 </trkpt>
			 <trkpt lat="51.481335" lon="-0.016645">
				 <ele>5</ele>
			 </trkpt>
			 <trkpt lat="51.48133" lon="-0.01738">
				 <ele>5</ele>
			 </trkpt>
			 <trkpt lat="51.48125" lon="-0.01843">
				 <ele>5</ele>
			 </trkpt>
			 <trkpt lat="51.48117" lon="-0.01916">
				 <ele>5</ele>
			 </trkpt>
			 <trkpt lat="51.48113" lon="-0.01927">
				 <ele>4.9</ele>
			 </trkpt>
			 <trkpt lat="51.48111" lon="-0.01947">
				 <ele>4.8</ele>
			 </trkpt>
			 <trkpt lat="51.48113" lon="-0.01954">
				 <ele>4.7</ele>
			 </trkpt>
			 <trkpt lat="51.481013" lon="-0.020577">
				 <ele>4.8</ele>
			 </trkpt>
			 <trkpt lat="51.480897" lon="-0.021613">
				 <ele>5</ele>
			 </trkpt>
			 <trkpt lat="51.48078" lon="-0.02265">
				 <ele>5.2</ele>
			 </trkpt>
			 <trkpt lat="51.48079" lon="-0.02269">
				 <ele>5.4</ele>
			 </trkpt>
			 <trkpt lat="51.48083" lon="-0.02347">
				 <ele>5.5</ele>
			 </trkpt>
			 <trkpt lat="51.48116" lon="-0.0248">
				 <ele>5.6</ele>
			 </trkpt>
			 <trkpt lat="51.48132" lon="-0.02547">
				 <ele>5.7</ele>
			 </trkpt>
			 <trkpt lat="51.4815" lon="-0.02635">
				 <ele>5.7</ele>
			 </trkpt>
			 <trkpt lat="51.4817" lon="-0.02709">
				 <ele>5.6</ele>
			 </trkpt>
			 <trkpt lat="51.4818" lon="-0.02741">
				 <ele>5.5</ele>
			 </trkpt>
			 <trkpt lat="51.48205" lon="-0.02806">
				 <ele>5.3</ele>
			 </trkpt>
			 <trkpt lat="51.48256" lon="-0.02922">
				 <ele>5</ele>
			 </trkpt>
			 <trkpt lat="51.48295" lon="-0.03">
				 <ele>4.7</ele>
			 </trkpt>
			 <trkpt lat="51.48334" lon="-0.03078">
				 <ele>4.5</ele>
			 </trkpt>
			 <trkpt lat="51.48381" lon="-0.031755">
				 <ele>4.5</ele>
			 </trkpt>
			 <trkpt lat="51.48428" lon="-0.03273">
				 <ele>4.4</ele>
			 </trkpt>
			 <trkpt lat="51.48485" lon="-0.03346">
				 <ele>4.3</ele>
			 </trkpt>
			 <trkpt lat="51.48542" lon="-0.03419">
				 <ele>4.1</ele>
			 </trkpt>
			 <trkpt lat="51.48571" lon="-0.03459">
				 <ele>3.9</ele>
			 </trkpt>
			 <trkpt lat="51.48606" lon="-0.035065">
				 <ele>3.7</ele>
			 </trkpt>
			 <trkpt lat="51.48641" lon="-0.03554">
				 <ele>3.6</ele>
			 </trkpt>
			 <trkpt lat="51.48679" lon="-0.03616">
				 <ele>3.5</ele>
			 </trkpt>
			 <trkpt lat="51.48718" lon="-0.0369">
				 <ele>3.4</ele>
			 </trkpt>
			 <trkpt lat="51.48757" lon="-0.03764">
				 <ele>3.3</ele>
			 </trkpt>
			 <trkpt lat="51.48767" lon="-0.03778">
				 <ele>3.1</ele>
			 </trkpt>
			 <trkpt lat="51.48777" lon="-0.03802">
				 <ele>2.8</ele>
			 </trkpt>
			 <trkpt lat="51.488177" lon="-0.03882">
				 <ele>2.5</ele>
			 </trkpt>
			 <trkpt lat="51.488583" lon="-0.03962">
				 <ele>2.4</ele>
			 </trkpt>
			 <trkpt lat="51.48899" lon="-0.04042">
				 <ele>2.3</ele>
			 </trkpt>
			 <trkpt lat="51.48916" lon="-0.04074">
				 <ele>2.2</ele>
			 </trkpt>
			 <trkpt lat="51.48965" lon="-0.04158">
				 <ele>2.1</ele>
			 </trkpt>
			 <trkpt lat="51.48997" lon="-0.04208">
				 <ele>2</ele>
			 </trkpt>
			 <trkpt lat="51.49003" lon="-0.04211">
				 <ele>2</ele>
			 </trkpt>
			 <trkpt lat="51.49011" lon="-0.04225">
				 <ele>2</ele>
			 </trkpt>
			 <trkpt lat="51.49014" lon="-0.04234">
				 <ele>2</ele>
			 </trkpt>
			 <trkpt lat="51.4903" lon="-0.04258">
				 <ele>2</ele>
			 </trkpt>
			 <trkpt lat="51.49096" lon="-0.04354">
				 <ele>2</ele>
			 </trkpt>
			 <trkpt lat="51.491335" lon="-0.04407">
				 <ele>2</ele>
			 </trkpt>
			 <trkpt lat="51.49171" lon="-0.0446">
				 <ele>2.1</ele>
			 </trkpt>
			 <trkpt lat="51.4919" lon="-0.04484">
				 <ele>2.2</ele>
			 </trkpt>
			 <trkpt lat="51.49194" lon="-0.04497">
				 <ele>2.3</ele>
			 </trkpt>
			 <trkpt lat="51.49198" lon="-0.04497">
				 <ele>2.5</ele>
			 </trkpt>
			 <trkpt lat="51.49254" lon="-0.04605">
				 <ele>2.8</ele>
			 </trkpt>
			 <trkpt lat="51.49298" lon="-0.04677">
				 <ele>3.3</ele>
			 </trkpt>
			 <trkpt lat="51.49311" lon="-0.04675">
				 <ele>3.8</ele>
			 </trkpt>
			 <trkpt lat="51.49324" lon="-0.04664">
				 <ele>4.4</ele>
			 </trkpt>
			 <trkpt lat="51.49367" lon="-0.0456">
				 <ele>4.8</ele>
			 </trkpt>
			 <trkpt lat="51.49381" lon="-0.04538">
				 <ele>5.2</ele>
			 </trkpt>
			 <trkpt lat="51.49412" lon="-0.04501">
				 <ele>5.5</ele>
			 </trkpt>
			 <trkpt lat="51.49453" lon="-0.04467">
				 <ele>5.7</ele>
			 </trkpt>
			 <trkpt lat="51.49457" lon="-0.04464">
				 <ele>5.9</ele>
			 </trkpt>
			 <trkpt lat="51.49477" lon="-0.04454">
				 <ele>6.1</ele>
			 </trkpt>
			 <trkpt lat="51.49491" lon="-0.04452">
				 <ele>6.1</ele>
			 </trkpt>
			 <trkpt lat="51.495" lon="-0.04474">
				 <ele>6.1</ele>
			 </trkpt>
			 <trkpt lat="51.49504" lon="-0.04509">
				 <ele>6</ele>
			 </trkpt>
			 <trkpt lat="51.49508" lon="-0.0452">
				 <ele>5.8</ele>
			 </trkpt>
			 <trkpt lat="51.49516" lon="-0.04536">
				 <ele>5.6</ele>
			 </trkpt>
			 <trkpt lat="51.49527" lon="-0.04549">
				 <ele>5.5</ele>
			 </trkpt>
			 <trkpt lat="51.49555" lon="-0.04583">
				 <ele>5.5</ele>
			 </trkpt>
			 <trkpt lat="51.49569" lon="-0.04592">
				 <ele>5.5</ele>
			 </trkpt>
			 <trkpt lat="51.49605" lon="-0.04604">
				 <ele>5.6</ele>
			 </trkpt>
			 <trkpt lat="51.49618" lon="-0.04605">
				 <ele>5.7</ele>
			 </trkpt>
			 <trkpt lat="51.49638" lon="-0.046">
				 <ele>5.8</ele>
			 </trkpt>
			 <trkpt lat="51.49676" lon="-0.04585">
				 <ele>5.9</ele>
			 </trkpt>
			 <trkpt lat="51.4974" lon="-0.04574">
				 <ele>6</ele>
			 </trkpt>
			 <trkpt lat="51.49749" lon="-0.04574">
				 <ele>6</ele>
			 </trkpt>
			 <trkpt lat="51.49769" lon="-0.04579">
				 <ele>6</ele>
			 </trkpt>
			 <trkpt lat="51.49782" lon="-0.04588">
				 <ele>6</ele>
			 </trkpt>
			 <trkpt lat="51.49779" lon="-0.04586">
				 <ele>6</ele>
			 </trkpt>
			 <trkpt lat="51.49812" lon="-0.04599">
				 <ele>6</ele>
			 </trkpt>
			 <trkpt lat="51.49841" lon="-0.0457">
				 <ele>6</ele>
			 </trkpt>
			 <trkpt lat="51.49851" lon="-0.04558">
				 <ele>6</ele>
			 </trkpt>
			 <trkpt lat="51.49883" lon="-0.04544">
				 <ele>6</ele>
			 </trkpt>
			 <trkpt lat="51.49908" lon="-0.04527">
				 <ele>6</ele>
			 </trkpt>
			 <trkpt lat="51.49937" lon="-0.04492">
				 <ele>6</ele>
			 </trkpt>
			 <trkpt lat="51.49946" lon="-0.04465">
				 <ele>5.9</ele>
			 </trkpt>
			 <trkpt lat="51.49943" lon="-0.04439">
				 <ele>5.8</ele>
			 </trkpt>
			 <trkpt lat="51.499135" lon="-0.043615">
				 <ele>5.7</ele>
			 </trkpt>
			 <trkpt lat="51.49884" lon="-0.04284">
				 <ele>5.6</ele>
			 </trkpt>
			 <trkpt lat="51.49844" lon="-0.04184">
				 <ele>5.6</ele>
			 </trkpt>
			 <trkpt lat="51.49841" lon="-0.04179">
				 <ele>5.6</ele>
			 </trkpt>
			 <trkpt lat="51.49813" lon="-0.04151">
				 <ele>5.6</ele>
			 </trkpt>
			 <trkpt lat="51.49736" lon="-0.041335">
				 <ele>5.6</ele>
			 </trkpt>
			 <trkpt lat="51.49659" lon="-0.04116">
				 <ele>5.6</ele>
			 </trkpt>
			 <trkpt lat="51.49628" lon="-0.04095">
				 <ele>5.7</ele>
			 </trkpt>
			 <trkpt lat="51.49628" lon="-0.04044">
				 <ele>5.7</ele>
			 </trkpt>
			 <trkpt lat="51.49629" lon="-0.0404">
				 <ele>5.8</ele>
			 </trkpt>
			 <trkpt lat="51.49639" lon="-0.03998">
				 <ele>5.8</ele>
			 </trkpt>
			 <trkpt lat="51.49656" lon="-0.03948">
				 <ele>5.8</ele>
			 </trkpt>
			 <trkpt lat="51.4968" lon="-0.03895">
				 <ele>5.7</ele>
			 </trkpt>
			 <trkpt lat="51.49732" lon="-0.03805">
				 <ele>5.5</ele>
			 </trkpt>
			 <trkpt lat="51.49777" lon="-0.03736">
				 <ele>5.3</ele>
			 </trkpt>
			 <trkpt lat="51.4983" lon="-0.03656">
				 <ele>5</ele>
			 </trkpt>
			 <trkpt lat="51.49866" lon="-0.03607">
				 <ele>4.7</ele>
			 </trkpt>
			 <trkpt lat="51.49893" lon="-0.03575">
				 <ele>4.4</ele>
			 </trkpt>
			 <trkpt lat="51.49907" lon="-0.03565">
				 <ele>3.9</ele>
			 </trkpt>
			 <trkpt lat="51.49963" lon="-0.03539">
				 <ele>3.6</ele>
			 </trkpt>
			 <trkpt lat="51.49981" lon="-0.03535">
				 <ele>3.4</ele>
			 </trkpt>
			 <trkpt lat="51.50012" lon="-0.03533">
				 <ele>3.3</ele>
			 </trkpt>
			 <trkpt lat="51.50054" lon="-0.03536">
				 <ele>3.4</ele>
			 </trkpt>
			 <trkpt lat="51.50081" lon="-0.0354">
				 <ele>3.5</ele>
			 </trkpt>
			 <trkpt lat="51.50148" lon="-0.03557">
				 <ele>3.7</ele>
			 </trkpt>
			 <trkpt lat="51.50194" lon="-0.03567">
				 <ele>4</ele>
			 </trkpt>
			 <trkpt lat="51.50242" lon="-0.03574">
				 <ele>4.2</ele>
			 </trkpt>
			 <trkpt lat="51.50331" lon="-0.03592">
				 <ele>4.4</ele>
			 </trkpt>
			 <trkpt lat="51.50383" lon="-0.03606">
				 <ele>4.6</ele>
			 </trkpt>
			 <trkpt lat="51.50416" lon="-0.03618">
				 <ele>4.9</ele>
			 </trkpt>
			 <trkpt lat="51.50435" lon="-0.03628">
				 <ele>5.1</ele>
			 </trkpt>
			 <trkpt lat="51.50453" lon="-0.03642">
				 <ele>5.3</ele>
			 </trkpt>
			 <trkpt lat="51.50487" lon="-0.03676">
				 <ele>5.5</ele>
			 </trkpt>
			 <trkpt lat="51.5051" lon="-0.03714">
				 <ele>5.5</ele>
			 </trkpt>
			 <trkpt lat="51.50527" lon="-0.03747">
				 <ele>5.5</ele>
			 </trkpt>
			 <trkpt lat="51.50543" lon="-0.03794">
				 <ele>5.5</ele>
			 </trkpt>
			 <trkpt lat="51.50552" lon="-0.03828">
				 <ele>5.5</ele>
			 </trkpt>
			 <trkpt lat="51.50563" lon="-0.03897">
				 <ele>5.5</ele>
			 </trkpt>
			 <trkpt lat="51.50566" lon="-0.03935">
				 <ele>5.6</ele>
			 </trkpt>
			 <trkpt lat="51.50565" lon="-0.04018">
				 <ele>5.7</ele>
			 </trkpt>
			 <trkpt lat="51.50561" lon="-0.041">
				 <ele>5.8</ele>
			 </trkpt>
			 <trkpt lat="51.50555" lon="-0.04162">
				 <ele>5.9</ele>
			 </trkpt>
			 <trkpt lat="51.50551" lon="-0.04187">
				 <ele>5.9</ele>
			 </trkpt>
			 <trkpt lat="51.50539" lon="-0.04263">
				 <ele>5.8</ele>
			 </trkpt>
			 <trkpt lat="51.50517" lon="-0.04358">
				 <ele>5.7</ele>
			 </trkpt>
			 <trkpt lat="51.50505" lon="-0.04401">
				 <ele>5.7</ele>
			 </trkpt>
			 <trkpt lat="51.50489" lon="-0.04452">
				 <ele>5.7</ele>
			 </trkpt>
			 <trkpt lat="51.50464" lon="-0.04517">
				 <ele>5.5</ele>
			 </trkpt>
			 <trkpt lat="51.50437" lon="-0.04579">
				 <ele>5.3</ele>
			 </trkpt>
			 <trkpt lat="51.50387" lon="-0.04668">
				 <ele>5</ele>
			 </trkpt>
			 <trkpt lat="51.50355" lon="-0.04722">
				 <ele>4.7</ele>
			 </trkpt>
			 <trkpt lat="51.50323" lon="-0.04776">
				 <ele>4.4</ele>
			 </trkpt>
			 <trkpt lat="51.502805" lon="-0.04844">
				 <ele>4</ele>
			 </trkpt>
			 <trkpt lat="51.50238" lon="-0.04912">
				 <ele>3.7</ele>
			 </trkpt>
			 <trkpt lat="51.50178" lon="-0.05011">
				 <ele>3.5</ele>
			 </trkpt>
			 <trkpt lat="51.5013" lon="-0.05078">
				 <ele>3.3</ele>
			 </trkpt>
			 <trkpt lat="51.500895" lon="-0.05153">
				 <ele>3</ele>
			 </trkpt>
			 <trkpt lat="51.50049" lon="-0.05228">
				 <ele>2.7</ele>
			 </trkpt>
			 <trkpt lat="51.50016" lon="-0.0529">
				 <ele>2.6</ele>
			 </trkpt>
			 <trkpt lat="51.49983" lon="-0.05352">
				 <ele>2.6</ele>
			 </trkpt>
			 <trkpt lat="51.49963" lon="-0.05393">
				 <ele>2.6</ele>
			 </trkpt>
			 <trkpt lat="51.49958" lon="-0.05406">
				 <ele>2.6</ele>
			 </trkpt>
			 <trkpt lat="51.49953" lon="-0.05444">
				 <ele>2.7</ele>
			 </trkpt>
			 <trkpt lat="51.49953" lon="-0.05455">
				 <ele>2.9</ele>
			 </trkpt>
			 <trkpt lat="51.49953" lon="-0.05441">
				 <ele>3</ele>
			 </trkpt>
			 <trkpt lat="51.49956" lon="-0.05501">
				 <ele>3.2</ele>
			 </trkpt>
			 <trkpt lat="51.49948" lon="-0.05517">
				 <ele>3.3</ele>
			 </trkpt>
			 <trkpt lat="51.49918" lon="-0.05536">
				 <ele>3.4</ele>
			 </trkpt>
			 <trkpt lat="51.499" lon="-0.05612">
				 <ele>3.5</ele>
			 </trkpt>
			 <trkpt lat="51.49899" lon="-0.05727">
				 <ele>3.5</ele>
			 </trkpt>
			 <trkpt lat="51.498887" lon="-0.058313">
				 <ele>3.6</ele>
			 </trkpt>
			 <trkpt lat="51.498783" lon="-0.059347">
				 <ele>3.6</ele>
			 </trkpt>
			 <trkpt lat="51.49868" lon="-0.06038">
				 <ele>3.6</ele>
			 </trkpt>
			 <trkpt lat="51.49867" lon="-0.06044">
				 <ele>3.6</ele>
			 </trkpt>
			 <trkpt lat="51.4986" lon="-0.06057">
				 <ele>3.5</ele>
			 </trkpt>
			 <trkpt lat="51.49858" lon="-0.06067">
				 <ele>3.5</ele>
			 </trkpt>
			 <trkpt lat="51.49856" lon="-0.06101">
				 <ele>3.5</ele>
			 </trkpt>
			 <trkpt lat="51.49851" lon="-0.06135">
				 <ele>3.4</ele>
			 </trkpt>
			 <trkpt lat="51.49835" lon="-0.062595">
				 <ele>3.4</ele>
			 </trkpt>
			 <trkpt lat="51.49819" lon="-0.06384">
				 <ele>3.4</ele>
			 </trkpt>
			 <trkpt lat="51.49804" lon="-0.06493">
				 <ele>3.4</ele>
			 </trkpt>
			 <trkpt lat="51.498" lon="-0.06565">
				 <ele>3.4</ele>
			 </trkpt>
			 <trkpt lat="51.49796" lon="-0.06637">
				 <ele>3.5</ele>
			 </trkpt>
			 <trkpt lat="51.49796" lon="-0.06626">
				 <ele>3.5</ele>
			 </trkpt>
			 <trkpt lat="51.49796" lon="-0.06648">
				 <ele>3.5</ele>
			 </trkpt>
			 <trkpt lat="51.49799" lon="-0.06665">
				 <ele>3.5</ele>
			 </trkpt>
			 <trkpt lat="51.49798" lon="-0.06691">
				 <ele>3.5</ele>
			 </trkpt>
			 <trkpt lat="51.49801" lon="-0.0673">
				 <ele>3.5</ele>
			 </trkpt>
			 <trkpt lat="51.49805" lon="-0.06761">
				 <ele>3.5</ele>
			 </trkpt>
			 <trkpt lat="51.49829" lon="-0.06879">
				 <ele>3.5</ele>
			 </trkpt>
			 <trkpt lat="51.49836" lon="-0.06894">
				 <ele>3.4</ele>
			 </trkpt>
			 <trkpt lat="51.49857" lon="-0.06962">
				 <ele>3.4</ele>
			 </trkpt>
			 <trkpt lat="51.4988" lon="-0.07019">
				 <ele>3.4</ele>
			 </trkpt>
			 <trkpt lat="51.49895" lon="-0.07065">
				 <ele>3.4</ele>
			 </trkpt>
			 <trkpt lat="51.49908" lon="-0.07094">
				 <ele>3.4</ele>
			 </trkpt>
			 <trkpt lat="51.49946" lon="-0.07169">
				 <ele>3.5</ele>
			 </trkpt>
			 <trkpt lat="51.49994" lon="-0.07249">
				 <ele>3.6</ele>
			 </trkpt>
			 <trkpt lat="51.50001" lon="-0.07256">
				 <ele>3.7</ele>
			 </trkpt>
			 <trkpt lat="51.50011" lon="-0.07275">
				 <ele>3.8</ele>
			 </trkpt>
			 <trkpt lat="51.50016" lon="-0.07288">
				 <ele>3.9</ele>
			 </trkpt>
			 <trkpt lat="51.50029" lon="-0.0734">
				 <ele>4</ele>
			 </trkpt>
			 <trkpt lat="51.50044" lon="-0.07385">
				 <ele>4.1</ele>
			 </trkpt>
			 <trkpt lat="51.50045" lon="-0.07398">
				 <ele>4.1</ele>
			 </trkpt>
			 <trkpt lat="51.50053" lon="-0.07428">
				 <ele>4.1</ele>
			 </trkpt>
			 <trkpt lat="51.50071" lon="-0.07461">
				 <ele>4.1</ele>
			 </trkpt>
			 <trkpt lat="51.50105" lon="-0.075305">
				 <ele>4.2</ele>
			 </trkpt>
			 <trkpt lat="51.50139" lon="-0.076">
				 <ele>4.3</ele>
			 </trkpt>
			 <trkpt lat="51.50158" lon="-0.07633">
				 <ele>4.5</ele>
			 </trkpt>
			 <trkpt lat="51.50199" lon="-0.07697">
				 <ele>4.7</ele>
			 </trkpt>
			 <trkpt lat="51.50202" lon="-0.07701">
				 <ele>5</ele>
			 </trkpt>
			 <trkpt lat="51.50235" lon="-0.07734">
				 <ele>5.5</ele>
			 </trkpt>
			 <trkpt lat="51.50281" lon="-0.07712">
				 <ele>5.9</ele>
			 </trkpt>
			 <trkpt lat="51.50278" lon="-0.07714">
				 <ele>6.5</ele>
			 </trkpt>
			 <trkpt lat="51.50291" lon="-0.07707">
				 <ele>7.1</ele>
			 </trkpt>
			 <trkpt lat="51.50302" lon="-0.07704">
				 <ele>8</ele>
			 </trkpt>
			 <trkpt lat="51.50369" lon="-0.07659">
				 <ele>8.9</ele>
			 </trkpt>
			 <trkpt lat="51.5039" lon="-0.07645">
				 <ele>9.5</ele>
			 </trkpt>
			 <trkpt lat="51.50383" lon="-0.0765">
				 <ele>10.1</ele>
			 </trkpt>
			 <trkpt lat="51.50456" lon="-0.076008">
				 <ele>10.6</ele>
			 </trkpt>
			 <trkpt lat="51.50529" lon="-0.075515">
				 <ele>11</ele>
			 </trkpt>
			 <trkpt lat="51.50602" lon="-0.075023">
				 <ele>11.3</ele>
			 </trkpt>
			 <trkpt lat="51.50675" lon="-0.07453">
				 <ele>11.4</ele>
			 </trkpt>
			 <trkpt lat="51.50697" lon="-0.07439">
				 <ele>11.5</ele>
			 </trkpt>
			 <trkpt lat="51.50701" lon="-0.07434">
				 <ele>11.5</ele>
			 </trkpt>
			 <trkpt lat="51.50711" lon="-0.07427">
				 <ele>11.6</ele>
			 </trkpt>
			 <trkpt lat="51.50714" lon="-0.07427">
				 <ele>11.5</ele>
			 </trkpt>
			 <trkpt lat="51.5077" lon="-0.0742">
				 <ele>11.1</ele>
			 </trkpt>
			 <trkpt lat="51.50835" lon="-0.07405">
				 <ele>10.8</ele>
			 </trkpt>
			 <trkpt lat="51.50867" lon="-0.07398">
				 <ele>10.5</ele>
			 </trkpt>
			 <trkpt lat="51.50892" lon="-0.0738">
				 <ele>10.3</ele>
			 </trkpt>
			 <trkpt lat="51.50901" lon="-0.07367">
				 <ele>10</ele>
			 </trkpt>
			 <trkpt lat="51.5086" lon="-0.07246">
				 <ele>9.8</ele>
			 </trkpt>
			 <trkpt lat="51.5083" lon="-0.07149">
				 <ele>9.7</ele>
			 </trkpt>
			 <trkpt lat="51.5083" lon="-0.07105">
				 <ele>9.6</ele>
			 </trkpt>
			 <trkpt lat="51.50849" lon="-0.06976">
				 <ele>9.4</ele>
			 </trkpt>
			 <trkpt lat="51.50862" lon="-0.0691">
				 <ele>9</ele>
			 </trkpt>
			 <trkpt lat="51.50877" lon="-0.06856">
				 <ele>8.5</ele>
			 </trkpt>
			 <trkpt lat="51.50897" lon="-0.067905">
				 <ele>8.4</ele>
			 </trkpt>
			 <trkpt lat="51.50917" lon="-0.06725">
				 <ele>8.4</ele>
			 </trkpt>
			 <trkpt lat="51.50934" lon="-0.06627">
				 <ele>8.4</ele>
			 </trkpt>
			 <trkpt lat="51.50933" lon="-0.0658">
				 <ele>8.5</ele>
			 </trkpt>
			 <trkpt lat="51.50929" lon="-0.06519">
				 <ele>8.6</ele>
			 </trkpt>
			 <trkpt lat="51.50928" lon="-0.06479">
				 <ele>8.7</ele>
			 </trkpt>
			 <trkpt lat="51.509285" lon="-0.064045">
				 <ele>8.7</ele>
			 </trkpt>
			 <trkpt lat="51.50929" lon="-0.0633">
				 <ele>8.7</ele>
			 </trkpt>
			 <trkpt lat="51.509335" lon="-0.06202">
				 <ele>8.8</ele>
			 </trkpt>
			 <trkpt lat="51.50938" lon="-0.06074">
				 <ele>8.9</ele>
			 </trkpt>
			 <trkpt lat="51.509495" lon="-0.05956">
				 <ele>9.1</ele>
			 </trkpt>
			 <trkpt lat="51.50961" lon="-0.05838">
				 <ele>9.2</ele>
			 </trkpt>
			 <trkpt lat="51.50964" lon="-0.05807">
				 <ele>9.3</ele>
			 </trkpt>
			 <trkpt lat="51.50966" lon="-0.05787">
				 <ele>9.5</ele>
			 </trkpt>
			 <trkpt lat="51.50969" lon="-0.0576">
				 <ele>9.5</ele>
			 </trkpt>
			 <trkpt lat="51.5097" lon="-0.05669">
				 <ele>9.5</ele>
			 </trkpt>
			 <trkpt lat="51.50965" lon="-0.055965">
				 <ele>9.5</ele>
			 </trkpt>
			 <trkpt lat="51.5096" lon="-0.05524">
				 <ele>9.6</ele>
			 </trkpt>
			 <trkpt lat="51.5096" lon="-0.05394">
				 <ele>9.7</ele>
			 </trkpt>
			 <trkpt lat="51.509635" lon="-0.053185">
				 <ele>9.8</ele>
			 </trkpt>
			 <trkpt lat="51.50967" lon="-0.05243">
				 <ele>9.9</ele>
			 </trkpt>
			 <trkpt lat="51.50973" lon="-0.05133">
				 <ele>10.1</ele>
			 </trkpt>
			 <trkpt lat="51.50971" lon="-0.05092">
				 <ele>10.2</ele>
			 </trkpt>
			 <trkpt lat="51.50974" lon="-0.05055">
				 <ele>10.2</ele>
			 </trkpt>
			 <trkpt lat="51.50972" lon="-0.05032">
				 <ele>10</ele>
			 </trkpt>
			 <trkpt lat="51.50977" lon="-0.04992">
				 <ele>9.8</ele>
			 </trkpt>
			 <trkpt lat="51.50977" lon="-0.04916">
				 <ele>9.5</ele>
			 </trkpt>
			 <trkpt lat="51.50977" lon="-0.04802">
				 <ele>9.4</ele>
			 </trkpt>
			 <trkpt lat="51.50977" lon="-0.04757">
				 <ele>9.1</ele>
			 </trkpt>
			 <trkpt lat="51.50989" lon="-0.04693">
				 <ele>8.8</ele>
			 </trkpt>
			 <trkpt lat="51.51016" lon="-0.04595">
				 <ele>8.5</ele>
			 </trkpt>
			 <trkpt lat="51.51025" lon="-0.04477">
				 <ele>8.1</ele>
			 </trkpt>
			 <trkpt lat="51.51034" lon="-0.04359">
				 <ele>7.7</ele>
			 </trkpt>
			 <trkpt lat="51.51049" lon="-0.04218">
				 <ele>7.4</ele>
			 </trkpt>
			 <trkpt lat="51.51046" lon="-0.04183">
				 <ele>7</ele>
			 </trkpt>
			 <trkpt lat="51.51016" lon="-0.04166">
				 <ele>6.8</ele>
			 </trkpt>
			 <trkpt lat="51.5101" lon="-0.04128">
				 <ele>6.7</ele>
			 </trkpt>
			 <trkpt lat="51.51007" lon="-0.04053">
				 <ele>6.6</ele>
			 </trkpt>
			 <trkpt lat="51.50997" lon="-0.03914">
				 <ele>6.4</ele>
			 </trkpt>
			 <trkpt lat="51.50993" lon="-0.03866">
				 <ele>6.2</ele>
			 </trkpt>
			 <trkpt lat="51.50982" lon="-0.03788">
				 <ele>6</ele>
			 </trkpt>
			 <trkpt lat="51.50967" lon="-0.03699">
				 <ele>5.9</ele>
			 </trkpt>
			 <trkpt lat="51.50943" lon="-0.03582">
				 <ele>5.8</ele>
			 </trkpt>
			 <trkpt lat="51.50929" lon="-0.03498">
				 <ele>5.6</ele>
			 </trkpt>
			 <trkpt lat="51.50895" lon="-0.03378">
				 <ele>5.5</ele>
			 </trkpt>
			 <trkpt lat="51.508805" lon="-0.03303">
				 <ele>5.5</ele>
			 </trkpt>
			 <trkpt lat="51.50866" lon="-0.03228">
				 <ele>5.3</ele>
			 </trkpt>
			 <trkpt lat="51.50864" lon="-0.03205">
				 <ele>5</ele>
			 </trkpt>
			 <trkpt lat="51.50865" lon="-0.03171">
				 <ele>4.8</ele>
			 </trkpt>
			 <trkpt lat="51.5087" lon="-0.03141">
				 <ele>4.7</ele>
			 </trkpt>
			 <trkpt lat="51.50904" lon="-0.03035">
				 <ele>4.6</ele>
			 </trkpt>
			 <trkpt lat="51.50915" lon="-0.02986">
				 <ele>4.5</ele>
			 </trkpt>
			 <trkpt lat="51.50931" lon="-0.02872">
				 <ele>4.3</ele>
			 </trkpt>
			 <trkpt lat="51.50926" lon="-0.02799">
				 <ele>4.1</ele>
			 </trkpt>
			 <trkpt lat="51.50925" lon="-0.02743">
				 <ele>4</ele>
			 </trkpt>
			 <trkpt lat="51.50936" lon="-0.02694">
				 <ele>3.9</ele>
			 </trkpt>
			 <trkpt lat="51.5091" lon="-0.0268">
				 <ele>3.8</ele>
			 </trkpt>
			 <trkpt lat="51.5089" lon="-0.02683">
				 <ele>3.7</ele>
			 </trkpt>
			 <trkpt lat="51.50851" lon="-0.0271">
				 <ele>3.7</ele>
			 </trkpt>
			 <trkpt lat="51.50839" lon="-0.02719">
				 <ele>3.7</ele>
			 </trkpt>
			 <trkpt lat="51.50792" lon="-0.02736">
				 <ele>3.7</ele>
			 </trkpt>
			 <trkpt lat="51.50785" lon="-0.02729">
				 <ele>3.8</ele>
			 </trkpt>
			 <trkpt lat="51.50775" lon="-0.02731">
				 <ele>4</ele>
			 </trkpt>
			 <trkpt lat="51.5077" lon="-0.02745">
				 <ele>4.3</ele>
			 </trkpt>
			 <trkpt lat="51.50751" lon="-0.02753">
				 <ele>4.6</ele>
			 </trkpt>
			 <trkpt lat="51.50737" lon="-0.02755">
				 <ele>5.2</ele>
			 </trkpt>
			 <trkpt lat="51.50712" lon="-0.02756">
				 <ele>5.7</ele>
			 </trkpt>
			 <trkpt lat="51.5069" lon="-0.02752">
				 <ele>6.3</ele>
			 </trkpt>
			 <trkpt lat="51.50677" lon="-0.02748">
				 <ele>6.8</ele>
			 </trkpt>
			 <trkpt lat="51.50635" lon="-0.02732">
				 <ele>6.7</ele>
			 </trkpt>
			 <trkpt lat="51.50568" lon="-0.02734">
				 <ele>6.8</ele>
			 </trkpt>
			 <trkpt lat="51.5055" lon="-0.0272">
				 <ele>6.9</ele>
			 </trkpt>
			 <trkpt lat="51.50543" lon="-0.02694">
				 <ele>6.9</ele>
			 </trkpt>
			 <trkpt lat="51.50541" lon="-0.02655">
				 <ele>6.9</ele>
			 </trkpt>
			 <trkpt lat="51.50507" lon="-0.02636">
				 <ele>6.8</ele>
			 </trkpt>
			 <trkpt lat="51.50513" lon="-0.02642">
				 <ele>6.7</ele>
			 </trkpt>
			 <trkpt lat="51.50474" lon="-0.02594">
				 <ele>6.4</ele>
			 </trkpt>
			 <trkpt lat="51.50454" lon="-0.02578">
				 <ele>6</ele>
			 </trkpt>
			 <trkpt lat="51.5044" lon="-0.02571">
				 <ele>5.6</ele>
			 </trkpt>
			 <trkpt lat="51.50422" lon="-0.02567">
				 <ele>5.3</ele>
			 </trkpt>
			 <trkpt lat="51.50381" lon="-0.02568">
				 <ele>5.5</ele>
			 </trkpt>
			 <trkpt lat="51.50355" lon="-0.02567">
				 <ele>5.5</ele>
			 </trkpt>
			 <trkpt lat="51.50337" lon="-0.02575">
				 <ele>5.5</ele>
			 </trkpt>
			 <trkpt lat="51.50333" lon="-0.02575">
				 <ele>5.3</ele>
			 </trkpt>
			 <trkpt lat="51.50323" lon="-0.0257">
				 <ele>5.1</ele>
			 </trkpt>
			 <trkpt lat="51.50318" lon="-0.0257">
				 <ele>4.9</ele>
			 </trkpt>
			 <trkpt lat="51.5024" lon="-0.02587">
				 <ele>4.6</ele>
			 </trkpt>
			 <trkpt lat="51.50158" lon="-0.02594">
				 <ele>4.4</ele>
			 </trkpt>
			 <trkpt lat="51.50093" lon="-0.02603">
				 <ele>4.1</ele>
			 </trkpt>
			 <trkpt lat="51.500415" lon="-0.02603">
				 <ele>3.8</ele>
			 </trkpt>
			 <trkpt lat="51.4999" lon="-0.02603">
				 <ele>3.5</ele>
			 </trkpt>
			 <trkpt lat="51.499285" lon="-0.025975">
				 <ele>3.3</ele>
			 </trkpt>
			 <trkpt lat="51.49867" lon="-0.02592">
				 <ele>3</ele>
			 </trkpt>
			 <trkpt lat="51.49817" lon="-0.0259">
				 <ele>2.9</ele>
			 </trkpt>
			 <trkpt lat="51.49777" lon="-0.02585">
				 <ele>2.9</ele>
			 </trkpt>
			 <trkpt lat="51.49729" lon="-0.02582">
				 <ele>3</ele>
			 </trkpt>
			 <trkpt lat="51.49681" lon="-0.02579">
				 <ele>3.1</ele>
			 </trkpt>
			 <trkpt lat="51.495955" lon="-0.025695">
				 <ele>3.3</ele>
			 </trkpt>
			 <trkpt lat="51.4951" lon="-0.0256">
				 <ele>3.5</ele>
			 </trkpt>
			 <trkpt lat="51.49504" lon="-0.02558">
				 <ele>3.5</ele>
			 </trkpt>
			 <trkpt lat="51.49457" lon="-0.02503">
				 <ele>3.5</ele>
			 </trkpt>
			 <trkpt lat="51.49448" lon="-0.02498">
				 <ele>3.4</ele>
			 </trkpt>
			 <trkpt lat="51.49437" lon="-0.02493">
				 <ele>3.3</ele>
			 </trkpt>
			 <trkpt lat="51.49369" lon="-0.02488">
				 <ele>3.3</ele>
			 </trkpt>
			 <trkpt lat="51.49289" lon="-0.0249">
				 <ele>3.2</ele>
			 </trkpt>
			 <trkpt lat="51.49281" lon="-0.02489">
				 <ele>3.1</ele>
			 </trkpt>
			 <trkpt lat="51.49239" lon="-0.02468">
				 <ele>2.9</ele>
			 </trkpt>
			 <trkpt lat="51.49204" lon="-0.02446">
				 <ele>2.7</ele>
			 </trkpt>
			 <trkpt lat="51.49162" lon="-0.02416">
				 <ele>2.5</ele>
			 </trkpt>
			 <trkpt lat="51.49127" lon="-0.02385">
				 <ele>2.2</ele>
			 </trkpt>
			 <trkpt lat="51.490875" lon="-0.02337">
				 <ele>2.2</ele>
			 </trkpt>
			 <trkpt lat="51.49048" lon="-0.02289">
				 <ele>2.2</ele>
			 </trkpt>
			 <trkpt lat="51.49007" lon="-0.02236">
				 <ele>2.3</ele>
			 </trkpt>
			 <trkpt lat="51.48965" lon="-0.02166">
				 <ele>2.4</ele>
			 </trkpt>
			 <trkpt lat="51.48948" lon="-0.02133">
				 <ele>2.5</ele>
			 </trkpt>
			 <trkpt lat="51.48917" lon="-0.020675">
				 <ele>2.5</ele>
			 </trkpt>
			 <trkpt lat="51.48886" lon="-0.02002">
				 <ele>2.6</ele>
			 </trkpt>
			 <trkpt lat="51.488455" lon="-0.01908">
				 <ele>2.7</ele>
			 </trkpt>
			 <trkpt lat="51.48805" lon="-0.01814">
				 <ele>2.8</ele>
			 </trkpt>
			 <trkpt lat="51.48775" lon="-0.01737">
				 <ele>2.9</ele>
			 </trkpt>
			 <trkpt lat="51.48757" lon="-0.01687">
				 <ele>2.9</ele>
			 </trkpt>
			 <trkpt lat="51.48737" lon="-0.01624">
				 <ele>2.8</ele>
			 </trkpt>
			 <trkpt lat="51.48728" lon="-0.01563">
				 <ele>2.7</ele>
			 </trkpt>
			 <trkpt lat="51.48721" lon="-0.01471">
				 <ele>2.6</ele>
			 </trkpt>
			 <trkpt lat="51.48722" lon="-0.0139">
				 <ele>2.5</ele>
			 </trkpt>
			 <trkpt lat="51.48727" lon="-0.01342">
				 <ele>2.5</ele>
			 </trkpt>
			 <trkpt lat="51.48761" lon="-0.01338">
				 <ele>2.4</ele>
			 </trkpt>
			 <trkpt lat="51.48828" lon="-0.01343">
				 <ele>2.4</ele>
			 </trkpt>
			 <trkpt lat="51.48852" lon="-0.01349">
				 <ele>2.4</ele>
			 </trkpt>
			 <trkpt lat="51.48883" lon="-0.01364">
				 <ele>2.5</ele>
			 </trkpt>
			 <trkpt lat="51.48933" lon="-0.01407">
				 <ele>2.6</ele>
			 </trkpt>
			 <trkpt lat="51.4895" lon="-0.01412">
				 <ele>2.9</ele>
			 </trkpt>
			 <trkpt lat="51.48977" lon="-0.01416">
				 <ele>3.2</ele>
			 </trkpt>
			 <trkpt lat="51.49002" lon="-0.01414">
				 <ele>3.5</ele>
			 </trkpt>
			 <trkpt lat="51.49023" lon="-0.01419">
				 <ele>3.6</ele>
			 </trkpt>
			 <trkpt lat="51.49056" lon="-0.01436">
				 <ele>3.8</ele>
			 </trkpt>
			 <trkpt lat="51.49078" lon="-0.01454">
				 <ele>4.2</ele>
			 </trkpt>
			 <trkpt lat="51.49101" lon="-0.01462">
				 <ele>4.5</ele>
			 </trkpt>
			 <trkpt lat="51.4911" lon="-0.01467">
				 <ele>4.8</ele>
			 </trkpt>
			 <trkpt lat="51.49152" lon="-0.01472">
				 <ele>4.8</ele>
			 </trkpt>
			 <trkpt lat="51.492" lon="-0.01467">
				 <ele>4.6</ele>
			 </trkpt>
			 <trkpt lat="51.49248" lon="-0.01462">
				 <ele>4.5</ele>
			 </trkpt>
			 <trkpt lat="51.493283" lon="-0.014488">
				 <ele>4.3</ele>
			 </trkpt>
			 <trkpt lat="51.494085" lon="-0.014355">
				 <ele>4.1</ele>
			 </trkpt>
			 <trkpt lat="51.494888" lon="-0.014223">
				 <ele>4</ele>
			 </trkpt>
			 <trkpt lat="51.49569" lon="-0.01409">
				 <ele>4</ele>
			 </trkpt>
			 <trkpt lat="51.49628" lon="-0.01415">
				 <ele>4.1</ele>
			 </trkpt>
			 <trkpt lat="51.49666" lon="-0.01411">
				 <ele>4</ele>
			 </trkpt>
			 <trkpt lat="51.49687" lon="-0.01405">
				 <ele>3.9</ele>
			 </trkpt>
			 <trkpt lat="51.49737" lon="-0.01382">
				 <ele>3.8</ele>
			 </trkpt>
			 <trkpt lat="51.49758" lon="-0.01377">
				 <ele>4.2</ele>
			 </trkpt>
			 <trkpt lat="51.49843" lon="-0.013635">
				 <ele>4.6</ele>
			 </trkpt>
			 <trkpt lat="51.49928" lon="-0.0135">
				 <ele>4.9</ele>
			 </trkpt>
			 <trkpt lat="51.49977" lon="-0.0137">
				 <ele>5.2</ele>
			 </trkpt>
			 <trkpt lat="51.49997" lon="-0.0146">
				 <ele>5.5</ele>
			 </trkpt>
			 <trkpt lat="51.5001" lon="-0.01574">
				 <ele>5.6</ele>
			 </trkpt>
			 <trkpt lat="51.50022" lon="-0.01688">
				 <ele>5.8</ele>
			 </trkpt>
			 <trkpt lat="51.50034" lon="-0.01802">
				 <ele>5.9</ele>
			 </trkpt>
			 <trkpt lat="51.50046" lon="-0.01916">
				 <ele>6</ele>
			 </trkpt>
			 <trkpt lat="51.50072" lon="-0.0204">
				 <ele>6.1</ele>
			 </trkpt>
			 <trkpt lat="51.50098" lon="-0.02164">
				 <ele>6.2</ele>
			 </trkpt>
			 <trkpt lat="51.50124" lon="-0.02299">
				 <ele>6.1</ele>
			 </trkpt>
			 <trkpt lat="51.50129" lon="-0.02315">
				 <ele>6</ele>
			 </trkpt>
			 <trkpt lat="51.50138" lon="-0.02338">
				 <ele>6</ele>
			 </trkpt>
			 <trkpt lat="51.50148" lon="-0.02355">
				 <ele>6</ele>
			 </trkpt>
			 <trkpt lat="51.502115" lon="-0.0243">
				 <ele>5.9</ele>
			 </trkpt>
			 <trkpt lat="51.50275" lon="-0.02505">
				 <ele>5.9</ele>
			 </trkpt>
			 <trkpt lat="51.50292" lon="-0.02513">
				 <ele>5.9</ele>
			 </trkpt>
			 <trkpt lat="51.50328" lon="-0.02521">
				 <ele>5.8</ele>
			 </trkpt>
			 <trkpt lat="51.50358" lon="-0.02524">
				 <ele>5.9</ele>
			 </trkpt>
			 <trkpt lat="51.50354" lon="-0.02524">
				 <ele>6</ele>
			 </trkpt>
			 <trkpt lat="51.50385" lon="-0.02518">
				 <ele>6.1</ele>
			 </trkpt>
			 <trkpt lat="51.50387" lon="-0.02508">
				 <ele>6.2</ele>
			 </trkpt>
			 <trkpt lat="51.50382" lon="-0.0246">
				 <ele>6.3</ele>
			 </trkpt>
			 <trkpt lat="51.50374" lon="-0.02378">
				 <ele>6.4</ele>
			 </trkpt>
			 <trkpt lat="51.5036" lon="-0.02258">
				 <ele>6.5</ele>
			 </trkpt>
			 <trkpt lat="51.5035" lon="-0.02124">
				 <ele>6.6</ele>
			 </trkpt>
			 <trkpt lat="51.50339" lon="-0.0204">
				 <ele>6.7</ele>
			 </trkpt>
			 <trkpt lat="51.50333" lon="-0.02007">
				 <ele>6.8</ele>
			 </trkpt>
			 <trkpt lat="51.50328" lon="-0.01996">
				 <ele>7.1</ele>
			 </trkpt>
			 <trkpt lat="51.50323" lon="-0.0199">
				 <ele>7.3</ele>
			 </trkpt>
			 <trkpt lat="51.50312" lon="-0.01992">
				 <ele>7.5</ele>
			 </trkpt>
			 <trkpt lat="51.50302" lon="-0.01986">
				 <ele>7.7</ele>
			 </trkpt>
			 <trkpt lat="51.50297" lon="-0.01958">
				 <ele>8</ele>
			 </trkpt>
			 <trkpt lat="51.5029" lon="-0.01888">
				 <ele>8.3</ele>
			 </trkpt>
			 <trkpt lat="51.50276" lon="-0.01765">
				 <ele>8.5</ele>
			 </trkpt>
			 <trkpt lat="51.50322" lon="-0.01747">
				 <ele>8.8</ele>
			 </trkpt>
			 <trkpt lat="51.50349" lon="-0.01743">
				 <ele>9.1</ele>
			 </trkpt>
			 <trkpt lat="51.50357" lon="-0.01737">
				 <ele>9.4</ele>
			 </trkpt>
			 <trkpt lat="51.50371" lon="-0.01735">
				 <ele>9.6</ele>
			 </trkpt>
			 <trkpt lat="51.50435" lon="-0.01717">
				 <ele>9.7</ele>
			 </trkpt>
			 <trkpt lat="51.50444" lon="-0.01803">
				 <ele>9.8</ele>
			 </trkpt>
			 <trkpt lat="51.50453" lon="-0.01889">
				 <ele>9.9</ele>
			 </trkpt>
			 <trkpt lat="51.50457" lon="-0.01964">
				 <ele>9.9</ele>
			 </trkpt>
			 <trkpt lat="51.50466" lon="-0.02015">
				 <ele>9.9</ele>
			 </trkpt>
			 <trkpt lat="51.50476" lon="-0.02107">
				 <ele>9.8</ele>
			 </trkpt>
			 <trkpt lat="51.50489" lon="-0.02219">
				 <ele>9.6</ele>
			 </trkpt>
			 <trkpt lat="51.50502" lon="-0.0223">
				 <ele>9.5</ele>
			 </trkpt>
			 <trkpt lat="51.50522" lon="-0.02224">
				 <ele>9.5</ele>
			 </trkpt>
			 <trkpt lat="51.50545" lon="-0.02222">
				 <ele>9.5</ele>
			 </trkpt>
			 <trkpt lat="51.50553" lon="-0.02194">
				 <ele>9.6</ele>
			 </trkpt>
			 <trkpt lat="51.50544" lon="-0.02088">
				 <ele>9.8</ele>
			 </trkpt>
			 <trkpt lat="51.50536" lon="-0.020135">
				 <ele>10</ele>
			 </trkpt>
			 <trkpt lat="51.50528" lon="-0.01939">
				 <ele>10.2</ele>
			 </trkpt>
			 <trkpt lat="51.50518" lon="-0.01853">
				 <ele>10.4</ele>
			 </trkpt>
			 <trkpt lat="51.50508" lon="-0.01767">
				 <ele>10.5</ele>
			 </trkpt>
			 <trkpt lat="51.50493" lon="-0.016295">
				 <ele>10.8</ele>
			 </trkpt>
			 <trkpt lat="51.50478" lon="-0.01492">
				 <ele>11.2</ele>
			 </trkpt>
			 <trkpt lat="51.50474" lon="-0.01468">
				 <ele>11.5</ele>
			 </trkpt>
			 <trkpt lat="51.50471" lon="-0.0146">
				 <ele>11.8</ele>
			 </trkpt>
			 <trkpt lat="51.50456" lon="-0.01441">
				 <ele>12.1</ele>
			 </trkpt>
			 <trkpt lat="51.50443" lon="-0.01428">
				 <ele>12.3</ele>
			 </trkpt>
			 <trkpt lat="51.50437" lon="-0.01413">
				 <ele>12.4</ele>
			 </trkpt>
			 <trkpt lat="51.50427" lon="-0.01331">
				 <ele>12.2</ele>
			 </trkpt>
			 <trkpt lat="51.50428" lon="-0.01305">
				 <ele>11.9</ele>
			 </trkpt>
			 <trkpt lat="51.50432" lon="-0.01288">
				 <ele>11.5</ele>
			 </trkpt>
			 <trkpt lat="51.50453" lon="-0.01252">
				 <ele>11.2</ele>
			 </trkpt>
			 <trkpt lat="51.50489" lon="-0.01196">
				 <ele>10.8</ele>
			 </trkpt>
			 <trkpt lat="51.50542" lon="-0.01126">
				 <ele>10.5</ele>
			 </trkpt>
			 <trkpt lat="51.50569" lon="-0.01096">
				 <ele>9.9</ele>
			 </trkpt>
			 <trkpt lat="51.50587" lon="-0.01081">
				 <ele>9.3</ele>
			 </trkpt>
			 <trkpt lat="51.50618" lon="-0.01064">
				 <ele>8.6</ele>
			 </trkpt>
			 <trkpt lat="51.5064" lon="-0.01059">
				 <ele>8</ele>
			 </trkpt>
			 <trkpt lat="51.50656" lon="-0.01059">
				 <ele>7.5</ele>
			 </trkpt>
			 <trkpt lat="51.50667" lon="-0.01063">
				 <ele>7.1</ele>
			 </trkpt>
			 <trkpt lat="51.50676" lon="-0.0107">
				 <ele>6.9</ele>
			 </trkpt>
			 <trkpt lat="51.50684" lon="-0.01071">
				 <ele>6.7</ele>
			 </trkpt>
			 <trkpt lat="51.50692" lon="-0.01064">
				 <ele>6.5</ele>
			 </trkpt>
			 <trkpt lat="51.50694" lon="-0.01047">
				 <ele>6.2</ele>
			 </trkpt>
			 <trkpt lat="51.5069" lon="-0.01034">
				 <ele>5.8</ele>
			 </trkpt>
			 <trkpt lat="51.50681" lon="-0.00966">
				 <ele>5.5</ele>
			 </trkpt>
			 <trkpt lat="51.50679" lon="-0.00942">
				 <ele>5.4</ele>
			 </trkpt>
			 <trkpt lat="51.5068" lon="-0.00907">
				 <ele>5.2</ele>
			 </trkpt>
			 <trkpt lat="51.50682" lon="-0.00893">
				 <ele>5.1</ele>
			 </trkpt>
			 <trkpt lat="51.50687" lon="-0.00885">
				 <ele>5</ele>
			 </trkpt>
			 <trkpt lat="51.50691" lon="-0.00878">
				 <ele>4.9</ele>
			 </trkpt>
			 <trkpt lat="51.50704" lon="-0.00869">
				 <ele>4.7</ele>
			 </trkpt>
			 <trkpt lat="51.50716" lon="-0.0087">
				 <ele>4.7</ele>
			 </trkpt>
			 <trkpt lat="51.50732" lon="-0.00893">
				 <ele>4.6</ele>
			 </trkpt>
			 <trkpt lat="51.50738" lon="-0.00897">
				 <ele>4.5</ele>
			 </trkpt>
			 <trkpt lat="51.50748" lon="-0.00901">
				 <ele>4.6</ele>
			 </trkpt>
			 <trkpt lat="51.50765" lon="-0.00895">
				 <ele>4.8</ele>
			 </trkpt>
			 <trkpt lat="51.50783" lon="-0.00878">
				 <ele>5</ele>
			 </trkpt>
			 <trkpt lat="51.50825" lon="-0.00882">
				 <ele>5.3</ele>
			 </trkpt>
			 <trkpt lat="51.50879" lon="-0.0092">
				 <ele>5.4</ele>
			 </trkpt>
			 <trkpt lat="51.5088" lon="-0.00958">
				 <ele>5.5</ele>
			 </trkpt>
			 <trkpt lat="51.50875" lon="-0.01051">
				 <ele>5.5</ele>
			 </trkpt>
			 <trkpt lat="51.50881" lon="-0.0116">
				 <ele>5.7</ele>
			 </trkpt>
			 <trkpt lat="51.50887" lon="-0.01269">
				 <ele>5.8</ele>
			 </trkpt>
			 <trkpt lat="51.508875" lon="-0.013605">
				 <ele>5.9</ele>
			 </trkpt>
			 <trkpt lat="51.50888" lon="-0.01452">
				 <ele>5.9</ele>
			 </trkpt>
			 <trkpt lat="51.50892" lon="-0.0156">
				 <ele>5.8</ele>
			 </trkpt>
			 <trkpt lat="51.50893" lon="-0.0168">
				 <ele>5.6</ele>
			 </trkpt>
			 <trkpt lat="51.50896" lon="-0.01768">
				 <ele>5.5</ele>
			 </trkpt>
			 <trkpt lat="51.50909" lon="-0.01882">
				 <ele>5.2</ele>
			 </trkpt>
			 <trkpt lat="51.50922" lon="-0.0196">
				 <ele>5.1</ele>
			 </trkpt>
			 <trkpt lat="51.50927" lon="-0.02013">
				 <ele>5</ele>
			 </trkpt>
			 <trkpt lat="51.50934" lon="-0.02085">
				 <ele>4.9</ele>
			 </trkpt>
			 <trkpt lat="51.50935" lon="-0.02119">
				 <ele>4.7</ele>
			 </trkpt>
			 <trkpt lat="51.50937" lon="-0.02126">
				 <ele>4.5</ele>
			 </trkpt>
			 <trkpt lat="51.50926" lon="-0.02174">
				 <ele>4.4</ele>
			 </trkpt>
			 <trkpt lat="51.50922" lon="-0.02178">
				 <ele>4.4</ele>
			 </trkpt>
			 <trkpt lat="51.50917" lon="-0.022">
				 <ele>4.5</ele>
			 </trkpt>
			 <trkpt lat="51.50918" lon="-0.02218">
				 <ele>4.5</ele>
			 </trkpt>
			 <trkpt lat="51.50901" lon="-0.02328">
				 <ele>4.5</ele>
			 </trkpt>
			 <trkpt lat="51.50898" lon="-0.02355">
				 <ele>4.6</ele>
			 </trkpt>
			 <trkpt lat="51.50897" lon="-0.0241">
				 <ele>4.6</ele>
			 </trkpt>
			 <trkpt lat="51.50919" lon="-0.02476">
				 <ele>4.7</ele>
			 </trkpt>
			 <trkpt lat="51.50958" lon="-0.02538">
				 <ele>4.8</ele>
			 </trkpt>
			 <trkpt lat="51.50976" lon="-0.02594">
				 <ele>4.9</ele>
			 </trkpt>
			 <trkpt lat="51.510257" lon="-0.026567">
				 <ele>5.1</ele>
			 </trkpt>
			 <trkpt lat="51.510753" lon="-0.027193">
				 <ele>5.4</ele>
			 </trkpt>
			 <trkpt lat="51.51125" lon="-0.02782">
				 <ele>5.6</ele>
			 </trkpt>
			 <trkpt lat="51.51181" lon="-0.02871">
				 <ele>5.9</ele>
			 </trkpt>
			 <trkpt lat="51.51214" lon="-0.02932">
				 <ele>6.2</ele>
			 </trkpt>
			 <trkpt lat="51.51228" lon="-0.02962">
				 <ele>6.6</ele>
			 </trkpt>
			 <trkpt lat="51.51237" lon="-0.03012">
				 <ele>7.1</ele>
			 </trkpt>
			 <trkpt lat="51.51236" lon="-0.03066">
				 <ele>7.5</ele>
			 </trkpt>
			 <trkpt lat="51.51228" lon="-0.03145">
				 <ele>7.9</ele>
			 </trkpt>
			 <trkpt lat="51.51239" lon="-0.0326">
				 <ele>8.3</ele>
			 </trkpt>
			 <trkpt lat="51.512455" lon="-0.033875">
				 <ele>8.6</ele>
			 </trkpt>
			 <trkpt lat="51.51251" lon="-0.03515">
				 <ele>9</ele>
			 </trkpt>
			 <trkpt lat="51.51249" lon="-0.0354">
				 <ele>9.3</ele>
			 </trkpt>
			 <trkpt lat="51.51251" lon="-0.03577">
				 <ele>9.5</ele>
			 </trkpt>
			 <trkpt lat="51.51255" lon="-0.03587">
				 <ele>9.7</ele>
			 </trkpt>
			 <trkpt lat="51.512615" lon="-0.037195">
				 <ele>9.9</ele>
			 </trkpt>
			 <trkpt lat="51.51268" lon="-0.03852">
				 <ele>10</ele>
			 </trkpt>
			 <trkpt lat="51.51264" lon="-0.03869">
				 <ele>10</ele>
			 </trkpt>
			 <trkpt lat="51.51265" lon="-0.03878">
				 <ele>10</ele>
			 </trkpt>
			 <trkpt lat="51.5127" lon="-0.03894">
				 <ele>10</ele>
			 </trkpt>
			 <trkpt lat="51.51271" lon="-0.0391">
				 <ele>10</ele>
			 </trkpt>
			 <trkpt lat="51.51274" lon="-0.0397">
				 <ele>10</ele>
			 </trkpt>
			 <trkpt lat="51.51271" lon="-0.03982">
				 <ele>10</ele>
			 </trkpt>
			 <trkpt lat="51.51271" lon="-0.04003">
				 <ele>9.9</ele>
			 </trkpt>
			 <trkpt lat="51.51276" lon="-0.04018">
				 <ele>9.7</ele>
			 </trkpt>
			 <trkpt lat="51.51278" lon="-0.04082">
				 <ele>9.5</ele>
			 </trkpt>
			 <trkpt lat="51.51274" lon="-0.04122">
				 <ele>9.4</ele>
			 </trkpt>
			 <trkpt lat="51.51251" lon="-0.04149">
				 <ele>9.1</ele>
			 </trkpt>
			 <trkpt lat="51.51199" lon="-0.0418">
				 <ele>8.8</ele>
			 </trkpt>
			 <trkpt lat="51.51147" lon="-0.04211">
				 <ele>8.5</ele>
			 </trkpt>
			 <trkpt lat="51.51134" lon="-0.04216">
				 <ele>8.3</ele>
			 </trkpt>
			 <trkpt lat="51.51088" lon="-0.04218">
				 <ele>8.1</ele>
			 </trkpt>
			 <trkpt lat="51.51062" lon="-0.04229">
				 <ele>7.9</ele>
			 </trkpt>
			 <trkpt lat="51.51045" lon="-0.04301">
				 <ele>7.8</ele>
			 </trkpt>
			 <trkpt lat="51.51038" lon="-0.04384">
				 <ele>7.8</ele>
			 </trkpt>
			 <trkpt lat="51.5103" lon="-0.0448">
				 <ele>7.9</ele>
			 </trkpt>
			 <trkpt lat="51.51022" lon="-0.04576">
				 <ele>8.1</ele>
			 </trkpt>
			 <trkpt lat="51.51021" lon="-0.04587">
				 <ele>8.3</ele>
			 </trkpt>
			 <trkpt lat="51.51007" lon="-0.04641">
				 <ele>8.6</ele>
			 </trkpt>
			 <trkpt lat="51.50992" lon="-0.04696">
				 <ele>8.9</ele>
			 </trkpt>
			 <trkpt lat="51.50986" lon="-0.04729">
				 <ele>9.2</ele>
			 </trkpt>
			 <trkpt lat="51.50984" lon="-0.04771">
				 <ele>9.5</ele>
			 </trkpt>
			 <trkpt lat="51.5098" lon="-0.0482">
				 <ele>9.6</ele>
			 </trkpt>
			 <trkpt lat="51.5098" lon="-0.049105">
				 <ele>9.8</ele>
			 </trkpt>
			 <trkpt lat="51.5098" lon="-0.05001">
				 <ele>9.9</ele>
			 </trkpt>
			 <trkpt lat="51.50979" lon="-0.05049">
				 <ele>10.1</ele>
			 </trkpt>
			 <trkpt lat="51.50976" lon="-0.0506">
				 <ele>10.3</ele>
			 </trkpt>
			 <trkpt lat="51.50979" lon="-0.0509">
				 <ele>10.4</ele>
			 </trkpt>
			 <trkpt lat="51.50972" lon="-0.0521">
				 <ele>10.4</ele>
			 </trkpt>
			 <trkpt lat="51.50969" lon="-0.052835">
				 <ele>10.2</ele>
			 </trkpt>
			 <trkpt lat="51.50966" lon="-0.05357">
				 <ele>10.1</ele>
			 </trkpt>
			 <trkpt lat="51.50967" lon="-0.0541">
				 <ele>10</ele>
			 </trkpt>
			 <trkpt lat="51.50964" lon="-0.05423">
				 <ele>9.9</ele>
			 </trkpt>
			 <trkpt lat="51.50963" lon="-0.05509">
				 <ele>9.8</ele>
			 </trkpt>
			 <trkpt lat="51.50966" lon="-0.05573">
				 <ele>9.7</ele>
			 </trkpt>
			 <trkpt lat="51.50973" lon="-0.05664">
				 <ele>9.6</ele>
			 </trkpt>
			 <trkpt lat="51.50975" lon="-0.05695">
				 <ele>9.5</ele>
			 </trkpt>
			 <trkpt lat="51.50973" lon="-0.0571">
				 <ele>9.3</ele>
			 </trkpt>
			 <trkpt lat="51.50972" lon="-0.05762">
				 <ele>9.1</ele>
			 </trkpt>
			 <trkpt lat="51.50964" lon="-0.05867">
				 <ele>9</ele>
			 </trkpt>
			 <trkpt lat="51.5096" lon="-0.05878">
				 <ele>9.1</ele>
			 </trkpt>
			 <trkpt lat="51.50949" lon="-0.05993">
				 <ele>9.2</ele>
			 </trkpt>
			 <trkpt lat="51.50951" lon="-0.06004">
				 <ele>9.3</ele>
			 </trkpt>
			 <trkpt lat="51.50944" lon="-0.06067">
				 <ele>9.3</ele>
			 </trkpt>
			 <trkpt lat="51.50941" lon="-0.06079">
				 <ele>9.2</ele>
			 </trkpt>
			 <trkpt lat="51.50936" lon="-0.0619">
				 <ele>9</ele>
			 </trkpt>
			 <trkpt lat="51.50935" lon="-0.06281">
				 <ele>8.9</ele>
			 </trkpt>
			 <trkpt lat="51.50933" lon="-0.06299">
				 <ele>8.9</ele>
			 </trkpt>
			 <trkpt lat="51.50932" lon="-0.06383">
				 <ele>8.9</ele>
			 </trkpt>
			 <trkpt lat="51.50931" lon="-0.06467">
				 <ele>8.9</ele>
			 </trkpt>
			 <trkpt lat="51.50931" lon="-0.065">
				 <ele>8.8</ele>
			 </trkpt>
			 <trkpt lat="51.50936" lon="-0.06629">
				 <ele>8.7</ele>
			 </trkpt>
			 <trkpt lat="51.50923" lon="-0.06716">
				 <ele>8.6</ele>
			 </trkpt>
			 <trkpt lat="51.50908" lon="-0.06772">
				 <ele>8.5</ele>
			 </trkpt>
			 <trkpt lat="51.50886" lon="-0.068425">
				 <ele>8.5</ele>
			 </trkpt>
			 <trkpt lat="51.50864" lon="-0.06913">
				 <ele>8.5</ele>
			 </trkpt>
			 <trkpt lat="51.50851" lon="-0.06986">
				 <ele>8.9</ele>
			 </trkpt>
			 <trkpt lat="51.50835" lon="-0.07091">
				 <ele>9.2</ele>
			 </trkpt>
			 <trkpt lat="51.50833" lon="-0.07112">
				 <ele>9.5</ele>
			 </trkpt>
			 <trkpt lat="51.50836" lon="-0.0715">
				 <ele>9.7</ele>
			 </trkpt>
			 <trkpt lat="51.50846" lon="-0.07192">
				 <ele>10</ele>
			 </trkpt>
			 <trkpt lat="51.50875" lon="-0.07278">
				 <ele>10.4</ele>
			 </trkpt>
			 <trkpt lat="51.50898" lon="-0.07334">
				 <ele>10.5</ele>
			 </trkpt>
			 <trkpt lat="51.50928" lon="-0.07387">
				 <ele>10.8</ele>
			 </trkpt>
			 <trkpt lat="51.50958" lon="-0.0744">
				 <ele>11.3</ele>
			 </trkpt>
			 <trkpt lat="51.50977" lon="-0.07485">
				 <ele>11.6</ele>
			 </trkpt>
			 <trkpt lat="51.50976" lon="-0.07512">
				 <ele>12</ele>
			 </trkpt>
			 <trkpt lat="51.50971" lon="-0.07545">
				 <ele>12.3</ele>
			 </trkpt>
			 <trkpt lat="51.50957" lon="-0.07605">
				 <ele>12.5</ele>
			 </trkpt>
			 <trkpt lat="51.50949" lon="-0.07672">
				 <ele>12.5</ele>
			 </trkpt>
			 <trkpt lat="51.50943" lon="-0.07775">
				 <ele>12.6</ele>
			 </trkpt>
			 <trkpt lat="51.50943" lon="-0.07796">
				 <ele>12.5</ele>
			 </trkpt>
			 <trkpt lat="51.50955" lon="-0.07863">
				 <ele>12.4</ele>
			 </trkpt>
			 <trkpt lat="51.50961" lon="-0.07955">
				 <ele>12.2</ele>
			 </trkpt>
			 <trkpt lat="51.50958" lon="-0.07985">
				 <ele>11.9</ele>
			 </trkpt>
			 <trkpt lat="51.50951" lon="-0.08013">
				 <ele>11.5</ele>
			 </trkpt>
			 <trkpt lat="51.50927" lon="-0.08075">
				 <ele>11</ele>
			 </trkpt>
			 <trkpt lat="51.50913" lon="-0.08114">
				 <ele>10.5</ele>
			 </trkpt>
			 <trkpt lat="51.50908" lon="-0.08144">
				 <ele>9.9</ele>
			 </trkpt>
			 <trkpt lat="51.50906" lon="-0.08161">
				 <ele>9.4</ele>
			 </trkpt>
			 <trkpt lat="51.50904" lon="-0.08184">
				 <ele>8.9</ele>
			 </trkpt>
			 <trkpt lat="51.50901" lon="-0.08192">
				 <ele>8.5</ele>
			 </trkpt>
			 <trkpt lat="51.50904" lon="-0.08243">
				 <ele>8.1</ele>
			 </trkpt>
			 <trkpt lat="51.50917" lon="-0.0835">
				 <ele>7.8</ele>
			 </trkpt>
			 <trkpt lat="51.50929" lon="-0.084483">
				 <ele>7.6</ele>
			 </trkpt>
			 <trkpt lat="51.50941" lon="-0.085467">
				 <ele>7.4</ele>
			 </trkpt>
			 <trkpt lat="51.50953" lon="-0.08645">
				 <ele>7.3</ele>
			 </trkpt>
			 <trkpt lat="51.50969" lon="-0.08757">
				 <ele>7.1</ele>
			 </trkpt>
			 <trkpt lat="51.50973" lon="-0.08766">
				 <ele>6.9</ele>
			 </trkpt>
			 <trkpt lat="51.5098" lon="-0.08808">
				 <ele>7</ele>
			 </trkpt>
			 <trkpt lat="51.50999" lon="-0.08904">
				 <ele>7.1</ele>
			 </trkpt>
			 <trkpt lat="51.51027" lon="-0.08992">
				 <ele>7.1</ele>
			 </trkpt>
			 <trkpt lat="51.51048" lon="-0.09115">
				 <ele>7.1</ele>
			 </trkpt>
			 <trkpt lat="51.51055" lon="-0.09146">
				 <ele>7.2</ele>
			 </trkpt>
			 <trkpt lat="51.510695" lon="-0.09224">
				 <ele>7.1</ele>
			 </trkpt>
			 <trkpt lat="51.51084" lon="-0.09303">
				 <ele>7</ele>
			 </trkpt>
			 <trkpt lat="51.51085" lon="-0.09326">
				 <ele>6.9</ele>
			 </trkpt>
			 <trkpt lat="51.510965" lon="-0.094175">
				 <ele>7</ele>
			 </trkpt>
			 <trkpt lat="51.51108" lon="-0.09509">
				 <ele>6.9</ele>
			 </trkpt>
			 <trkpt lat="51.51111" lon="-0.09585">
				 <ele>6.8</ele>
			 </trkpt>
			 <trkpt lat="51.51115" lon="-0.09656">
				 <ele>6.5</ele>
			 </trkpt>
			 <trkpt lat="51.511155" lon="-0.09756">
				 <ele>6.2</ele>
			 </trkpt>
			 <trkpt lat="51.51116" lon="-0.09856">
				 <ele>5.7</ele>
			 </trkpt>
			 <trkpt lat="51.511155" lon="-0.09964">
				 <ele>5.4</ele>
			 </trkpt>
			 <trkpt lat="51.51115" lon="-0.10072">
				 <ele>5.1</ele>
			 </trkpt>
			 <trkpt lat="51.51096" lon="-0.10203">
				 <ele>4.9</ele>
			 </trkpt>
			 <trkpt lat="51.51097" lon="-0.103">
				 <ele>4.8</ele>
			 </trkpt>
			 <trkpt lat="51.51099" lon="-0.104345">
				 <ele>4.8</ele>
			 </trkpt>
			 <trkpt lat="51.51101" lon="-0.10569">
				 <ele>4.5</ele>
			 </trkpt>
			 <trkpt lat="51.51103" lon="-0.107035">
				 <ele>4.5</ele>
			 </trkpt>
			 <trkpt lat="51.51105" lon="-0.10838">
				 <ele>4.5</ele>
			 </trkpt>
			 <trkpt lat="51.51106" lon="-0.109555">
				 <ele>4.5</ele>
			 </trkpt>
			 <trkpt lat="51.51107" lon="-0.11073">
				 <ele>4.6</ele>
			 </trkpt>
			 <trkpt lat="51.51104" lon="-0.11203">
				 <ele>4.8</ele>
			 </trkpt>
			 <trkpt lat="51.510975" lon="-0.112745">
				 <ele>4.9</ele>
			 </trkpt>
			 <trkpt lat="51.51091" lon="-0.11346">
				 <ele>4.9</ele>
			 </trkpt>
			 <trkpt lat="51.510785" lon="-0.11428">
				 <ele>5</ele>
			 </trkpt>
			 <trkpt lat="51.51066" lon="-0.1151">
				 <ele>5.1</ele>
			 </trkpt>
			 <trkpt lat="51.51062" lon="-0.11521">
				 <ele>5.2</ele>
			 </trkpt>
			 <trkpt lat="51.51056" lon="-0.11554">
				 <ele>5.2</ele>
			 </trkpt>
			 <trkpt lat="51.51057" lon="-0.11566">
				 <ele>5.2</ele>
			 </trkpt>
			 <trkpt lat="51.51055" lon="-0.11572">
				 <ele>5.2</ele>
			 </trkpt>
			 <trkpt lat="51.51029" lon="-0.11686">
				 <ele>5.2</ele>
			 </trkpt>
			 <trkpt lat="51.50999" lon="-0.11787">
				 <ele>5.2</ele>
			 </trkpt>
			 <trkpt lat="51.50962" lon="-0.119">
				 <ele>5.2</ele>
			 </trkpt>
			 <trkpt lat="51.50959" lon="-0.11905">
				 <ele>5.2</ele>
			 </trkpt>
			 <trkpt lat="51.50955" lon="-0.11906">
				 <ele>5.2</ele>
			 </trkpt>
			 <trkpt lat="51.50911" lon="-0.11987">
				 <ele>5.2</ele>
			 </trkpt>
			 <trkpt lat="51.50861" lon="-0.12061">
				 <ele>5.1</ele>
			 </trkpt>
			 <trkpt lat="51.50819" lon="-0.12103">
				 <ele>5</ele>
			 </trkpt>
			 <trkpt lat="51.5077" lon="-0.12147">
				 <ele>5</ele>
			 </trkpt>
			 <trkpt lat="51.50719" lon="-0.12189">
				 <ele>5</ele>
			 </trkpt>
			 <trkpt lat="51.5069" lon="-0.12212">
				 <ele>5</ele>
			 </trkpt>
			 <trkpt lat="51.50646" lon="-0.12242">
				 <ele>5</ele>
			 </trkpt>
			 <trkpt lat="51.50626" lon="-0.12259">
				 <ele>5</ele>
			 </trkpt>
			 <trkpt lat="51.50604" lon="-0.12271">
				 <ele>5</ele>
			 </trkpt>
			 <trkpt lat="51.50581" lon="-0.12287">
				 <ele>5.1</ele>
			 </trkpt>
			 <trkpt lat="51.50514" lon="-0.12312">
				 <ele>5.3</ele>
			 </trkpt>
			 <trkpt lat="51.50465" lon="-0.12321">
				 <ele>5.5</ele>
			 </trkpt>
			 <trkpt lat="51.503885" lon="-0.12343">
				 <ele>5.6</ele>
			 </trkpt>
			 <trkpt lat="51.50312" lon="-0.12365">
				 <ele>5.9</ele>
			 </trkpt>
			 <trkpt lat="51.50249" lon="-0.12386">
				 <ele>6</ele>
			 </trkpt>
			 <trkpt lat="51.50169" lon="-0.12406">
				 <ele>6.1</ele>
			 </trkpt>
			 <trkpt lat="51.50149" lon="-0.12407">
				 <ele>6.1</ele>
			 </trkpt>
			 <trkpt lat="51.50145" lon="-0.12412">
				 <ele>6.1</ele>
			 </trkpt>
			 <trkpt lat="51.50109" lon="-0.1242">
				 <ele>6.1</ele>
			 </trkpt>
			 <trkpt lat="51.50104" lon="-0.12526">
				 <ele>6</ele>
			 </trkpt>
			 <trkpt lat="51.501065" lon="-0.12608">
				 <ele>5.7</ele>
			 </trkpt>
			 <trkpt lat="51.50109" lon="-0.12689">
				 <ele>5.4</ele>
			 </trkpt>
			 <trkpt lat="51.50117" lon="-0.127973">
				 <ele>5.1</ele>
			 </trkpt>
			 <trkpt lat="51.50125" lon="-0.129057">
				 <ele>4.8</ele>
			 </trkpt>
			 <trkpt lat="51.50133" lon="-0.13014">
				 <ele>4.5</ele>
			 </trkpt>
			 <trkpt lat="51.501193" lon="-0.131527">
				 <ele>4.4</ele>
			 </trkpt>
			 <trkpt lat="51.501057" lon="-0.132913">
				 <ele>4.3</ele>
			 </trkpt>
			 <trkpt lat="51.50092" lon="-0.1343">
				 <ele>4.2</ele>
			 </trkpt>
			 <trkpt lat="51.500803" lon="-0.13547">
				 <ele>4.2</ele>
			 </trkpt>
			 <trkpt lat="51.500685" lon="-0.13664">
				 <ele>4.2</ele>
			 </trkpt>
			 <trkpt lat="51.500568" lon="-0.13781">
				 <ele>4.3</ele>
			 </trkpt>
			 <trkpt lat="51.50045" lon="-0.13898">
				 <ele>4.5</ele>
			 </trkpt>
			 <trkpt lat="51.50103" lon="-0.13956">
				 <ele>4.8</ele>
			 </trkpt>
			 <trkpt lat="51.50146" lon="-0.14004">
				 <ele>5</ele>
			 </trkpt>
			 <trkpt lat="51.50153" lon="-0.14004">
				 <ele>5.2</ele>
			 </trkpt>
			 <trkpt lat="51.50163" lon="-0.13996">
				 <ele>5.4</ele>
			 </trkpt>
			 <trkpt lat="51.50174" lon="-0.13991">
				 <ele>5.5</ele>
			 </trkpt>
			 <trkpt lat="51.50187" lon="-0.13988">
				 <ele>5.5</ele>
			 </trkpt>
			 <trkpt lat="51.50196" lon="-0.13991">
				 <ele>5.7</ele>
			 </trkpt>
			 <trkpt lat="51.50201" lon="-0.13988">
				 <ele>5.8</ele>
			 </trkpt>
			 <trkpt lat="51.50206" lon="-0.13982">
				 <ele>5.9</ele>
			 </trkpt>
			 <trkpt lat="51.50207" lon="-0.13978">
				 <ele>6</ele>
			 </trkpt>
			 <trkpt lat="51.50238" lon="-0.13917">
				 <ele>6</ele>
			 </trkpt>
			 <trkpt lat="51.50265" lon="-0.1386">
				 <ele>6</ele>
			 </trkpt>
		 </trkseg>
	 </trk>
</gpx>