<?xml version="1.0" encoding="UTF-8"?>
 <gpx creator="Garmin Connect" version="1.1"
	 xsi:schemaLocation="http://www.topografix.com/GPX/1/1 http://www.topografix.com/GPX/11.xsd"
	 xmlns:ns3="http://www.garmin.com/xmlschemas/TrackPointExtension/v1"
	 xmlns="http://www.topografix.com/GPX/1/1"
	 xmlns:xsi="http://www.w3.org/2001/XMLSchema-instance" xmlns:ns2="http://www.garmin.com/xmlschemas/GpxExtensions/v3">
	 <metadata>
		<name>Singapore Marathon 2024 - 42.195 km</name>
		 <link href="https://www.goandrace.com">
		 <text>Garmin Connect</text>
		 </link>
	 <time>2026-08-23T23:24:10</time>
	 </metadata>
	 <trk>
		 <name>Singapore Marathon 2024 - 42.195 km</name>
		 <trkseg>
			 <trkpt lat="1.292701" lon="103.864015">
				 <ele>18</ele>
			 </trkpt>
			 <trkpt lat="1.294135" lon="103.863812">
				 <ele>18.4</ele>
			 </trkpt>
			 <trkpt lat="1.294279" lon="103.863644">
				 <ele>18.1</ele>
			 </trkpt>
			 <trkpt lat="1.294353" lon="103.863468">
				 <ele>17.8</ele>
			 </trkpt>
			 <trkpt lat="1.294407" lon="103.863201">
				 <ele>17.9</ele>
			 </trkpt>
			 <trkpt lat="1.294479" lon="103.863085">
				 <ele>17.9</ele>
			 </trkpt>
			 <trkpt lat="1.294753" lon="103.862873">
				 <ele>18.4</ele>
			 </trkpt>
			 <trkpt lat="1.295003" lon="103.862481">
				 <ele>18.5</ele>
			 </trkpt>
			 <trkpt lat="1.2953" lon="103.8625">
				 <ele>18.4</ele>
			 </trkpt>
			 <trkpt lat="1.2959" lon="103.86257">
				 <ele>17.9</ele>
			 </trkpt>
			 <trkpt lat="1.29735" lon="103.86275">
				 <ele>17</ele>
			 </trkpt>
			 <trkpt lat="1.29754" lon="103.86278">
				 <ele>16.3</ele>
			 </trkpt>
			 <trkpt lat="1.29822" lon="103.8629">
				 <ele>16.3</ele>
			 </trkpt>
			 <trkpt lat="1.29859" lon="103.86296">
				 <ele>16.8</ele>
			 </trkpt>
			 <trkpt lat="1.29891" lon="103.86306">
				 <ele>17.1</ele>
			 </trkpt>
			 <trkpt lat="1.2991" lon="103.86313">
				 <ele>16.4</ele>
			 </trkpt>
			 <trkpt lat="1.29943" lon="103.86332">
				 <ele>15.8</ele>
			 </trkpt>
			 <trkpt lat="1.29964" lon="103.86349">
				 <ele>15.3</ele>
			 </trkpt>
			 <trkpt lat="1.29978" lon="103.86364">
				 <ele>14.6</ele>
			 </trkpt>
			 <trkpt lat="1.29983" lon="103.86376">
				 <ele>14</ele>
			 </trkpt>
			 <trkpt lat="1.29998" lon="103.86414">
				 <ele>13.2</ele>
			 </trkpt>
			 <trkpt lat="1.30034" lon="103.86503">
				 <ele>12</ele>
			 </trkpt>
			 <trkpt lat="1.30059" lon="103.86552">
				 <ele>10.6</ele>
			 </trkpt>
			 <trkpt lat="1.30085" lon="103.86591">
				 <ele>8.9</ele>
			 </trkpt>
			 <trkpt lat="1.30107" lon="103.86618">
				 <ele>7.4</ele>
			 </trkpt>
			 <trkpt lat="1.30131" lon="103.86642">
				 <ele>6.3</ele>
			 </trkpt>
			 <trkpt lat="1.30168" lon="103.86673">
				 <ele>5.9</ele>
			 </trkpt>
			 <trkpt lat="1.30193" lon="103.86691">
				 <ele>5.2</ele>
			 </trkpt>
			 <trkpt lat="1.30226" lon="103.86708">
				 <ele>4.6</ele>
			 </trkpt>
			 <trkpt lat="1.30255" lon="103.86714">
				 <ele>4.5</ele>
			 </trkpt>
			 <trkpt lat="1.3028" lon="103.86712">
				 <ele>4.4</ele>
			 </trkpt>
			 <trkpt lat="1.30311" lon="103.86699">
				 <ele>4.4</ele>
			 </trkpt>
			 <trkpt lat="1.3038" lon="103.86653">
				 <ele>4.8</ele>
			 </trkpt>
			 <trkpt lat="1.30405" lon="103.86635">
				 <ele>5.3</ele>
			 </trkpt>
			 <trkpt lat="1.30408" lon="103.8662">
				 <ele>5.8</ele>
			 </trkpt>
			 <trkpt lat="1.30409" lon="103.86616">
				 <ele>6.6</ele>
			 </trkpt>
			 <trkpt lat="1.30409" lon="103.86605">
				 <ele>7.6</ele>
			 </trkpt>
			 <trkpt lat="1.30409" lon="103.86599">
				 <ele>8.6</ele>
			 </trkpt>
			 <trkpt lat="1.304068" lon="103.865959">
				 <ele>10</ele>
			 </trkpt>
			 <trkpt lat="1.303995" lon="103.865877">
				 <ele>11.4</ele>
			 </trkpt>
			 <trkpt lat="1.303734" lon="103.865569">
				 <ele>12.1</ele>
			 </trkpt>
			 <trkpt lat="1.303571" lon="103.865367">
				 <ele>13.5</ele>
			 </trkpt>
			 <trkpt lat="1.303524" lon="103.865309">
				 <ele>14.5</ele>
			 </trkpt>
			 <trkpt lat="1.303365" lon="103.865132">
				 <ele>15.2</ele>
			 </trkpt>
			 <trkpt lat="1.303274" lon="103.865014">
				 <ele>15.9</ele>
			 </trkpt>
			 <trkpt lat="1.302726" lon="103.864324">
				 <ele>16.7</ele>
			 </trkpt>
			 <trkpt lat="1.302396" lon="103.863836">
				 <ele>16.9</ele>
			 </trkpt>
			 <trkpt lat="1.302134" lon="103.863432">
				 <ele>16.9</ele>
			 </trkpt>
			 <trkpt lat="1.301903" lon="103.863067">
				 <ele>17.5</ele>
			 </trkpt>
			 <trkpt lat="1.30184" lon="103.862973">
				 <ele>18.6</ele>
			 </trkpt>
			 <trkpt lat="1.30172" lon="103.862787">
				 <ele>19.7</ele>
			 </trkpt>
			 <trkpt lat="1.30176" lon="103.862762">
				 <ele>21.2</ele>
			 </trkpt>
			 <trkpt lat="1.30174" lon="103.86273">
				 <ele>21.9</ele>
			 </trkpt>
			 <trkpt lat="1.30154" lon="103.86287">
				 <ele>22.7</ele>
			 </trkpt>
			 <trkpt lat="1.30134" lon="103.86301">
				 <ele>23.8</ele>
			 </trkpt>
			 <trkpt lat="1.30108" lon="103.86318">
				 <ele>24.7</ele>
			 </trkpt>
			 <trkpt lat="1.30101" lon="103.86326">
				 <ele>26</ele>
			 </trkpt>
			 <trkpt lat="1.30098" lon="103.86332">
				 <ele>27.2</ele>
			 </trkpt>
			 <trkpt lat="1.30096" lon="103.8634">
				 <ele>26.5</ele>
			 </trkpt>
			 <trkpt lat="1.30096" lon="103.86349">
				 <ele>24.9</ele>
			 </trkpt>
			 <trkpt lat="1.30128" lon="103.86393">
				 <ele>22.7</ele>
			 </trkpt>
			 <trkpt lat="1.3018" lon="103.86465">
				 <ele>20.5</ele>
			 </trkpt>
			 <trkpt lat="1.30184" lon="103.86471">
				 <ele>18.8</ele>
			 </trkpt>
			 <trkpt lat="1.30286" lon="103.86619">
				 <ele>17.2</ele>
			 </trkpt>
			 <trkpt lat="1.3032" lon="103.86667">
				 <ele>15.3</ele>
			 </trkpt>
			 <trkpt lat="1.30348" lon="103.86707">
				 <ele>13.5</ele>
			 </trkpt>
			 <trkpt lat="1.30429" lon="103.86834">
				 <ele>12</ele>
			 </trkpt>
			 <trkpt lat="1.30533" lon="103.86994">
				 <ele>9.9</ele>
			 </trkpt>
			 <trkpt lat="1.30636" lon="103.87154">
				 <ele>8.1</ele>
			 </trkpt>
			 <trkpt lat="1.30658" lon="103.87195">
				 <ele>7.9</ele>
			 </trkpt>
			 <trkpt lat="1.30672" lon="103.87232">
				 <ele>8.5</ele>
			 </trkpt>
			 <trkpt lat="1.30684" lon="103.87284">
				 <ele>8.7</ele>
			 </trkpt>
			 <trkpt lat="1.30689" lon="103.87356">
				 <ele>9.2</ele>
			 </trkpt>
			 <trkpt lat="1.3069" lon="103.8739">
				 <ele>9.4</ele>
			 </trkpt>
			 <trkpt lat="1.30697" lon="103.87488">
				 <ele>9.5</ele>
			 </trkpt>
			 <trkpt lat="1.30704" lon="103.8758">
				 <ele>9.9</ele>
			 </trkpt>
			 <trkpt lat="1.30712" lon="103.87614">
				 <ele>9.9</ele>
			 </trkpt>
			 <trkpt lat="1.30725" lon="103.87642">
				 <ele>9.6</ele>
			 </trkpt>
			 <trkpt lat="1.30737" lon="103.8766">
				 <ele>9.5</ele>
			 </trkpt>
			 <trkpt lat="1.30753" lon="103.87676">
				 <ele>9.7</ele>
			 </trkpt>
			 <trkpt lat="1.30774" lon="103.87697">
				 <ele>9.9</ele>
			 </trkpt>
			 <trkpt lat="1.30833" lon="103.8773">
				 <ele>9.8</ele>
			 </trkpt>
			 <trkpt lat="1.30828" lon="103.87753">
				 <ele>9.7</ele>
			 </trkpt>
			 <trkpt lat="1.30812" lon="103.87794">
				 <ele>9.5</ele>
			 </trkpt>
			 <trkpt lat="1.30789" lon="103.8785">
				 <ele>9.4</ele>
			 </trkpt>
			 <trkpt lat="1.30745" lon="103.87965">
				 <ele>9.1</ele>
			 </trkpt>
			 <trkpt lat="1.307" lon="103.88078">
				 <ele>8.9</ele>
			 </trkpt>
			 <trkpt lat="1.30691" lon="103.88096">
				 <ele>9.1</ele>
			 </trkpt>
			 <trkpt lat="1.30676" lon="103.88122">
				 <ele>9.3</ele>
			 </trkpt>
			 <trkpt lat="1.30647" lon="103.88163">
				 <ele>9.4</ele>
			 </trkpt>
			 <trkpt lat="1.30601" lon="103.88229">
				 <ele>9.3</ele>
			 </trkpt>
			 <trkpt lat="1.30571" lon="103.88172">
				 <ele>9.1</ele>
			 </trkpt>
			 <trkpt lat="1.3055" lon="103.88125">
				 <ele>8.7</ele>
			 </trkpt>
			 <trkpt lat="1.3054" lon="103.88098">
				 <ele>8.4</ele>
			 </trkpt>
			 <trkpt lat="1.30505" lon="103.88022">
				 <ele>8</ele>
			 </trkpt>
			 <trkpt lat="1.30431" lon="103.87866">
				 <ele>8</ele>
			 </trkpt>
			 <trkpt lat="1.3042" lon="103.87836">
				 <ele>7.5</ele>
			 </trkpt>
			 <trkpt lat="1.30428" lon="103.878027">
				 <ele>7.5</ele>
			 </trkpt>
			 <trkpt lat="1.304322" lon="103.87778">
				 <ele>7.5</ele>
			 </trkpt>
			 <trkpt lat="1.304623" lon="103.877361">
				 <ele>7.6</ele>
			 </trkpt>
			 <trkpt lat="1.305191" lon="103.876943">
				 <ele>8.1</ele>
			 </trkpt>
			 <trkpt lat="1.305792" lon="103.87675">
				 <ele>8.2</ele>
			 </trkpt>
			 <trkpt lat="1.306121" lon="103.876696">
				 <ele>8.1</ele>
			 </trkpt>
			 <trkpt lat="1.306363" lon="103.87646">
				 <ele>8.2</ele>
			 </trkpt>
			 <trkpt lat="1.306462" lon="103.876246">
				 <ele>8.4</ele>
			 </trkpt>
			 <trkpt lat="1.30642" lon="103.8754">
				 <ele>8.5</ele>
			 </trkpt>
			 <trkpt lat="1.30641" lon="103.87514">
				 <ele>8.1</ele>
			 </trkpt>
			 <trkpt lat="1.30643" lon="103.87455">
				 <ele>8.3</ele>
			 </trkpt>
			 <trkpt lat="1.30643" lon="103.87428">
				 <ele>8.2</ele>
			 </trkpt>
			 <trkpt lat="1.3064" lon="103.87328">
				 <ele>7.9</ele>
			 </trkpt>
			 <trkpt lat="1.30634" lon="103.87274">
				 <ele>7.6</ele>
			 </trkpt>
			 <trkpt lat="1.30626" lon="103.87247">
				 <ele>7.1</ele>
			 </trkpt>
			 <trkpt lat="1.3062" lon="103.87233">
				 <ele>7</ele>
			 </trkpt>
			 <trkpt lat="1.30605" lon="103.87212">
				 <ele>7.5</ele>
			 </trkpt>
			 <trkpt lat="1.30575" lon="103.87178">
				 <ele>7.5</ele>
			 </trkpt>
			 <trkpt lat="1.30569" lon="103.87172">
				 <ele>7.9</ele>
			 </trkpt>
			 <trkpt lat="1.305739" lon="103.871594">
				 <ele>7.9</ele>
			 </trkpt>
			 <trkpt lat="1.305769" lon="103.871337">
				 <ele>9.7</ele>
			 </trkpt>
			 <trkpt lat="1.305883" lon="103.871095">
				 <ele>11.3</ele>
			 </trkpt>
			 <trkpt lat="1.305663" lon="103.870736">
				 <ele>13.7</ele>
			 </trkpt>
			 <trkpt lat="1.30492" lon="103.86955">
				 <ele>16.1</ele>
			 </trkpt>
			 <trkpt lat="1.30311" lon="103.86675">
				 <ele>17.5</ele>
			 </trkpt>
			 <trkpt lat="1.30184" lon="103.86493">
				 <ele>19.5</ele>
			 </trkpt>
			 <trkpt lat="1.30117" lon="103.86403">
				 <ele>20.8</ele>
			 </trkpt>
			 <trkpt lat="1.30062" lon="103.86327">
				 <ele>21.8</ele>
			 </trkpt>
			 <trkpt lat="1.30034" lon="103.86291">
				 <ele>22.9</ele>
			 </trkpt>
			 <trkpt lat="1.29999" lon="103.86242">
				 <ele>23.5</ele>
			 </trkpt>
			 <trkpt lat="1.29958" lon="103.86183">
				 <ele>24.1</ele>
			 </trkpt>
			 <trkpt lat="1.29913" lon="103.86132">
				 <ele>23.1</ele>
			 </trkpt>
			 <trkpt lat="1.29897" lon="103.86114">
				 <ele>21.6</ele>
			 </trkpt>
			 <trkpt lat="1.29886" lon="103.86099">
				 <ele>18.5</ele>
			 </trkpt>
			 <trkpt lat="1.29873" lon="103.86075">
				 <ele>15.6</ele>
			 </trkpt>
			 <trkpt lat="1.29859" lon="103.86049">
				 <ele>13.8</ele>
			 </trkpt>
			 <trkpt lat="1.29839" lon="103.8602">
				 <ele>11</ele>
			 </trkpt>
			 <trkpt lat="1.29824" lon="103.86">
				 <ele>9</ele>
			 </trkpt>
			 <trkpt lat="1.29813" lon="103.85989">
				 <ele>7.5</ele>
			 </trkpt>
			 <trkpt lat="1.2979" lon="103.85974">
				 <ele>6.8</ele>
			 </trkpt>
			 <trkpt lat="1.2975" lon="103.85947">
				 <ele>6.9</ele>
			 </trkpt>
			 <trkpt lat="1.29735" lon="103.85935">
				 <ele>6.4</ele>
			 </trkpt>
			 <trkpt lat="1.29709" lon="103.85903">
				 <ele>5.7</ele>
			 </trkpt>
			 <trkpt lat="1.29683" lon="103.85865">
				 <ele>6.5</ele>
			 </trkpt>
			 <trkpt lat="1.29653" lon="103.85835">
				 <ele>8.1</ele>
			 </trkpt>
			 <trkpt lat="1.29606" lon="103.85793">
				 <ele>9.7</ele>
			 </trkpt>
			 <trkpt lat="1.29562" lon="103.85758">
				 <ele>11.5</ele>
			 </trkpt>
			 <trkpt lat="1.295681" lon="103.857257">
				 <ele>13.5</ele>
			 </trkpt>
			 <trkpt lat="1.295939" lon="103.856933">
				 <ele>15.3</ele>
			 </trkpt>
			 <trkpt lat="1.29596" lon="103.85695">
				 <ele>16.9</ele>
			 </trkpt>
			 <trkpt lat="1.29618" lon="103.85666">
				 <ele>18.2</ele>
			 </trkpt>
			 <trkpt lat="1.29628" lon="103.85651">
				 <ele>18.5</ele>
			 </trkpt>
			 <trkpt lat="1.29632" lon="103.85648">
				 <ele>19.7</ele>
			 </trkpt>
			 <trkpt lat="1.29639" lon="103.85644">
				 <ele>20.9</ele>
			 </trkpt>
			 <trkpt lat="1.29647" lon="103.85643">
				 <ele>20.8</ele>
			 </trkpt>
			 <trkpt lat="1.29668" lon="103.85659">
				 <ele>20.2</ele>
			 </trkpt>
			 <trkpt lat="1.29708" lon="103.8569">
				 <ele>19.2</ele>
			 </trkpt>
			 <trkpt lat="1.29733" lon="103.85712">
				 <ele>18.4</ele>
			 </trkpt>
			 <trkpt lat="1.29752" lon="103.85731">
				 <ele>17.5</ele>
			 </trkpt>
			 <trkpt lat="1.29784" lon="103.85762">
				 <ele>15.8</ele>
			 </trkpt>
			 <trkpt lat="1.29808" lon="103.85786">
				 <ele>14</ele>
			 </trkpt>
			 <trkpt lat="1.29821" lon="103.85799">
				 <ele>11.7</ele>
			 </trkpt>
			 <trkpt lat="1.29796" lon="103.85823">
				 <ele>10</ele>
			 </trkpt>
			 <trkpt lat="1.29787" lon="103.85831">
				 <ele>8.5</ele>
			 </trkpt>
			 <trkpt lat="1.29673" lon="103.8595">
				 <ele>7.1</ele>
			 </trkpt>
			 <trkpt lat="1.29663" lon="103.8596">
				 <ele>6.3</ele>
			 </trkpt>
			 <trkpt lat="1.29655" lon="103.85969">
				 <ele>6.3</ele>
			 </trkpt>
			 <trkpt lat="1.29648" lon="103.85971">
				 <ele>14.8</ele>
			 </trkpt>
			 <trkpt lat="1.29635" lon="103.85973">
				 <ele>24</ele>
			 </trkpt>
			 <trkpt lat="1.29626" lon="103.85972">
				 <ele>33.5</ele>
			 </trkpt>
			 <trkpt lat="1.29616" lon="103.85969">
				 <ele>43.6</ele>
			 </trkpt>
			 <trkpt lat="1.29599" lon="103.85961">
				 <ele>52.9</ele>
			 </trkpt>
			 <trkpt lat="1.29511" lon="103.8591">
				 <ele>62</ele>
			 </trkpt>
			 <trkpt lat="1.29497" lon="103.85924">
				 <ele>63.6</ele>
			 </trkpt>
			 <trkpt lat="1.29484" lon="103.85932">
				 <ele>64.5</ele>
			 </trkpt>
			 <trkpt lat="1.2947" lon="103.85934">
				 <ele>65.2</ele>
			 </trkpt>
			 <trkpt lat="1.29455" lon="103.8593">
				 <ele>65.9</ele>
			 </trkpt>
			 <trkpt lat="1.29446" lon="103.85941">
				 <ele>66.6</ele>
			 </trkpt>
			 <trkpt lat="1.29396" lon="103.86027">
				 <ele>59.2</ele>
			 </trkpt>
			 <trkpt lat="1.29375" lon="103.86061">
				 <ele>51</ele>
			 </trkpt>
			 <trkpt lat="1.29381" lon="103.86065">
				 <ele>42.4</ele>
			 </trkpt>
			 <trkpt lat="1.29377" lon="103.86069">
				 <ele>34.4</ele>
			 </trkpt>
			 <trkpt lat="1.29365" lon="103.86077">
				 <ele>28</ele>
			 </trkpt>
			 <trkpt lat="1.29358" lon="103.86082">
				 <ele>21.8</ele>
			 </trkpt>
			 <trkpt lat="1.29342" lon="103.86087">
				 <ele>23</ele>
			 </trkpt>
			 <trkpt lat="1.29315" lon="103.86091">
				 <ele>24.7</ele>
			 </trkpt>
			 <trkpt lat="1.29254" lon="103.86094">
				 <ele>26.5</ele>
			 </trkpt>
			 <trkpt lat="1.29186" lon="103.86097">
				 <ele>27.8</ele>
			 </trkpt>
			 <trkpt lat="1.29163" lon="103.86097">
				 <ele>27.5</ele>
			 </trkpt>
			 <trkpt lat="1.29159" lon="103.86101">
				 <ele>26.8</ele>
			 </trkpt>
			 <trkpt lat="1.29151" lon="103.86105">
				 <ele>26.1</ele>
			 </trkpt>
			 <trkpt lat="1.29136" lon="103.86112">
				 <ele>25.8</ele>
			 </trkpt>
			 <trkpt lat="1.29134" lon="103.86145">
				 <ele>25</ele>
			 </trkpt>
			 <trkpt lat="1.2913" lon="103.86218">
				 <ele>23.5</ele>
			 </trkpt>
			 <trkpt lat="1.29129" lon="103.86237">
				 <ele>22.5</ele>
			 </trkpt>
			 <trkpt lat="1.29131" lon="103.86251">
				 <ele>21.5</ele>
			 </trkpt>
			 <trkpt lat="1.29137" lon="103.86269">
				 <ele>20.1</ele>
			 </trkpt>
			 <trkpt lat="1.29146" lon="103.86278">
				 <ele>18.8</ele>
			 </trkpt>
			 <trkpt lat="1.29155" lon="103.86283">
				 <ele>18.4</ele>
			 </trkpt>
			 <trkpt lat="1.29175" lon="103.86288">
				 <ele>19</ele>
			 </trkpt>
			 <trkpt lat="1.2922" lon="103.86283">
				 <ele>19.4</ele>
			 </trkpt>
			 <trkpt lat="1.29257" lon="103.86275">
				 <ele>19.8</ele>
			 </trkpt>
			 <trkpt lat="1.29275" lon="103.8627">
				 <ele>19.5</ele>
			 </trkpt>
			 <trkpt lat="1.29331" lon="103.86248">
				 <ele>19.5</ele>
			 </trkpt>
			 <trkpt lat="1.29374" lon="103.86234">
				 <ele>19.6</ele>
			 </trkpt>
			 <trkpt lat="1.29404" lon="103.86232">
				 <ele>19.5</ele>
			 </trkpt>
			 <trkpt lat="1.29467" lon="103.86238">
				 <ele>19.1</ele>
			 </trkpt>
			 <trkpt lat="1.29531" lon="103.86245">
				 <ele>19.2</ele>
			 </trkpt>
			 <trkpt lat="1.29591" lon="103.86253">
				 <ele>19.4</ele>
			 </trkpt>
			 <trkpt lat="1.29669" lon="103.86264">
				 <ele>18.5</ele>
			 </trkpt>
			 <trkpt lat="1.29674" lon="103.8626">
				 <ele>17.6</ele>
			 </trkpt>
			 <trkpt lat="1.29684" lon="103.86254">
				 <ele>16.6</ele>
			 </trkpt>
			 <trkpt lat="1.29687" lon="103.86247">
				 <ele>15.7</ele>
			 </trkpt>
			 <trkpt lat="1.29685" lon="103.86234">
				 <ele>15.4</ele>
			 </trkpt>
			 <trkpt lat="1.29649" lon="103.86197">
				 <ele>14.8</ele>
			 </trkpt>
			 <trkpt lat="1.29639" lon="103.86191">
				 <ele>14.5</ele>
			 </trkpt>
			 <trkpt lat="1.29581" lon="103.8615">
				 <ele>14.2</ele>
			 </trkpt>
			 <trkpt lat="1.29565" lon="103.86143">
				 <ele>14.1</ele>
			 </trkpt>
			 <trkpt lat="1.29559" lon="103.86141">
				 <ele>14</ele>
			 </trkpt>
			 <trkpt lat="1.29549" lon="103.86143">
				 <ele>13.7</ele>
			 </trkpt>
			 <trkpt lat="1.29522" lon="103.86151">
				 <ele>14.2</ele>
			 </trkpt>
			 <trkpt lat="1.29507" lon="103.86158">
				 <ele>15.3</ele>
			 </trkpt>
			 <trkpt lat="1.294619" lon="103.861786">
				 <ele>16.9</ele>
			 </trkpt>
			 <trkpt lat="1.29464" lon="103.86181">
				 <ele>17.7</ele>
			 </trkpt>
			 <trkpt lat="1.29435" lon="103.86213">
				 <ele>17.9</ele>
			 </trkpt>
			 <trkpt lat="1.29421" lon="103.86236">
				 <ele>17.6</ele>
			 </trkpt>
			 <trkpt lat="1.29413" lon="103.86258">
				 <ele>16.1</ele>
			 </trkpt>
			 <trkpt lat="1.29404" lon="103.8629">
				 <ele>14.5</ele>
			 </trkpt>
			 <trkpt lat="1.29402" lon="103.86313">
				 <ele>12.7</ele>
			 </trkpt>
			 <trkpt lat="1.29404" lon="103.8634">
				 <ele>11.9</ele>
			 </trkpt>
			 <trkpt lat="1.29408" lon="103.86375">
				 <ele>11.1</ele>
			 </trkpt>
			 <trkpt lat="1.29416" lon="103.86441">
				 <ele>10.3</ele>
			 </trkpt>
			 <trkpt lat="1.29436" lon="103.86538">
				 <ele>9</ele>
			 </trkpt>
			 <trkpt lat="1.29434" lon="103.86559">
				 <ele>7.5</ele>
			 </trkpt>
			 <trkpt lat="1.2945" lon="103.86649">
				 <ele>6.8</ele>
			 </trkpt>
			 <trkpt lat="1.29496" lon="103.86901">
				 <ele>6.4</ele>
			 </trkpt>
			 <trkpt lat="1.29516" lon="103.87011">
				 <ele>6.5</ele>
			 </trkpt>
			 <trkpt lat="1.29517" lon="103.87018">
				 <ele>7.5</ele>
			 </trkpt>
			 <trkpt lat="1.29533" lon="103.87101">
				 <ele>8.5</ele>
			 </trkpt>
			 <trkpt lat="1.29537" lon="103.87136">
				 <ele>9.5</ele>
			 </trkpt>
			 <trkpt lat="1.29538" lon="103.87188">
				 <ele>9.5</ele>
			 </trkpt>
			 <trkpt lat="1.29544" lon="103.87391">
				 <ele>9.7</ele>
			 </trkpt>
			 <trkpt lat="1.29544" lon="103.87396">
				 <ele>9.7</ele>
			 </trkpt>
			 <trkpt lat="1.29547" lon="103.874">
				 <ele>9.7</ele>
			 </trkpt>
			 <trkpt lat="1.2955" lon="103.87408">
				 <ele>9.7</ele>
			 </trkpt>
			 <trkpt lat="1.29554" lon="103.87448">
				 <ele>9.6</ele>
			 </trkpt>
			 <trkpt lat="1.29562" lon="103.87522">
				 <ele>9.9</ele>
			 </trkpt>
			 <trkpt lat="1.29567" lon="103.87548">
				 <ele>9.8</ele>
			 </trkpt>
			 <trkpt lat="1.2957" lon="103.87558">
				 <ele>9.7</ele>
			 </trkpt>
			 <trkpt lat="1.29582" lon="103.8758">
				 <ele>9.6</ele>
			 </trkpt>
			 <trkpt lat="1.29599" lon="103.8761">
				 <ele>9.5</ele>
			 </trkpt>
			 <trkpt lat="1.29616" lon="103.87639">
				 <ele>9.2</ele>
			 </trkpt>
			 <trkpt lat="1.29626" lon="103.8766">
				 <ele>9.5</ele>
			 </trkpt>
			 <trkpt lat="1.29634" lon="103.87689">
				 <ele>9.8</ele>
			 </trkpt>
			 <trkpt lat="1.29636" lon="103.87719">
				 <ele>10.1</ele>
			 </trkpt>
			 <trkpt lat="1.29626" lon="103.87766">
				 <ele>10.3</ele>
			 </trkpt>
			 <trkpt lat="1.29603" lon="103.87842">
				 <ele>10.5</ele>
			 </trkpt>
			 <trkpt lat="1.29593" lon="103.87908">
				 <ele>10.4</ele>
			 </trkpt>
			 <trkpt lat="1.29593" lon="103.87945">
				 <ele>10</ele>
			 </trkpt>
			 <trkpt lat="1.29595" lon="103.88053">
				 <ele>9.8</ele>
			 </trkpt>
			 <trkpt lat="1.29593" lon="103.88104">
				 <ele>10.6</ele>
			 </trkpt>
			 <trkpt lat="1.29589" lon="103.8817">
				 <ele>10.7</ele>
			 </trkpt>
			 <trkpt lat="1.29588" lon="103.88204">
				 <ele>11</ele>
			 </trkpt>
			 <trkpt lat="1.2959" lon="103.88231">
				 <ele>10.7</ele>
			 </trkpt>
			 <trkpt lat="1.29598" lon="103.88337">
				 <ele>10.6</ele>
			 </trkpt>
			 <trkpt lat="1.29604" lon="103.88423">
				 <ele>10.8</ele>
			 </trkpt>
			 <trkpt lat="1.296" lon="103.88462">
				 <ele>10.8</ele>
			 </trkpt>
			 <trkpt lat="1.29596" lon="103.88481">
				 <ele>10.5</ele>
			 </trkpt>
			 <trkpt lat="1.29596" lon="103.88484">
				 <ele>10.9</ele>
			 </trkpt>
			 <trkpt lat="1.29555" lon="103.885989">
				 <ele>11.5</ele>
			 </trkpt>
			 <trkpt lat="1.295528" lon="103.886718">
				 <ele>11.2</ele>
			 </trkpt>
			 <trkpt lat="1.295505" lon="103.888024">
				 <ele>10.1</ele>
			 </trkpt>
			 <trkpt lat="1.295574" lon="103.888621">
				 <ele>9.8</ele>
			 </trkpt>
			 <trkpt lat="1.295542" lon="103.890274">
				 <ele>9.7</ele>
			 </trkpt>
			 <trkpt lat="1.29552" lon="103.892023">
				 <ele>9.8</ele>
			 </trkpt>
			 <trkpt lat="1.295542" lon="103.893042">
				 <ele>9.6</ele>
			 </trkpt>
			 <trkpt lat="1.295413" lon="103.89346">
				 <ele>9.3</ele>
			 </trkpt>
			 <trkpt lat="1.29538" lon="103.89346">
				 <ele>9.3</ele>
			 </trkpt>
			 <trkpt lat="1.29535" lon="103.89374">
				 <ele>9.4</ele>
			 </trkpt>
			 <trkpt lat="1.29533" lon="103.89386">
				 <ele>9.1</ele>
			 </trkpt>
			 <trkpt lat="1.29532" lon="103.894">
				 <ele>8.8</ele>
			 </trkpt>
			 <trkpt lat="1.29533" lon="103.89403">
				 <ele>9.1</ele>
			 </trkpt>
			 <trkpt lat="1.2953" lon="103.89407">
				 <ele>9.6</ele>
			 </trkpt>
			 <trkpt lat="1.29526" lon="103.89411">
				 <ele>9.9</ele>
			 </trkpt>
			 <trkpt lat="1.29525" lon="103.89423">
				 <ele>9.9</ele>
			 </trkpt>
			 <trkpt lat="1.2953" lon="103.8943">
				 <ele>10.4</ele>
			 </trkpt>
			 <trkpt lat="1.29535" lon="103.89435">
				 <ele>10.8</ele>
			 </trkpt>
			 <trkpt lat="1.29579" lon="103.89555">
				 <ele>11.3</ele>
			 </trkpt>
			 <trkpt lat="1.29591" lon="103.89589">
				 <ele>11.5</ele>
			 </trkpt>
			 <trkpt lat="1.29595" lon="103.89621">
				 <ele>11.7</ele>
			 </trkpt>
			 <trkpt lat="1.29599" lon="103.89729">
				 <ele>12</ele>
			 </trkpt>
			 <trkpt lat="1.29602" lon="103.89755">
				 <ele>12.2</ele>
			 </trkpt>
			 <trkpt lat="1.2961" lon="103.8978">
				 <ele>12.4</ele>
			 </trkpt>
			 <trkpt lat="1.29631" lon="103.89834">
				 <ele>11.9</ele>
			 </trkpt>
			 <trkpt lat="1.2964" lon="103.89849">
				 <ele>11.5</ele>
			 </trkpt>
			 <trkpt lat="1.29644" lon="103.89852">
				 <ele>11.3</ele>
			 </trkpt>
			 <trkpt lat="1.29649" lon="103.89854">
				 <ele>10.5</ele>
			 </trkpt>
			 <trkpt lat="1.29666" lon="103.89856">
				 <ele>10.1</ele>
			 </trkpt>
			 <trkpt lat="1.29701" lon="103.89852">
				 <ele>9.4</ele>
			 </trkpt>
			 <trkpt lat="1.29712" lon="103.89857">
				 <ele>9.1</ele>
			 </trkpt>
			 <trkpt lat="1.29718" lon="103.89866">
				 <ele>9.4</ele>
			 </trkpt>
			 <trkpt lat="1.29733" lon="103.89907">
				 <ele>9.4</ele>
			 </trkpt>
			 <trkpt lat="1.29807" lon="103.90102">
				 <ele>9.6</ele>
			 </trkpt>
			 <trkpt lat="1.29852" lon="103.90221">
				 <ele>10.4</ele>
			 </trkpt>
			 <trkpt lat="1.29897" lon="103.90342">
				 <ele>11.3</ele>
			 </trkpt>
			 <trkpt lat="1.29974" lon="103.90551">
				 <ele>12.2</ele>
			 </trkpt>
			 <trkpt lat="1.29994" lon="103.90616">
				 <ele>12.8</ele>
			 </trkpt>
			 <trkpt lat="1.30031" lon="103.90755">
				 <ele>13.4</ele>
			 </trkpt>
			 <trkpt lat="1.30047" lon="103.90821">
				 <ele>13.4</ele>
			 </trkpt>
			 <trkpt lat="1.30047" lon="103.90852">
				 <ele>13.5</ele>
			 </trkpt>
			 <trkpt lat="1.30044" lon="103.90869">
				 <ele>13.3</ele>
			 </trkpt>
			 <trkpt lat="1.29981" lon="103.9098">
				 <ele>12.7</ele>
			 </trkpt>
			 <trkpt lat="1.29978" lon="103.90994">
				 <ele>12.5</ele>
			 </trkpt>
			 <trkpt lat="1.29976" lon="103.91011">
				 <ele>12.4</ele>
			 </trkpt>
			 <trkpt lat="1.29978" lon="103.91031">
				 <ele>11.9</ele>
			 </trkpt>
			 <trkpt lat="1.29989" lon="103.91063">
				 <ele>11.4</ele>
			 </trkpt>
			 <trkpt lat="1.29998" lon="103.9108">
				 <ele>10.8</ele>
			 </trkpt>
			 <trkpt lat="1.30009" lon="103.91094">
				 <ele>10.6</ele>
			 </trkpt>
			 <trkpt lat="1.30026" lon="103.91112">
				 <ele>10.6</ele>
			 </trkpt>
			 <trkpt lat="1.30068" lon="103.91141">
				 <ele>10.7</ele>
			 </trkpt>
			 <trkpt lat="1.30091" lon="103.91154">
				 <ele>11</ele>
			 </trkpt>
			 <trkpt lat="1.30097" lon="103.91158">
				 <ele>11.5</ele>
			 </trkpt>
			 <trkpt lat="1.30125" lon="103.91176">
				 <ele>11.8</ele>
			 </trkpt>
			 <trkpt lat="1.30141" lon="103.9119">
				 <ele>12</ele>
			 </trkpt>
			 <trkpt lat="1.3015" lon="103.912">
				 <ele>11.6</ele>
			 </trkpt>
			 <trkpt lat="1.30169" lon="103.91233">
				 <ele>11.8</ele>
			 </trkpt>
			 <trkpt lat="1.30194" lon="103.91316">
				 <ele>11.8</ele>
			 </trkpt>
			 <trkpt lat="1.3021" lon="103.91381">
				 <ele>12</ele>
			 </trkpt>
			 <trkpt lat="1.30229" lon="103.9145">
				 <ele>12.5</ele>
			 </trkpt>
			 <trkpt lat="1.30283" lon="103.91646">
				 <ele>13</ele>
			 </trkpt>
			 <trkpt lat="1.30333" lon="103.91826">
				 <ele>13.5</ele>
			 </trkpt>
			 <trkpt lat="1.304743" lon="103.923143">
				 <ele>13.9</ele>
			 </trkpt>
			 <trkpt lat="1.305547" lon="103.926018">
				 <ele>13.8</ele>
			 </trkpt>
			 <trkpt lat="1.305814" lon="103.926696">
				 <ele>13.8</ele>
			 </trkpt>
			 <trkpt lat="1.306125" lon="103.927286">
				 <ele>13.8</ele>
			 </trkpt>
			 <trkpt lat="1.30604" lon="103.927308">
				 <ele>14.2</ele>
			 </trkpt>
			 <trkpt lat="1.305825" lon="103.926782">
				 <ele>13.9</ele>
			 </trkpt>
			 <trkpt lat="1.305503" lon="103.925913">
				 <ele>14</ele>
			 </trkpt>
			 <trkpt lat="1.30426" lon="103.921343">
				 <ele>14</ele>
			 </trkpt>
			 <trkpt lat="1.302471" lon="103.915118">
				 <ele>13.6</ele>
			 </trkpt>
			 <trkpt lat="1.30253" lon="103.91511">
				 <ele>13.2</ele>
			 </trkpt>
			 <trkpt lat="1.30236" lon="103.91448">
				 <ele>12.7</ele>
			 </trkpt>
			 <trkpt lat="1.30226" lon="103.91412">
				 <ele>12.3</ele>
			 </trkpt>
			 <trkpt lat="1.30192" lon="103.91286">
				 <ele>12.3</ele>
			 </trkpt>
			 <trkpt lat="1.30179" lon="103.91238">
				 <ele>12.2</ele>
			 </trkpt>
			 <trkpt lat="1.30166" lon="103.91212">
				 <ele>11.9</ele>
			 </trkpt>
			 <trkpt lat="1.30152" lon="103.91192">
				 <ele>11.5</ele>
			 </trkpt>
			 <trkpt lat="1.30131" lon="103.91172">
				 <ele>11.3</ele>
			 </trkpt>
			 <trkpt lat="1.30092" lon="103.91147">
				 <ele>11</ele>
			 </trkpt>
			 <trkpt lat="1.30037" lon="103.91112">
				 <ele>10.9</ele>
			 </trkpt>
			 <trkpt lat="1.3001" lon="103.91085">
				 <ele>10.9</ele>
			 </trkpt>
			 <trkpt lat="1.29999" lon="103.91066">
				 <ele>11</ele>
			 </trkpt>
			 <trkpt lat="1.29988" lon="103.91038">
				 <ele>11.4</ele>
			 </trkpt>
			 <trkpt lat="1.29983" lon="103.91019">
				 <ele>11.7</ele>
			 </trkpt>
			 <trkpt lat="1.29984" lon="103.91001">
				 <ele>12.2</ele>
			 </trkpt>
			 <trkpt lat="1.29992" lon="103.90974">
				 <ele>12.6</ele>
			 </trkpt>
			 <trkpt lat="1.30021" lon="103.90923">
				 <ele>13.1</ele>
			 </trkpt>
			 <trkpt lat="1.30051" lon="103.90868">
				 <ele>13.5</ele>
			 </trkpt>
			 <trkpt lat="1.30055" lon="103.90853">
				 <ele>14.1</ele>
			 </trkpt>
			 <trkpt lat="1.30054" lon="103.9082">
				 <ele>14.1</ele>
			 </trkpt>
			 <trkpt lat="1.30049" lon="103.90798">
				 <ele>13.8</ele>
			 </trkpt>
			 <trkpt lat="1.30043" lon="103.90773">
				 <ele>13.4</ele>
			 </trkpt>
			 <trkpt lat="1.29995" lon="103.90594">
				 <ele>13.2</ele>
			 </trkpt>
			 <trkpt lat="1.29973" lon="103.90528">
				 <ele>12.3</ele>
			 </trkpt>
			 <trkpt lat="1.2993" lon="103.9041">
				 <ele>11.5</ele>
			 </trkpt>
			 <trkpt lat="1.29918" lon="103.9038">
				 <ele>10.6</ele>
			 </trkpt>
			 <trkpt lat="1.29857" lon="103.90215">
				 <ele>9.9</ele>
			 </trkpt>
			 <trkpt lat="1.2978" lon="103.90011">
				 <ele>9.5</ele>
			 </trkpt>
			 <trkpt lat="1.29724" lon="103.89863">
				 <ele>9.4</ele>
			 </trkpt>
			 <trkpt lat="1.29717" lon="103.89851">
				 <ele>9.1</ele>
			 </trkpt>
			 <trkpt lat="1.29711" lon="103.89847">
				 <ele>9.3</ele>
			 </trkpt>
			 <trkpt lat="1.29701" lon="103.89845">
				 <ele>9.5</ele>
			 </trkpt>
			 <trkpt lat="1.29682" lon="103.89847">
				 <ele>10.2</ele>
			 </trkpt>
			 <trkpt lat="1.29666" lon="103.89849">
				 <ele>10.6</ele>
			 </trkpt>
			 <trkpt lat="1.29651" lon="103.89847">
				 <ele>11.5</ele>
			 </trkpt>
			 <trkpt lat="1.29648" lon="103.89845">
				 <ele>11.7</ele>
			 </trkpt>
			 <trkpt lat="1.29643" lon="103.8984">
				 <ele>11.8</ele>
			 </trkpt>
			 <trkpt lat="1.29625" lon="103.89799">
				 <ele>12.2</ele>
			 </trkpt>
			 <trkpt lat="1.29611" lon="103.89762">
				 <ele>11.8</ele>
			 </trkpt>
			 <trkpt lat="1.29606" lon="103.8973">
				 <ele>11.5</ele>
			 </trkpt>
			 <trkpt lat="1.29603" lon="103.89658">
				 <ele>11.3</ele>
			 </trkpt>
			 <trkpt lat="1.29601" lon="103.89604">
				 <ele>11</ele>
			 </trkpt>
			 <trkpt lat="1.29593" lon="103.89572">
				 <ele>10.8</ele>
			 </trkpt>
			 <trkpt lat="1.29567" lon="103.89501">
				 <ele>10.3</ele>
			 </trkpt>
			 <trkpt lat="1.29541" lon="103.8943">
				 <ele>9.7</ele>
			 </trkpt>
			 <trkpt lat="1.29537" lon="103.89428">
				 <ele>9.2</ele>
			 </trkpt>
			 <trkpt lat="1.29533" lon="103.89423">
				 <ele>9.1</ele>
			 </trkpt>
			 <trkpt lat="1.29532" lon="103.89416">
				 <ele>9</ele>
			 </trkpt>
			 <trkpt lat="1.29539" lon="103.89408">
				 <ele>8.5</ele>
			 </trkpt>
			 <trkpt lat="1.29533" lon="103.89403">
				 <ele>8.5</ele>
			 </trkpt>
			 <trkpt lat="1.2954" lon="103.89401">
				 <ele>8.4</ele>
			 </trkpt>
			 <trkpt lat="1.29539" lon="103.89393">
				 <ele>8.5</ele>
			 </trkpt>
			 <trkpt lat="1.29544" lon="103.89367">
				 <ele>9.1</ele>
			 </trkpt>
			 <trkpt lat="1.29546" lon="103.89353">
				 <ele>9.3</ele>
			 </trkpt>
			 <trkpt lat="1.29544" lon="103.89335">
				 <ele>9.5</ele>
			 </trkpt>
			 <trkpt lat="1.29537" lon="103.89301">
				 <ele>9.6</ele>
			 </trkpt>
			 <trkpt lat="1.29533" lon="103.89236">
				 <ele>9.8</ele>
			 </trkpt>
			 <trkpt lat="1.29533" lon="103.89156">
				 <ele>10</ele>
			 </trkpt>
			 <trkpt lat="1.29537" lon="103.8906">
				 <ele>10.5</ele>
			 </trkpt>
			 <trkpt lat="1.2954" lon="103.88992">
				 <ele>11</ele>
			 </trkpt>
			 <trkpt lat="1.2954" lon="103.88924">
				 <ele>11.4</ele>
			 </trkpt>
			 <trkpt lat="1.29536" lon="103.88866">
				 <ele>11.6</ele>
			 </trkpt>
			 <trkpt lat="1.29528" lon="103.88805">
				 <ele>11.5</ele>
			 </trkpt>
			 <trkpt lat="1.29515" lon="103.88691">
				 <ele>10.7</ele>
			 </trkpt>
			 <trkpt lat="1.29509" lon="103.88636">
				 <ele>10.3</ele>
			 </trkpt>
			 <trkpt lat="1.29505" lon="103.88607">
				 <ele>9.9</ele>
			 </trkpt>
			 <trkpt lat="1.29496" lon="103.88576">
				 <ele>9.5</ele>
			 </trkpt>
			 <trkpt lat="1.29493" lon="103.88558">
				 <ele>9.5</ele>
			 </trkpt>
			 <trkpt lat="1.29493" lon="103.88551">
				 <ele>9.5</ele>
			 </trkpt>
			 <trkpt lat="1.29499" lon="103.88542">
				 <ele>9.5</ele>
			 </trkpt>
			 <trkpt lat="1.2949" lon="103.88542">
				 <ele>9.5</ele>
			 </trkpt>
			 <trkpt lat="1.29452" lon="103.88543">
				 <ele>9.3</ele>
			 </trkpt>
			 <trkpt lat="1.2943" lon="103.88542">
				 <ele>9.2</ele>
			 </trkpt>
			 <trkpt lat="1.29402" lon="103.88538">
				 <ele>9.1</ele>
			 </trkpt>
			 <trkpt lat="1.29374" lon="103.88532">
				 <ele>9</ele>
			 </trkpt>
			 <trkpt lat="1.29332" lon="103.8852">
				 <ele>9</ele>
			 </trkpt>
			 <trkpt lat="1.29286" lon="103.88502">
				 <ele>9</ele>
			 </trkpt>
			 <trkpt lat="1.29288" lon="103.88495">
				 <ele>9.1</ele>
			 </trkpt>
			 <trkpt lat="1.29282" lon="103.88489">
				 <ele>8.8</ele>
			 </trkpt>
			 <trkpt lat="1.29273" lon="103.88481">
				 <ele>8.5</ele>
			 </trkpt>
			 <trkpt lat="1.29265" lon="103.8847">
				 <ele>7.8</ele>
			 </trkpt>
			 <trkpt lat="1.2926" lon="103.88458">
				 <ele>7.5</ele>
			 </trkpt>
			 <trkpt lat="1.29235" lon="103.88422">
				 <ele>7.6</ele>
			 </trkpt>
			 <trkpt lat="1.29144" lon="103.8828">
				 <ele>7.8</ele>
			 </trkpt>
			 <trkpt lat="1.28978" lon="103.88024">
				 <ele>8.1</ele>
			 </trkpt>
			 <trkpt lat="1.28868" lon="103.87859">
				 <ele>8.4</ele>
			 </trkpt>
			 <trkpt lat="1.28822" lon="103.87787">
				 <ele>8.6</ele>
			 </trkpt>
			 <trkpt lat="1.2878" lon="103.87722">
				 <ele>8.9</ele>
			 </trkpt>
			 <trkpt lat="1.2877" lon="103.87714">
				 <ele>8.8</ele>
			 </trkpt>
			 <trkpt lat="1.28759" lon="103.87709">
				 <ele>8.7</ele>
			 </trkpt>
			 <trkpt lat="1.28741" lon="103.87708">
				 <ele>8.6</ele>
			 </trkpt>
			 <trkpt lat="1.28729" lon="103.87711">
				 <ele>8.8</ele>
			 </trkpt>
			 <trkpt lat="1.28716" lon="103.8772">
				 <ele>8.8</ele>
			 </trkpt>
			 <trkpt lat="1.28687" lon="103.87744">
				 <ele>8.5</ele>
			 </trkpt>
			 <trkpt lat="1.28664" lon="103.87759">
				 <ele>8.3</ele>
			 </trkpt>
			 <trkpt lat="1.28633" lon="103.87775">
				 <ele>8.3</ele>
			 </trkpt>
			 <trkpt lat="1.286" lon="103.87787">
				 <ele>8.2</ele>
			 </trkpt>
			 <trkpt lat="1.28554" lon="103.87794">
				 <ele>7.9</ele>
			 </trkpt>
			 <trkpt lat="1.28504" lon="103.87795">
				 <ele>7.6</ele>
			 </trkpt>
			 <trkpt lat="1.28474" lon="103.8779">
				 <ele>7.5</ele>
			 </trkpt>
			 <trkpt lat="1.28446" lon="103.87783">
				 <ele>7.5</ele>
			 </trkpt>
			 <trkpt lat="1.28418" lon="103.87771">
				 <ele>7.5</ele>
			 </trkpt>
			 <trkpt lat="1.28384" lon="103.87753">
				 <ele>7.4</ele>
			 </trkpt>
			 <trkpt lat="1.28361" lon="103.87737">
				 <ele>6.8</ele>
			 </trkpt>
			 <trkpt lat="1.28339" lon="103.87716">
				 <ele>6.5</ele>
			 </trkpt>
			 <trkpt lat="1.2832" lon="103.87695">
				 <ele>5.8</ele>
			 </trkpt>
			 <trkpt lat="1.28291" lon="103.87657">
				 <ele>5</ele>
			 </trkpt>
			 <trkpt lat="1.28268" lon="103.87626">
				 <ele>4.3</ele>
			 </trkpt>
			 <trkpt lat="1.28244" lon="103.87592">
				 <ele>3.7</ele>
			 </trkpt>
			 <trkpt lat="1.28233" lon="103.87577">
				 <ele>3.1</ele>
			 </trkpt>
			 <trkpt lat="1.28219" lon="103.87582">
				 <ele>2.5</ele>
			 </trkpt>
			 <trkpt lat="1.28208" lon="103.87586">
				 <ele>2</ele>
			 </trkpt>
			 <trkpt lat="1.28193" lon="103.87586">
				 <ele>1.3</ele>
			 </trkpt>
			 <trkpt lat="1.28184" lon="103.87585">
				 <ele>0.7</ele>
			 </trkpt>
			 <trkpt lat="1.28173" lon="103.87588">
				 <ele>0.5</ele>
			 </trkpt>
			 <trkpt lat="1.28168" lon="103.87593">
				 <ele>0.4</ele>
			 </trkpt>
			 <trkpt lat="1.28167" lon="103.87598">
				 <ele>0.3</ele>
			 </trkpt>
			 <trkpt lat="1.28164" lon="103.87611">
				 <ele>0.2</ele>
			 </trkpt>
			 <trkpt lat="1.2816" lon="103.87615">
				 <ele>0.1</ele>
			 </trkpt>
			 <trkpt lat="1.28156" lon="103.87617">
				 <ele>0</ele>
			 </trkpt>
			 <trkpt lat="1.28147" lon="103.87616">
				 <ele>0</ele>
			 </trkpt>
			 <trkpt lat="1.28141" lon="103.87614">
				 <ele>0</ele>
			 </trkpt>
			 <trkpt lat="1.28135" lon="103.87608">
				 <ele>0</ele>
			 </trkpt>
			 <trkpt lat="1.28128" lon="103.87597">
				 <ele>0</ele>
			 </trkpt>
			 <trkpt lat="1.28117" lon="103.87588">
				 <ele>0</ele>
			 </trkpt>
			 <trkpt lat="1.28114" lon="103.87578">
				 <ele>0</ele>
			 </trkpt>
			 <trkpt lat="1.2812" lon="103.87569">
				 <ele>0</ele>
			 </trkpt>
			 <trkpt lat="1.28122" lon="103.87558">
				 <ele>0</ele>
			 </trkpt>
			 <trkpt lat="1.2812" lon="103.87552">
				 <ele>0</ele>
			 </trkpt>
			 <trkpt lat="1.28111" lon="103.87541">
				 <ele>0</ele>
			 </trkpt>
			 <trkpt lat="1.28116" lon="103.87536">
				 <ele>0</ele>
			 </trkpt>
			 <trkpt lat="1.28121" lon="103.8753">
				 <ele>0.1</ele>
			 </trkpt>
			 <trkpt lat="1.28142" lon="103.87498">
				 <ele>0.2</ele>
			 </trkpt>
			 <trkpt lat="1.28145" lon="103.87494">
				 <ele>0.4</ele>
			 </trkpt>
			 <trkpt lat="1.28163" lon="103.87473">
				 <ele>0.6</ele>
			 </trkpt>
			 <trkpt lat="1.28172" lon="103.87467">
				 <ele>1</ele>
			 </trkpt>
			 <trkpt lat="1.28175" lon="103.87462">
				 <ele>1.5</ele>
			 </trkpt>
			 <trkpt lat="1.28177" lon="103.87455">
				 <ele>1.9</ele>
			 </trkpt>
			 <trkpt lat="1.28189" lon="103.8745">
				 <ele>2.5</ele>
			 </trkpt>
			 <trkpt lat="1.28197" lon="103.8745">
				 <ele>2.9</ele>
			 </trkpt>
			 <trkpt lat="1.28206" lon="103.87446">
				 <ele>3.3</ele>
			 </trkpt>
			 <trkpt lat="1.28217" lon="103.87439">
				 <ele>3.5</ele>
			 </trkpt>
			 <trkpt lat="1.28222" lon="103.87431">
				 <ele>3.6</ele>
			 </trkpt>
			 <trkpt lat="1.28224" lon="103.87425">
				 <ele>3.7</ele>
			 </trkpt>
			 <trkpt lat="1.28215" lon="103.87422">
				 <ele>3.6</ele>
			 </trkpt>
			 <trkpt lat="1.28211" lon="103.87416">
				 <ele>3.4</ele>
			 </trkpt>
			 <trkpt lat="1.28208" lon="103.87408">
				 <ele>3</ele>
			 </trkpt>
			 <trkpt lat="1.28209" lon="103.87402">
				 <ele>2.5</ele>
			 </trkpt>
			 <trkpt lat="1.28215" lon="103.87391">
				 <ele>2.1</ele>
			 </trkpt>
			 <trkpt lat="1.28225" lon="103.87373">
				 <ele>1.5</ele>
			 </trkpt>
			 <trkpt lat="1.28196" lon="103.87332">
				 <ele>1.1</ele>
			 </trkpt>
			 <trkpt lat="1.28153" lon="103.87274">
				 <ele>0.7</ele>
			 </trkpt>
			 <trkpt lat="1.28078" lon="103.87173">
				 <ele>0.5</ele>
			 </trkpt>
			 <trkpt lat="1.28064" lon="103.87155">
				 <ele>0.3</ele>
			 </trkpt>
			 <trkpt lat="1.28054" lon="103.87142">
				 <ele>0.1</ele>
			 </trkpt>
			 <trkpt lat="1.28045" lon="103.87144">
				 <ele>0</ele>
			 </trkpt>
			 <trkpt lat="1.28028" lon="103.87144">
				 <ele>0.3</ele>
			 </trkpt>
			 <trkpt lat="1.28003" lon="103.87133">
				 <ele>1.2</ele>
			 </trkpt>
			 <trkpt lat="1.27994" lon="103.87125">
				 <ele>2.6</ele>
			 </trkpt>
			 <trkpt lat="1.27984" lon="103.87118">
				 <ele>4.5</ele>
			 </trkpt>
			 <trkpt lat="1.27978" lon="103.87109">
				 <ele>6.4</ele>
			 </trkpt>
			 <trkpt lat="1.27972" lon="103.87098">
				 <ele>8.3</ele>
			 </trkpt>
			 <trkpt lat="1.27966" lon="103.87075">
				 <ele>10.2</ele>
			 </trkpt>
			 <trkpt lat="1.27963" lon="103.87061">
				 <ele>11.4</ele>
			 </trkpt>
			 <trkpt lat="1.27949" lon="103.87049">
				 <ele>12.8</ele>
			 </trkpt>
			 <trkpt lat="1.27942" lon="103.87048">
				 <ele>13.8</ele>
			 </trkpt>
			 <trkpt lat="1.27928" lon="103.8704">
				 <ele>13.6</ele>
			 </trkpt>
			 <trkpt lat="1.27926" lon="103.87037">
				 <ele>12.5</ele>
			 </trkpt>
			 <trkpt lat="1.279551" lon="103.869784">
				 <ele>10.7</ele>
			 </trkpt>
			 <trkpt lat="1.279937" lon="103.869012">
				 <ele>9.2</ele>
			 </trkpt>
			 <trkpt lat="1.280178" lon="103.86847">
				 <ele>8.5</ele>
			 </trkpt>
			 <trkpt lat="1.280425" lon="103.867628">
				 <ele>7.3</ele>
			 </trkpt>
			 <trkpt lat="1.280462" lon="103.867429">
				 <ele>5.9</ele>
			 </trkpt>
			 <trkpt lat="1.28051" lon="103.86697">
				 <ele>4.5</ele>
			 </trkpt>
			 <trkpt lat="1.28051" lon="103.86662">
				 <ele>3.9</ele>
			 </trkpt>
			 <trkpt lat="1.2804" lon="103.86603">
				 <ele>3.4</ele>
			 </trkpt>
			 <trkpt lat="1.2802" lon="103.86554">
				 <ele>3.7</ele>
			 </trkpt>
			 <trkpt lat="1.28004" lon="103.86524">
				 <ele>5.5</ele>
			 </trkpt>
			 <trkpt lat="1.27986" lon="103.86496">
				 <ele>7.3</ele>
			 </trkpt>
			 <trkpt lat="1.27965" lon="103.86471">
				 <ele>9.6</ele>
			 </trkpt>
			 <trkpt lat="1.27944" lon="103.86449">
				 <ele>11.2</ele>
			 </trkpt>
			 <trkpt lat="1.27921" lon="103.8643">
				 <ele>11.4</ele>
			 </trkpt>
			 <trkpt lat="1.27878" lon="103.86402">
				 <ele>11.8</ele>
			 </trkpt>
			 <trkpt lat="1.27705" lon="103.86287">
				 <ele>12.2</ele>
			 </trkpt>
			 <trkpt lat="1.27622" lon="103.86235">
				 <ele>12.5</ele>
			 </trkpt>
			 <trkpt lat="1.27624" lon="103.86232">
				 <ele>16.9</ele>
			 </trkpt>
			 <trkpt lat="1.27583" lon="103.86206">
				 <ele>22.4</ele>
			 </trkpt>
			 <trkpt lat="1.277708" lon="103.858995">
				 <ele>27.6</ele>
			 </trkpt>
			 <trkpt lat="1.277977" lon="103.858513">
				 <ele>30</ele>
			 </trkpt>
			 <trkpt lat="1.280223" lon="103.854966">
				 <ele>33.1</ele>
			 </trkpt>
			 <trkpt lat="1.282545" lon="103.851323">
				 <ele>33.1</ele>
			 </trkpt>
			 <trkpt lat="1.281901" lon="103.850899">
				 <ele>33</ele>
			 </trkpt>
			 <trkpt lat="1.281472" lon="103.850561">
				 <ele>33.4</ele>
			 </trkpt>
			 <trkpt lat="1.281183" lon="103.850315">
				 <ele>33.6</ele>
			 </trkpt>
			 <trkpt lat="1.278743" lon="103.848797">
				 <ele>33.6</ele>
			 </trkpt>
			 <trkpt lat="1.277" lon="103.847718">
				 <ele>33.4</ele>
			 </trkpt>
			 <trkpt lat="1.276669" lon="103.847343">
				 <ele>30.1</ele>
			 </trkpt>
			 <trkpt lat="1.276367" lon="103.847016">
				 <ele>24.9</ele>
			 </trkpt>
			 <trkpt lat="1.273378" lon="103.844445">
				 <ele>19.8</ele>
			 </trkpt>
			 <trkpt lat="1.272563" lon="103.84367">
				 <ele>17.5</ele>
			 </trkpt>
			 <trkpt lat="1.27248" lon="103.8401">
				 <ele>15</ele>
			 </trkpt>
			 <trkpt lat="1.27235" lon="103.83611">
				 <ele>15.1</ele>
			 </trkpt>
			 <trkpt lat="1.27232" lon="103.83513">
				 <ele>14.9</ele>
			 </trkpt>
			 <trkpt lat="1.27228" lon="103.8334">
				 <ele>14.4</ele>
			 </trkpt>
			 <trkpt lat="1.27229" lon="103.83315">
				 <ele>14.4</ele>
			 </trkpt>
			 <trkpt lat="1.27227" lon="103.83307">
				 <ele>14.3</ele>
			 </trkpt>
			 <trkpt lat="1.27226" lon="103.83301">
				 <ele>15</ele>
			 </trkpt>
			 <trkpt lat="1.27225" lon="103.83229">
				 <ele>14.5</ele>
			 </trkpt>
			 <trkpt lat="1.27221" lon="103.83214">
				 <ele>14.4</ele>
			 </trkpt>
			 <trkpt lat="1.27205" lon="103.8319">
				 <ele>13</ele>
			 </trkpt>
			 <trkpt lat="1.2715" lon="103.8313">
				 <ele>12.3</ele>
			 </trkpt>
			 <trkpt lat="1.27078" lon="103.8305">
				 <ele>11.9</ele>
			 </trkpt>
			 <trkpt lat="1.27047" lon="103.83022">
				 <ele>10.9</ele>
			 </trkpt>
			 <trkpt lat="1.27031" lon="103.83004">
				 <ele>10.3</ele>
			 </trkpt>
			 <trkpt lat="1.26993" lon="103.82963">
				 <ele>9.5</ele>
			 </trkpt>
			 <trkpt lat="1.2691" lon="103.8287">
				 <ele>8.9</ele>
			 </trkpt>
			 <trkpt lat="1.26873" lon="103.82832">
				 <ele>8.9</ele>
			 </trkpt>
			 <trkpt lat="1.26768" lon="103.82727">
				 <ele>8</ele>
			 </trkpt>
			 <trkpt lat="1.26695" lon="103.8265">
				 <ele>7.1</ele>
			 </trkpt>
			 <trkpt lat="1.26675" lon="103.82627">
				 <ele>6.4</ele>
			 </trkpt>
			 <trkpt lat="1.2665" lon="103.82601">
				 <ele>6.8</ele>
			 </trkpt>
			 <trkpt lat="1.26627" lon="103.82573">
				 <ele>6.7</ele>
			 </trkpt>
			 <trkpt lat="1.26609" lon="103.82542">
				 <ele>6.5</ele>
			 </trkpt>
			 <trkpt lat="1.26604" lon="103.82534">
				 <ele>7.2</ele>
			 </trkpt>
			 <trkpt lat="1.26598" lon="103.82522">
				 <ele>7.2</ele>
			 </trkpt>
			 <trkpt lat="1.26588" lon="103.82493">
				 <ele>7.2</ele>
			 </trkpt>
			 <trkpt lat="1.26581" lon="103.82451">
				 <ele>7.2</ele>
			 </trkpt>
			 <trkpt lat="1.26578" lon="103.82394">
				 <ele>7.4</ele>
			 </trkpt>
			 <trkpt lat="1.2657" lon="103.82257">
				 <ele>7.6</ele>
			 </trkpt>
			 <trkpt lat="1.26565" lon="103.82162">
				 <ele>7.7</ele>
			 </trkpt>
			 <trkpt lat="1.2656" lon="103.82094">
				 <ele>8</ele>
			 </trkpt>
			 <trkpt lat="1.26562" lon="103.82045">
				 <ele>8.2</ele>
			 </trkpt>
			 <trkpt lat="1.26574" lon="103.8199">
				 <ele>8.3</ele>
			 </trkpt>
			 <trkpt lat="1.26589" lon="103.8195">
				 <ele>8.1</ele>
			 </trkpt>
			 <trkpt lat="1.26602" lon="103.81924">
				 <ele>7.2</ele>
			 </trkpt>
			 <trkpt lat="1.26637" lon="103.81868">
				 <ele>6.9</ele>
			 </trkpt>
			 <trkpt lat="1.26667" lon="103.81827">
				 <ele>7.1</ele>
			 </trkpt>
			 <trkpt lat="1.26727" lon="103.81736">
				 <ele>7.7</ele>
			 </trkpt>
			 <trkpt lat="1.26779" lon="103.81641">
				 <ele>7.7</ele>
			 </trkpt>
			 <trkpt lat="1.26823" lon="103.81558">
				 <ele>7.8</ele>
			 </trkpt>
			 <trkpt lat="1.26826" lon="103.81552">
				 <ele>8.6</ele>
			 </trkpt>
			 <trkpt lat="1.26878" lon="103.81455">
				 <ele>10.4</ele>
			 </trkpt>
			 <trkpt lat="1.2695" lon="103.81342">
				 <ele>11.5</ele>
			 </trkpt>
			 <trkpt lat="1.26989" lon="103.81283">
				 <ele>12.3</ele>
			 </trkpt>
			 <trkpt lat="1.27045" lon="103.81204">
				 <ele>12.8</ele>
			 </trkpt>
			 <trkpt lat="1.27062" lon="103.81172">
				 <ele>13.5</ele>
			 </trkpt>
			 <trkpt lat="1.27078" lon="103.8113">
				 <ele>14.1</ele>
			 </trkpt>
			 <trkpt lat="1.27084" lon="103.81107">
				 <ele>14.4</ele>
			 </trkpt>
			 <trkpt lat="1.27089" lon="103.81039">
				 <ele>14</ele>
			 </trkpt>
			 <trkpt lat="1.27093" lon="103.80979">
				 <ele>15.3</ele>
			 </trkpt>
			 <trkpt lat="1.27093" lon="103.80966">
				 <ele>16.8</ele>
			 </trkpt>
			 <trkpt lat="1.27096" lon="103.80936">
				 <ele>16.5</ele>
			 </trkpt>
			 <trkpt lat="1.27103" lon="103.80892">
				 <ele>15.2</ele>
			 </trkpt>
			 <trkpt lat="1.27107" lon="103.80869">
				 <ele>14.3</ele>
			 </trkpt>
			 <trkpt lat="1.27117" lon="103.80805">
				 <ele>14.2</ele>
			 </trkpt>
			 <trkpt lat="1.27128" lon="103.80745">
				 <ele>14.9</ele>
			 </trkpt>
			 <trkpt lat="1.27151" lon="103.80677">
				 <ele>15.8</ele>
			 </trkpt>
			 <trkpt lat="1.27172" lon="103.80623">
				 <ele>16.8</ele>
			 </trkpt>
			 <trkpt lat="1.27186" lon="103.80583">
				 <ele>17</ele>
			 </trkpt>
			 <trkpt lat="1.27223" lon="103.80487">
				 <ele>16.6</ele>
			 </trkpt>
			 <trkpt lat="1.27232" lon="103.80459">
				 <ele>15.1</ele>
			 </trkpt>
			 <trkpt lat="1.27242" lon="103.80425">
				 <ele>14.4</ele>
			 </trkpt>
			 <trkpt lat="1.27256" lon="103.8035">
				 <ele>15.3</ele>
			 </trkpt>
			 <trkpt lat="1.2726" lon="103.80274">
				 <ele>16.1</ele>
			 </trkpt>
			 <trkpt lat="1.27261" lon="103.80227">
				 <ele>17</ele>
			 </trkpt>
			 <trkpt lat="1.272735" lon="103.802257">
				 <ele>16.7</ele>
			 </trkpt>
			 <trkpt lat="1.2727" lon="103.80316">
				 <ele>15.6</ele>
			 </trkpt>
			 <trkpt lat="1.27263" lon="103.80381">
				 <ele>14.5</ele>
			 </trkpt>
			 <trkpt lat="1.27254" lon="103.80425">
				 <ele>14.3</ele>
			 </trkpt>
			 <trkpt lat="1.27242" lon="103.80465">
				 <ele>16.5</ele>
			 </trkpt>
			 <trkpt lat="1.27218" lon="103.80524">
				 <ele>18.4</ele>
			 </trkpt>
			 <trkpt lat="1.2719" lon="103.806">
				 <ele>18.6</ele>
			 </trkpt>
			 <trkpt lat="1.27162" lon="103.80666">
				 <ele>18.8</ele>
			 </trkpt>
			 <trkpt lat="1.2714" lon="103.80725">
				 <ele>19.3</ele>
			 </trkpt>
			 <trkpt lat="1.27127" lon="103.80782">
				 <ele>19.3</ele>
			 </trkpt>
			 <trkpt lat="1.27123" lon="103.80812">
				 <ele>18</ele>
			 </trkpt>
			 <trkpt lat="1.27106" lon="103.80921">
				 <ele>17.4</ele>
			 </trkpt>
			 <trkpt lat="1.27096" lon="103.81089">
				 <ele>17.1</ele>
			 </trkpt>
			 <trkpt lat="1.27091" lon="103.81127">
				 <ele>17.5</ele>
			 </trkpt>
			 <trkpt lat="1.27085" lon="103.81147">
				 <ele>17.1</ele>
			 </trkpt>
			 <trkpt lat="1.27068" lon="103.81186">
				 <ele>14.5</ele>
			 </trkpt>
			 <trkpt lat="1.27055" lon="103.8121">
				 <ele>12.8</ele>
			 </trkpt>
			 <trkpt lat="1.27015" lon="103.81269">
				 <ele>12.4</ele>
			 </trkpt>
			 <trkpt lat="1.26974" lon="103.81328">
				 <ele>11.1</ele>
			 </trkpt>
			 <trkpt lat="1.26925" lon="103.81403">
				 <ele>9.7</ele>
			 </trkpt>
			 <trkpt lat="1.26912" lon="103.81423">
				 <ele>8.9</ele>
			 </trkpt>
			 <trkpt lat="1.26889" lon="103.81462">
				 <ele>9.3</ele>
			 </trkpt>
			 <trkpt lat="1.26872" lon="103.81495">
				 <ele>9.4</ele>
			 </trkpt>
			 <trkpt lat="1.26836" lon="103.81567">
				 <ele>9.5</ele>
			 </trkpt>
			 <trkpt lat="1.26792" lon="103.81652">
				 <ele>8.9</ele>
			 </trkpt>
			 <trkpt lat="1.26733" lon="103.81753">
				 <ele>8.5</ele>
			 </trkpt>
			 <trkpt lat="1.26719" lon="103.81774">
				 <ele>8.5</ele>
			 </trkpt>
			 <trkpt lat="1.2668" lon="103.81829">
				 <ele>8.9</ele>
			 </trkpt>
			 <trkpt lat="1.26669" lon="103.81843">
				 <ele>9.3</ele>
			 </trkpt>
			 <trkpt lat="1.26634" lon="103.81896">
				 <ele>9.4</ele>
			 </trkpt>
			 <trkpt lat="1.26609" lon="103.81938">
				 <ele>8.9</ele>
			 </trkpt>
			 <trkpt lat="1.26598" lon="103.81959">
				 <ele>8.5</ele>
			 </trkpt>
			 <trkpt lat="1.26586" lon="103.8199">
				 <ele>9</ele>
			 </trkpt>
			 <trkpt lat="1.2658" lon="103.82017">
				 <ele>9.1</ele>
			 </trkpt>
			 <trkpt lat="1.26574" lon="103.82059">
				 <ele>9.1</ele>
			 </trkpt>
			 <trkpt lat="1.26573" lon="103.82108">
				 <ele>9.2</ele>
			 </trkpt>
			 <trkpt lat="1.26578" lon="103.82176">
				 <ele>9</ele>
			 </trkpt>
			 <trkpt lat="1.26583" lon="103.82283">
				 <ele>8.3</ele>
			 </trkpt>
			 <trkpt lat="1.26586" lon="103.8234">
				 <ele>7.8</ele>
			 </trkpt>
			 <trkpt lat="1.2659" lon="103.82406">
				 <ele>7.7</ele>
			 </trkpt>
			 <trkpt lat="1.26595" lon="103.82472">
				 <ele>7.6</ele>
			 </trkpt>
			 <trkpt lat="1.266" lon="103.82491">
				 <ele>7.7</ele>
			 </trkpt>
			 <trkpt lat="1.26611" lon="103.82526">
				 <ele>7.7</ele>
			 </trkpt>
			 <trkpt lat="1.2663" lon="103.82558">
				 <ele>6.8</ele>
			 </trkpt>
			 <trkpt lat="1.2664" lon="103.82572">
				 <ele>6.8</ele>
			 </trkpt>
			 <trkpt lat="1.26676" lon="103.82611">
				 <ele>7</ele>
			 </trkpt>
			 <trkpt lat="1.267" lon="103.82639">
				 <ele>6.8</ele>
			 </trkpt>
			 <trkpt lat="1.2673" lon="103.8267">
				 <ele>7.8</ele>
			 </trkpt>
			 <trkpt lat="1.2678" lon="103.82722">
				 <ele>8.5</ele>
			 </trkpt>
			 <trkpt lat="1.26837" lon="103.82778">
				 <ele>8.8</ele>
			 </trkpt>
			 <trkpt lat="1.26888" lon="103.82829">
				 <ele>9.2</ele>
			 </trkpt>
			 <trkpt lat="1.26981" lon="103.82926">
				 <ele>10.2</ele>
			 </trkpt>
			 <trkpt lat="1.27071" lon="103.83022">
				 <ele>10.8</ele>
			 </trkpt>
			 <trkpt lat="1.27114" lon="103.83069">
				 <ele>11.4</ele>
			 </trkpt>
			 <trkpt lat="1.27132" lon="103.83085">
				 <ele>12</ele>
			 </trkpt>
			 <trkpt lat="1.27175" lon="103.83129">
				 <ele>12.4</ele>
			 </trkpt>
			 <trkpt lat="1.27227" lon="103.83187">
				 <ele>13</ele>
			 </trkpt>
			 <trkpt lat="1.27245" lon="103.83207">
				 <ele>13.5</ele>
			 </trkpt>
			 <trkpt lat="1.27255" lon="103.83224">
				 <ele>13.4</ele>
			 </trkpt>
			 <trkpt lat="1.2726" lon="103.83236">
				 <ele>14.4</ele>
			 </trkpt>
			 <trkpt lat="1.27264" lon="103.83251">
				 <ele>14</ele>
			 </trkpt>
			 <trkpt lat="1.27265" lon="103.8328">
				 <ele>13.9</ele>
			 </trkpt>
			 <trkpt lat="1.27262" lon="103.83363">
				 <ele>14.1</ele>
			 </trkpt>
			 <trkpt lat="1.27254" lon="103.83454">
				 <ele>14.4</ele>
			 </trkpt>
			 <trkpt lat="1.272487" lon="103.83662">
				 <ele>14.5</ele>
			 </trkpt>
			 <trkpt lat="1.272626" lon="103.839957">
				 <ele>15.2</ele>
			 </trkpt>
			 <trkpt lat="1.272626" lon="103.843669">
				 <ele>17.7</ele>
			 </trkpt>
			 <trkpt lat="1.276144" lon="103.846785">
				 <ele>19.3</ele>
			 </trkpt>
			 <trkpt lat="1.276534" lon="103.847131">
				 <ele>21.7</ele>
			 </trkpt>
			 <trkpt lat="1.276807" lon="103.847459">
				 <ele>27</ele>
			 </trkpt>
			 <trkpt lat="1.277051" lon="103.847707">
				 <ele>29.9</ele>
			 </trkpt>
			 <trkpt lat="1.278655" lon="103.8487">
				 <ele>34.6</ele>
			 </trkpt>
			 <trkpt lat="1.280691" lon="103.849908">
				 <ele>39.1</ele>
			 </trkpt>
			 <trkpt lat="1.281117" lon="103.850217">
				 <ele>42</ele>
			 </trkpt>
			 <trkpt lat="1.281433" lon="103.850539">
				 <ele>44.5</ele>
			 </trkpt>
			 <trkpt lat="1.282483" lon="103.851214">
				 <ele>46.9</ele>
			 </trkpt>
			 <trkpt lat="1.2826" lon="103.85132">
				 <ele>49.3</ele>
			 </trkpt>
			 <trkpt lat="1.28265" lon="103.85136">
				 <ele>49.8</ele>
			 </trkpt>
			 <trkpt lat="1.28264" lon="103.85155">
				 <ele>51.3</ele>
			 </trkpt>
			 <trkpt lat="1.28266" lon="103.85172">
				 <ele>53.5</ele>
			 </trkpt>
			 <trkpt lat="1.28271" lon="103.85198">
				 <ele>49.6</ele>
			 </trkpt>
			 <trkpt lat="1.28283" lon="103.85219">
				 <ele>45.8</ele>
			 </trkpt>
			 <trkpt lat="1.28302" lon="103.8524">
				 <ele>41.5</ele>
			 </trkpt>
			 <trkpt lat="1.28319" lon="103.85252">
				 <ele>37</ele>
			 </trkpt>
			 <trkpt lat="1.28373" lon="103.8527">
				 <ele>33.5</ele>
			 </trkpt>
			 <trkpt lat="1.28444" lon="103.85292">
				 <ele>30.3</ele>
			 </trkpt>
			 <trkpt lat="1.28543" lon="103.8534">
				 <ele>27</ele>
			 </trkpt>
			 <trkpt lat="1.28597" lon="103.85361">
				 <ele>22.1</ele>
			 </trkpt>
			 <trkpt lat="1.28634" lon="103.85368">
				 <ele>19.5</ele>
			 </trkpt>
			 <trkpt lat="1.286624" lon="103.853556">
				 <ele>16</ele>
			 </trkpt>
			 <trkpt lat="1.286881" lon="103.853406">
				 <ele>10.3</ele>
			 </trkpt>
			 <trkpt lat="1.2871" lon="103.853285">
				 <ele>7.1</ele>
			 </trkpt>
			 <trkpt lat="1.287541" lon="103.852727">
				 <ele>6.5</ele>
			 </trkpt>
		 </trkseg>
	 </trk>
</gpx>